<?xml version="1.0" encoding="utf-8" ?>
<kml xmlns="http://www.opengis.net/kml/2.2">
<Document id="root_doc">
<Schema name="001b50ac" id="001b50ac">
	<SimpleField name="type" type="string"></SimpleField>
	<SimpleField name="view" type="string"></SimpleField>
	<SimpleField name="leveling_order" type="string"></SimpleField>
	<SimpleField name="leveling_height" type="string"></SimpleField>
	<SimpleField name="control_height" type="string"></SimpleField>
	<SimpleField name="benchmark_number" type="string"></SimpleField>
	<SimpleField name="control_location" type="string"></SimpleField>
	<SimpleField name="benchmark_type" type="string"></SimpleField>
	<SimpleField name="leveling_line_section" type="string"></SimpleField>
	<SimpleField name="location_description" type="string"></SimpleField>
	<SimpleField name="status" type="string"></SimpleField>
	<SimpleField name="guid" type="string"></SimpleField>
	<SimpleField name="kml" type="string"></SimpleField>
	<SimpleField name="kml_link" type="string"></SimpleField>
</Schema>
<Folder><name>001b50ac</name>
  <Placemark id="001b50ac.1">
	<name>2846</name>
	<description>грунт. реп.</description>
	<ExtendedData><SchemaData schemaUrl="#001b50ac">
		<SimpleData name="type">1</SimpleData>
		<SimpleData name="view">106.876</SimpleData>
		<SimpleData name="benchmark_number">160 оп. знак</SimpleData>
		<SimpleData name="control_location">Линия №1 : Аральск - Тактайконыр, I класс. Участок: грунт. реп. 9144 - грунт. реп. 8047</SimpleData>
		<SimpleData name="benchmark_type">Бекетай, лет., в 8.9 км к сев. от него, в 0.6 км к юго-зап. от буг. Мельдиколь, в 0.3 км к зап. от шоссе с. Ыргыз - гор. Аральск</SimpleData>
		<SimpleData name="location_description">001b50ac-761a-4ed3-a315-340159ffffcf</SimpleData>
		<SimpleData name="status">data/stations/001b50ac.kml</SimpleData>
		<SimpleData name="guid">&lt;a href='data/stations/001b50ac.kml' target='_blank'&gt;Download KML&lt;/a&gt;</SimpleData>
	</SchemaData></ExtendedData>
      <Point><coordinates>61.2885043335825,47.9317175552489</coordinates></Point>
  </Placemark>
</Folder>
</Document></kml>
