<?xml version="1.0" encoding="utf-8" ?>
<kml xmlns="http://www.opengis.net/kml/2.2">
<Document id="root_doc">
<Schema name="007c157d" id="007c157d">
	<SimpleField name="type" type="string"></SimpleField>
	<SimpleField name="view" type="string"></SimpleField>
	<SimpleField name="leveling_order" type="string"></SimpleField>
	<SimpleField name="leveling_height" type="string"></SimpleField>
	<SimpleField name="control_height" type="string"></SimpleField>
	<SimpleField name="benchmark_number" type="string"></SimpleField>
	<SimpleField name="control_location" type="string"></SimpleField>
	<SimpleField name="benchmark_type" type="string"></SimpleField>
	<SimpleField name="leveling_line_section" type="string"></SimpleField>
	<SimpleField name="location_description" type="string"></SimpleField>
	<SimpleField name="status" type="string"></SimpleField>
	<SimpleField name="guid" type="string"></SimpleField>
	<SimpleField name="kml" type="string"></SimpleField>
	<SimpleField name="kml_link" type="string"></SimpleField>
</Schema>
<Folder><name>007c157d</name>
  <Placemark id="007c157d.1">
	<name>1224</name>
	<description>грунт.реп</description>
	<ExtendedData><SchemaData schemaUrl="#007c157d">
		<SimpleData name="type">2</SimpleData>
		<SimpleData name="view">171,592</SimpleData>
		<SimpleData name="benchmark_number">121</SimpleData>
		<SimpleData name="control_location">Линия №3: Наурзум (Аксуат) - Жанатурмыс, 2 класс (3). Участок: грунт.реп. 4041 - грунт. реп. 493</SimpleData>
		<SimpleData name="benchmark_type">Курманбай, зим., в 3,0 км к зап. от нее, в 0,8 км к вост. от развилки дорог с.Шолаккопа - с.Буревестник - зим.Курмантай, на левом берегу р.Карасу</SimpleData>
		<SimpleData name="location_description">007c157d-e2cb-41ad-9fe1-f7687bb41377</SimpleData>
		<SimpleData name="status">data/stations/007c157d.kml</SimpleData>
		<SimpleData name="guid">&lt;a href='data/stations/007c157d.kml' target='_blank'&gt;Download KML&lt;/a&gt;</SimpleData>
	</SchemaData></ExtendedData>
      <Point><coordinates>64.0340892463375,51.3723076159343</coordinates></Point>
  </Placemark>
</Folder>
</Document></kml>
