<?xml version="1.0" encoding="utf-8" ?>
<kml xmlns="http://www.opengis.net/kml/2.2">
<Document id="root_doc">
<Schema name="00cea948" id="00cea948">
	<SimpleField name="type" type="string"></SimpleField>
	<SimpleField name="view" type="string"></SimpleField>
	<SimpleField name="leveling_order" type="string"></SimpleField>
	<SimpleField name="leveling_height" type="string"></SimpleField>
	<SimpleField name="control_height" type="string"></SimpleField>
	<SimpleField name="benchmark_number" type="string"></SimpleField>
	<SimpleField name="control_location" type="string"></SimpleField>
	<SimpleField name="benchmark_type" type="string"></SimpleField>
	<SimpleField name="leveling_line_section" type="string"></SimpleField>
	<SimpleField name="location_description" type="string"></SimpleField>
	<SimpleField name="status" type="string"></SimpleField>
	<SimpleField name="guid" type="string"></SimpleField>
	<SimpleField name="kml" type="string"></SimpleField>
	<SimpleField name="kml_link" type="string"></SimpleField>
</Schema>
<Folder><name>00cea948</name>
  <Placemark id="00cea948.1">
	<name>X</name>
	<name>грунтовый репер</name>
	<ExtendedData><SchemaData schemaUrl="#00cea948">
		<SimpleData name="type">2</SimpleData>
		<SimpleData name="view">260.069</SimpleData>
		<SimpleData name="benchmark_number">121</SimpleData>
		<SimpleData name="control_location">Линия №2: Нецветаевка-Каратал, II класс (2) Участок: грунт.реп. 86-ск.реп. XIX</SimpleData>
		<SimpleData name="benchmark_type">Бестобе, пос., в 6.0 км к сев.-зап. от него, в 9.0 км к юго-зап. от оз.Алкасор, в 1.1 км к сев.-вост. от дороги а.Сапак-пос.Бестобе</SimpleData>
		<SimpleData name="location_description">00cea948-23b1-48c4-a857-fd6b1dabb947</SimpleData>
		<SimpleData name="status">data/stations/00cea948.kml</SimpleData>
		<SimpleData name="guid">&lt;a href='data/stations/00cea948.kml' target='_blank'&gt;Download KML&lt;/a&gt;</SimpleData>
	</SchemaData></ExtendedData>
      <Point><coordinates>73.0185388098385,52.0408964622889</coordinates></Point>
  </Placemark>
</Folder>
</Document></kml>
