<?xml version="1.0" encoding="utf-8" ?>
<kml xmlns="http://www.opengis.net/kml/2.2">
<Document id="root_doc">
<Schema name="00eed600" id="00eed600">
	<SimpleField name="title" type="string"></SimpleField>
	<SimpleField name="type" type="string"></SimpleField>
	<SimpleField name="ext_sign" type="string"></SimpleField>
	<SimpleField name="class_lvl" type="string"></SimpleField>
	<SimpleField name="height_lvl" type="string"></SimpleField>
	<SimpleField name="height_ctrl" type="string"></SimpleField>
	<SimpleField name="ctrl_place" type="string"></SimpleField>
	<SimpleField name="mark_num" type="string"></SimpleField>
	<SimpleField name="center_type" type="string"></SimpleField>
	<SimpleField name="lvl_line" type="string"></SimpleField>
	<SimpleField name="guid" type="string"></SimpleField>
</Schema>
<Folder><name>00eed600</name>
  <Placemark id="00eed600.1">
	<name>1166</name>
	<description>грунтовый репер</description>
	<ExtendedData><SchemaData schemaUrl="#00eed600">
		<SimpleData name="type">1</SimpleData>
		<SimpleData name="ext_sign">-5,438</SimpleData>
		<SimpleData name="mark_num">Линия №1 Доссор -Сагиз, учасиок: Марка 4572- грунт. Реп. 3256</SimpleData>
		<SimpleData name="center_type">Жамансор , станц., в 8,8 км к сев-вост. от нее, в 87 м к сев-зап. от жел.-дор . полотна , на 8 пк345 км </SimpleData>
		<SimpleData name="lvl_line">00eed600-abc9-4fd4-9df5-8ff6d8448497</SimpleData>
	</SchemaData></ExtendedData>
      <Point><coordinates>53.9028841606882,47.8130227782975</coordinates></Point>
  </Placemark>
</Folder>
</Document></kml>
