<?xml version="1.0" encoding="utf-8" ?>
<kml xmlns="http://www.opengis.net/kml/2.2">
<Document id="root_doc">
<Schema name="01c1188b" id="01c1188b">
	<SimpleField name="title" type="string"></SimpleField>
	<SimpleField name="type" type="string"></SimpleField>
	<SimpleField name="ext_sign" type="string"></SimpleField>
	<SimpleField name="class_lvl" type="string"></SimpleField>
	<SimpleField name="height_lvl" type="string"></SimpleField>
	<SimpleField name="height_ctrl" type="string"></SimpleField>
	<SimpleField name="ctrl_place" type="string"></SimpleField>
	<SimpleField name="mark_num" type="string"></SimpleField>
	<SimpleField name="center_type" type="string"></SimpleField>
	<SimpleField name="lvl_line" type="string"></SimpleField>
	<SimpleField name="guid" type="string"></SimpleField>
</Schema>
<Folder><name>01c1188b</name>
  <Placemark id="01c1188b.1">
	<name>Зырат,</name>
	<description>пир.</description>
	<ExtendedData><SchemaData schemaUrl="#01c1188b">
		<SimpleData name="title">пир.</SimpleData>
		<SimpleData name="ctrl_place">8оп</SimpleData>
		<SimpleData name="mark_num">Линия № 1: Сарышаган - Актас II класс, Участок: триг.пункт. 5591 - ск.реп. 5471</SimpleData>
		<SimpleData name="lvl_line">01c1188b-662a-4448-87c4-6aae540e7bbc</SimpleData>
	</SchemaData></ExtendedData>
      <Point><coordinates>72.1006046710639,45.994715430212</coordinates></Point>
  </Placemark>
</Folder>
</Document></kml>
