<?xml version="1.0" encoding="utf-8" ?>
<kml xmlns="http://www.opengis.net/kml/2.2">
<Document id="root_doc">
<Schema name="01e4ca48" id="01e4ca48">
	<SimpleField name="title" type="string"></SimpleField>
	<SimpleField name="type" type="string"></SimpleField>
	<SimpleField name="ext_sign" type="string"></SimpleField>
	<SimpleField name="class_lvl" type="string"></SimpleField>
	<SimpleField name="height_lvl" type="string"></SimpleField>
	<SimpleField name="height_ctrl" type="string"></SimpleField>
	<SimpleField name="ctrl_place" type="string"></SimpleField>
	<SimpleField name="mark_num" type="string"></SimpleField>
	<SimpleField name="center_type" type="string"></SimpleField>
	<SimpleField name="lvl_line" type="string"></SimpleField>
	<SimpleField name="guid" type="string"></SimpleField>
</Schema>
<Folder><name>01e4ca48</name>
  <Placemark id="01e4ca48.1">
	<name>263</name>
	<description>грунтовый репер</description>
	<ExtendedData><SchemaData schemaUrl="#01e4ca48">
		<SimpleData name="type">1</SimpleData>
		<SimpleData name="ext_sign">129.674</SimpleData>
		<SimpleData name="class_lvl">128.677</SimpleData>
		<SimpleData name="height_lvl">контрольный репер в трубе</SimpleData>
		<SimpleData name="ctrl_place">107</SimpleData>
		<SimpleData name="mark_num">Линия 1 класса :Тактайконыр -Семиозёрное(фунд.реп.83 -фунд.реп.349)  Участок :фунд.реп.893 -пир.3 кл.Алгабас</SimpleData>
		<SimpleData name="center_type">Кайгы,с.,в 9.5 км к сев.от него,в 2.4 км к сев.-зап.от вдхр.,в 20 м к вост.от грунт.дороги с.Кайгы -с.Кожа(Новонаурызымский)</SimpleData>
		<SimpleData name="lvl_line">01e4ca48-6b9e-406b-b874-124befe83c9c</SimpleData>
	</SchemaData></ExtendedData>
      <Point><coordinates>64.6895158738017,51.029607652354</coordinates></Point>
  </Placemark>
</Folder>
</Document></kml>
