<?xml version="1.0" encoding="utf-8" ?>
<kml xmlns="http://www.opengis.net/kml/2.2">
<Document id="root_doc">
<Schema name="024a512c" id="024a512c">
	<SimpleField name="title" type="string"></SimpleField>
	<SimpleField name="type" type="string"></SimpleField>
	<SimpleField name="ext_sign" type="string"></SimpleField>
	<SimpleField name="class_lvl" type="string"></SimpleField>
	<SimpleField name="height_lvl" type="string"></SimpleField>
	<SimpleField name="height_ctrl" type="string"></SimpleField>
	<SimpleField name="ctrl_place" type="string"></SimpleField>
	<SimpleField name="mark_num" type="string"></SimpleField>
	<SimpleField name="center_type" type="string"></SimpleField>
	<SimpleField name="lvl_line" type="string"></SimpleField>
	<SimpleField name="guid" type="string"></SimpleField>
</Schema>
<Folder><name>024a512c</name>
  <Placemark id="024a512c.1">
	<name>4</name>
	<description>грунтовый репер</description>
	<ExtendedData><SchemaData schemaUrl="#024a512c">
		<SimpleData name="title">грунт.реп</SimpleData>
		<SimpleData name="type">II</SimpleData>
		<SimpleData name="ext_sign">344.328</SimpleData>
		<SimpleData name="mark_num">Ход от грунт.реп. 2144 до грунт.реп. 4. II класс (4. 10)</SimpleData>
		<SimpleData name="center_type">Родионовка, с., в 0.2 км к юго-зап. от него, в 70 м к сев.
от дороги с. Родионовка - с. Оразак</SimpleData>
		<SimpleData name="lvl_line">024a512c-db62-4087-bbd6-b226589d4798</SimpleData>
	</SchemaData></ExtendedData>
      <Point><coordinates>70.9125006516803,51.0397235444374</coordinates></Point>
  </Placemark>
</Folder>
</Document></kml>
