<?xml version="1.0" encoding="utf-8" ?>
<kml xmlns="http://www.opengis.net/kml/2.2">
<Document id="root_doc">
<Schema name="02bfd14e" id="02bfd14e">
	<SimpleField name="title" type="string"></SimpleField>
	<SimpleField name="type" type="string"></SimpleField>
	<SimpleField name="ext_sign" type="string"></SimpleField>
	<SimpleField name="class_lvl" type="string"></SimpleField>
	<SimpleField name="height_lvl" type="string"></SimpleField>
	<SimpleField name="height_ctrl" type="string"></SimpleField>
	<SimpleField name="ctrl_place" type="string"></SimpleField>
	<SimpleField name="mark_num" type="string"></SimpleField>
	<SimpleField name="center_type" type="string"></SimpleField>
	<SimpleField name="lvl_line" type="string"></SimpleField>
	<SimpleField name="guid" type="string"></SimpleField>
</Schema>
<Folder><name>02bfd14e</name>
  <Placemark id="02bfd14e.1">
	<name>2654</name>
	<description>грунтовый репер</description>
	<ExtendedData><SchemaData schemaUrl="#02bfd14e">
		<SimpleData name="type">2</SimpleData>
		<SimpleData name="ext_sign">423.476</SimpleData>
		<SimpleData name="ctrl_place">160 оп. знак</SimpleData>
		<SimpleData name="mark_num">Линия: Шыганши-Бугаз-Белая-Школа-Боран-Улькен Нарын, II класс (2)
Участок: фунд.реп. 5491 – грунт.реп. 1486</SimpleData>
		<SimpleData name="center_type">Боран,с., в 7.5 км к юго-зап. от него, в 4.0 км к вост. от моста через р.Синьцзян, в 0.2 км к сев.-зап. от стб. ЛЭП №309, в 17 м к юго-вост. от полевой дороги.</SimpleData>
		<SimpleData name="lvl_line">02bfd14e-69a9-416f-a6d6-4e68599e8687</SimpleData>
	</SchemaData></ExtendedData>
      <Point><coordinates>85.1231939676357,47.9518684051573</coordinates></Point>
  </Placemark>
</Folder>
</Document></kml>
