<?xml version="1.0" encoding="utf-8" ?>
<kml xmlns="http://www.opengis.net/kml/2.2">
<Document id="root_doc">
<Schema name="02f183a4" id="02f183a4">
	<SimpleField name="type" type="string"></SimpleField>
	<SimpleField name="view" type="string"></SimpleField>
	<SimpleField name="leveling_order" type="string"></SimpleField>
	<SimpleField name="leveling_height" type="string"></SimpleField>
	<SimpleField name="control_height" type="string"></SimpleField>
	<SimpleField name="benchmark_number" type="string"></SimpleField>
	<SimpleField name="control_location" type="string"></SimpleField>
	<SimpleField name="benchmark_type" type="string"></SimpleField>
	<SimpleField name="leveling_line_section" type="string"></SimpleField>
	<SimpleField name="location_description" type="string"></SimpleField>
	<SimpleField name="status" type="string"></SimpleField>
	<SimpleField name="guid" type="string"></SimpleField>
	<SimpleField name="kml" type="string"></SimpleField>
	<SimpleField name="kml_link" type="string"></SimpleField>
</Schema>
<Folder><name>02f183a4</name>
  <Placemark id="02f183a4.1">
	<name>7235</name>
	<description>скальный реп.</description>
	<ExtendedData><SchemaData schemaUrl="#02f183a4">
		<SimpleData name="type">1</SimpleData>
		<SimpleData name="view">964.577</SimpleData>
		<SimpleData name="benchmark_number">99 оп</SimpleData>
		<SimpleData name="control_location">Линия № I: Каркаралиннск-Аягуз, I класс (1) Участок: грунт.реп.3998 - ск.реп.3442</SimpleData>
		<SimpleData name="benchmark_type">Бельдеутас, с., в 9.5 км к сев.-вост. от него, в 0.3 км к юго-вост. от зим. Жомарт, в 0.1 км к зап. от грунтовой дороги с.
Акбай-Кызылбай - шоссе с. Бакты - с. Тотан
</SimpleData>
		<SimpleData name="location_description">02f183a4-4da5-4ed3-b6a3-116af85e7e7b</SimpleData>
		<SimpleData name="status">data/stations/02f183a4.kml</SimpleData>
		<SimpleData name="guid">&lt;a href='data/stations/02f183a4.kml' target='_blank'&gt;Download KML&lt;/a&gt;</SimpleData>
	</SchemaData></ExtendedData>
      <Point><coordinates>76.3501172360428,49.1063515993035</coordinates></Point>
  </Placemark>
</Folder>
</Document></kml>
