<?xml version="1.0" encoding="utf-8" ?>
<kml xmlns="http://www.opengis.net/kml/2.2">
<Document id="root_doc">
<Schema name="031bd189" id="031bd189">
	<SimpleField name="type" type="string"></SimpleField>
	<SimpleField name="view" type="string"></SimpleField>
	<SimpleField name="leveling_order" type="string"></SimpleField>
	<SimpleField name="leveling_height" type="string"></SimpleField>
	<SimpleField name="control_height" type="string"></SimpleField>
	<SimpleField name="benchmark_number" type="string"></SimpleField>
	<SimpleField name="control_location" type="string"></SimpleField>
	<SimpleField name="benchmark_type" type="string"></SimpleField>
	<SimpleField name="leveling_line_section" type="string"></SimpleField>
	<SimpleField name="location_description" type="string"></SimpleField>
	<SimpleField name="status" type="string"></SimpleField>
	<SimpleField name="guid" type="string"></SimpleField>
	<SimpleField name="kml" type="string"></SimpleField>
	<SimpleField name="kml_link" type="string"></SimpleField>
</Schema>
<Folder><name>031bd189</name>
  <Placemark id="031bd189.1">
	<name>5370</name>
	<name>грунтовый репер</name>
	<ExtendedData><SchemaData schemaUrl="#031bd189">
		<SimpleData name="type">1</SimpleData>
		<SimpleData name="view">131.798</SimpleData>
		<SimpleData name="benchmark_number">161 оп, знак</SimpleData>
		<SimpleData name="control_location">Линия № 1: Кызылорда - Торетоган, 1 класс (1) Участок: грунт, реп, 681 - грунт, реп, 1112</SimpleData>
		<SimpleData name="benchmark_type">Акжайкын, оз,, в 8,0 км к югу от него, в 1,3 км к юго-зап, от к, Бестамак, в 40 м к вост, полевой дороги</SimpleData>
		<SimpleData name="location_description">031bd189-a272-4864-a5d9-e3e4ac99f1f9</SimpleData>
		<SimpleData name="status">data/stations/031bd189.kml</SimpleData>
		<SimpleData name="guid">&lt;a href='data/stations/031bd189.kml' target='_blank'&gt;Download KML&lt;/a&gt;</SimpleData>
	</SchemaData></ExtendedData>
      <Point><coordinates>67.7769214725574,44.8647386653326</coordinates></Point>
  </Placemark>
</Folder>
</Document></kml>
