<?xml version="1.0" encoding="utf-8" ?>
<kml xmlns="http://www.opengis.net/kml/2.2">
<Document id="root_doc">
<Schema name="032ddf5f" id="032ddf5f">
	<SimpleField name="type" type="string"></SimpleField>
	<SimpleField name="view" type="string"></SimpleField>
	<SimpleField name="leveling_order" type="string"></SimpleField>
	<SimpleField name="leveling_height" type="string"></SimpleField>
	<SimpleField name="control_height" type="string"></SimpleField>
	<SimpleField name="benchmark_number" type="string"></SimpleField>
	<SimpleField name="control_location" type="string"></SimpleField>
	<SimpleField name="benchmark_type" type="string"></SimpleField>
	<SimpleField name="leveling_line_section" type="string"></SimpleField>
	<SimpleField name="location_description" type="string"></SimpleField>
	<SimpleField name="status" type="string"></SimpleField>
	<SimpleField name="guid" type="string"></SimpleField>
	<SimpleField name="kml" type="string"></SimpleField>
	<SimpleField name="kml_link" type="string"></SimpleField>
</Schema>
<Folder><name>032ddf5f</name>
  <Placemark id="032ddf5f.1">
	<name>3225</name>
	<name>грунт.реп.</name>
	<ExtendedData><SchemaData schemaUrl="#032ddf5f">
		<SimpleData name="type">1</SimpleData>
		<SimpleData name="view">86.905</SimpleData>
		<SimpleData name="leveling_order">84.355</SimpleData>
		<SimpleData name="benchmark_number">121</SimpleData>
		<SimpleData name="control_location">Линия №1: Доссор-Сагиз, I класс Участок: грнут.реп.3519-фунд.реп.145</SimpleData>
		<SimpleData name="benchmark_type">Макур, станц., в 4.7км к юго-зап.от нее, на 1пикете 299км, в 68м к юго-вост.от жел.-дор.полотна</SimpleData>
		<SimpleData name="location_description">032ddf5f-d9be-4745-b1f3-3a5b4ce33a83</SimpleData>
		<SimpleData name="status">data/stations/032ddf5f.kml</SimpleData>
		<SimpleData name="guid">&lt;a href='data/stations/032ddf5f.kml' target='_blank'&gt;Download KML&lt;/a&gt;</SimpleData>
	</SchemaData></ExtendedData>
      <Point><coordinates>54.4383360622616,48.0200198122849</coordinates></Point>
  </Placemark>
</Folder>
</Document></kml>
