<?xml version="1.0" encoding="utf-8" ?>
<kml xmlns="http://www.opengis.net/kml/2.2">
<Document id="root_doc">
<Schema name="03bb9f06" id="03bb9f06">
	<SimpleField name="title" type="string"></SimpleField>
	<SimpleField name="type" type="string"></SimpleField>
	<SimpleField name="ext_sign" type="string"></SimpleField>
	<SimpleField name="class_lvl" type="string"></SimpleField>
	<SimpleField name="height_lvl" type="string"></SimpleField>
	<SimpleField name="height_ctrl" type="string"></SimpleField>
	<SimpleField name="ctrl_place" type="string"></SimpleField>
	<SimpleField name="mark_num" type="string"></SimpleField>
	<SimpleField name="center_type" type="string"></SimpleField>
	<SimpleField name="lvl_line" type="string"></SimpleField>
	<SimpleField name="guid" type="string"></SimpleField>
</Schema>
<Folder><name>03bb9f06</name>
  <Placemark id="03bb9f06.1">
	<name>3802</name>
	<description>фундаментальный репер</description>
	<ExtendedData><SchemaData schemaUrl="#03bb9f06">
		<SimpleData name="type">2</SimpleData>
		<SimpleData name="ext_sign">63.275</SimpleData>
		<SimpleData name="class_lvl">62.305</SimpleData>
		<SimpleData name="height_lvl">Контрольный репер в фундаментной плите</SimpleData>
		<SimpleData name="ctrl_place">161 оп</SimpleData>
		<SimpleData name="mark_num">Линия №1: Айтеке Би (Новоказалинск) - Ащылысай, 2 класс. Участок: грунт.реп. 0921 - фунд.реп. 3917</SimpleData>
		<SimpleData name="center_type">Караозек, минарат, в 6,9 км к сев.-зап.от него, в 3,6 км к юго-вост.от буг. Тулькишокат, в 54 м к югу от полевой дороги</SimpleData>
		<SimpleData name="lvl_line">03bb9f06-0a1e-4af8-abe4-87e179f270b5</SimpleData>
	</SchemaData></ExtendedData>
      <Point><coordinates>62.0268721982711,45.2621144207602</coordinates></Point>
  </Placemark>
</Folder>
</Document></kml>
