<?xml version="1.0" encoding="utf-8" ?>
<kml xmlns="http://www.opengis.net/kml/2.2">
<Document id="root_doc">
<Schema name="04397dc9" id="04397dc9">
	<SimpleField name="type" type="string"></SimpleField>
	<SimpleField name="view" type="string"></SimpleField>
	<SimpleField name="leveling_order" type="string"></SimpleField>
	<SimpleField name="leveling_height" type="string"></SimpleField>
	<SimpleField name="control_height" type="string"></SimpleField>
	<SimpleField name="benchmark_number" type="string"></SimpleField>
	<SimpleField name="control_location" type="string"></SimpleField>
	<SimpleField name="benchmark_type" type="string"></SimpleField>
	<SimpleField name="leveling_line_section" type="string"></SimpleField>
	<SimpleField name="location_description" type="string"></SimpleField>
	<SimpleField name="status" type="string"></SimpleField>
	<SimpleField name="guid" type="string"></SimpleField>
	<SimpleField name="kml" type="string"></SimpleField>
	<SimpleField name="kml_link" type="string"></SimpleField>
</Schema>
<Folder><name>04397dc9</name>
  <Placemark id="04397dc9.1">
	<name>IX</name>
	<name>грунт. реп.</name>
	<ExtendedData><SchemaData schemaUrl="#04397dc9">
		<SimpleData name="type">2</SimpleData>
		<SimpleData name="view">64,074</SimpleData>
		<SimpleData name="leveling_order">62,1</SimpleData>
		<SimpleData name="benchmark_number">120</SimpleData>
		<SimpleData name="control_location">Участок: грунт.реп. 1721 - грунт.реп. 8107</SimpleData>
		<SimpleData name="benchmark_type">Донкут, мог., в 8,2 км к сев.-зап.от нее, в 1,2 км к юго-зап.от арт.к. Жалмагамбет, в 0,1 км к вост.от полевой дороги</SimpleData>
		<SimpleData name="location_description">04397dc9-b9f8-44a5-a596-e057be6c9f0a</SimpleData>
		<SimpleData name="status">data/stations/04397dc9.kml</SimpleData>
		<SimpleData name="guid">&lt;a href='data/stations/04397dc9.kml' target='_blank'&gt;Download KML&lt;/a&gt;</SimpleData>
	</SchemaData></ExtendedData>
      <Point><coordinates>62.0016504299868,44.4477080354127</coordinates></Point>
  </Placemark>
</Folder>
</Document></kml>
