<?xml version="1.0" encoding="utf-8" ?>
<kml xmlns="http://www.opengis.net/kml/2.2">
<Document id="root_doc">
<Schema name="045fded1" id="045fded1">
	<SimpleField name="title" type="string"></SimpleField>
	<SimpleField name="type" type="string"></SimpleField>
	<SimpleField name="ext_sign" type="string"></SimpleField>
	<SimpleField name="class_lvl" type="string"></SimpleField>
	<SimpleField name="height_lvl" type="string"></SimpleField>
	<SimpleField name="height_ctrl" type="string"></SimpleField>
	<SimpleField name="ctrl_place" type="string"></SimpleField>
	<SimpleField name="mark_num" type="string"></SimpleField>
	<SimpleField name="center_type" type="string"></SimpleField>
	<SimpleField name="lvl_line" type="string"></SimpleField>
	<SimpleField name="guid" type="string"></SimpleField>
</Schema>
<Folder><name>045fded1</name>
  <Placemark id="045fded1.1">
	<name>2204</name>
	<description>грунтовый репер</description>
	<ExtendedData><SchemaData schemaUrl="#045fded1">
		<SimpleData name="ctrl_place">160 оп</SimpleData>
		<SimpleData name="center_type">Айтеке Би, п., южная окраина его,  в 0.5км к юго-вост от АЗС &quot;Sinoоil&quot;, в 0,3 км к зап. от трубы на канале, в 0.3 км к сев.-вост. от бет. арыка, в 40 м к юго-зап. от гравийной дороги
</SimpleData>
		<SimpleData name="lvl_line">045fded1-c535-4bbc-bbb6-8e40b909c70c</SimpleData>
	</SchemaData></ExtendedData>
      <Point><coordinates>62.147625,45.8258</coordinates></Point>
  </Placemark>
</Folder>
</Document></kml>
