<?xml version="1.0" encoding="utf-8" ?>
<kml xmlns="http://www.opengis.net/kml/2.2">
<Document id="root_doc">
<Schema name="046a4d2d" id="046a4d2d">
	<SimpleField name="title" type="string"></SimpleField>
	<SimpleField name="type" type="string"></SimpleField>
	<SimpleField name="ext_sign" type="string"></SimpleField>
	<SimpleField name="class_lvl" type="string"></SimpleField>
	<SimpleField name="height_lvl" type="string"></SimpleField>
	<SimpleField name="height_ctrl" type="string"></SimpleField>
	<SimpleField name="ctrl_place" type="string"></SimpleField>
	<SimpleField name="mark_num" type="string"></SimpleField>
	<SimpleField name="center_type" type="string"></SimpleField>
	<SimpleField name="lvl_line" type="string"></SimpleField>
	<SimpleField name="guid" type="string"></SimpleField>
</Schema>
<Folder><name>046a4d2d</name>
  <Placemark id="046a4d2d.1">
	<name>5831</name>
	<description>грунтовый репер</description>
	<ExtendedData><SchemaData schemaUrl="#046a4d2d">
		<SimpleData name="type">1</SimpleData>
		<SimpleData name="ext_sign">625.603</SimpleData>
		<SimpleData name="ctrl_place">160 оп</SimpleData>
		<SimpleData name="center_type">Курайлы, с., в 13.5 км к северу от нег, в 3.0 км к юго-вост. от зим.Хамиткора, в 50 м к западу от массива кустарника, в 37 м к югу от дороги с.Баршатас-гор.Аягуз.</SimpleData>
		<SimpleData name="lvl_line">046a4d2d-caf0-4b41-86d5-e9d985d26183</SimpleData>
	</SchemaData></ExtendedData>
      <Point><coordinates>79.6781419653667,47.8460318905435</coordinates></Point>
  </Placemark>
</Folder>
</Document></kml>
