<?xml version="1.0" encoding="UTF-8"?>
<kml xmlns="http://www.opengis.net/kml/2.2">
  <Document id="root_doc">
    <Schema id="0482ddfc" name="0482ddfc">
      <SimpleField name="title" type="string"/>
      <SimpleField name="type" type="string"/>
      <SimpleField name="ext_sign" type="string"/>
      <SimpleField name="class_lvl" type="string"/>
      <SimpleField name="height_lvl" type="string"/>
      <SimpleField name="height_ctrl" type="string"/>
      <SimpleField name="ctrl_place" type="string"/>
      <SimpleField name="mark_num" type="string"/>
      <SimpleField name="center_type" type="string"/>
      <SimpleField name="lvl_line" type="string"/>
      <SimpleField name="guid" type="string"/>
    </Schema>
    <Schema id="_0482ddfc.schema">
      <SimpleField name="title" type="string"/>
      <SimpleField name="type" type="string"/>
      <SimpleField name="ext_sign" type="string"/>
      <SimpleField name="class_lvl" type="string"/>
      <SimpleField name="height_lvl" type="string"/>
      <SimpleField name="height_ctrl" type="string"/>
      <SimpleField name="ctrl_place" type="string"/>
      <SimpleField name="mark_num" type="string"/>
      <SimpleField name="center_type" type="string"/>
      <SimpleField name="lvl_line" type="string"/>
      <SimpleField name="guid" type="string"/>
    </Schema>
    <Document id="_0482ddfc">
      <name>0482ddfc</name>
      <Placemark id="_0482ddfc.1">
        <description>Байти, к., 1.8 км к юго-зап. от него, в 70 м к юго-вост. от полевой дороги, на склоне возвышенности</description>
        <ExtendedData>
          <SchemaData schemaUrl="#_0482ddfc.schema">
            <SimpleData name="title">12-79</SimpleData>
            <SimpleData name="type">грунтовый репер</SimpleData>
            <SimpleData name="class_lvl">1</SimpleData>
            <SimpleData name="height_lvl">176,261</SimpleData>
            <SimpleData name="center_type">160</SimpleData>
            <SimpleData name="lvl_line">ЛинияБейнеу-Актау (Шевченко), 1 класс</SimpleData>
            <SimpleData name="guid">0482ddfc-87c2-46e9-9392-9bdec0db94d3</SimpleData>
          </SchemaData>
        </ExtendedData>
        <Point>
          <coordinates>
            53.9842023655372,44.5309341540933,0
          </coordinates>
        </Point>
      </Placemark>
    </Document>
  </Document>
</kml>
