<?xml version="1.0" encoding="utf-8" ?>
<kml xmlns="http://www.opengis.net/kml/2.2">
<Document id="root_doc">
<Schema name="04ab33f5" id="04ab33f5">
	<SimpleField name="title" type="string"></SimpleField>
	<SimpleField name="type" type="string"></SimpleField>
	<SimpleField name="ext_sign" type="string"></SimpleField>
	<SimpleField name="class_lvl" type="string"></SimpleField>
	<SimpleField name="height_lvl" type="string"></SimpleField>
	<SimpleField name="height_ctrl" type="string"></SimpleField>
	<SimpleField name="ctrl_place" type="string"></SimpleField>
	<SimpleField name="mark_num" type="string"></SimpleField>
	<SimpleField name="center_type" type="string"></SimpleField>
	<SimpleField name="lvl_line" type="string"></SimpleField>
	<SimpleField name="guid" type="string"></SimpleField>
</Schema>
<Folder><name>04ab33f5</name>
  <Placemark id="04ab33f5.1">
	<name>2201</name>
	<description>грунтовый репер</description>
	<ExtendedData><SchemaData schemaUrl="#04ab33f5">
		<SimpleData name="type">II</SimpleData>
		<SimpleData name="ext_sign">495,772</SimpleData>
		<SimpleData name="ctrl_place">160оп</SimpleData>
		<SimpleData name="mark_num">Линия №3: Актасты-Ивановка, II класс (4) Участок: фунд.реп. 485 -грунт.реп. 2630</SimpleData>
		<SimpleData name="center_type">Комсомольское, с. в 6,8 км к сев.-зап. от него, в 3,6 км к юго-вост. от с. Сельстрой, в 50 м к югу от шоссе с. Сельстрой-с. Комсомольское, у км. стб. 4/6</SimpleData>
		<SimpleData name="lvl_line">04ab33f5-988d-4520-9d6d-5b6f8761374a</SimpleData>
	</SchemaData></ExtendedData>
      <Point><coordinates>72.4047015020168,50.4292428967602</coordinates></Point>
  </Placemark>
</Folder>
</Document></kml>
