<?xml version="1.0" encoding="utf-8" ?>
<kml xmlns="http://www.opengis.net/kml/2.2">
<Document id="root_doc">
<Schema name="04af361b" id="04af361b">
	<SimpleField name="type" type="string"></SimpleField>
	<SimpleField name="view" type="string"></SimpleField>
	<SimpleField name="leveling_order" type="string"></SimpleField>
	<SimpleField name="leveling_height" type="string"></SimpleField>
	<SimpleField name="control_height" type="string"></SimpleField>
	<SimpleField name="benchmark_number" type="string"></SimpleField>
	<SimpleField name="control_location" type="string"></SimpleField>
	<SimpleField name="benchmark_type" type="string"></SimpleField>
	<SimpleField name="leveling_line_section" type="string"></SimpleField>
	<SimpleField name="location_description" type="string"></SimpleField>
	<SimpleField name="status" type="string"></SimpleField>
	<SimpleField name="guid" type="string"></SimpleField>
	<SimpleField name="kml" type="string"></SimpleField>
	<SimpleField name="kml_link" type="string"></SimpleField>
</Schema>
<Folder><name>04af361b</name>
  <Placemark id="04af361b.1">
	<name>2803</name>
	<description>марка</description>
	<ExtendedData><SchemaData schemaUrl="#04af361b">
		<SimpleData name="type">1</SimpleData>
		<SimpleData name="view">88.970</SimpleData>
		<SimpleData name="control_location">Линия 1: Аральск- Айтеке Би (Новоказалинск)-Жосалы, I класс(1,2). Участок: Грунт. реп. 803-марка 3924</SimpleData>
		<SimpleData name="benchmark_type">Тубек, раз., в 4,0 км к зап. от него , 2550 км жел. дор. в устое моста</SimpleData>
		<SimpleData name="location_description">04af361b-99e2-47be-8341-2cd8b6009959</SimpleData>
		<SimpleData name="status">data/stations/04af361b.kml</SimpleData>
		<SimpleData name="guid">&lt;a href='data/stations/04af361b.kml' target='_blank'&gt;Download KML&lt;/a&gt;</SimpleData>
	</SchemaData></ExtendedData>
      <Point><coordinates>62.7728010841539,45.7663002249416</coordinates></Point>
  </Placemark>
</Folder>
</Document></kml>
