<?xml version="1.0" encoding="utf-8" ?>
<kml xmlns="http://www.opengis.net/kml/2.2">
<Document id="root_doc">
<Schema name="05057df7" id="05057df7">
	<SimpleField name="type" type="string"></SimpleField>
	<SimpleField name="view" type="string"></SimpleField>
	<SimpleField name="leveling_order" type="string"></SimpleField>
	<SimpleField name="leveling_height" type="string"></SimpleField>
	<SimpleField name="control_height" type="string"></SimpleField>
	<SimpleField name="benchmark_number" type="string"></SimpleField>
	<SimpleField name="control_location" type="string"></SimpleField>
	<SimpleField name="benchmark_type" type="string"></SimpleField>
	<SimpleField name="leveling_line_section" type="string"></SimpleField>
	<SimpleField name="location_description" type="string"></SimpleField>
	<SimpleField name="status" type="string"></SimpleField>
	<SimpleField name="guid" type="string"></SimpleField>
	<SimpleField name="kml" type="string"></SimpleField>
	<SimpleField name="kml_link" type="string"></SimpleField>
</Schema>
<Folder><name>05057df7</name>
  <Placemark id="05057df7.1">
	<name>1204</name>
	<name>скальный репер</name>
	<ExtendedData><SchemaData schemaUrl="#05057df7">
		<SimpleData name="type">II</SimpleData>
		<SimpleData name="view">622,860</SimpleData>
		<SimpleData name="benchmark_number">99</SimpleData>
		<SimpleData name="control_location">Линия № 1:Каржунколь-Степное,  II класс (1) Участок : ск.реп.1186-ск.реп.1207</SimpleData>
		<SimpleData name="benchmark_type">Шоптиколь, оз., в 6,0 км к юго-зап. от него, в 5,0 км к юго-вост. от лет. Майбулак, в 0,5 км к сев. от дороги с. Приишимское-с. Молодежный</SimpleData>
		<SimpleData name="leveling_line_section">утрачен</SimpleData>
		<SimpleData name="location_description">05057df7-fb7c-432c-8e4d-f63b033b126b</SimpleData>
		<SimpleData name="status">data/stations/05057df7.kml</SimpleData>
		<SimpleData name="guid">&lt;a href='data/stations/05057df7.kml' target='_blank'&gt;Download KML&lt;/a&gt;</SimpleData>
	</SchemaData></ExtendedData>
      <Point><coordinates>73.2574381110779,50.6828012090682</coordinates></Point>
  </Placemark>
</Folder>
</Document></kml>
