<?xml version="1.0" encoding="utf-8" ?>
<kml xmlns="http://www.opengis.net/kml/2.2">
<Document id="root_doc">
<Schema name="0561db5d" id="0561db5d">
	<SimpleField name="type" type="string"></SimpleField>
	<SimpleField name="view" type="string"></SimpleField>
	<SimpleField name="leveling_order" type="string"></SimpleField>
	<SimpleField name="leveling_height" type="string"></SimpleField>
	<SimpleField name="control_height" type="string"></SimpleField>
	<SimpleField name="benchmark_number" type="string"></SimpleField>
	<SimpleField name="control_location" type="string"></SimpleField>
	<SimpleField name="benchmark_type" type="string"></SimpleField>
	<SimpleField name="leveling_line_section" type="string"></SimpleField>
	<SimpleField name="location_description" type="string"></SimpleField>
	<SimpleField name="status" type="string"></SimpleField>
	<SimpleField name="guid" type="string"></SimpleField>
	<SimpleField name="kml" type="string"></SimpleField>
	<SimpleField name="kml_link" type="string"></SimpleField>
</Schema>
<Folder><name>0561db5d</name>
  <Placemark id="0561db5d.1">
	<name>4711</name>
	<name>грунтовый репер</name>
	<ExtendedData><SchemaData schemaUrl="#0561db5d">
		<SimpleData name="type">2</SimpleData>
		<SimpleData name="view">387,655</SimpleData>
		<SimpleData name="control_location">Линия № 1: Кызылжар фунд. реп. 2723, 11 класс (1) Участок: грунт. реп. 23 - фунд. реп. 2723 </SimpleData>
		<SimpleData name="benchmark_type">Алакоз-Тойлан, зим .. в 6.2 км к юго-воет. от неё, в 5.0 км к ЮГ) от мог. Шайбас. в 40 м к зап. от полевой дороги </SimpleData>
		<SimpleData name="location_description">0561db5d-dc07-4dfd-9b7a-d14bf49de035</SimpleData>
		<SimpleData name="status">data/stations/0561db5d.kml</SimpleData>
		<SimpleData name="guid">&lt;a href='data/stations/0561db5d.kml' target='_blank'&gt;Download KML&lt;/a&gt;</SimpleData>
	</SchemaData></ExtendedData>
      <Point><coordinates>70.0302269342502,47.991242310349</coordinates></Point>
  </Placemark>
</Folder>
</Document></kml>
