<?xml version="1.0" encoding="utf-8" ?>
<kml xmlns="http://www.opengis.net/kml/2.2">
<Document id="root_doc">
<Schema name="059b1ba3" id="059b1ba3">
	<SimpleField name="type" type="string"></SimpleField>
	<SimpleField name="view" type="string"></SimpleField>
	<SimpleField name="leveling_order" type="string"></SimpleField>
	<SimpleField name="leveling_height" type="string"></SimpleField>
	<SimpleField name="control_height" type="string"></SimpleField>
	<SimpleField name="benchmark_number" type="string"></SimpleField>
	<SimpleField name="control_location" type="string"></SimpleField>
	<SimpleField name="benchmark_type" type="string"></SimpleField>
	<SimpleField name="leveling_line_section" type="string"></SimpleField>
	<SimpleField name="location_description" type="string"></SimpleField>
	<SimpleField name="status" type="string"></SimpleField>
	<SimpleField name="guid" type="string"></SimpleField>
	<SimpleField name="kml" type="string"></SimpleField>
	<SimpleField name="kml_link" type="string"></SimpleField>
</Schema>
<Folder><name>059b1ba3</name>
  <Placemark id="059b1ba3.1">
	<name>13614</name>
	<name>грунтовый репер</name>
	<ExtendedData><SchemaData schemaUrl="#059b1ba3">
		<SimpleData name="type">2</SimpleData>
		<SimpleData name="view">85.315</SimpleData>
		<SimpleData name="benchmark_number">121</SimpleData>
		<SimpleData name="control_location">Линия №1: Айбас-Чапаевский, II класс. Участок:  грунт. реп. 14492-фунд. реп. 156 </SimpleData>
		<SimpleData name="benchmark_type">Кызылоба, с., в 3,5 км к юго-вост. от него, в 2,0 км к зап. от зим. Шагимбай, в 46 м к сев. от дороги</SimpleData>
		<SimpleData name="location_description">059b1ba3-c4d6-4d9b-a69a-103b7aaae4f1</SimpleData>
		<SimpleData name="status">data/stations/059b1ba3.kml</SimpleData>
		<SimpleData name="guid">&lt;a href='data/stations/059b1ba3.kml' target='_blank'&gt;Download KML&lt;/a&gt;</SimpleData>
	</SchemaData></ExtendedData>
      <Point><coordinates>73.6431014376891,52.7354883341119</coordinates></Point>
  </Placemark>
</Folder>
</Document></kml>
