<?xml version="1.0" encoding="utf-8" ?>
<kml xmlns="http://www.opengis.net/kml/2.2">
<Document id="root_doc">
<Schema name="05ec066c" id="05ec066c">
	<SimpleField name="type" type="string"></SimpleField>
	<SimpleField name="view" type="string"></SimpleField>
	<SimpleField name="leveling_order" type="string"></SimpleField>
	<SimpleField name="leveling_height" type="string"></SimpleField>
	<SimpleField name="control_height" type="string"></SimpleField>
	<SimpleField name="benchmark_number" type="string"></SimpleField>
	<SimpleField name="control_location" type="string"></SimpleField>
	<SimpleField name="benchmark_type" type="string"></SimpleField>
	<SimpleField name="leveling_line_section" type="string"></SimpleField>
	<SimpleField name="location_description" type="string"></SimpleField>
	<SimpleField name="status" type="string"></SimpleField>
	<SimpleField name="guid" type="string"></SimpleField>
	<SimpleField name="kml" type="string"></SimpleField>
	<SimpleField name="kml_link" type="string"></SimpleField>
</Schema>
<Folder><name>05ec066c</name>
  <Placemark id="05ec066c.1">
	<name>5243</name>
	<name>грунтовый репер</name>
	<ExtendedData><SchemaData schemaUrl="#05ec066c">
		<SimpleData name="type">II</SimpleData>
		<SimpleData name="view">651,457</SimpleData>
		<SimpleData name="benchmark_number">160оп</SimpleData>
		<SimpleData name="control_location">Линия №2: Спасск-Акчатау, II класс (1) Участок: грунт.реп. 3394 - ск.реп. 8110</SimpleData>
		<SimpleData name="benchmark_type">Нураталды,с., в 1,3 км к сев.-зап.от него, в 0,1 км к юго-вост.от развилки шоссе гор.Караганда-с.Нураталды-гор.Балхаш, в 30 м к вост.от анкерного стб.</SimpleData>
		<SimpleData name="leveling_line_section">не найден</SimpleData>
		<SimpleData name="location_description">05ec066c-7b52-405d-a717-d7020924421e</SimpleData>
		<SimpleData name="status">data/stations/05ec066c.kml</SimpleData>
		<SimpleData name="guid">&lt;a href='data/stations/05ec066c.kml' target='_blank'&gt;Download KML&lt;/a&gt;</SimpleData>
	</SchemaData></ExtendedData>
      <Point><coordinates>73.5363098810858,49.0764049532321</coordinates></Point>
  </Placemark>
</Folder>
</Document></kml>
