<?xml version="1.0" encoding="utf-8" ?>
<kml xmlns="http://www.opengis.net/kml/2.2">
<Document id="root_doc">
<Schema name="064dc97f" id="064dc97f">
	<SimpleField name="title" type="string"></SimpleField>
	<SimpleField name="type" type="string"></SimpleField>
	<SimpleField name="ext_sign" type="string"></SimpleField>
	<SimpleField name="class_lvl" type="string"></SimpleField>
	<SimpleField name="height_lvl" type="string"></SimpleField>
	<SimpleField name="height_ctrl" type="string"></SimpleField>
	<SimpleField name="ctrl_place" type="string"></SimpleField>
	<SimpleField name="mark_num" type="string"></SimpleField>
	<SimpleField name="center_type" type="string"></SimpleField>
	<SimpleField name="lvl_line" type="string"></SimpleField>
	<SimpleField name="guid" type="string"></SimpleField>
</Schema>
<Folder><name>064dc97f</name>
  <Placemark id="064dc97f.1">
	<name>2853</name>
	<description>грунт.реп.</description>
	<ExtendedData><SchemaData schemaUrl="#064dc97f">
		<SimpleData name="type">ІІ</SimpleData>
		<SimpleData name="ext_sign">491.832</SimpleData>
		<SimpleData name="ctrl_place">160 оп</SimpleData>
		<SimpleData name="mark_num">Линия № 2: Талдысай - Жиделисай, ІІ класс (1), Участок: фунд.реп. 131 - грунт.реп. 39</SimpleData>
		<SimpleData name="center_type">Беткудук, с., в 2.8 км к сев от него, в 0.5 км к вост от пересыхающего русла р. Сары-Кенгир, в 30 м к вост от дороги зим. Сарышал - с. Беткудук</SimpleData>
		<SimpleData name="lvl_line">064dc97f-e42e-4867-8b62-3cba7c8c33c8</SimpleData>
	</SchemaData></ExtendedData>
      <Point><coordinates>68.0481669022302,48.8981607561295</coordinates></Point>
  </Placemark>
</Folder>
</Document></kml>
