<?xml version="1.0" encoding="utf-8" ?>
<kml xmlns="http://www.opengis.net/kml/2.2">
<Document id="root_doc">
<Schema name="0670e51a" id="0670e51a">
	<SimpleField name="title" type="string"></SimpleField>
	<SimpleField name="type" type="string"></SimpleField>
	<SimpleField name="ext_sign" type="string"></SimpleField>
	<SimpleField name="class_lvl" type="string"></SimpleField>
	<SimpleField name="height_lvl" type="string"></SimpleField>
	<SimpleField name="height_ctrl" type="string"></SimpleField>
	<SimpleField name="ctrl_place" type="string"></SimpleField>
	<SimpleField name="mark_num" type="string"></SimpleField>
	<SimpleField name="center_type" type="string"></SimpleField>
	<SimpleField name="lvl_line" type="string"></SimpleField>
	<SimpleField name="guid" type="string"></SimpleField>
</Schema>
<Folder><name>0670e51a</name>
  <Placemark id="0670e51a.1">
	<name>4974</name>
	<description>грунтовый репер</description>
	<ExtendedData><SchemaData schemaUrl="#0670e51a">
		<SimpleData name="title">грунт. реп.</SimpleData>
		<SimpleData name="type">2</SimpleData>
		<SimpleData name="ext_sign">96.884</SimpleData>
		<SimpleData name="class_lvl">95.776</SimpleData>
		<SimpleData name="height_lvl">Контрольный репер № 5196 в верхней плоскости монолита</SimpleData>
		<SimpleData name="ctrl_place">121 оп. знак</SimpleData>
		<SimpleData name="mark_num">Линия № 2 : Коккабак - Жынгылдак, II класс. Участок: фунд. реп. 2 - грунт. реп. 308</SimpleData>
		<SimpleData name="center_type">Караунгир, зим., в 8.5 км к вост. от неё, в 0.7 км к сев.-зап. от зимовки, в 0.2 км к вост. от грунт. дороги с. Карасу - гор. Аральск, на бархане</SimpleData>
		<SimpleData name="lvl_line">0670e51a-9204-4bbd-b4f5-a3111462fb8c</SimpleData>
	</SchemaData></ExtendedData>
      <Point><coordinates>63.6817492214218,47.6741873555205</coordinates></Point>
  </Placemark>
</Folder>
</Document></kml>
