<?xml version="1.0" encoding="utf-8" ?>
<kml xmlns="http://www.opengis.net/kml/2.2">
<Document id="root_doc">
<Schema name="06747ca7" id="06747ca7">
	<SimpleField name="type" type="string"></SimpleField>
	<SimpleField name="view" type="string"></SimpleField>
	<SimpleField name="leveling_order" type="string"></SimpleField>
	<SimpleField name="leveling_height" type="string"></SimpleField>
	<SimpleField name="control_height" type="string"></SimpleField>
	<SimpleField name="benchmark_number" type="string"></SimpleField>
	<SimpleField name="control_location" type="string"></SimpleField>
	<SimpleField name="benchmark_type" type="string"></SimpleField>
	<SimpleField name="leveling_line_section" type="string"></SimpleField>
	<SimpleField name="location_description" type="string"></SimpleField>
	<SimpleField name="status" type="string"></SimpleField>
	<SimpleField name="guid" type="string"></SimpleField>
	<SimpleField name="kml" type="string"></SimpleField>
	<SimpleField name="kml_link" type="string"></SimpleField>
</Schema>
<Folder><name>06747ca7</name>
  <Placemark id="06747ca7.1">
	<name>5631</name>
	<name>грунт,реп</name>
	<ExtendedData><SchemaData schemaUrl="#06747ca7">
		<SimpleData name="type">1</SimpleData>
		<SimpleData name="view">821.693</SimpleData>
		<SimpleData name="leveling_order">820,653</SimpleData>
		<SimpleData name="leveling_height">№ 4195 </SimpleData>
		<SimpleData name="control_height">репер в верхней
плоскости монолита</SimpleData>
		<SimpleData name="benchmark_number">121</SimpleData>
		<SimpleData name="control_location">Ход от грунт,реп, 5344 до грунт,реп, 2027, I класс </SimpleData>
		<SimpleData name="benchmark_type">Тюлькубас, станц,, в 2,9 км к юго-вост,от неё, на 8 ПК 3381 км, в 63 м к югу от жел,-дор,полотна</SimpleData>
		<SimpleData name="location_description">06747ca7-07ec-4495-a009-270b74d80755</SimpleData>
		<SimpleData name="status">data/stations/06747ca7.kml</SimpleData>
		<SimpleData name="guid">&lt;a href='data/stations/06747ca7.kml' target='_blank'&gt;Download KML&lt;/a&gt;</SimpleData>
	</SchemaData></ExtendedData>
      <Point><coordinates>70.3213141068355,42.4848587012372</coordinates></Point>
  </Placemark>
</Folder>
</Document></kml>
