<?xml version="1.0" encoding="utf-8" ?>
<kml xmlns="http://www.opengis.net/kml/2.2">
<Document id="root_doc">
<Schema name="069ea8f6" id="069ea8f6">
	<SimpleField name="title" type="string"></SimpleField>
	<SimpleField name="type" type="string"></SimpleField>
	<SimpleField name="ext_sign" type="string"></SimpleField>
	<SimpleField name="class_lvl" type="string"></SimpleField>
	<SimpleField name="height_lvl" type="string"></SimpleField>
	<SimpleField name="height_ctrl" type="string"></SimpleField>
	<SimpleField name="ctrl_place" type="string"></SimpleField>
	<SimpleField name="mark_num" type="string"></SimpleField>
	<SimpleField name="center_type" type="string"></SimpleField>
	<SimpleField name="lvl_line" type="string"></SimpleField>
	<SimpleField name="guid" type="string"></SimpleField>
</Schema>
<Folder><name>069ea8f6</name>
  <Placemark id="069ea8f6.1">
	<name>3049</name>
	<description>грунтовый репер</description>
	<ExtendedData><SchemaData schemaUrl="#069ea8f6">
		<SimpleData name="title">грунтовый репер</SimpleData>
		<SimpleData name="type">2</SimpleData>
		<SimpleData name="ext_sign">604.504</SimpleData>
		<SimpleData name="ctrl_place">160</SimpleData>
		<SimpleData name="mark_num">Линия № 2: Баршатас - Катбар, II класс. Участок: грунт.реп. 7661 – ск.реп. 44-331</SimpleData>
		<SimpleData name="center_type">Бидайык, с., в 31.4 км к юго-зап. от него, в 1.8 км к сев.-вост. от буг. Жайдак, в 0.7 км к сев. от сух. колодца, в 
2 м к сев. от полевой дороги</SimpleData>
		<SimpleData name="lvl_line">069ea8f6-4625-4fa2-bb73-5e1365fb5944</SimpleData>
	</SchemaData></ExtendedData>
      <Point><coordinates>78.4375811490568,47.603999102123</coordinates></Point>
  </Placemark>
</Folder>
</Document></kml>
