<?xml version="1.0" encoding="utf-8" ?>
<kml xmlns="http://www.opengis.net/kml/2.2">
<Document id="root_doc">
<Schema name="077d7d92" id="077d7d92">
	<SimpleField name="type" type="string"></SimpleField>
	<SimpleField name="view" type="string"></SimpleField>
	<SimpleField name="leveling_order" type="string"></SimpleField>
	<SimpleField name="leveling_height" type="string"></SimpleField>
	<SimpleField name="control_height" type="string"></SimpleField>
	<SimpleField name="benchmark_number" type="string"></SimpleField>
	<SimpleField name="control_location" type="string"></SimpleField>
	<SimpleField name="benchmark_type" type="string"></SimpleField>
	<SimpleField name="leveling_line_section" type="string"></SimpleField>
	<SimpleField name="location_description" type="string"></SimpleField>
	<SimpleField name="status" type="string"></SimpleField>
	<SimpleField name="guid" type="string"></SimpleField>
	<SimpleField name="kml" type="string"></SimpleField>
	<SimpleField name="kml_link" type="string"></SimpleField>
</Schema>
<Folder><name>077d7d92</name>
  <Placemark id="077d7d92.1">
	<name>1806</name>
	<name>грунт,реп</name>
	<ExtendedData><SchemaData schemaUrl="#077d7d92">
		<SimpleData name="type">1</SimpleData>
		<SimpleData name="view">209.917</SimpleData>
		<SimpleData name="benchmark_number">160</SimpleData>
		<SimpleData name="control_location">Линия №1: Аральск (Аральское море)-Арыс, 1 класс, Участок: марка б/№- грунт,реп, 2850</SimpleData>
		<SimpleData name="benchmark_type">Сауран, Станц,, в 4,4 км к сев,-зап, От нее, на 9 ПК км жел, Дор,, в 34 м к юго-зап, От жел,-дор,полотна</SimpleData>
		<SimpleData name="leveling_line_section">Утрачен</SimpleData>
		<SimpleData name="location_description">077d7d92-9d03-4ee4-aeca-7fd9f8bba155</SimpleData>
		<SimpleData name="status">data/stations/077d7d92.kml</SimpleData>
		<SimpleData name="guid">&lt;a href='data/stations/077d7d92.kml' target='_blank'&gt;Download KML&lt;/a&gt;</SimpleData>
	</SchemaData></ExtendedData>
      <Point><coordinates>67.8771514783687,43.4663276714861</coordinates></Point>
  </Placemark>
</Folder>
</Document></kml>
