<?xml version="1.0" encoding="utf-8" ?>
<kml xmlns="http://www.opengis.net/kml/2.2">
<Document id="root_doc">
<Schema name="0795ff8b" id="0795ff8b">
	<SimpleField name="type" type="string"></SimpleField>
	<SimpleField name="view" type="string"></SimpleField>
	<SimpleField name="leveling_order" type="string"></SimpleField>
	<SimpleField name="leveling_height" type="string"></SimpleField>
	<SimpleField name="control_height" type="string"></SimpleField>
	<SimpleField name="benchmark_number" type="string"></SimpleField>
	<SimpleField name="control_location" type="string"></SimpleField>
	<SimpleField name="benchmark_type" type="string"></SimpleField>
	<SimpleField name="leveling_line_section" type="string"></SimpleField>
	<SimpleField name="location_description" type="string"></SimpleField>
	<SimpleField name="status" type="string"></SimpleField>
	<SimpleField name="guid" type="string"></SimpleField>
	<SimpleField name="kml" type="string"></SimpleField>
	<SimpleField name="kml_link" type="string"></SimpleField>
</Schema>
<Folder><name>0795ff8b</name>
  <Placemark id="0795ff8b.1">
	<name>4084</name>
	<description>грунт. реп.</description>
	<ExtendedData><SchemaData schemaUrl="#0795ff8b">
		<SimpleData name="type">1</SimpleData>
		<SimpleData name="view">696.119</SimpleData>
		<SimpleData name="benchmark_number">160оп</SimpleData>
		<SimpleData name="control_location">Линия №1: Каркаралинск - Аягуз, I класс (1) Участок: грунт. реп. 2886 - ск. реп. 0686</SimpleData>
		<SimpleData name="benchmark_type">Кара-Булак, с., в 3,4 км к зап. от него, в 1,9 км к юго-вост. от метеостанции Акышбай, в 20 м к югу от дороги с. Татан - с. Кара-Булак</SimpleData>
		<SimpleData name="location_description">0795ff8b-50b7-40e5-81f7-ebd8ff8a3961</SimpleData>
		<SimpleData name="status">data/stations/0795ff8b.kml</SimpleData>
		<SimpleData name="guid">&lt;a href='data/stations/0795ff8b.kml' target='_blank'&gt;Download KML&lt;/a&gt;</SimpleData>
	</SchemaData></ExtendedData>
      <Point><coordinates>77.6898949315194,47.3983879009677</coordinates></Point>
  </Placemark>
</Folder>
</Document></kml>
