<?xml version="1.0" encoding="utf-8" ?>
<kml xmlns="http://www.opengis.net/kml/2.2">
<Document id="root_doc">
<Schema name="079ce95d" id="079ce95d">
	<SimpleField name="type" type="string"></SimpleField>
	<SimpleField name="view" type="string"></SimpleField>
	<SimpleField name="leveling_order" type="string"></SimpleField>
	<SimpleField name="leveling_height" type="string"></SimpleField>
	<SimpleField name="control_height" type="string"></SimpleField>
	<SimpleField name="benchmark_number" type="string"></SimpleField>
	<SimpleField name="control_location" type="string"></SimpleField>
	<SimpleField name="benchmark_type" type="string"></SimpleField>
	<SimpleField name="leveling_line_section" type="string"></SimpleField>
	<SimpleField name="location_description" type="string"></SimpleField>
	<SimpleField name="status" type="string"></SimpleField>
	<SimpleField name="guid" type="string"></SimpleField>
	<SimpleField name="kml" type="string"></SimpleField>
	<SimpleField name="kml_link" type="string"></SimpleField>
</Schema>
<Folder><name>079ce95d</name>
  <Placemark id="079ce95d.1">
	<name>7900</name>
	<name>грунт. реп.</name>
	<ExtendedData><SchemaData schemaUrl="#079ce95d">
		<SimpleData name="type">1</SimpleData>
		<SimpleData name="view">178,075</SimpleData>
		<SimpleData name="benchmark_number">160 оп</SimpleData>
		<SimpleData name="control_location">Линия № 1: Павлодар-Семиярск, I класс (1) Участок: сигн. 2 кл. Подпуск-фунд. реп. 871  </SimpleData>
		<SimpleData name="benchmark_type">Бескарагай, с., в 7.1 км к юго-вост. от него, в 1.2 км к сев.-вост. от развалин, в 50 м к сев.-вост. от полевой дороги</SimpleData>
		<SimpleData name="location_description">079ce95d-3057-42fc-8dcb-1681a7968c9c</SimpleData>
		<SimpleData name="status">data/stations/079ce95d.kml</SimpleData>
		<SimpleData name="guid">&lt;a href='data/stations/079ce95d.kml' target='_blank'&gt;Download KML&lt;/a&gt;</SimpleData>
	</SchemaData></ExtendedData>
      <Point><coordinates>78.0731604870207,51.2680111768253</coordinates></Point>
  </Placemark>
</Folder>
</Document></kml>
