<?xml version="1.0" encoding="utf-8" ?>
<kml xmlns="http://www.opengis.net/kml/2.2">
<Document id="root_doc">
<Schema name="07e296da" id="07e296da">
	<SimpleField name="title" type="string"></SimpleField>
	<SimpleField name="type" type="string"></SimpleField>
	<SimpleField name="ext_sign" type="string"></SimpleField>
	<SimpleField name="class_lvl" type="string"></SimpleField>
	<SimpleField name="height_lvl" type="string"></SimpleField>
	<SimpleField name="height_ctrl" type="string"></SimpleField>
	<SimpleField name="ctrl_place" type="string"></SimpleField>
	<SimpleField name="mark_num" type="string"></SimpleField>
	<SimpleField name="center_type" type="string"></SimpleField>
	<SimpleField name="lvl_line" type="string"></SimpleField>
	<SimpleField name="guid" type="string"></SimpleField>
</Schema>
<Folder><name>07e296da</name>
  <Placemark id="07e296da.1">
	<name>0188</name>
	<description>грунтовый репер</description>
	<ExtendedData><SchemaData schemaUrl="#07e296da">
		<SimpleData name="type">1</SimpleData>
		<SimpleData name="ext_sign">645.032</SimpleData>
		<SimpleData name="ctrl_place">160 оп. знак</SimpleData>
		<SimpleData name="mark_num">Линия № 1: Каркаралинск – Аягоз, I класс
Участок: грунт.реп. 4041 – фунд.реп. 1027</SimpleData>
		<SimpleData name="center_type">Аягоз, гор., в 2.9 км к зап. от него, в 0.1 км к сев.-зап. от км. стб. 3/343, в 40 м к сев. от шоссе гор. Аягоз – с. Баршатас</SimpleData>
		<SimpleData name="lvl_line">07e296da-7023-4a4c-888f-b44173e278c6</SimpleData>
	</SchemaData></ExtendedData>
      <Point><coordinates>80.3784589810731,47.9586621402365</coordinates></Point>
  </Placemark>
</Folder>
</Document></kml>
