<?xml version="1.0" encoding="utf-8" ?>
<kml xmlns="http://www.opengis.net/kml/2.2">
<Document id="root_doc">
<Schema name="07fa1c31" id="07fa1c31">
	<SimpleField name="type" type="string"></SimpleField>
	<SimpleField name="view" type="string"></SimpleField>
	<SimpleField name="leveling_order" type="string"></SimpleField>
	<SimpleField name="leveling_height" type="string"></SimpleField>
	<SimpleField name="control_height" type="string"></SimpleField>
	<SimpleField name="benchmark_number" type="string"></SimpleField>
	<SimpleField name="control_location" type="string"></SimpleField>
	<SimpleField name="benchmark_type" type="string"></SimpleField>
	<SimpleField name="leveling_line_section" type="string"></SimpleField>
	<SimpleField name="location_description" type="string"></SimpleField>
	<SimpleField name="status" type="string"></SimpleField>
	<SimpleField name="guid" type="string"></SimpleField>
	<SimpleField name="kml" type="string"></SimpleField>
	<SimpleField name="kml_link" type="string"></SimpleField>
</Schema>
<Folder><name>07fa1c31</name>
  <Placemark id="07fa1c31.1">
	<name>6084</name>
	<description>грунт.реп.</description>
	<ExtendedData><SchemaData schemaUrl="#07fa1c31">
		<SimpleData name="type">2</SimpleData>
		<SimpleData name="view">172.228</SimpleData>
		<SimpleData name="benchmark_number">146 оп</SimpleData>
		<SimpleData name="control_location">Линия  № 4 : Новоильиновка - Актасты, II класс                            Участок : фунд.реп.6284 - грунт.реп.7873</SimpleData>
		<SimpleData name="benchmark_type">Новоильновка, с., в 2.0 км к вост.от него, в 1.5 км к зап.от жел.-дор.моста через р.Тобол, в 0.2 км к сев.-зап.от временного моста через р.Тобол, в 30 м к зап.от дороги</SimpleData>
		<SimpleData name="location_description">07fa1c31-65d6-4209-90e9-0878c09f21aa</SimpleData>
		<SimpleData name="status">data/stations/07fa1c31.kml</SimpleData>
		<SimpleData name="guid">&lt;a href='data/stations/07fa1c31.kml' target='_blank'&gt;Download KML&lt;/a&gt;</SimpleData>
	</SchemaData></ExtendedData>
      <Point><coordinates>62.7388797464709,52.639515935305</coordinates></Point>
  </Placemark>
</Folder>
</Document></kml>
