<?xml version="1.0" encoding="utf-8" ?>
<kml xmlns="http://www.opengis.net/kml/2.2">
<Document id="root_doc">
<Schema name="07fd60b4" id="07fd60b4">
	<SimpleField name="title" type="string"></SimpleField>
	<SimpleField name="type" type="string"></SimpleField>
	<SimpleField name="ext_sign" type="string"></SimpleField>
	<SimpleField name="class_lvl" type="string"></SimpleField>
	<SimpleField name="height_lvl" type="string"></SimpleField>
	<SimpleField name="height_ctrl" type="string"></SimpleField>
	<SimpleField name="ctrl_place" type="string"></SimpleField>
	<SimpleField name="mark_num" type="string"></SimpleField>
	<SimpleField name="center_type" type="string"></SimpleField>
	<SimpleField name="lvl_line" type="string"></SimpleField>
	<SimpleField name="guid" type="string"></SimpleField>
</Schema>
<Folder><name>07fd60b4</name>
  <Placemark id="07fd60b4.1">
	<name>206</name>
	<description>грунтовый репер</description>
	<ExtendedData><SchemaData schemaUrl="#07fd60b4">
		<SimpleData name="type">2</SimpleData>
		<SimpleData name="ext_sign">531,199</SimpleData>
		<SimpleData name="class_lvl">528,579</SimpleData>
		<SimpleData name="height_lvl">Контрольный репер  в верхней плоскости монолита</SimpleData>
		<SimpleData name="ctrl_place">121оп</SimpleData>
		<SimpleData name="mark_num">Линия № 4: Степное-Актасты, II класс (6) Участок: фунд.реп. 446-грунт. реп.200</SimpleData>
		<SimpleData name="center_type">Крещеновка, с. в 2,6 км к югу от него, в 1,7 км к юго-вост. от дороги с. Крещеновка – с. Приишимское, в 0,3 км к юго-вост. от водокачки</SimpleData>
		<SimpleData name="lvl_line">07fd60b4-9771-44b5-8298-15b0c148e3ab</SimpleData>
	</SchemaData></ExtendedData>
      <Point><coordinates>73.0840353247441,50.6305357529403</coordinates></Point>
  </Placemark>
</Folder>
</Document></kml>
