<?xml version="1.0" encoding="utf-8" ?>
<kml xmlns="http://www.opengis.net/kml/2.2">
<Document id="root_doc">
<Schema name="081a79a9" id="081a79a9">
	<SimpleField name="type" type="string"></SimpleField>
	<SimpleField name="view" type="string"></SimpleField>
	<SimpleField name="leveling_order" type="string"></SimpleField>
	<SimpleField name="leveling_height" type="string"></SimpleField>
	<SimpleField name="control_height" type="string"></SimpleField>
	<SimpleField name="benchmark_number" type="string"></SimpleField>
	<SimpleField name="control_location" type="string"></SimpleField>
	<SimpleField name="benchmark_type" type="string"></SimpleField>
	<SimpleField name="leveling_line_section" type="string"></SimpleField>
	<SimpleField name="location_description" type="string"></SimpleField>
	<SimpleField name="status" type="string"></SimpleField>
	<SimpleField name="guid" type="string"></SimpleField>
	<SimpleField name="kml" type="string"></SimpleField>
	<SimpleField name="kml_link" type="string"></SimpleField>
</Schema>
<Folder><name>081a79a9</name>
  <Placemark id="081a79a9.1">
	<name>1395</name>
	<name>марка</name>
	<ExtendedData><SchemaData schemaUrl="#081a79a9">
		<SimpleData name="type">2</SimpleData>
		<SimpleData name="view">434,975</SimpleData>
		<SimpleData name="benchmark_number">144</SimpleData>
		<SimpleData name="control_location">Линия  :             Усть-Каменогорск - Лениногорск, 2 класс, Участок : марка 1400 - марка 1408 (3); марка 1408 - фунд.реп. 191 (1)</SimpleData>
		<SimpleData name="benchmark_type">Черемшанка, с., в 2 км к юго-вост. от него, на левом берегу р. Ульба, на 58 км бывш. узкоколейной жел./дор. Усть-Каменогорск-Лениногорск, в вертикаль-ной поверхности скалы, в 1,0 м от земли</SimpleData>
		<SimpleData name="location_description">081a79a9-a819-46eb-b79c-6d02ecfbabf9</SimpleData>
		<SimpleData name="status">data/stations/081a79a9.kml</SimpleData>
		<SimpleData name="guid">&lt;a href='data/stations/081a79a9.kml' target='_blank'&gt;Download KML&lt;/a&gt;</SimpleData>
	</SchemaData></ExtendedData>
      <Point><coordinates>83.0765001295068,50.2611057623835</coordinates></Point>
  </Placemark>
</Folder>
</Document></kml>
