<?xml version="1.0" encoding="utf-8" ?>
<kml xmlns="http://www.opengis.net/kml/2.2">
<Document id="root_doc">
<Schema name="08658c64" id="08658c64">
	<SimpleField name="title" type="string"></SimpleField>
	<SimpleField name="type" type="string"></SimpleField>
	<SimpleField name="ext_sign" type="string"></SimpleField>
	<SimpleField name="class_lvl" type="string"></SimpleField>
	<SimpleField name="height_lvl" type="string"></SimpleField>
	<SimpleField name="height_ctrl" type="string"></SimpleField>
	<SimpleField name="ctrl_place" type="string"></SimpleField>
	<SimpleField name="mark_num" type="string"></SimpleField>
	<SimpleField name="center_type" type="string"></SimpleField>
	<SimpleField name="lvl_line" type="string"></SimpleField>
	<SimpleField name="guid" type="string"></SimpleField>
</Schema>
<Folder><name>08658c64</name>
  <Placemark id="08658c64.1">
	<name>20</name>
	<description>грунтовый репер</description>
	<ExtendedData><SchemaData schemaUrl="#08658c64">
		<SimpleData name="type">2</SimpleData>
		<SimpleData name="ext_sign">323.264</SimpleData>
		<SimpleData name="ctrl_place">А</SimpleData>
		<SimpleData name="mark_num">Линия №1: Кзыл-Сенгир = Жумай, II класса (1) Участок: фунд.реп.5003 - гркнт.реп.2940</SimpleData>
		<SimpleData name="center_type">Куланутпес,с.,в 6.3 км к юго-зап.от него, в 4.9 км к югу от могилы Монек, в 48 м к вост.от дороги с.Ныгыман-с.Отарбай</SimpleData>
		<SimpleData name="lvl_line">08658c64-1d44-4dbd-9f8a-aefeca066491</SimpleData>
	</SchemaData></ExtendedData>
      <Point><coordinates>69.520379148093,50.0977103516595</coordinates></Point>
  </Placemark>
</Folder>
</Document></kml>
