<?xml version="1.0" encoding="utf-8" ?>
<kml xmlns="http://www.opengis.net/kml/2.2">
<Document id="root_doc">
<Schema name="096b578a" id="096b578a">
	<SimpleField name="title" type="string"></SimpleField>
	<SimpleField name="type" type="string"></SimpleField>
	<SimpleField name="ext_sign" type="string"></SimpleField>
	<SimpleField name="class_lvl" type="string"></SimpleField>
	<SimpleField name="height_lvl" type="string"></SimpleField>
	<SimpleField name="height_ctrl" type="string"></SimpleField>
	<SimpleField name="ctrl_place" type="string"></SimpleField>
	<SimpleField name="mark_num" type="string"></SimpleField>
	<SimpleField name="center_type" type="string"></SimpleField>
	<SimpleField name="lvl_line" type="string"></SimpleField>
	<SimpleField name="guid" type="string"></SimpleField>
</Schema>
<Folder><name>096b578a</name>
  <Placemark id="096b578a.1">
	<name>3167</name>
	<description>грунтовый репер</description>
	<ExtendedData><SchemaData schemaUrl="#096b578a">
		<SimpleData name="type">1</SimpleData>
		<SimpleData name="ext_sign">207.706</SimpleData>
		<SimpleData name="ctrl_place">121 оп</SimpleData>
		<SimpleData name="center_type">Дулыгалинская Мечеть, с., в 32.7 км к сев.-зап.от него, в11.2 км к югу от мог.Биктас, в 0.7 км к зап.от р.Дулыгалыжиланшик, в 24 м к зап.от дороги с.амангельды-с.Байконыр.</SimpleData>
		<SimpleData name="lvl_line">096b578a-20e3-4032-8f0d-798ff93e6cdd</SimpleData>
	</SchemaData></ExtendedData>
      <Point><coordinates>65.4984233747934,48.7760718106131</coordinates></Point>
  </Placemark>
</Folder>
</Document></kml>
