<?xml version="1.0" encoding="utf-8" ?>
<kml xmlns="http://www.opengis.net/kml/2.2">
<Document id="root_doc">
<Schema name="099455a6" id="099455a6">
	<SimpleField name="type" type="string"></SimpleField>
	<SimpleField name="view" type="string"></SimpleField>
	<SimpleField name="leveling_order" type="string"></SimpleField>
	<SimpleField name="leveling_height" type="string"></SimpleField>
	<SimpleField name="control_height" type="string"></SimpleField>
	<SimpleField name="benchmark_number" type="string"></SimpleField>
	<SimpleField name="control_location" type="string"></SimpleField>
	<SimpleField name="benchmark_type" type="string"></SimpleField>
	<SimpleField name="leveling_line_section" type="string"></SimpleField>
	<SimpleField name="location_description" type="string"></SimpleField>
	<SimpleField name="status" type="string"></SimpleField>
	<SimpleField name="guid" type="string"></SimpleField>
	<SimpleField name="kml" type="string"></SimpleField>
	<SimpleField name="kml_link" type="string"></SimpleField>
</Schema>
<Folder><name>099455a6</name>
  <Placemark id="099455a6.1">
	<name>703</name>
	<name>грунтовый репер</name>
	<ExtendedData><SchemaData schemaUrl="#099455a6">
		<SimpleData name="type">2</SimpleData>
		<SimpleData name="view">418,763</SimpleData>
		<SimpleData name="leveling_height">417,280</SimpleData>
		<SimpleData name="benchmark_number">в фундаментной плите</SimpleData>
		<SimpleData name="control_location">Линия № 2: Сасыккудык фун. реп. 2723. II класс (2) Участок: пир. 3 кл. Караабидаик - фунд. реп. 2724</SimpleData>
		<SimpleData name="benchmark_type">Шолак, мог., в 7.5 км к сев.-вост. от неё, в 5.1 км к сев.- зал. от мог. Муса, в 25 м к югу от полевой дороги </SimpleData>
		<SimpleData name="location_description">099455a6-fe43-4f7b-aa46-a89071cafcb5</SimpleData>
		<SimpleData name="status">data/stations/099455a6.kml</SimpleData>
		<SimpleData name="guid">&lt;a href='data/stations/099455a6.kml' target='_blank'&gt;Download KML&lt;/a&gt;</SimpleData>
	</SchemaData></ExtendedData>
      <Point><coordinates>70.2638745907782,47.4426620075884</coordinates></Point>
  </Placemark>
</Folder>
</Document></kml>
