<?xml version="1.0" encoding="utf-8" ?>
<kml xmlns="http://www.opengis.net/kml/2.2">
<Document id="root_doc">
<Schema name="0a14ebb1" id="0a14ebb1">
	<SimpleField name="type" type="string"></SimpleField>
	<SimpleField name="view" type="string"></SimpleField>
	<SimpleField name="leveling_order" type="string"></SimpleField>
	<SimpleField name="leveling_height" type="string"></SimpleField>
	<SimpleField name="control_height" type="string"></SimpleField>
	<SimpleField name="benchmark_number" type="string"></SimpleField>
	<SimpleField name="control_location" type="string"></SimpleField>
	<SimpleField name="benchmark_type" type="string"></SimpleField>
	<SimpleField name="leveling_line_section" type="string"></SimpleField>
	<SimpleField name="location_description" type="string"></SimpleField>
	<SimpleField name="status" type="string"></SimpleField>
	<SimpleField name="guid" type="string"></SimpleField>
	<SimpleField name="kml" type="string"></SimpleField>
	<SimpleField name="kml_link" type="string"></SimpleField>
</Schema>
<Folder><name>0a14ebb1</name>
  <Placemark id="0a14ebb1.1">
	<name>16147</name>
	<name>грунт. реп.</name>
	<ExtendedData><SchemaData schemaUrl="#0a14ebb1">
		<SimpleData name="type">2</SimpleData>
		<SimpleData name="view">873,443   </SimpleData>
		<SimpleData name="leveling_order">871,864   </SimpleData>
		<SimpleData name="control_height">репер  в верхней плоскости монолита</SimpleData>
		<SimpleData name="benchmark_number">121</SimpleData>
		<SimpleData name="control_location">Линия №1: Бугаз - Аягуз, 2 класс (2) Участок: ск. реп. 8 - грунт. реп. 15903</SimpleData>
		<SimpleData name="benchmark_type">Омербай, зим., в 2.8 км к сев. от неё, в 1.0 км к сев.-вост. от могилы, в 0.2 км к сев.-зап. от родника</SimpleData>
		<SimpleData name="location_description">0a14ebb1-5c5a-4cb7-878e-3d880c4e7c8a</SimpleData>
		<SimpleData name="status">data/stations/0a14ebb1.kml</SimpleData>
		<SimpleData name="guid">&lt;a href='data/stations/0a14ebb1.kml' target='_blank'&gt;Download KML&lt;/a&gt;</SimpleData>
	</SchemaData></ExtendedData>
      <Point><coordinates>81.3287569263804,48.1499373809804</coordinates></Point>
  </Placemark>
</Folder>
</Document></kml>
