<?xml version="1.0" encoding="utf-8" ?>
<kml xmlns="http://www.opengis.net/kml/2.2">
<Document id="root_doc">
<Schema name="0a2d598b" id="0a2d598b">
	<SimpleField name="type" type="string"></SimpleField>
	<SimpleField name="view" type="string"></SimpleField>
	<SimpleField name="leveling_order" type="string"></SimpleField>
	<SimpleField name="leveling_height" type="string"></SimpleField>
	<SimpleField name="control_height" type="string"></SimpleField>
	<SimpleField name="benchmark_number" type="string"></SimpleField>
	<SimpleField name="control_location" type="string"></SimpleField>
	<SimpleField name="benchmark_type" type="string"></SimpleField>
	<SimpleField name="leveling_line_section" type="string"></SimpleField>
	<SimpleField name="location_description" type="string"></SimpleField>
	<SimpleField name="status" type="string"></SimpleField>
	<SimpleField name="guid" type="string"></SimpleField>
	<SimpleField name="kml" type="string"></SimpleField>
	<SimpleField name="kml_link" type="string"></SimpleField>
</Schema>
<Folder><name>0a2d598b</name>
  <Placemark id="0a2d598b.1">
	<name>912</name>
	<name>грунтовый репер</name>
	<ExtendedData><SchemaData schemaUrl="#0a2d598b">
		<SimpleData name="type">II</SimpleData>
		<SimpleData name="view">369,381</SimpleData>
		<SimpleData name="benchmark_number">160оп</SimpleData>
		<SimpleData name="control_location">Линия №1: Сарыкияк - Степное, II класс (1)  Участок: грунт.реп.2 - грунт.реп. 10974</SimpleData>
		<SimpleData name="benchmark_type">Айтен, отд.,дв., в 4,8 км к сев.-вост.от них, в 2,4 км к юго-зап. от зим.Шубарозек, в 50 м к югу от полевой дороги</SimpleData>
		<SimpleData name="location_description">0a2d598b-844c-4f2d-87ab-d974a96e759b</SimpleData>
		<SimpleData name="status">data/stations/0a2d598b.kml</SimpleData>
		<SimpleData name="guid">&lt;a href='data/stations/0a2d598b.kml' target='_blank'&gt;Download KML&lt;/a&gt;</SimpleData>
	</SchemaData></ExtendedData>
      <Point><coordinates>74.7278175539449,51.2665316457272</coordinates></Point>
  </Placemark>
</Folder>
</Document></kml>
