<?xml version="1.0" encoding="utf-8" ?>
<kml xmlns="http://www.opengis.net/kml/2.2">
<Document id="root_doc">
<Schema name="0a343986" id="0a343986">
	<SimpleField name="title" type="string"></SimpleField>
	<SimpleField name="type" type="string"></SimpleField>
	<SimpleField name="ext_sign" type="string"></SimpleField>
	<SimpleField name="class_lvl" type="string"></SimpleField>
	<SimpleField name="height_lvl" type="string"></SimpleField>
	<SimpleField name="height_ctrl" type="string"></SimpleField>
	<SimpleField name="ctrl_place" type="string"></SimpleField>
	<SimpleField name="mark_num" type="string"></SimpleField>
	<SimpleField name="center_type" type="string"></SimpleField>
	<SimpleField name="lvl_line" type="string"></SimpleField>
	<SimpleField name="guid" type="string"></SimpleField>
</Schema>
<Folder><name>0a343986</name>
  <Placemark id="0a343986.1">
	<name>6877</name>
	<ExtendedData><SchemaData schemaUrl="#0a343986">
		<SimpleData name="title">скальный репер</SimpleData>
		<SimpleData name="type">2</SimpleData>
		<SimpleData name="ext_sign">400.308</SimpleData>
		<SimpleData name="ctrl_place">99 оп. знак</SimpleData>
		<SimpleData name="mark_num">Линия № 5: Актас - р. Чу, 2 класс (1) Участок: фунд. реп. 2280 - грунт, реп. 687</SimpleData>
		<SimpleData name="center_type">Кишикыр, к., в 11.8 км к сев.-зап. от него, в 0.7 км к юго­ зап. от к. № 667, в 10 м к сев. от кладбища и полевой дороги</SimpleData>
		<SimpleData name="lvl_line">0a343986-8e0f-4db7-97f7-4a0874ee8a9b</SimpleData>
	</SchemaData></ExtendedData>
      <Point><coordinates>71.3149318924118,45.6555120800206</coordinates></Point>
  </Placemark>
</Folder>
</Document></kml>
