<?xml version="1.0" encoding="UTF-8"?>
<kml xmlns="http://www.opengis.net/kml/2.2">
  <Document id="root_doc">
    <Schema id="0a406deb" name="0a406deb">
      <SimpleField name="title" type="string"/>
      <SimpleField name="type" type="string"/>
      <SimpleField name="ext_sign" type="string"/>
      <SimpleField name="class_lvl" type="string"/>
      <SimpleField name="height_lvl" type="string"/>
      <SimpleField name="height_ctrl" type="string"/>
      <SimpleField name="ctrl_place" type="string"/>
      <SimpleField name="mark_num" type="string"/>
      <SimpleField name="center_type" type="string"/>
      <SimpleField name="lvl_line" type="string"/>
      <SimpleField name="guid" type="string"/>
    </Schema>
    <Schema id="_0a406deb.schema">
      <SimpleField name="title" type="string"/>
      <SimpleField name="type" type="string"/>
      <SimpleField name="ext_sign" type="string"/>
      <SimpleField name="class_lvl" type="string"/>
      <SimpleField name="height_lvl" type="string"/>
      <SimpleField name="height_ctrl" type="string"/>
      <SimpleField name="ctrl_place" type="string"/>
      <SimpleField name="mark_num" type="string"/>
      <SimpleField name="center_type" type="string"/>
      <SimpleField name="lvl_line" type="string"/>
      <SimpleField name="guid" type="string"/>
    </Schema>
    <Document id="_0a406deb">
      <name>0a406deb</name>
      <Placemark id="_0a406deb.1">
        <description>Бесапан, кладб., в 9.5 км к сев.-вост, от него, в 0.8 км к юго-зап. от перекрёстка грунт, дороги с. Сынтас - с. Аккенсе и полевой дороги, в 32 м к сев.-зап. от грунт, дороги</description>
        <ExtendedData>
          <SchemaData schemaUrl="#_0a406deb.schema">
            <SimpleData name="title">1400</SimpleData>
            <SimpleData name="type">грунтовый репер</SimpleData>
            <SimpleData name="ext_sign">грунтовый репер</SimpleData>
            <SimpleData name="class_lvl">2</SimpleData>
            <SimpleData name="height_lvl">326,394</SimpleData>
            <SimpleData name="center_type">160 оп. знак</SimpleData>
            <SimpleData name="lvl_line">Линия № 2: Древний Курган - Сасыккудык, 2 класс (3) Участок: фунд. реп. 1377-грунт, реп. 1761</SimpleData>
            <SimpleData name="guid">0a406deb-903a-4c1d-bad7-d2422cd019fa</SimpleData>
          </SchemaData>
        </ExtendedData>
        <Point>
          <coordinates>
            68.6516324882235,47.4182109104866,0
          </coordinates>
        </Point>
      </Placemark>
    </Document>
  </Document>
</kml>
