<?xml version="1.0" encoding="UTF-8"?>
<kml xmlns="http://www.opengis.net/kml/2.2">
  <Document id="root_doc">
    <Schema id="0ab57ba3" name="0ab57ba3">
      <SimpleField name="title" type="string"/>
      <SimpleField name="type" type="string"/>
      <SimpleField name="ext_sign" type="string"/>
      <SimpleField name="class_lvl" type="string"/>
      <SimpleField name="height_lvl" type="string"/>
      <SimpleField name="height_ctrl" type="string"/>
      <SimpleField name="ctrl_place" type="string"/>
      <SimpleField name="mark_num" type="string"/>
      <SimpleField name="center_type" type="string"/>
      <SimpleField name="lvl_line" type="string"/>
      <SimpleField name="guid" type="string"/>
    </Schema>
    <Schema id="_0ab57ba3.schema">
      <SimpleField name="title" type="string"/>
      <SimpleField name="type" type="string"/>
      <SimpleField name="ext_sign" type="string"/>
      <SimpleField name="class_lvl" type="string"/>
      <SimpleField name="height_lvl" type="string"/>
      <SimpleField name="height_ctrl" type="string"/>
      <SimpleField name="ctrl_place" type="string"/>
      <SimpleField name="mark_num" type="string"/>
      <SimpleField name="center_type" type="string"/>
      <SimpleField name="lvl_line" type="string"/>
      <SimpleField name="guid" type="string"/>
    </Schema>
    <Document id="_0ab57ba3">
      <name>0ab57ba3</name>
      <Placemark id="_0ab57ba3.1">
        <description>Комекбаев, с., в 84,6 км к западу от него, в 2,6 км к северу от сухого озера, в 93 м к вост. от пол. дороги.
</description>
        <ExtendedData>
          <SchemaData schemaUrl="#_0ab57ba3.schema">
            <SimpleData name="title">2805 фунд.</SimpleData>
            <SimpleData name="type">фундаментальный репер</SimpleData>
            <SimpleData name="center_type">161 оп</SimpleData>
            <SimpleData name="guid">0ab57ba3-2886-4bfd-87a8-31c5343214ac</SimpleData>
          </SchemaData>
        </ExtendedData>
        <Point>
          <coordinates>
            62.00061972,44.89969889,0
          </coordinates>
        </Point>
      </Placemark>
    </Document>
  </Document>
</kml>
