<?xml version="1.0" encoding="utf-8" ?>
<kml xmlns="http://www.opengis.net/kml/2.2">
<Document id="root_doc">
<Schema name="0ac22a86" id="0ac22a86">
	<SimpleField name="title" type="string"></SimpleField>
	<SimpleField name="type" type="string"></SimpleField>
	<SimpleField name="ext_sign" type="string"></SimpleField>
	<SimpleField name="class_lvl" type="string"></SimpleField>
	<SimpleField name="height_lvl" type="string"></SimpleField>
	<SimpleField name="height_ctrl" type="string"></SimpleField>
	<SimpleField name="ctrl_place" type="string"></SimpleField>
	<SimpleField name="mark_num" type="string"></SimpleField>
	<SimpleField name="center_type" type="string"></SimpleField>
	<SimpleField name="lvl_line" type="string"></SimpleField>
	<SimpleField name="guid" type="string"></SimpleField>
</Schema>
<Folder><name>0ac22a86</name>
  <Placemark id="0ac22a86.1">
	<name>1209</name>
	<ExtendedData><SchemaData schemaUrl="#0ac22a86">
		<SimpleData name="title">грунт.реп.</SimpleData>
		<SimpleData name="type">II</SimpleData>
		<SimpleData name="ext_sign">256.264</SimpleData>
		<SimpleData name="mark_num">Линия№2:Наурызм-Державинск, от фунд.реп.80 до фунд.реп.4778Участок:пир. 3 кл.Тубелес-фунд.реп.4778</SimpleData>
		<SimpleData name="center_type">Дамды, с., в 25.0 км к сев-вост.от него,в 12.0 км к юго-вост.от свх.им.Панфилова , в 0.5 км к югу от полевого стана  бригады №3 свх.им.Панфилова, в 8 м к вост от полевой дороги</SimpleData>
		<SimpleData name="lvl_line">0ac22a86-3b8a-4fd4-9def-8c2f19b31038</SimpleData>
	</SchemaData></ExtendedData>
      <Point><coordinates>65.2981740489397,51.3586624418929</coordinates></Point>
  </Placemark>
</Folder>
</Document></kml>
