<?xml version="1.0" encoding="utf-8" ?>
<kml xmlns="http://www.opengis.net/kml/2.2">
<Document id="root_doc">
<Schema name="0af64b5e" id="0af64b5e">
	<SimpleField name="title" type="string"></SimpleField>
	<SimpleField name="type" type="string"></SimpleField>
	<SimpleField name="ext_sign" type="string"></SimpleField>
	<SimpleField name="class_lvl" type="string"></SimpleField>
	<SimpleField name="height_lvl" type="string"></SimpleField>
	<SimpleField name="height_ctrl" type="string"></SimpleField>
	<SimpleField name="ctrl_place" type="string"></SimpleField>
	<SimpleField name="mark_num" type="string"></SimpleField>
	<SimpleField name="center_type" type="string"></SimpleField>
	<SimpleField name="lvl_line" type="string"></SimpleField>
	<SimpleField name="guid" type="string"></SimpleField>
</Schema>
<Folder><name>0af64b5e</name>
  <Placemark id="0af64b5e.1">
	<name>201</name>
	<ExtendedData><SchemaData schemaUrl="#0af64b5e">
		<SimpleData name="title">скальный репер</SimpleData>
		<SimpleData name="type">2</SimpleData>
		<SimpleData name="ext_sign">381,306</SimpleData>
		<SimpleData name="class_lvl">378,972</SimpleData>
		<SimpleData name="height_lvl">111 оп.знак</SimpleData>
		<SimpleData name="height_ctrl">Линия № 1: Кызылжар фунд. реп. 2723, 11 класс (1) Участок: грунт. реп. 23 - фунд. реп. 2723</SimpleData>
		<SimpleData name="ctrl_place">Майлыбай. мог .. в 5.5 км к сев.-зап. от от неё, на берегу р. Кызылеуозен, к воет. от мог. Мольдир</SimpleData>
		<SimpleData name="mark_num">L-42-9-В</SimpleData>
		<SimpleData name="center_type">12</SimpleData>
		<SimpleData name="lvl_line">0af64b5e-b5d7-4536-829e-06cf3547cb18</SimpleData>
	</SchemaData></ExtendedData>
      <Point><coordinates>70.0688464224605,47.7107671117102</coordinates></Point>
  </Placemark>
</Folder>
</Document></kml>
