<?xml version="1.0" encoding="utf-8" ?>
<kml xmlns="http://www.opengis.net/kml/2.2">
<Document id="root_doc">
<Schema name="0b0cae1d" id="0b0cae1d">
	<SimpleField name="type" type="string"></SimpleField>
	<SimpleField name="view" type="string"></SimpleField>
	<SimpleField name="leveling_order" type="string"></SimpleField>
	<SimpleField name="leveling_height" type="string"></SimpleField>
	<SimpleField name="control_height" type="string"></SimpleField>
	<SimpleField name="benchmark_number" type="string"></SimpleField>
	<SimpleField name="control_location" type="string"></SimpleField>
	<SimpleField name="benchmark_type" type="string"></SimpleField>
	<SimpleField name="leveling_line_section" type="string"></SimpleField>
	<SimpleField name="location_description" type="string"></SimpleField>
	<SimpleField name="status" type="string"></SimpleField>
	<SimpleField name="guid" type="string"></SimpleField>
	<SimpleField name="kml" type="string"></SimpleField>
	<SimpleField name="kml_link" type="string"></SimpleField>
</Schema>
<Folder><name>0b0cae1d</name>
  <Placemark id="0b0cae1d.1">
	<name>2055</name>
	<name>фунд. реп. </name>
	<ExtendedData><SchemaData schemaUrl="#0b0cae1d">
		<SimpleData name="type">1</SimpleData>
		<SimpleData name="view">408.4521</SimpleData>
		<SimpleData name="leveling_order">407.579</SimpleData>
		<SimpleData name="leveling_height">3310</SimpleData>
		<SimpleData name="control_height">Контрольный репер в фундаментной плите </SimpleData>
		<SimpleData name="benchmark_number">104 оп. знак </SimpleData>
		<SimpleData name="control_location">Линия № 2: Алажиде - Каратас, Участок: фунд.реп. 386 –  грунт. реп. 41</SimpleData>
		<SimpleData name="benchmark_type">Кумтобе, раз., в 0.8 км к сев.-вост. от него, на 7 пк 1296 км, в 0.2 км к вост. от жел. дор., в 0.2 км к юго-вост. от пк стб. 6/7, в 93 м к вост. от жел. дор.</SimpleData>
		<SimpleData name="location_description">0b0cae1d-5828-4a2a-84e1-c8647c9d6028</SimpleData>
		<SimpleData name="status">data/stations/0b0cae1d.kml</SimpleData>
		<SimpleData name="guid">&lt;a href='data/stations/0b0cae1d.kml' target='_blank'&gt;Download KML&lt;/a&gt;</SimpleData>
	</SchemaData></ExtendedData>
      <Point><coordinates>78.6022183281002,45.6704055785993</coordinates></Point>
  </Placemark>
</Folder>
</Document></kml>
