<?xml version="1.0" encoding="utf-8" ?>
<kml xmlns="http://www.opengis.net/kml/2.2">
<Document id="root_doc">
<Schema name="0b397967" id="0b397967">
	<SimpleField name="type" type="string"></SimpleField>
	<SimpleField name="view" type="string"></SimpleField>
	<SimpleField name="leveling_order" type="string"></SimpleField>
	<SimpleField name="leveling_height" type="string"></SimpleField>
	<SimpleField name="control_height" type="string"></SimpleField>
	<SimpleField name="benchmark_number" type="string"></SimpleField>
	<SimpleField name="control_location" type="string"></SimpleField>
	<SimpleField name="benchmark_type" type="string"></SimpleField>
	<SimpleField name="leveling_line_section" type="string"></SimpleField>
	<SimpleField name="location_description" type="string"></SimpleField>
	<SimpleField name="status" type="string"></SimpleField>
	<SimpleField name="guid" type="string"></SimpleField>
	<SimpleField name="kml" type="string"></SimpleField>
	<SimpleField name="kml_link" type="string"></SimpleField>
</Schema>
<Folder><name>0b397967</name>
  <Placemark id="0b397967.1">
	<name>32</name>
	<description>грунт. реп.</description>
	<ExtendedData><SchemaData schemaUrl="#0b397967">
		<SimpleData name="type">1</SimpleData>
		<SimpleData name="view">741.581</SimpleData>
		<SimpleData name="leveling_order">738,814</SimpleData>
		<SimpleData name="control_height">Контрольный репер № 193 в верхней плоскости моналита</SimpleData>
		<SimpleData name="benchmark_number">123оп.</SimpleData>
		<SimpleData name="control_location">Линия № 1: Ульяновский_Каркаралинск, I класс (2) Участок: фундаментальный репер 489-фундаментальный репер 1679</SimpleData>
		<SimpleData name="benchmark_type">Каркаралинск, гор., в 13,0 км к сев.-зап. от него, в 0,8 км к сев.-вост. от шоссе с. Коктас-гор. Каркаралинск, в 0,4 км к сев.-зап. от р. Жарым</SimpleData>
		<SimpleData name="location_description">0b397967-0208-45fc-90e0-59f3ee1033cb</SimpleData>
		<SimpleData name="status">data/stations/0b397967.kml</SimpleData>
		<SimpleData name="guid">&lt;a href='data/stations/0b397967.kml' target='_blank'&gt;Download KML&lt;/a&gt;</SimpleData>
	</SchemaData></ExtendedData>
      <Point><coordinates>75.3832399430016,49.5201660039844</coordinates></Point>
  </Placemark>
</Folder>
</Document></kml>
