<?xml version="1.0" encoding="utf-8" ?>
<kml xmlns="http://www.opengis.net/kml/2.2">
<Document id="root_doc">
<Schema name="0b6a72e5" id="0b6a72e5">
	<SimpleField name="type" type="string"></SimpleField>
	<SimpleField name="view" type="string"></SimpleField>
	<SimpleField name="leveling_order" type="string"></SimpleField>
	<SimpleField name="leveling_height" type="string"></SimpleField>
	<SimpleField name="control_height" type="string"></SimpleField>
	<SimpleField name="benchmark_number" type="string"></SimpleField>
	<SimpleField name="control_location" type="string"></SimpleField>
	<SimpleField name="benchmark_type" type="string"></SimpleField>
	<SimpleField name="leveling_line_section" type="string"></SimpleField>
	<SimpleField name="location_description" type="string"></SimpleField>
	<SimpleField name="status" type="string"></SimpleField>
	<SimpleField name="guid" type="string"></SimpleField>
	<SimpleField name="kml" type="string"></SimpleField>
	<SimpleField name="kml_link" type="string"></SimpleField>
</Schema>
<Folder><name>0b6a72e5</name>
  <Placemark id="0b6a72e5.1">
	<name>6208</name>
	<name>грунт реп.</name>
	<ExtendedData><SchemaData schemaUrl="#0b6a72e5">
		<SimpleData name="type">1</SimpleData>
		<SimpleData name="view">166,605</SimpleData>
		<SimpleData name="leveling_order">165,22</SimpleData>
		<SimpleData name="benchmark_number">116</SimpleData>
		<SimpleData name="control_location">Линия №1: Соль-Илецк-Каратогай, 1 класс. Участок: марка 0878-марка 3260</SimpleData>
		<SimpleData name="benchmark_type">Яйсан, стан., в 6.0 км к юго-вост. от нее, на 1 пикете 1694 км, в 34 м к юго-вост. От км.стб. №1693/1694, в 24 м к югу от жел.-дор.полотна </SimpleData>
		<SimpleData name="location_description">0b6a72e5-71b9-406c-8df6-d976c0cba818</SimpleData>
		<SimpleData name="status">data/stations/0b6a72e5.kml</SimpleData>
		<SimpleData name="guid">&lt;a href='data/stations/0b6a72e5.kml' target='_blank'&gt;Download KML&lt;/a&gt;</SimpleData>
	</SchemaData></ExtendedData>
      <Point><coordinates>56.2866414384585,50.8040598299266</coordinates></Point>
  </Placemark>
</Folder>
</Document></kml>
