<?xml version="1.0" encoding="utf-8" ?>
<kml xmlns="http://www.opengis.net/kml/2.2">
<Document id="root_doc">
<Schema name="0cc2d936" id="0cc2d936">
	<SimpleField name="title" type="string"></SimpleField>
	<SimpleField name="type" type="string"></SimpleField>
	<SimpleField name="ext_sign" type="string"></SimpleField>
	<SimpleField name="class_lvl" type="string"></SimpleField>
	<SimpleField name="height_lvl" type="string"></SimpleField>
	<SimpleField name="height_ctrl" type="string"></SimpleField>
	<SimpleField name="ctrl_place" type="string"></SimpleField>
	<SimpleField name="mark_num" type="string"></SimpleField>
	<SimpleField name="center_type" type="string"></SimpleField>
	<SimpleField name="lvl_line" type="string"></SimpleField>
	<SimpleField name="guid" type="string"></SimpleField>
</Schema>
<Folder><name>0cc2d936</name>
  <Placemark id="0cc2d936.1">
	<name>2987</name>
	<description>грунт.реп.</description>
	<ExtendedData><SchemaData schemaUrl="#0cc2d936">
		<SimpleData name="type">2</SimpleData>
		<SimpleData name="ext_sign">223.252</SimpleData>
		<SimpleData name="ctrl_place">В</SimpleData>
		<SimpleData name="mark_num">Линия: грунт.реп.4-ск.реп.б/№ Жаманканбай, II класс</SimpleData>
		<SimpleData name="center_type">Айтман, к., в 5.8 км к югу от него, в 0.5 км к западу от такыра , в 10 м к северу от дороги Кунград-Шевченко</SimpleData>
		<SimpleData name="lvl_line">0cc2d936-7c2a-4dfd-a9e4-238e036b06b0</SimpleData>
	</SchemaData></ExtendedData>
      <Point><coordinates>55.4566020028133,43.1777745208552</coordinates></Point>
  </Placemark>
</Folder>
</Document></kml>
