<?xml version="1.0" encoding="utf-8" ?>
<kml xmlns="http://www.opengis.net/kml/2.2">
<Document id="root_doc">
<Schema name="0cd27c94" id="0cd27c94">
	<SimpleField name="title" type="string"></SimpleField>
	<SimpleField name="type" type="string"></SimpleField>
	<SimpleField name="ext_sign" type="string"></SimpleField>
	<SimpleField name="class_lvl" type="string"></SimpleField>
	<SimpleField name="height_lvl" type="string"></SimpleField>
	<SimpleField name="height_ctrl" type="string"></SimpleField>
	<SimpleField name="ctrl_place" type="string"></SimpleField>
	<SimpleField name="mark_num" type="string"></SimpleField>
	<SimpleField name="center_type" type="string"></SimpleField>
	<SimpleField name="lvl_line" type="string"></SimpleField>
	<SimpleField name="guid" type="string"></SimpleField>
</Schema>
<Folder><name>0cd27c94</name>
  <Placemark id="0cd27c94.1">
	<name>2002</name>
	<ExtendedData><SchemaData schemaUrl="#0cd27c94">
		<SimpleData name="title">грунт.реп.</SimpleData>
		<SimpleData name="type">2</SimpleData>
		<SimpleData name="ext_sign">605.387</SimpleData>
		<SimpleData name="ctrl_place">121 оп</SimpleData>
		<SimpleData name="mark_num">Линия № 1: Жиделисай - Бала-Терсаккан, ІІ класс (1) Участок: грунт.реп. 599 - ск.реп. 7585</SimpleData>
		<SimpleData name="center_type">Улытау, с., в 13.0 км к сев от него, в 0.2 км к югу от моста по шоссе с. Коргасын - с. Улытау, в 0.1 км к вост от шоссе</SimpleData>
		<SimpleData name="lvl_line">0cd27c94-98e3-4f94-a8d9-1ec2a5c892e8</SimpleData>
	</SchemaData></ExtendedData>
      <Point><coordinates>67.03581611,48.76773439</coordinates></Point>
  </Placemark>
</Folder>
</Document></kml>
