<?xml version="1.0" encoding="utf-8" ?>
<kml xmlns="http://www.opengis.net/kml/2.2">
<Document id="root_doc">
<Schema name="0d2edae4" id="0d2edae4">
	<SimpleField name="type" type="string"></SimpleField>
	<SimpleField name="view" type="string"></SimpleField>
	<SimpleField name="leveling_order" type="string"></SimpleField>
	<SimpleField name="leveling_height" type="string"></SimpleField>
	<SimpleField name="control_height" type="string"></SimpleField>
	<SimpleField name="benchmark_number" type="string"></SimpleField>
	<SimpleField name="control_location" type="string"></SimpleField>
	<SimpleField name="benchmark_type" type="string"></SimpleField>
	<SimpleField name="leveling_line_section" type="string"></SimpleField>
	<SimpleField name="location_description" type="string"></SimpleField>
	<SimpleField name="status" type="string"></SimpleField>
	<SimpleField name="guid" type="string"></SimpleField>
	<SimpleField name="kml" type="string"></SimpleField>
	<SimpleField name="kml_link" type="string"></SimpleField>
</Schema>
<Folder><name>0d2edae4</name>
  <Placemark id="0d2edae4.1">
	<name>3748</name>
	<name>грунт. реп. </name>
	<ExtendedData><SchemaData schemaUrl="#0d2edae4">
		<SimpleData name="type">2</SimpleData>
		<SimpleData name="view">185.099</SimpleData>
		<SimpleData name="leveling_order">184.505</SimpleData>
		<SimpleData name="benchmark_number">161 оп. знак</SimpleData>
		<SimpleData name="control_location">Линия №1: Коккабак - Жосалы. 2 класс. Участок: грунт. реп. 4537 - грунт. реп. 5805</SimpleData>
		<SimpleData name="benchmark_type">Бектибай. к.. в 10.4 км к югу от него. в 4.1 км к сев.-зап.от мог. Калбагай. в 0.2 км к зап.от полевой дороги</SimpleData>
		<SimpleData name="location_description">0d2edae4-8ee1-4d0a-b9d4-300f1189eac6</SimpleData>
		<SimpleData name="status">data/stations/0d2edae4.kml</SimpleData>
		<SimpleData name="guid">&lt;a href='data/stations/0d2edae4.kml' target='_blank'&gt;Download KML&lt;/a&gt;</SimpleData>
	</SchemaData></ExtendedData>
      <Point><coordinates>63.9701470904782,46.3121157565693</coordinates></Point>
  </Placemark>
</Folder>
</Document></kml>
