<?xml version="1.0" encoding="utf-8" ?>
<kml xmlns="http://www.opengis.net/kml/2.2">
<Document id="root_doc">
<Schema name="0ddcc486" id="0ddcc486">
	<SimpleField name="title" type="string"></SimpleField>
	<SimpleField name="type" type="string"></SimpleField>
	<SimpleField name="ext_sign" type="string"></SimpleField>
	<SimpleField name="class_lvl" type="string"></SimpleField>
	<SimpleField name="height_lvl" type="string"></SimpleField>
	<SimpleField name="height_ctrl" type="string"></SimpleField>
	<SimpleField name="ctrl_place" type="string"></SimpleField>
	<SimpleField name="mark_num" type="string"></SimpleField>
	<SimpleField name="center_type" type="string"></SimpleField>
	<SimpleField name="lvl_line" type="string"></SimpleField>
	<SimpleField name="guid" type="string"></SimpleField>
</Schema>
<Folder><name>0ddcc486</name>
  <Placemark id="0ddcc486.1">
	<name>12-142</name>
	<description>грунтовый репер</description>
	<ExtendedData><SchemaData schemaUrl="#0ddcc486">
		<SimpleData name="type">1</SimpleData>
		<SimpleData name="ext_sign">15.553</SimpleData>
		<SimpleData name="ctrl_place">146</SimpleData>
		<SimpleData name="mark_num">Линия №1: Доссор-Бейнеу, 1 класс         Участок: фунд.реп.73-грунт.реп.19307</SimpleData>
		<SimpleData name="center_type">Шокпартогай, с., в 16.6 км к сев.от него, в 0.2 км к сев.-зап.от км.стб. №188, в 90 м к сев.-вост.от дороги с.Сагиз-с.Кульсары</SimpleData>
		<SimpleData name="lvl_line">0ddcc486-28f8-4cb9-a15e-b8c76ff5815a</SimpleData>
	</SchemaData></ExtendedData>
      <Point><coordinates>53.9506958231303,47.1929179318571</coordinates></Point>
  </Placemark>
</Folder>
</Document></kml>
