<?xml version="1.0" encoding="utf-8" ?>
<kml xmlns="http://www.opengis.net/kml/2.2">
<Document id="root_doc">
<Schema name="0dfac103" id="0dfac103">
	<SimpleField name="title" type="string"></SimpleField>
	<SimpleField name="type" type="string"></SimpleField>
	<SimpleField name="ext_sign" type="string"></SimpleField>
	<SimpleField name="class_lvl" type="string"></SimpleField>
	<SimpleField name="height_lvl" type="string"></SimpleField>
	<SimpleField name="height_ctrl" type="string"></SimpleField>
	<SimpleField name="ctrl_place" type="string"></SimpleField>
	<SimpleField name="mark_num" type="string"></SimpleField>
	<SimpleField name="center_type" type="string"></SimpleField>
	<SimpleField name="lvl_line" type="string"></SimpleField>
	<SimpleField name="guid" type="string"></SimpleField>
</Schema>
<Folder><name>0dfac103</name>
  <Placemark id="0dfac103.1">
	<name>6794</name>
	<description>грунтовый репер</description>
	<ExtendedData><SchemaData schemaUrl="#0dfac103">
		<SimpleData name="type">1</SimpleData>
		<SimpleData name="ext_sign">281.213</SimpleData>
		<SimpleData name="ctrl_place">160</SimpleData>
		<SimpleData name="center_type">Атбасар, гор., южная окраина его, в 0.5 км к юго-зап. от моста через р.Жабай, в 41 м к зап. от автодороги г.Атбасар-г.Державинск, в 3 м к югу от углового стб. ЛЭП 10 кВт.</SimpleData>
		<SimpleData name="lvl_line">0dfac103-c9dc-49d8-8a5b-d81b1f878043</SimpleData>
	</SchemaData></ExtendedData>
      <Point><coordinates>68.3409101244784,51.784200268095</coordinates></Point>
  </Placemark>
</Folder>
</Document></kml>
