<?xml version="1.0" encoding="utf-8" ?>
<kml xmlns="http://www.opengis.net/kml/2.2">
<Document id="root_doc">
<Schema name="0e1224dd" id="0e1224dd">
	<SimpleField name="type" type="string"></SimpleField>
	<SimpleField name="view" type="string"></SimpleField>
	<SimpleField name="leveling_order" type="string"></SimpleField>
	<SimpleField name="leveling_height" type="string"></SimpleField>
	<SimpleField name="control_height" type="string"></SimpleField>
	<SimpleField name="benchmark_number" type="string"></SimpleField>
	<SimpleField name="control_location" type="string"></SimpleField>
	<SimpleField name="benchmark_type" type="string"></SimpleField>
	<SimpleField name="leveling_line_section" type="string"></SimpleField>
	<SimpleField name="location_description" type="string"></SimpleField>
	<SimpleField name="status" type="string"></SimpleField>
	<SimpleField name="guid" type="string"></SimpleField>
	<SimpleField name="kml" type="string"></SimpleField>
	<SimpleField name="kml_link" type="string"></SimpleField>
</Schema>
<Folder><name>0e1224dd</name>
  <Placemark id="0e1224dd.1">
	<name>4367</name>
	<name>грунтовый репер</name>
	<ExtendedData><SchemaData schemaUrl="#0e1224dd">
		<SimpleData name="type">2</SimpleData>
		<SimpleData name="view">207.400</SimpleData>
		<SimpleData name="leveling_height">206.112</SimpleData>
		<SimpleData name="benchmark_number">репер в верхней плоскости монолита</SimpleData>
		<SimpleData name="control_location">Линия №10: грунт. реп. 19032-грунт. реп.5425, III класс</SimpleData>
		<SimpleData name="benchmark_type">Алаты, к.,в 8.3 км к сев.-вост. от него, в 0.3 км. югу. от к. Топас, в 0.1 км к юго.-зап. от развилки полевой дороги </SimpleData>
		<SimpleData name="location_description">0e1224dd-ef23-4bf0-91d6-b15c8a139cea</SimpleData>
		<SimpleData name="status">data/stations/0e1224dd.kml</SimpleData>
		<SimpleData name="guid">&lt;a href='data/stations/0e1224dd.kml' target='_blank'&gt;Download KML&lt;/a&gt;</SimpleData>
	</SchemaData></ExtendedData>
      <Point><coordinates>66.6184962995449,42.1139470426084</coordinates></Point>
  </Placemark>
</Folder>
</Document></kml>
