<?xml version="1.0" encoding="utf-8" ?>
<kml xmlns="http://www.opengis.net/kml/2.2">
<Document id="root_doc">
<Schema name="0e4b7fc9" id="0e4b7fc9">
	<SimpleField name="type" type="string"></SimpleField>
	<SimpleField name="view" type="string"></SimpleField>
	<SimpleField name="leveling_order" type="string"></SimpleField>
	<SimpleField name="leveling_height" type="string"></SimpleField>
	<SimpleField name="control_height" type="string"></SimpleField>
	<SimpleField name="benchmark_number" type="string"></SimpleField>
	<SimpleField name="control_location" type="string"></SimpleField>
	<SimpleField name="benchmark_type" type="string"></SimpleField>
	<SimpleField name="leveling_line_section" type="string"></SimpleField>
	<SimpleField name="location_description" type="string"></SimpleField>
	<SimpleField name="status" type="string"></SimpleField>
	<SimpleField name="guid" type="string"></SimpleField>
	<SimpleField name="kml" type="string"></SimpleField>
	<SimpleField name="kml_link" type="string"></SimpleField>
</Schema>
<Folder><name>0e4b7fc9</name>
  <Placemark id="0e4b7fc9.1">
	<name>2758</name>
	<name>грунт. реп.</name>
	<ExtendedData><SchemaData schemaUrl="#0e4b7fc9">
		<SimpleData name="type">2</SimpleData>
		<SimpleData name="view">1160.377</SimpleData>
		<SimpleData name="benchmark_number">160 оп. знак</SimpleData>
		<SimpleData name="control_location">Линия № 3: Карабута – Белая Школа, II класс , Участок: фунд.реп. 131 – ск.реп. 2274</SimpleData>
		<SimpleData name="benchmark_type">Предгорное, с., в 8.6 км к юго-зап. от него, в 0.2 км к юго-зап. от разв. пол. ст., в 10 м к вост. от грунт. дороги с. Предгорное – с. Карабута</SimpleData>
		<SimpleData name="location_description">0e4b7fc9-88b1-456e-89f4-89209a0e0081</SimpleData>
		<SimpleData name="status">data/stations/0e4b7fc9.kml</SimpleData>
		<SimpleData name="guid">&lt;a href='data/stations/0e4b7fc9.kml' target='_blank'&gt;Download KML&lt;/a&gt;</SimpleData>
	</SchemaData></ExtendedData>
      <Point><coordinates>82.6936288428118,47.0190024733592</coordinates></Point>
  </Placemark>
</Folder>
</Document></kml>
