<?xml version="1.0" encoding="utf-8" ?>
<kml xmlns="http://www.opengis.net/kml/2.2">
<Document id="root_doc">
<Schema name="0ee12ada" id="0ee12ada">
	<SimpleField name="type" type="string"></SimpleField>
	<SimpleField name="view" type="string"></SimpleField>
	<SimpleField name="leveling_order" type="string"></SimpleField>
	<SimpleField name="leveling_height" type="string"></SimpleField>
	<SimpleField name="control_height" type="string"></SimpleField>
	<SimpleField name="benchmark_number" type="string"></SimpleField>
	<SimpleField name="control_location" type="string"></SimpleField>
	<SimpleField name="benchmark_type" type="string"></SimpleField>
	<SimpleField name="leveling_line_section" type="string"></SimpleField>
	<SimpleField name="location_description" type="string"></SimpleField>
	<SimpleField name="status" type="string"></SimpleField>
	<SimpleField name="guid" type="string"></SimpleField>
	<SimpleField name="kml" type="string"></SimpleField>
	<SimpleField name="kml_link" type="string"></SimpleField>
</Schema>
<Folder><name>0ee12ada</name>
  <Placemark id="0ee12ada.1">
	<name>0385</name>
	<name>ск. реп.</name>
	<ExtendedData><SchemaData schemaUrl="#0ee12ada">
		<SimpleData name="type">II</SimpleData>
		<SimpleData name="view">249,840</SimpleData>
		<SimpleData name="benchmark_number">99</SimpleData>
		<SimpleData name="control_location">Линия № 2: Нецветаека-Каратал, II класс (1)    Участок: пир. 3 кл. Тогузколь-фунд. реп. 2</SimpleData>
		<SimpleData name="benchmark_type">Кермандай, лет., в 8,0 км к югу от него, в 10,0 км к зап. от полевого стана, в 3,0 км к сев.-зап. от оз. Самайсор</SimpleData>
		<SimpleData name="leveling_line_section">утрачен</SimpleData>
		<SimpleData name="location_description">0ee12ada-8b9e-41d8-8be7-e75d76fc4ad0</SimpleData>
		<SimpleData name="status">data/stations/0ee12ada.kml</SimpleData>
		<SimpleData name="guid">&lt;a href='data/stations/0ee12ada.kml' target='_blank'&gt;Download KML&lt;/a&gt;</SimpleData>
	</SchemaData></ExtendedData>
      <Point><coordinates>73.7626560487749,51.9602878474669</coordinates></Point>
  </Placemark>
</Folder>
</Document></kml>
