<?xml version="1.0" encoding="utf-8" ?>
<kml xmlns="http://www.opengis.net/kml/2.2">
<Document id="root_doc">
<Schema name="0fa9505d" id="0fa9505d">
	<SimpleField name="type" type="string"></SimpleField>
	<SimpleField name="view" type="string"></SimpleField>
	<SimpleField name="leveling_order" type="string"></SimpleField>
	<SimpleField name="leveling_height" type="string"></SimpleField>
	<SimpleField name="control_height" type="string"></SimpleField>
	<SimpleField name="benchmark_number" type="string"></SimpleField>
	<SimpleField name="control_location" type="string"></SimpleField>
	<SimpleField name="benchmark_type" type="string"></SimpleField>
	<SimpleField name="leveling_line_section" type="string"></SimpleField>
	<SimpleField name="location_description" type="string"></SimpleField>
	<SimpleField name="status" type="string"></SimpleField>
	<SimpleField name="guid" type="string"></SimpleField>
	<SimpleField name="kml" type="string"></SimpleField>
	<SimpleField name="kml_link" type="string"></SimpleField>
</Schema>
<Folder><name>0fa9505d</name>
  <Placemark id="0fa9505d.1">
	<name>17098</name>
	<name>грунт.реп.</name>
	<ExtendedData><SchemaData schemaUrl="#0fa9505d">
		<SimpleData name="type">2</SimpleData>
		<SimpleData name="view">215.071</SimpleData>
		<SimpleData name="leveling_height">213.996</SimpleData>
		<SimpleData name="benchmark_number">В верхней плоскости монолита</SimpleData>
		<SimpleData name="control_location">Линия №1: Куракбулак-Чардара, ІІ класс  Участок: грунт.реп.1905-грунт.реп.869</SimpleData>
		<SimpleData name="benchmark_type">Зап.Аксарлы,к.,в 2.4 км к сев.-зап.от него,в 0.2 км к сев.от полевой дороги</SimpleData>
		<SimpleData name="location_description">0fa9505d-e48c-4732-b2b3-1dcc52da94f3</SimpleData>
		<SimpleData name="status">data/stations/0fa9505d.kml</SimpleData>
		<SimpleData name="guid">&lt;a href='data/stations/0fa9505d.kml' target='_blank'&gt;Download KML&lt;/a&gt;</SimpleData>
	</SchemaData></ExtendedData>
      <Point><coordinates>67.7733036005705,41.9817659680891</coordinates></Point>
  </Placemark>
</Folder>
</Document></kml>
