<?xml version="1.0" encoding="utf-8" ?>
<kml xmlns="http://www.opengis.net/kml/2.2">
<Document id="root_doc">
<Schema name="0ff6ec73" id="0ff6ec73">
	<SimpleField name="title" type="string"></SimpleField>
	<SimpleField name="type" type="string"></SimpleField>
	<SimpleField name="ext_sign" type="string"></SimpleField>
	<SimpleField name="class_lvl" type="string"></SimpleField>
	<SimpleField name="height_lvl" type="string"></SimpleField>
	<SimpleField name="height_ctrl" type="string"></SimpleField>
	<SimpleField name="ctrl_place" type="string"></SimpleField>
	<SimpleField name="mark_num" type="string"></SimpleField>
	<SimpleField name="center_type" type="string"></SimpleField>
	<SimpleField name="lvl_line" type="string"></SimpleField>
	<SimpleField name="guid" type="string"></SimpleField>
</Schema>
<Folder><name>0ff6ec73</name>
  <Placemark id="0ff6ec73.1">
	<name>338</name>
	<ExtendedData><SchemaData schemaUrl="#0ff6ec73">
		<SimpleData name="title">грунтовый репер</SimpleData>
		<SimpleData name="type">2</SimpleData>
		<SimpleData name="ext_sign">402,892</SimpleData>
		<SimpleData name="class_lvl">401,802</SimpleData>
		<SimpleData name="height_lvl">121 оп. знак</SimpleData>
		<SimpleData name="height_ctrl">Линия № 1: Аркарлы - Актас, 2 класс (1) Участок: ск. реп. 790 - фунд. реп. 2280</SimpleData>
		<SimpleData name="ctrl_place">Тундик, такыр, в 9.8 км к зап. от него, в 6.3 км к югу от сол. Шукыр, в 0.1 км к зап. от полевой дороги</SimpleData>
		<SimpleData name="lvl_line">0ff6ec73-afcf-4936-9f28-b4c4bf073885</SimpleData>
	</SchemaData></ExtendedData>
      <Point><coordinates>71.0729353535418,45.9563324703454</coordinates></Point>
  </Placemark>
</Folder>
</Document></kml>
