<?xml version="1.0" encoding="utf-8" ?>
<kml xmlns="http://www.opengis.net/kml/2.2">
<Document id="root_doc">
<Schema name="10c1be5c" id="10c1be5c">
	<SimpleField name="type" type="string"></SimpleField>
	<SimpleField name="view" type="string"></SimpleField>
	<SimpleField name="leveling_order" type="string"></SimpleField>
	<SimpleField name="leveling_height" type="string"></SimpleField>
	<SimpleField name="control_height" type="string"></SimpleField>
	<SimpleField name="benchmark_number" type="string"></SimpleField>
	<SimpleField name="control_location" type="string"></SimpleField>
	<SimpleField name="benchmark_type" type="string"></SimpleField>
	<SimpleField name="leveling_line_section" type="string"></SimpleField>
	<SimpleField name="location_description" type="string"></SimpleField>
	<SimpleField name="status" type="string"></SimpleField>
	<SimpleField name="guid" type="string"></SimpleField>
	<SimpleField name="kml" type="string"></SimpleField>
	<SimpleField name="kml_link" type="string"></SimpleField>
</Schema>
<Folder><name>10c1be5c</name>
  <Placemark id="10c1be5c.1">
	<name>1173</name>
	<name>грунт.реп</name>
	<ExtendedData><SchemaData schemaUrl="#10c1be5c">
		<SimpleData name="type">2</SimpleData>
		<SimpleData name="view">363.692</SimpleData>
		<SimpleData name="leveling_height">362.593</SimpleData>
		<SimpleData name="benchmark_number">репер  в верхней плоскости монолита</SimpleData>
		<SimpleData name="control_location">Линия № 1: р.Чу-Коскызыл, II класс. Участок: грунт.реп. 41-грунт.реп. 0092</SimpleData>
		<SimpleData name="benchmark_type">Штаб Кожакудук,с., в 10.0 км к юго-зап.от него, в 1.4 км к сев.-вост.от к.Тамши(засып), в 60 м к вост.от полевой дороги</SimpleData>
		<SimpleData name="location_description">10c1be5c-8859-4965-aa3d-1ee7a0e59cd3</SimpleData>
		<SimpleData name="status">data/stations/10c1be5c.kml</SimpleData>
		<SimpleData name="guid">&lt;a href='data/stations/10c1be5c.kml' target='_blank'&gt;Download KML&lt;/a&gt;</SimpleData>
	</SchemaData></ExtendedData>
      <Point><coordinates>71.1453869461721,43.9782192662092</coordinates></Point>
  </Placemark>
</Folder>
</Document></kml>
