<?xml version="1.0" encoding="utf-8" ?>
<kml xmlns="http://www.opengis.net/kml/2.2">
<Document id="root_doc">
<Schema name="10c7c318" id="10c7c318">
	<SimpleField name="type" type="string"></SimpleField>
	<SimpleField name="view" type="string"></SimpleField>
	<SimpleField name="leveling_order" type="string"></SimpleField>
	<SimpleField name="leveling_height" type="string"></SimpleField>
	<SimpleField name="control_height" type="string"></SimpleField>
	<SimpleField name="benchmark_number" type="string"></SimpleField>
	<SimpleField name="control_location" type="string"></SimpleField>
	<SimpleField name="benchmark_type" type="string"></SimpleField>
	<SimpleField name="leveling_line_section" type="string"></SimpleField>
	<SimpleField name="location_description" type="string"></SimpleField>
	<SimpleField name="status" type="string"></SimpleField>
	<SimpleField name="guid" type="string"></SimpleField>
	<SimpleField name="kml" type="string"></SimpleField>
	<SimpleField name="kml_link" type="string"></SimpleField>
</Schema>
<Folder><name>10c7c318</name>
  <Placemark id="10c7c318.1">
	<name>1003</name>
	<description>фунд. реп.</description>
	<ExtendedData><SchemaData schemaUrl="#10c7c318">
		<SimpleData name="type">1</SimpleData>
		<SimpleData name="view">170.869</SimpleData>
		<SimpleData name="leveling_order">170.362</SimpleData>
		<SimpleData name="leveling_height">Контрольный репер в рельсе</SimpleData>
		<SimpleData name="benchmark_number">134</SimpleData>
		<SimpleData name="control_location">Линия № 1 : Аральск - Шалкар, I класс. Участок: фунд. реп. 1231 - грунт. реп. 8446</SimpleData>
		<SimpleData name="benchmark_type">Шокысу, станц., в 0.3 км к юго-вост. от здания вокзала, на 8 пк 1156 км, в 86 м к сев.-вост. от пк. стб. 8/9, в 46 м к сев.-вост. от жел.-дор. полотна</SimpleData>
		<SimpleData name="leveling_line_section">не найден</SimpleData>
		<SimpleData name="location_description">10c7c318-bcb2-41b2-9585-5293bb74da0c</SimpleData>
		<SimpleData name="status">data/stations/10c7c318.kml</SimpleData>
		<SimpleData name="guid">&lt;a href='data/stations/10c7c318.kml' target='_blank'&gt;Download KML&lt;/a&gt;</SimpleData>
	</SchemaData></ExtendedData>
      <Point><coordinates>60.997834269485,47.2432694260375</coordinates></Point>
  </Placemark>
</Folder>
</Document></kml>
