<?xml version="1.0" encoding="utf-8" ?>
<kml xmlns="http://www.opengis.net/kml/2.2">
<Document id="root_doc">
<Schema name="10ff033f" id="10ff033f">
	<SimpleField name="title" type="string"></SimpleField>
	<SimpleField name="type" type="string"></SimpleField>
	<SimpleField name="ext_sign" type="string"></SimpleField>
	<SimpleField name="class_lvl" type="string"></SimpleField>
	<SimpleField name="height_lvl" type="string"></SimpleField>
	<SimpleField name="height_ctrl" type="string"></SimpleField>
	<SimpleField name="ctrl_place" type="string"></SimpleField>
	<SimpleField name="mark_num" type="string"></SimpleField>
	<SimpleField name="center_type" type="string"></SimpleField>
	<SimpleField name="lvl_line" type="string"></SimpleField>
	<SimpleField name="guid" type="string"></SimpleField>
</Schema>
<Folder><name>10ff033f</name>
  <Placemark id="10ff033f.1">
	<name>21зак</name>
	<ExtendedData><SchemaData schemaUrl="#10ff033f">
		<SimpleData name="lvl_line">10ff033f-e943-4642-862f-8f5902ae6aca</SimpleData>
	</SchemaData></ExtendedData>
      <Point><coordinates>61.3436749066608,48.941531925117</coordinates></Point>
  </Placemark>
</Folder>
</Document></kml>
