<?xml version="1.0" encoding="utf-8" ?>
<kml xmlns="http://www.opengis.net/kml/2.2">
<Document id="root_doc">
<Schema name="117b6279" id="117b6279">
	<SimpleField name="type" type="string"></SimpleField>
	<SimpleField name="view" type="string"></SimpleField>
	<SimpleField name="leveling_order" type="string"></SimpleField>
	<SimpleField name="leveling_height" type="string"></SimpleField>
	<SimpleField name="control_height" type="string"></SimpleField>
	<SimpleField name="benchmark_number" type="string"></SimpleField>
	<SimpleField name="control_location" type="string"></SimpleField>
	<SimpleField name="benchmark_type" type="string"></SimpleField>
	<SimpleField name="leveling_line_section" type="string"></SimpleField>
	<SimpleField name="location_description" type="string"></SimpleField>
	<SimpleField name="status" type="string"></SimpleField>
	<SimpleField name="guid" type="string"></SimpleField>
	<SimpleField name="kml" type="string"></SimpleField>
	<SimpleField name="kml_link" type="string"></SimpleField>
</Schema>
<Folder><name>117b6279</name>
  <Placemark id="117b6279.1">
	<name>6916</name>
	<description>грунт.реп.</description>
	<ExtendedData><SchemaData schemaUrl="#117b6279">
		<SimpleData name="type">1</SimpleData>
		<SimpleData name="view">1061.845</SimpleData>
		<SimpleData name="leveling_order">1060.654*</SimpleData>
		<SimpleData name="leveling_height">№ 424</SimpleData>
		<SimpleData name="control_height">В верхней плоскости монолита</SimpleData>
		<SimpleData name="benchmark_number">121оп.знак</SimpleData>
		<SimpleData name="control_location">Линия № 2: Алматы-Сарыозек I класс                            Участок: грунт. реп. 4431-фунд. реп. 384</SimpleData>
		<SimpleData name="benchmark_type">Балгалы, станц., в 3.7 км к юго-зап. от неё, на 7 ПК 1511 км, в 0.1 км к юго-вост. от жел.-дор. полотна</SimpleData>
		<SimpleData name="location_description">117b6279-6fd0-4550-8fc1-74aa8497246d</SimpleData>
		<SimpleData name="status">data/stations/117b6279.kml</SimpleData>
		<SimpleData name="guid">&lt;a href='data/stations/117b6279.kml' target='_blank'&gt;Download KML&lt;/a&gt;</SimpleData>
	</SchemaData></ExtendedData>
      <Point><coordinates>77.7952346911618,44.2809430271967</coordinates></Point>
  </Placemark>
</Folder>
</Document></kml>
