<?xml version="1.0" encoding="utf-8" ?>
<kml xmlns="http://www.opengis.net/kml/2.2">
<Document id="root_doc">
<Schema name="1223d139" id="1223d139">
	<SimpleField name="type" type="string"></SimpleField>
	<SimpleField name="view" type="string"></SimpleField>
	<SimpleField name="leveling_order" type="string"></SimpleField>
	<SimpleField name="leveling_height" type="string"></SimpleField>
	<SimpleField name="control_height" type="string"></SimpleField>
	<SimpleField name="benchmark_number" type="string"></SimpleField>
	<SimpleField name="control_location" type="string"></SimpleField>
	<SimpleField name="benchmark_type" type="string"></SimpleField>
	<SimpleField name="leveling_line_section" type="string"></SimpleField>
	<SimpleField name="location_description" type="string"></SimpleField>
	<SimpleField name="status" type="string"></SimpleField>
	<SimpleField name="guid" type="string"></SimpleField>
	<SimpleField name="kml" type="string"></SimpleField>
	<SimpleField name="kml_link" type="string"></SimpleField>
</Schema>
<Folder><name>1223d139</name>
  <Placemark id="1223d139.1">
	<name>8572</name>
	<name>грунт.реп.</name>
	<ExtendedData><SchemaData schemaUrl="#1223d139">
		<SimpleData name="type">2</SimpleData>
		<SimpleData name="view">81.669</SimpleData>
		<SimpleData name="leveling_order">79.802</SimpleData>
		<SimpleData name="leveling_height">№5041</SimpleData>
		<SimpleData name="benchmark_number">121 оп</SimpleData>
		<SimpleData name="control_location">Линия №1: Жаксыкарсакбас - Коккабак, II кл.            Участок: грунт.реп. 2950 - грунт.реп. 2042</SimpleData>
		<SimpleData name="benchmark_type">Бельчер, с., в 16.0 км к югу от него, в 0.5 км к вост.от левого берега р. Тургай, в 5 м к  зап.от полевой дороги идущей к  кладб. Набиджан</SimpleData>
		<SimpleData name="location_description">1223d139-64c6-4b32-8d13-f836a7d89dc1</SimpleData>
		<SimpleData name="status">data/stations/1223d139.kml</SimpleData>
		<SimpleData name="guid">&lt;a href='data/stations/1223d139.kml' target='_blank'&gt;Download KML&lt;/a&gt;</SimpleData>
	</SchemaData></ExtendedData>
      <Point><coordinates>62.2309121484777,48.645021724011</coordinates></Point>
  </Placemark>
</Folder>
</Document></kml>
