<?xml version="1.0" encoding="utf-8" ?>
<kml xmlns="http://www.opengis.net/kml/2.2">
<Document id="root_doc">
<Schema name="1239b85b" id="1239b85b">
	<SimpleField name="title" type="string"></SimpleField>
	<SimpleField name="type" type="string"></SimpleField>
	<SimpleField name="ext_sign" type="string"></SimpleField>
	<SimpleField name="class_lvl" type="string"></SimpleField>
	<SimpleField name="height_lvl" type="string"></SimpleField>
	<SimpleField name="height_ctrl" type="string"></SimpleField>
	<SimpleField name="ctrl_place" type="string"></SimpleField>
	<SimpleField name="mark_num" type="string"></SimpleField>
	<SimpleField name="center_type" type="string"></SimpleField>
	<SimpleField name="lvl_line" type="string"></SimpleField>
	<SimpleField name="guid" type="string"></SimpleField>
</Schema>
<Folder><name>1239b85b</name>
  <Placemark id="1239b85b.1">
	<name>9134</name>
	<ExtendedData><SchemaData schemaUrl="#1239b85b">
		<SimpleData name="title">грунт.реп.</SimpleData>
		<SimpleData name="type">2</SimpleData>
		<SimpleData name="ext_sign">25.823</SimpleData>
		<SimpleData name="ctrl_place">160</SimpleData>
		<SimpleData name="mark_num">Линия №325: Подтяжки-Ушкудук(Бахаров), 2 класс                              Участок : фунд.реп.8189-грунт.реп.2382</SimpleData>
		<SimpleData name="center_type">Подтяжки, с., в 14.4 км к юго-вост.от него, в 3.5 км к югу от фермы № 3 им.Крупской, в 33 м к сев.от дороги с.Подтяжки-с.Жумала</SimpleData>
		<SimpleData name="lvl_line">1239b85b-3326-4b50-9687-2a3a16acb9a7</SimpleData>
	</SchemaData></ExtendedData>
      <Point><coordinates>49.5137342506846,50.7004813591945</coordinates></Point>
  </Placemark>
</Folder>
</Document></kml>
