<?xml version="1.0" encoding="utf-8" ?>
<kml xmlns="http://www.opengis.net/kml/2.2">
<Document id="root_doc">
<Schema name="12c98af7" id="12c98af7">
	<SimpleField name="type" type="string"></SimpleField>
	<SimpleField name="view" type="string"></SimpleField>
	<SimpleField name="leveling_order" type="string"></SimpleField>
	<SimpleField name="leveling_height" type="string"></SimpleField>
	<SimpleField name="control_height" type="string"></SimpleField>
	<SimpleField name="benchmark_number" type="string"></SimpleField>
	<SimpleField name="control_location" type="string"></SimpleField>
	<SimpleField name="benchmark_type" type="string"></SimpleField>
	<SimpleField name="leveling_line_section" type="string"></SimpleField>
	<SimpleField name="location_description" type="string"></SimpleField>
	<SimpleField name="status" type="string"></SimpleField>
	<SimpleField name="guid" type="string"></SimpleField>
	<SimpleField name="kml" type="string"></SimpleField>
	<SimpleField name="kml_link" type="string"></SimpleField>
</Schema>
<Folder><name>12c98af7</name>
  <Placemark id="12c98af7.1">
	<name>50</name>
	<name>грунт.реп.</name>
	<ExtendedData><SchemaData schemaUrl="#12c98af7">
		<SimpleData name="type">2</SimpleData>
		<SimpleData name="view">424,668</SimpleData>
		<SimpleData name="leveling_order">422.713</SimpleData>
		<SimpleData name="control_height">Контрольный репер в верхней плоскости монолита </SimpleData>
		<SimpleData name="benchmark_number">118 оп. знак</SimpleData>
		<SimpleData name="control_location">Линия № 1: Бугаз – Белая Школа, II класс (2)
Участок: пир. 3 кл. Придорожная – фунд.реп. 5491</SimpleData>
		<SimpleData name="benchmark_type">Белая Школа, с., в 10.0 км к сев.-зап. от него, в 0.2 км к юго-вост. от разв. Бурхан, в 0.2 км к вост. от шоссе с. Кокпекты – гор. Зайсан</SimpleData>
		<SimpleData name="location_description">12c98af7-debb-402d-922c-3e25592b73fe</SimpleData>
		<SimpleData name="status">data/stations/12c98af7.kml</SimpleData>
		<SimpleData name="guid">&lt;a href='data/stations/12c98af7.kml' target='_blank'&gt;Download KML&lt;/a&gt;</SimpleData>
	</SchemaData></ExtendedData>
      <Point><coordinates>83.3277760525939,47.9032635884479</coordinates></Point>
  </Placemark>
</Folder>
</Document></kml>
