<?xml version="1.0" encoding="utf-8" ?>
<kml xmlns="http://www.opengis.net/kml/2.2">
<Document id="root_doc">
<Schema name="12d66f90" id="12d66f90">
	<SimpleField name="title" type="string"></SimpleField>
	<SimpleField name="type" type="string"></SimpleField>
	<SimpleField name="ext_sign" type="string"></SimpleField>
	<SimpleField name="class_lvl" type="string"></SimpleField>
	<SimpleField name="height_lvl" type="string"></SimpleField>
	<SimpleField name="height_ctrl" type="string"></SimpleField>
	<SimpleField name="ctrl_place" type="string"></SimpleField>
	<SimpleField name="mark_num" type="string"></SimpleField>
	<SimpleField name="center_type" type="string"></SimpleField>
	<SimpleField name="lvl_line" type="string"></SimpleField>
	<SimpleField name="guid" type="string"></SimpleField>
</Schema>
<Folder><name>12d66f90</name>
  <Placemark id="12d66f90.1">
	<name>912</name>
	<ExtendedData><SchemaData schemaUrl="#12d66f90">
		<SimpleData name="title">грунтовый репер</SimpleData>
		<SimpleData name="type">II</SimpleData>
		<SimpleData name="ext_sign">814,921</SimpleData>
		<SimpleData name="ctrl_place">160оп</SimpleData>
		<SimpleData name="mark_num">Линия №2: Актогай - Акчатау, II класс (1)  Участок: фунд.реп. 4072 - грунт. реп. 6736</SimpleData>
		<SimpleData name="center_type">Нуркен, с., в 15,3 км к сев.-вост. от него, в 0,2 км к сев. от дороги с. Актогай - с. Акчатау, в 0,2 км к сев. от поворотного стб. ЛЭП №363</SimpleData>
		<SimpleData name="lvl_line">12d66f90-bac5-4d6b-8e20-c6b455b18856</SimpleData>
	</SchemaData></ExtendedData>
      <Point><coordinates>74.7343529393844,48.1842618186094</coordinates></Point>
  </Placemark>
</Folder>
</Document></kml>
