<?xml version="1.0" encoding="utf-8" ?>
<kml xmlns="http://www.opengis.net/kml/2.2">
<Document id="root_doc">
<Schema name="12e117cf" id="12e117cf">
	<SimpleField name="type" type="string"></SimpleField>
	<SimpleField name="view" type="string"></SimpleField>
	<SimpleField name="leveling_order" type="string"></SimpleField>
	<SimpleField name="leveling_height" type="string"></SimpleField>
	<SimpleField name="control_height" type="string"></SimpleField>
	<SimpleField name="benchmark_number" type="string"></SimpleField>
	<SimpleField name="control_location" type="string"></SimpleField>
	<SimpleField name="benchmark_type" type="string"></SimpleField>
	<SimpleField name="leveling_line_section" type="string"></SimpleField>
	<SimpleField name="location_description" type="string"></SimpleField>
	<SimpleField name="status" type="string"></SimpleField>
	<SimpleField name="guid" type="string"></SimpleField>
	<SimpleField name="kml" type="string"></SimpleField>
	<SimpleField name="kml_link" type="string"></SimpleField>
</Schema>
<Folder><name>12e117cf</name>
  <Placemark id="12e117cf.1">
	<name>3957</name>
	<name>грунт. реп.</name>
	<ExtendedData><SchemaData schemaUrl="#12e117cf">
		<SimpleData name="type">2</SimpleData>
		<SimpleData name="view">165,132</SimpleData>
		<SimpleData name="leveling_order">162,553</SimpleData>
		<SimpleData name="control_height">репер в верхней плоскости монолита</SimpleData>
		<SimpleData name="benchmark_number">121 оп</SimpleData>
		<SimpleData name="control_location">Линия №1: Михайловка-Семиярск, 2 класс (1) Участок: грунт. реп. 3775 - грунт. реп. 0001</SimpleData>
		<SimpleData name="benchmark_type">Жабагылы, с., в 9.0 км сев.-вост. от него, в 0.6 км к сев. от полевой дороги, в 1 м к зап. от оп. стб.</SimpleData>
		<SimpleData name="location_description">12e117cf-06cf-4f81-aba5-9901260fb4e9</SimpleData>
		<SimpleData name="status">data/stations/12e117cf.kml</SimpleData>
		<SimpleData name="guid">&lt;a href='data/stations/12e117cf.kml' target='_blank'&gt;Download KML&lt;/a&gt;</SimpleData>
	</SchemaData></ExtendedData>
      <Point><coordinates>78.9567637536135,51.5397433119916</coordinates></Point>
  </Placemark>
</Folder>
</Document></kml>
