<?xml version="1.0" encoding="utf-8" ?>
<kml xmlns="http://www.opengis.net/kml/2.2">
<Document id="root_doc">
<Schema name="12e3bec2" id="12e3bec2">
	<SimpleField name="type" type="string"></SimpleField>
	<SimpleField name="view" type="string"></SimpleField>
	<SimpleField name="leveling_order" type="string"></SimpleField>
	<SimpleField name="leveling_height" type="string"></SimpleField>
	<SimpleField name="control_height" type="string"></SimpleField>
	<SimpleField name="benchmark_number" type="string"></SimpleField>
	<SimpleField name="control_location" type="string"></SimpleField>
	<SimpleField name="benchmark_type" type="string"></SimpleField>
	<SimpleField name="leveling_line_section" type="string"></SimpleField>
	<SimpleField name="location_description" type="string"></SimpleField>
	<SimpleField name="status" type="string"></SimpleField>
	<SimpleField name="guid" type="string"></SimpleField>
	<SimpleField name="kml" type="string"></SimpleField>
	<SimpleField name="kml_link" type="string"></SimpleField>
</Schema>
<Folder><name>12e3bec2</name>
  <Placemark id="12e3bec2.1">
	<name>4622</name>
	<name>грунт. реп.</name>
	<ExtendedData><SchemaData schemaUrl="#12e3bec2">
		<SimpleData name="type">2</SimpleData>
		<SimpleData name="view">262.569</SimpleData>
		<SimpleData name="benchmark_number">146 оп</SimpleData>
		<SimpleData name="control_location">Линия №5 : Актасты - Тургай , II класс . Участок : фунд. Реп. 7867-грунт. Реп. 2702</SimpleData>
		<SimpleData name="benchmark_type">Абай, с., в 7.8 км к юго-вост. от него, в 5.2 км к юго-вост. от озера Тогутколь, в 29 м к сев.-зап. от края пашни, в 24 м к юго-зап. От полевой дороги</SimpleData>
		<SimpleData name="location_description">12e3bec2-5640-4893-9c3c-3c8906fa9b50</SimpleData>
		<SimpleData name="status">data/stations/12e3bec2.kml</SimpleData>
		<SimpleData name="guid">&lt;a href='data/stations/12e3bec2.kml' target='_blank'&gt;Download KML&lt;/a&gt;</SimpleData>
	</SchemaData></ExtendedData>
      <Point><coordinates>61.8351748021284,50.7096830004229</coordinates></Point>
  </Placemark>
</Folder>
</Document></kml>
