<?xml version="1.0" encoding="utf-8" ?>
<kml xmlns="http://www.opengis.net/kml/2.2">
<Document id="root_doc">
<Schema name="12e4182b" id="12e4182b">
	<SimpleField name="title" type="string"></SimpleField>
	<SimpleField name="type" type="string"></SimpleField>
	<SimpleField name="ext_sign" type="string"></SimpleField>
	<SimpleField name="class_lvl" type="string"></SimpleField>
	<SimpleField name="height_lvl" type="string"></SimpleField>
	<SimpleField name="height_ctrl" type="string"></SimpleField>
	<SimpleField name="ctrl_place" type="string"></SimpleField>
	<SimpleField name="mark_num" type="string"></SimpleField>
	<SimpleField name="center_type" type="string"></SimpleField>
	<SimpleField name="lvl_line" type="string"></SimpleField>
	<SimpleField name="guid" type="string"></SimpleField>
</Schema>
<Folder><name>12e4182b</name>
  <Placemark id="12e4182b.1">
	<name>8875</name>
	<description>грунтовый репер</description>
	<ExtendedData><SchemaData schemaUrl="#12e4182b">
		<SimpleData name="type">1</SimpleData>
		<SimpleData name="ext_sign">133,860</SimpleData>
		<SimpleData name="ctrl_place">160 оп. знак</SimpleData>
		<SimpleData name="mark_num">Линия № 1: Кызылорда - Торыустаган. 1 класс (11
Участок: грунт, реп. 6294 - грунт, реп. 774</SimpleData>
		<SimpleData name="center_type">Онтолагай. буг., в 2.3 км к югу от него, в 8.8 км к юго- зап. от моста через кан. Теликоль. в 37 м к югу от
переськающего русла, в 32 м к югу от полевой дороги</SimpleData>
		<SimpleData name="lvl_line">12e4182b-1257-481a-9bdc-df8be04a4bac</SimpleData>
	</SchemaData></ExtendedData>
      <Point><coordinates>66.6668620945857,44.9671371239395</coordinates></Point>
  </Placemark>
</Folder>
</Document></kml>
