<?xml version="1.0" encoding="utf-8" ?>
<kml xmlns="http://www.opengis.net/kml/2.2">
<Document id="root_doc">
<Schema name="1482b4fc" id="1482b4fc">
	<SimpleField name="type" type="string"></SimpleField>
	<SimpleField name="view" type="string"></SimpleField>
	<SimpleField name="leveling_order" type="string"></SimpleField>
	<SimpleField name="leveling_height" type="string"></SimpleField>
	<SimpleField name="control_height" type="string"></SimpleField>
	<SimpleField name="benchmark_number" type="string"></SimpleField>
	<SimpleField name="control_location" type="string"></SimpleField>
	<SimpleField name="benchmark_type" type="string"></SimpleField>
	<SimpleField name="leveling_line_section" type="string"></SimpleField>
	<SimpleField name="location_description" type="string"></SimpleField>
	<SimpleField name="status" type="string"></SimpleField>
	<SimpleField name="guid" type="string"></SimpleField>
	<SimpleField name="kml" type="string"></SimpleField>
	<SimpleField name="kml_link" type="string"></SimpleField>
</Schema>
<Folder><name>1482b4fc</name>
  <Placemark id="1482b4fc.1">
	<name>9357</name>
	<name>скальный репер</name>
	<ExtendedData><SchemaData schemaUrl="#1482b4fc">
		<SimpleData name="type">II</SimpleData>
		<SimpleData name="view">310,699</SimpleData>
		<SimpleData name="benchmark_number">99</SimpleData>
		<SimpleData name="control_location">Линия №1: Карасорвкий - Сарыкияк, II класс (1) Участок: ск. реп. 6100 - грунт. реп. 8674</SimpleData>
		<SimpleData name="benchmark_type">Александровка, с., в 9.7км к юго-вост. от него, в 1.9 км к сев.-вост. от зим. Сарыкияк, в 0.1 км к югу от шоссе с.Майкайын - с. Торайгыр</SimpleData>
		<SimpleData name="location_description">1482b4fc-00c9-45fb-9da5-f872580248b4</SimpleData>
		<SimpleData name="status">data/stations/1482b4fc.kml</SimpleData>
		<SimpleData name="guid">&lt;a href='data/stations/1482b4fc.kml' target='_blank'&gt;Download KML&lt;/a&gt;</SimpleData>
	</SchemaData></ExtendedData>
      <Point><coordinates>75.7557872758776,50.917224313504</coordinates></Point>
  </Placemark>
</Folder>
</Document></kml>
