<?xml version="1.0" encoding="utf-8" ?>
<kml xmlns="http://www.opengis.net/kml/2.2">
<Document id="root_doc">
<Schema name="1483874a" id="1483874a">
	<SimpleField name="type" type="string"></SimpleField>
	<SimpleField name="view" type="string"></SimpleField>
	<SimpleField name="leveling_order" type="string"></SimpleField>
	<SimpleField name="leveling_height" type="string"></SimpleField>
	<SimpleField name="control_height" type="string"></SimpleField>
	<SimpleField name="benchmark_number" type="string"></SimpleField>
	<SimpleField name="control_location" type="string"></SimpleField>
	<SimpleField name="benchmark_type" type="string"></SimpleField>
	<SimpleField name="leveling_line_section" type="string"></SimpleField>
	<SimpleField name="location_description" type="string"></SimpleField>
	<SimpleField name="status" type="string"></SimpleField>
	<SimpleField name="guid" type="string"></SimpleField>
	<SimpleField name="kml" type="string"></SimpleField>
	<SimpleField name="kml_link" type="string"></SimpleField>
</Schema>
<Folder><name>1483874a</name>
  <Placemark id="1483874a.1">
	<name>4328</name>
	<name>грунт.реп</name>
	<ExtendedData><SchemaData schemaUrl="#1483874a">
		<SimpleData name="type">ІІ</SimpleData>
		<SimpleData name="view">509.406</SimpleData>
		<SimpleData name="leveling_order">450. 536</SimpleData>
		<SimpleData name="control_height">Контрольный репер № 1748 в фундаментной плите</SimpleData>
		<SimpleData name="benchmark_number">116</SimpleData>
		<SimpleData name="control_location">Линия № 3: Тюемойнак - Талдысай, ІІ класс (3) Участок: грунт.реп. 233 - фунд.реп 131</SimpleData>
		<SimpleData name="benchmark_type">Торе, кладб., в 11. 0 км к сев-зап от него, в 1.8 км к юго-зап от род. Акирек, в 1.2 км к вост от полевой дороги</SimpleData>
		<SimpleData name="location_description">1483874a-944f-44fa-95d2-35909db3bb65</SimpleData>
		<SimpleData name="status">data/stations/1483874a.kml</SimpleData>
		<SimpleData name="guid">&lt;a href='data/stations/1483874a.kml' target='_blank'&gt;Download KML&lt;/a&gt;</SimpleData>
	</SchemaData></ExtendedData>
      <Point><coordinates>68.5679514540679,49.2384990547093</coordinates></Point>
  </Placemark>
</Folder>
</Document></kml>
