<?xml version="1.0" encoding="utf-8" ?>
<kml xmlns="http://www.opengis.net/kml/2.2">
<Document id="root_doc">
<Schema name="14a3aedc" id="14a3aedc">
	<SimpleField name="title" type="string"></SimpleField>
	<SimpleField name="type" type="string"></SimpleField>
	<SimpleField name="ext_sign" type="string"></SimpleField>
	<SimpleField name="class_lvl" type="string"></SimpleField>
	<SimpleField name="height_lvl" type="string"></SimpleField>
	<SimpleField name="height_ctrl" type="string"></SimpleField>
	<SimpleField name="ctrl_place" type="string"></SimpleField>
	<SimpleField name="mark_num" type="string"></SimpleField>
	<SimpleField name="center_type" type="string"></SimpleField>
	<SimpleField name="lvl_line" type="string"></SimpleField>
	<SimpleField name="guid" type="string"></SimpleField>
</Schema>
<Folder><name>14a3aedc</name>
  <Placemark id="14a3aedc.1">
	<name>1300</name>
	<description>грунтовый репер</description>
	<ExtendedData><SchemaData schemaUrl="#14a3aedc">
		<SimpleData name="type">2</SimpleData>
		<SimpleData name="ext_sign">457.248</SimpleData>
		<SimpleData name="ctrl_place">121</SimpleData>
		<SimpleData name="mark_num">Линия: Шыганши-Бугаз-Белая-Школа-Боран-Улькен Нарын, II класс (2)
Участок: фунд.реп. 5491 – грунт.реп. 1486</SimpleData>
		<SimpleData name="center_type">Сарыжыра, с., в 3.5 км к юго-вост. от него, в 0.6 км к юго-зап. от зим.Петроград, в 0.1 км к вост. от полевой дороги</SimpleData>
		<SimpleData name="lvl_line">14a3aedc-a06c-4d1a-ba17-57dcd8e70417</SimpleData>
	</SchemaData></ExtendedData>
      <Point><coordinates>84.9086628185662,47.5665636151155</coordinates></Point>
  </Placemark>
</Folder>
</Document></kml>
