<?xml version="1.0" encoding="utf-8" ?>
<kml xmlns="http://www.opengis.net/kml/2.2">
<Document id="root_doc">
<Schema name="14b12fe7" id="14b12fe7">
	<SimpleField name="type" type="string"></SimpleField>
	<SimpleField name="view" type="string"></SimpleField>
	<SimpleField name="leveling_order" type="string"></SimpleField>
	<SimpleField name="leveling_height" type="string"></SimpleField>
	<SimpleField name="control_height" type="string"></SimpleField>
	<SimpleField name="benchmark_number" type="string"></SimpleField>
	<SimpleField name="control_location" type="string"></SimpleField>
	<SimpleField name="benchmark_type" type="string"></SimpleField>
	<SimpleField name="leveling_line_section" type="string"></SimpleField>
	<SimpleField name="location_description" type="string"></SimpleField>
	<SimpleField name="status" type="string"></SimpleField>
	<SimpleField name="guid" type="string"></SimpleField>
	<SimpleField name="kml" type="string"></SimpleField>
	<SimpleField name="kml_link" type="string"></SimpleField>
</Schema>
<Folder><name>14b12fe7</name>
  <Placemark id="14b12fe7.1">
	<name>996</name>
	<name>грунт,реп</name>
	<ExtendedData><SchemaData schemaUrl="#14b12fe7">
		<SimpleData name="type">1</SimpleData>
		<SimpleData name="view">914.952</SimpleData>
		<SimpleData name="control_location">Линия №1: Арысь=Сары-Озек, I класс </SimpleData>
		<SimpleData name="benchmark_type">Сурум, раз,, в 5,4 км к вост,от него, на 7 ПК 3464 км, в 15 м к югу от жел,-дор,полотна</SimpleData>
		<SimpleData name="location_description">14b12fe7-9d69-4ee4-a1af-3ba9cc26f39e</SimpleData>
		<SimpleData name="status">data/stations/14b12fe7.kml</SimpleData>
		<SimpleData name="guid">&lt;a href='data/stations/14b12fe7.kml' target='_blank'&gt;Download KML&lt;/a&gt;</SimpleData>
	</SchemaData></ExtendedData>
      <Point><coordinates>71.0446493659354,42.6614705537057</coordinates></Point>
  </Placemark>
</Folder>
</Document></kml>
