<?xml version="1.0" encoding="utf-8" ?>
<kml xmlns="http://www.opengis.net/kml/2.2">
<Document id="root_doc">
<Schema name="14b67edf" id="14b67edf">
	<SimpleField name="type" type="string"></SimpleField>
	<SimpleField name="view" type="string"></SimpleField>
	<SimpleField name="leveling_order" type="string"></SimpleField>
	<SimpleField name="leveling_height" type="string"></SimpleField>
	<SimpleField name="control_height" type="string"></SimpleField>
	<SimpleField name="benchmark_number" type="string"></SimpleField>
	<SimpleField name="control_location" type="string"></SimpleField>
	<SimpleField name="benchmark_type" type="string"></SimpleField>
	<SimpleField name="leveling_line_section" type="string"></SimpleField>
	<SimpleField name="location_description" type="string"></SimpleField>
	<SimpleField name="status" type="string"></SimpleField>
	<SimpleField name="guid" type="string"></SimpleField>
	<SimpleField name="kml" type="string"></SimpleField>
	<SimpleField name="kml_link" type="string"></SimpleField>
</Schema>
<Folder><name>14b67edf</name>
  <Placemark id="14b67edf.1">
	<name>3716</name>
	<name>грунт. реп.</name>
	<ExtendedData><SchemaData schemaUrl="#14b67edf">
		<SimpleData name="type">2</SimpleData>
		<SimpleData name="view">441,464</SimpleData>
		<SimpleData name="benchmark_number">146оп</SimpleData>
		<SimpleData name="control_location">Линия №49: Семипалатинск - Каркаралинск, 2 класс (6)   Участок: грунт. реп 8824 - грунт. реп. 2762</SimpleData>
		<SimpleData name="benchmark_type">Самай, с., в 33.9 км к сев.-вост. от него, в 11.0 км к юго-зап. от с. Саржал, в 21 м к сев.-зап. от дороги с. Саржал - с. Самай</SimpleData>
		<SimpleData name="location_description">14b67edf-ae13-4c6c-8410-69177f08324d</SimpleData>
		<SimpleData name="status">data/stations/14b67edf.kml</SimpleData>
		<SimpleData name="guid">&lt;a href='data/stations/14b67edf.kml' target='_blank'&gt;Download KML&lt;/a&gt;</SimpleData>
	</SchemaData></ExtendedData>
      <Point><coordinates>78.6147784393208,49.5654854799889</coordinates></Point>
  </Placemark>
</Folder>
</Document></kml>
