<?xml version="1.0" encoding="utf-8" ?>
<kml xmlns="http://www.opengis.net/kml/2.2">
<Document id="root_doc">
<Schema name="14b8504d" id="14b8504d">
	<SimpleField name="type" type="string"></SimpleField>
	<SimpleField name="view" type="string"></SimpleField>
	<SimpleField name="leveling_order" type="string"></SimpleField>
	<SimpleField name="leveling_height" type="string"></SimpleField>
	<SimpleField name="control_height" type="string"></SimpleField>
	<SimpleField name="benchmark_number" type="string"></SimpleField>
	<SimpleField name="control_location" type="string"></SimpleField>
	<SimpleField name="benchmark_type" type="string"></SimpleField>
	<SimpleField name="leveling_line_section" type="string"></SimpleField>
	<SimpleField name="location_description" type="string"></SimpleField>
	<SimpleField name="status" type="string"></SimpleField>
	<SimpleField name="guid" type="string"></SimpleField>
	<SimpleField name="kml" type="string"></SimpleField>
	<SimpleField name="kml_link" type="string"></SimpleField>
</Schema>
<Folder><name>14b8504d</name>
  <Placemark id="14b8504d.1">
	<name>5423</name>
	<description>ск.реп.</description>
	<ExtendedData><SchemaData schemaUrl="#14b8504d">
		<SimpleData name="type">1</SimpleData>
		<SimpleData name="view">349.984</SimpleData>
		<SimpleData name="benchmark_number">99</SimpleData>
		<SimpleData name="control_location">Линия № 1:Жарык-Моинты I класс                            Участок: грунт.реп. 6770-грунт.реп. 6236</SimpleData>
		<SimpleData name="benchmark_type">Кашкен-Тениз,станц.,в 2.2 км к сев.
от нее,на 6 ПК 1233 км,в 36 м к юго-
вост.от жел.-дор.полотна</SimpleData>
		<SimpleData name="location_description">14b8504d-1f12-4cb5-9ced-c736a37b254a</SimpleData>
		<SimpleData name="status">data/stations/14b8504d.kml</SimpleData>
		<SimpleData name="guid">&lt;a href='data/stations/14b8504d.kml' target='_blank'&gt;Download KML&lt;/a&gt;</SimpleData>
	</SchemaData></ExtendedData>
      <Point><coordinates>73.4027271276322,45.8103385996866</coordinates></Point>
  </Placemark>
</Folder>
</Document></kml>
