<?xml version="1.0" encoding="utf-8" ?>
<kml xmlns="http://www.opengis.net/kml/2.2">
<Document id="root_doc">
<Schema name="154f7256" id="154f7256">
	<SimpleField name="type" type="string"></SimpleField>
	<SimpleField name="view" type="string"></SimpleField>
	<SimpleField name="leveling_order" type="string"></SimpleField>
	<SimpleField name="leveling_height" type="string"></SimpleField>
	<SimpleField name="control_height" type="string"></SimpleField>
	<SimpleField name="benchmark_number" type="string"></SimpleField>
	<SimpleField name="control_location" type="string"></SimpleField>
	<SimpleField name="benchmark_type" type="string"></SimpleField>
	<SimpleField name="leveling_line_section" type="string"></SimpleField>
	<SimpleField name="location_description" type="string"></SimpleField>
	<SimpleField name="status" type="string"></SimpleField>
	<SimpleField name="guid" type="string"></SimpleField>
	<SimpleField name="kml" type="string"></SimpleField>
	<SimpleField name="kml_link" type="string"></SimpleField>
</Schema>
<Folder><name>154f7256</name>
  <Placemark id="154f7256.1">
	<name>14к</name>
	<description>грунт.реп.</description>
	<ExtendedData><SchemaData schemaUrl="#154f7256">
		<SimpleData name="type">1</SimpleData>
		<SimpleData name="view">345.308</SimpleData>
		<SimpleData name="benchmark_number">А оп.знак</SimpleData>
		<SimpleData name="control_location">Линия № 1:Сарышаган-Каратас, I класс                            Участок: грунт.реп. 0444-ск.реп. 2068</SimpleData>
		<SimpleData name="benchmark_type">Каракум, с., в 13.7 км к сев.-вост. от него, в 0.3 км к сев.- вост. от оз. Балыктыколь,  в 15 м к югу от дороги гор. Балхаш- станц. Лепсы</SimpleData>
		<SimpleData name="location_description">154f7256-f6f5-4661-ba4e-494c4fb63961</SimpleData>
		<SimpleData name="status">data/stations/154f7256.kml</SimpleData>
		<SimpleData name="guid">&lt;a href='data/stations/154f7256.kml' target='_blank'&gt;Download KML&lt;/a&gt;</SimpleData>
	</SchemaData></ExtendedData>
      <Point><coordinates>77.2923865448367,46.628905458645</coordinates></Point>
  </Placemark>
</Folder>
</Document></kml>
