<?xml version="1.0" encoding="utf-8" ?>
<kml xmlns="http://www.opengis.net/kml/2.2">
<Document id="root_doc">
<Schema name="15849d85" id="15849d85">
	<SimpleField name="type" type="string"></SimpleField>
	<SimpleField name="view" type="string"></SimpleField>
	<SimpleField name="leveling_order" type="string"></SimpleField>
	<SimpleField name="leveling_height" type="string"></SimpleField>
	<SimpleField name="control_height" type="string"></SimpleField>
	<SimpleField name="benchmark_number" type="string"></SimpleField>
	<SimpleField name="control_location" type="string"></SimpleField>
	<SimpleField name="benchmark_type" type="string"></SimpleField>
	<SimpleField name="leveling_line_section" type="string"></SimpleField>
	<SimpleField name="location_description" type="string"></SimpleField>
	<SimpleField name="status" type="string"></SimpleField>
	<SimpleField name="guid" type="string"></SimpleField>
	<SimpleField name="kml" type="string"></SimpleField>
	<SimpleField name="kml_link" type="string"></SimpleField>
</Schema>
<Folder><name>15849d85</name>
  <Placemark id="15849d85.1">
	<name>1231</name>
	<name>грунт.реп.</name>
	<description>грунт.реп.</description>
	<ExtendedData><SchemaData schemaUrl="#15849d85">
		<SimpleData name="type">II</SimpleData>
		<SimpleData name="view">344.451</SimpleData>
		<SimpleData name="benchmark_number">160 оп.знак</SimpleData>
		<SimpleData name="control_location">Линия № 1: Акколь- урочище Куйган, II класс                            Участок: грун.реп. 1414-грунт.реп. 1242</SimpleData>
		<SimpleData name="benchmark_type">Караой,с.,в 17.5 нм к сев.-вост.отнего,в 2.0 км к юго-зап.от кладб. Коленколь,в 21 м к зап.от полевой дороги</SimpleData>
		<SimpleData name="location_description">15849d85-85ea-4ffc-bd46-09d70cd75bec</SimpleData>
		<SimpleData name="status">data/stations/15849d85.kml</SimpleData>
		<SimpleData name="guid">&lt;a href='data/stations/15849d85.kml' target='_blank'&gt;Download KML&lt;/a&gt;</SimpleData>
	</SchemaData></ExtendedData>
      <Point><coordinates>74.8678163727777,46.0122582749419</coordinates></Point>
  </Placemark>
</Folder>
</Document></kml>
