<?xml version="1.0" encoding="utf-8" ?>
<kml xmlns="http://www.opengis.net/kml/2.2">
<Document id="root_doc">
<Schema name="15d3fbe2" id="15d3fbe2">
	<SimpleField name="type" type="string"></SimpleField>
	<SimpleField name="view" type="string"></SimpleField>
	<SimpleField name="leveling_order" type="string"></SimpleField>
	<SimpleField name="leveling_height" type="string"></SimpleField>
	<SimpleField name="control_height" type="string"></SimpleField>
	<SimpleField name="benchmark_number" type="string"></SimpleField>
	<SimpleField name="control_location" type="string"></SimpleField>
	<SimpleField name="benchmark_type" type="string"></SimpleField>
	<SimpleField name="leveling_line_section" type="string"></SimpleField>
	<SimpleField name="location_description" type="string"></SimpleField>
	<SimpleField name="status" type="string"></SimpleField>
	<SimpleField name="guid" type="string"></SimpleField>
	<SimpleField name="kml" type="string"></SimpleField>
	<SimpleField name="kml_link" type="string"></SimpleField>
</Schema>
<Folder><name>15d3fbe2</name>
  <Placemark id="15d3fbe2.1">
	<name>24</name>
	<name>грунт.реп.</name>
	<ExtendedData><SchemaData schemaUrl="#15d3fbe2">
		<SimpleData name="type">II</SimpleData>
		<SimpleData name="view">352.850</SimpleData>
		<SimpleData name="leveling_order">344.703</SimpleData>
		<SimpleData name="benchmark_number">131 оп</SimpleData>
		<SimpleData name="control_location">Ход от грунт.реп.25 до грунт.реп.28,II класс (6) Участок:грунт.реп.27-грунт.реп.28</SimpleData>
		<SimpleData name="benchmark_type">№81,обгон.п.,в 3.5 км к вост.от него,в80 м к сев.от жел.-дор.полотна,у тлгр.стб.№40/782</SimpleData>
		<SimpleData name="leveling_line_section">уничтожен</SimpleData>
		<SimpleData name="location_description">15d3fbe2-fcec-48ae-9027-e3eed996934e</SimpleData>
		<SimpleData name="status">data/stations/15d3fbe2.kml</SimpleData>
		<SimpleData name="guid">&lt;a href='data/stations/15d3fbe2.kml' target='_blank'&gt;Download KML&lt;/a&gt;</SimpleData>
	</SchemaData></ExtendedData>
      <Point><coordinates>67.169658587035,51.9048671547726</coordinates></Point>
  </Placemark>
</Folder>
</Document></kml>
