<?xml version="1.0" encoding="UTF-8"?>
<kml xmlns="http://www.opengis.net/kml/2.2">
  <Document id="root_doc">
    <Schema id="167A6E02" name="167A6E02">
      <SimpleField name="title" type="string"/>
      <SimpleField name="type" type="string"/>
      <SimpleField name="ext_sign" type="string"/>
      <SimpleField name="class_lvl" type="string"/>
      <SimpleField name="height_lvl" type="string"/>
      <SimpleField name="height_ctrl" type="string"/>
      <SimpleField name="ctrl_place" type="string"/>
      <SimpleField name="mark_num" type="string"/>
      <SimpleField name="center_type" type="string"/>
      <SimpleField name="lvl_line" type="string"/>
      <SimpleField name="guid" type="string"/>
    </Schema>
    <Schema id="_167A6E02.schema">
      <SimpleField name="title" type="string"/>
      <SimpleField name="type" type="string"/>
      <SimpleField name="ext_sign" type="string"/>
      <SimpleField name="class_lvl" type="string"/>
      <SimpleField name="height_lvl" type="string"/>
      <SimpleField name="height_ctrl" type="string"/>
      <SimpleField name="ctrl_place" type="string"/>
      <SimpleField name="mark_num" type="string"/>
      <SimpleField name="center_type" type="string"/>
      <SimpleField name="lvl_line" type="string"/>
      <SimpleField name="guid" type="string"/>
    </Schema>
    <Document id="_167A6E02">
      <name>167A6E02</name>
      <Placemark id="_167A6E02.1">
        <ExtendedData>
          <SchemaData schemaUrl="#_167A6E02.schema">
            <SimpleData name="title">Дересин</SimpleData>
            <SimpleData name="ext_sign">пирамида</SimpleData>
            <SimpleData name="class_lvl">4</SimpleData>
            <SimpleData name="mark_num">8902</SimpleData>
            <SimpleData name="center_type">146</SimpleData>
            <SimpleData name="guid">167A6E02-9D04-42DF-9358-2992E55B6D66</SimpleData>
          </SchemaData>
        </ExtendedData>
        <Point>
          <coordinates>
            54.2888298268011,47.0573405690667,0
          </coordinates>
        </Point>
      </Placemark>
    </Document>
  </Document>
</kml>
