<?xml version="1.0" encoding="utf-8" ?>
<kml xmlns="http://www.opengis.net/kml/2.2">
<Document id="root_doc">
<Schema name="169cc930" id="169cc930">
	<SimpleField name="title" type="string"></SimpleField>
	<SimpleField name="type" type="string"></SimpleField>
	<SimpleField name="ext_sign" type="string"></SimpleField>
	<SimpleField name="class_lvl" type="string"></SimpleField>
	<SimpleField name="height_lvl" type="string"></SimpleField>
	<SimpleField name="height_ctrl" type="string"></SimpleField>
	<SimpleField name="ctrl_place" type="string"></SimpleField>
	<SimpleField name="mark_num" type="string"></SimpleField>
	<SimpleField name="center_type" type="string"></SimpleField>
	<SimpleField name="lvl_line" type="string"></SimpleField>
	<SimpleField name="guid" type="string"></SimpleField>
</Schema>
<Folder><name>169cc930</name>
  <Placemark id="169cc930.1">
	<name>7653</name>
	<ExtendedData><SchemaData schemaUrl="#169cc930">
		<SimpleData name="title">грунтовый репер</SimpleData>
		<SimpleData name="type">2</SimpleData>
		<SimpleData name="ext_sign">466.513</SimpleData>
		<SimpleData name="class_lvl">465,487</SimpleData>
		<SimpleData name="height_lvl">в верхней плоскости монолита </SimpleData>
		<SimpleData name="ctrl_place">121 оп. знак</SimpleData>
		<SimpleData name="mark_num">Линия № 2: Аркарлы - Актас. 2 класс ( 2 ) Участок: фунд. реп. 23 - фунд. реп. 3010</SimpleData>
		<SimpleData name="center_type">Шалгииский, с., в 9.7 км к вост, от него, в 4.9 км к сев. от род. Сагантайбулак, на левом берегу р. Сагантай, в 20 м к зап. от грунт, дороги с. Клыч - с. Жамбыл</SimpleData>
		<SimpleData name="lvl_line">169cc930-4b17-4115-81ce-d00d4a6190e5</SimpleData>
	</SchemaData></ExtendedData>
      <Point><coordinates>70.7957633923974,47.3295080779912</coordinates></Point>
  </Placemark>
</Folder>
</Document></kml>
