<?xml version="1.0" encoding="utf-8" ?>
<kml xmlns="http://www.opengis.net/kml/2.2">
<Document id="root_doc">
<Schema name="169f07c9" id="169f07c9">
	<SimpleField name="title" type="string"></SimpleField>
	<SimpleField name="type" type="string"></SimpleField>
	<SimpleField name="ext_sign" type="string"></SimpleField>
	<SimpleField name="class_lvl" type="string"></SimpleField>
	<SimpleField name="height_lvl" type="string"></SimpleField>
	<SimpleField name="height_ctrl" type="string"></SimpleField>
	<SimpleField name="ctrl_place" type="string"></SimpleField>
	<SimpleField name="mark_num" type="string"></SimpleField>
	<SimpleField name="center_type" type="string"></SimpleField>
	<SimpleField name="lvl_line" type="string"></SimpleField>
	<SimpleField name="guid" type="string"></SimpleField>
</Schema>
<Folder><name>169f07c9</name>
  <Placemark id="169f07c9.1">
	<name>266</name>
	<description>грунт.реп.</description>
	<ExtendedData><SchemaData schemaUrl="#169f07c9">
		<SimpleData name="type">2</SimpleData>
		<SimpleData name="ext_sign">77.155</SimpleData>
		<SimpleData name="class_lvl">75.903</SimpleData>
		<SimpleData name="height_lvl">Контрольный репер  в фундаментальной плите</SimpleData>
		<SimpleData name="ctrl_place">116</SimpleData>
		<SimpleData name="mark_num">Линия №2: Жаркамыс-Казбек, II класс (2) Участок: пир.-штатив 2 класс Джубанайфк- грунт.реп. 504</SimpleData>
		<SimpleData name="center_type">с. Бесбай в 6.2 км к сев.-вост. От него в 5.3 км к юго-зап. От зим. Тогалайфши в 35 м к югу от дороги с. Бесбай - с. Тасаудан</SimpleData>
		<SimpleData name="lvl_line">169f07c9-2fe5-49b5-81a8-0d2315b0496c</SimpleData>
	</SchemaData></ExtendedData>
      <Point><coordinates>55.5149740309349,47.2627507650341</coordinates></Point>
  </Placemark>
</Folder>
</Document></kml>
