<?xml version="1.0" encoding="UTF-8"?>
<kml xmlns="http://www.opengis.net/kml/2.2">
  <Document id="root_doc">
    <Schema id="16b0eb1a" name="16b0eb1a">
      <SimpleField name="title" type="string"/>
      <SimpleField name="type" type="string"/>
      <SimpleField name="ext_sign" type="string"/>
      <SimpleField name="class_lvl" type="string"/>
      <SimpleField name="height_lvl" type="string"/>
      <SimpleField name="height_ctrl" type="string"/>
      <SimpleField name="ctrl_place" type="string"/>
      <SimpleField name="mark_num" type="string"/>
      <SimpleField name="center_type" type="string"/>
      <SimpleField name="lvl_line" type="string"/>
      <SimpleField name="guid" type="string"/>
    </Schema>
    <Schema id="_16b0eb1a.schema">
      <SimpleField name="title" type="string"/>
      <SimpleField name="type" type="string"/>
      <SimpleField name="ext_sign" type="string"/>
      <SimpleField name="class_lvl" type="string"/>
      <SimpleField name="height_lvl" type="string"/>
      <SimpleField name="height_ctrl" type="string"/>
      <SimpleField name="ctrl_place" type="string"/>
      <SimpleField name="mark_num" type="string"/>
      <SimpleField name="center_type" type="string"/>
      <SimpleField name="lvl_line" type="string"/>
      <SimpleField name="guid" type="string"/>
    </Schema>
    <Document id="_16b0eb1a">
      <name>16b0eb1a</name>
      <Placemark id="_16b0eb1a.1">
        <description>Булак. к..  в 10.6 км к юго-вост. от него. в 8.4 км к сев.-зап. от к. Байболат. в 0.2 км к сев.-вост от такыра. на бугорке</description>
        <ExtendedData>
          <SchemaData schemaUrl="#_16b0eb1a.schema">
            <SimpleData name="title">6070</SimpleData>
            <SimpleData name="type">грунтовый репер</SimpleData>
            <SimpleData name="ext_sign">грунт. реп.</SimpleData>
            <SimpleData name="class_lvl">2</SimpleData>
            <SimpleData name="height_lvl">110.630</SimpleData>
            <SimpleData name="center_type">160</SimpleData>
            <SimpleData name="lvl_line">Линия № 5:  Тасбулак-Жалагаш.   Участок:           грунт. реп. 2162-фунд.реп. 9597.                II класс</SimpleData>
            <SimpleData name="guid">16b0eb1a-47f7-4a65-8271-b2a0cdac4cb2</SimpleData>
          </SchemaData>
        </ExtendedData>
        <Point>
          <coordinates>
            64.6651931719615,45.8869677786283,0
          </coordinates>
        </Point>
      </Placemark>
    </Document>
  </Document>
</kml>
