<?xml version="1.0" encoding="utf-8" ?>
<kml xmlns="http://www.opengis.net/kml/2.2">
<Document id="root_doc">
<Schema name="172a6bea" id="172a6bea">
	<SimpleField name="type" type="string"></SimpleField>
	<SimpleField name="view" type="string"></SimpleField>
	<SimpleField name="leveling_order" type="string"></SimpleField>
	<SimpleField name="leveling_height" type="string"></SimpleField>
	<SimpleField name="control_height" type="string"></SimpleField>
	<SimpleField name="benchmark_number" type="string"></SimpleField>
	<SimpleField name="control_location" type="string"></SimpleField>
	<SimpleField name="benchmark_type" type="string"></SimpleField>
	<SimpleField name="leveling_line_section" type="string"></SimpleField>
	<SimpleField name="location_description" type="string"></SimpleField>
	<SimpleField name="status" type="string"></SimpleField>
	<SimpleField name="guid" type="string"></SimpleField>
	<SimpleField name="kml" type="string"></SimpleField>
	<SimpleField name="kml_link" type="string"></SimpleField>
</Schema>
<Folder><name>172a6bea</name>
  <Placemark id="172a6bea.1">
	<name>124</name>
	<name>фунд.реп.</name>
	<description>фунд.реп.</description>
	<ExtendedData><SchemaData schemaUrl="#172a6bea">
		<SimpleData name="type">II</SimpleData>
		<SimpleData name="view">575.618</SimpleData>
		<SimpleData name="leveling_order">575.132* 573.948*</SimpleData>
		<SimpleData name="control_height">в трубе     в верхней
плоскости монолита  </SimpleData>
		<SimpleData name="benchmark_number">141</SimpleData>
		<SimpleData name="benchmark_type">Ащысу,зим.,в 21.1 км:к юго-зап.от нее,  в 5.4 км к сев.-вост.от сух.к;Балпык 
 в 0.4 км к зап.от пересыхающего_русла
реки</SimpleData>
		<SimpleData name="location_description">172a6bea-8f83-495b-a2c3-b8e1a07381cd</SimpleData>
		<SimpleData name="status">data/stations/172a6bea.kml</SimpleData>
		<SimpleData name="guid">&lt;a href='data/stations/172a6bea.kml' target='_blank'&gt;Download KML&lt;/a&gt;</SimpleData>
	</SchemaData></ExtendedData>
      <Point><coordinates>76.1417770996995,47.6680178575042</coordinates></Point>
  </Placemark>
</Folder>
</Document></kml>
