<?xml version="1.0" encoding="utf-8" ?>
<kml xmlns="http://www.opengis.net/kml/2.2">
<Document id="root_doc">
<Schema name="17c27531" id="17c27531">
	<SimpleField name="type" type="string"></SimpleField>
	<SimpleField name="view" type="string"></SimpleField>
	<SimpleField name="leveling_order" type="string"></SimpleField>
	<SimpleField name="leveling_height" type="string"></SimpleField>
	<SimpleField name="control_height" type="string"></SimpleField>
	<SimpleField name="benchmark_number" type="string"></SimpleField>
	<SimpleField name="control_location" type="string"></SimpleField>
	<SimpleField name="benchmark_type" type="string"></SimpleField>
	<SimpleField name="leveling_line_section" type="string"></SimpleField>
	<SimpleField name="location_description" type="string"></SimpleField>
	<SimpleField name="status" type="string"></SimpleField>
	<SimpleField name="guid" type="string"></SimpleField>
	<SimpleField name="kml" type="string"></SimpleField>
	<SimpleField name="kml_link" type="string"></SimpleField>
</Schema>
<Folder><name>17c27531</name>
  <Placemark id="17c27531.1">
	<name>9534</name>
	<name>грунтовый репер</name>
	<ExtendedData><SchemaData schemaUrl="#17c27531">
		<SimpleData name="type">2</SimpleData>
		<SimpleData name="view">230,522</SimpleData>
		<SimpleData name="control_location">Участок: грунт, реп. 9314 - грунт.реп. 5741</SimpleData>
		<SimpleData name="benchmark_type">Басбульдурук. пир. 2 кл., в 4.1 км              к вост. от нее, в 3.4 км к юго-зап. от               к. Бескудук, в 1.1 км к югу от                полевой дороги</SimpleData>
		<SimpleData name="location_description">17c27531-85bf-4e03-a8fa-331c61071860</SimpleData>
		<SimpleData name="status">data/stations/17c27531.kml</SimpleData>
		<SimpleData name="guid">&lt;a href='data/stations/17c27531.kml' target='_blank'&gt;Download KML&lt;/a&gt;</SimpleData>
	</SchemaData></ExtendedData>
      <Point><coordinates>67.9763958544277,46.0841814243382</coordinates></Point>
  </Placemark>
</Folder>
</Document></kml>
