<?xml version="1.0" encoding="utf-8" ?>
<kml xmlns="http://www.opengis.net/kml/2.2">
<Document id="root_doc">
<Schema name="1885ba28" id="1885ba28">
	<SimpleField name="type" type="string"></SimpleField>
	<SimpleField name="view" type="string"></SimpleField>
	<SimpleField name="leveling_order" type="string"></SimpleField>
	<SimpleField name="leveling_height" type="string"></SimpleField>
	<SimpleField name="control_height" type="string"></SimpleField>
	<SimpleField name="benchmark_number" type="string"></SimpleField>
	<SimpleField name="control_location" type="string"></SimpleField>
	<SimpleField name="benchmark_type" type="string"></SimpleField>
	<SimpleField name="leveling_line_section" type="string"></SimpleField>
	<SimpleField name="location_description" type="string"></SimpleField>
	<SimpleField name="status" type="string"></SimpleField>
	<SimpleField name="guid" type="string"></SimpleField>
	<SimpleField name="kml" type="string"></SimpleField>
	<SimpleField name="kml_link" type="string"></SimpleField>
</Schema>
<Folder><name>1885ba28</name>
  <Placemark id="1885ba28.1">
	<name>68</name>
	<name>грунтовый репер</name>
	<ExtendedData><SchemaData schemaUrl="#1885ba28">
		<SimpleData name="type">II</SimpleData>
		<SimpleData name="view">711,062</SimpleData>
		<SimpleData name="leveling_order">708,271</SimpleData>
		<SimpleData name="control_height">Контрольный репер № 70 в верхней плоскости монолита </SimpleData>
		<SimpleData name="benchmark_number">123оп</SimpleData>
		<SimpleData name="control_location">Линия №1: Карасорский-Каркаралинск, II класс (1) Участок: грунт.реп. 50 - грунт.реп.0224</SimpleData>
		<SimpleData name="benchmark_type">Шоптыколь, с., в 0,8 км к югу от него, в 32 м к вост. от дороги с. Шоптыколь – с. Коянды, между тлгр. стб. №350 и №351</SimpleData>
		<SimpleData name="location_description">1885ba28-1fd2-4e70-8601-cc7eeb59b825</SimpleData>
		<SimpleData name="status">data/stations/1885ba28.kml</SimpleData>
		<SimpleData name="guid">&lt;a href='data/stations/1885ba28.kml' target='_blank'&gt;Download KML&lt;/a&gt;</SimpleData>
	</SchemaData></ExtendedData>
      <Point><coordinates>75.7040819557229,50.1246483748316</coordinates></Point>
  </Placemark>
</Folder>
</Document></kml>
