<?xml version="1.0" encoding="utf-8" ?>
<kml xmlns="http://www.opengis.net/kml/2.2">
<Document id="root_doc">
<Schema name="1a4bf153" id="1a4bf153">
	<SimpleField name="title" type="string"></SimpleField>
	<SimpleField name="type" type="string"></SimpleField>
	<SimpleField name="ext_sign" type="string"></SimpleField>
	<SimpleField name="class_lvl" type="string"></SimpleField>
	<SimpleField name="height_lvl" type="string"></SimpleField>
	<SimpleField name="height_ctrl" type="string"></SimpleField>
	<SimpleField name="ctrl_place" type="string"></SimpleField>
	<SimpleField name="mark_num" type="string"></SimpleField>
	<SimpleField name="center_type" type="string"></SimpleField>
	<SimpleField name="lvl_line" type="string"></SimpleField>
	<SimpleField name="guid" type="string"></SimpleField>
</Schema>
<Folder><name>1a4bf153</name>
  <Placemark id="1a4bf153.1">
	<name>644</name>
	<ExtendedData><SchemaData schemaUrl="#1a4bf153">
		<SimpleData name="title">грунт. реп.</SimpleData>
		<SimpleData name="type">1</SimpleData>
		<SimpleData name="ext_sign">1029.973</SimpleData>
		<SimpleData name="ctrl_place">160 оп. знак</SimpleData>
		<SimpleData name="mark_num">Линия  № 1: Сарыозек – Каракол (Пржевальск), I класс
Участок: грунт. реп.  520 – грунт.реп. 155</SimpleData>
		<SimpleData name="center_type">Коныролен, с., в 16.8 км к юго-вост. от него, в 92 м к сев.-зап. от р. Койбын, в 60 м к зап. от шоссе 
с. Сарыозек – гор. Жаркент, в 60 м к сев.-зап. от км. стб. 148/30</SimpleData>
		<SimpleData name="lvl_line">1a4bf153-0bab-415a-953f-a082fd733a8e</SimpleData>
	</SchemaData></ExtendedData>
      <Point><coordinates>79.4953122275014,44.2058574655083</coordinates></Point>
  </Placemark>
</Folder>
</Document></kml>
