<?xml version="1.0" encoding="utf-8" ?>
<kml xmlns="http://www.opengis.net/kml/2.2">
<Document id="root_doc">
<Schema name="1b4532a6" id="1b4532a6">
	<SimpleField name="type" type="string"></SimpleField>
	<SimpleField name="view" type="string"></SimpleField>
	<SimpleField name="leveling_order" type="string"></SimpleField>
	<SimpleField name="leveling_height" type="string"></SimpleField>
	<SimpleField name="control_height" type="string"></SimpleField>
	<SimpleField name="benchmark_number" type="string"></SimpleField>
	<SimpleField name="control_location" type="string"></SimpleField>
	<SimpleField name="benchmark_type" type="string"></SimpleField>
	<SimpleField name="leveling_line_section" type="string"></SimpleField>
	<SimpleField name="location_description" type="string"></SimpleField>
	<SimpleField name="status" type="string"></SimpleField>
	<SimpleField name="guid" type="string"></SimpleField>
	<SimpleField name="kml" type="string"></SimpleField>
	<SimpleField name="kml_link" type="string"></SimpleField>
</Schema>
<Folder><name>1b4532a6</name>
  <Placemark id="1b4532a6.1">
	<name>342</name>
	<name>грунтовый репер</name>
	<ExtendedData><SchemaData schemaUrl="#1b4532a6">
		<SimpleData name="type">2</SimpleData>
		<SimpleData name="view">461,043</SimpleData>
		<SimpleData name="leveling_height">459,937</SimpleData>
		<SimpleData name="benchmark_number">в верхней плоскости монолита</SimpleData>
		<SimpleData name="control_location">Линия № 1: Аркарлы - Актас, 2 класс (1) Участок: ск. реп. 790 - фунд. реп. 2280 </SimpleData>
		<SimpleData name="benchmark_type">Жалгыз, такыр, в 3.7 км к сев.-зап. от него, в 1.0 км к сев.-зап. от перекрёстка полевых дорог, у полевой дороги</SimpleData>
		<SimpleData name="location_description">1b4532a6-bfc7-4be9-9c29-fd06bb87946b</SimpleData>
		<SimpleData name="status">data/stations/1b4532a6.kml</SimpleData>
		<SimpleData name="guid">&lt;a href='data/stations/1b4532a6.kml' target='_blank'&gt;Download KML&lt;/a&gt;</SimpleData>
	</SchemaData></ExtendedData>
      <Point><coordinates>71.2269250455314,45.816904522401</coordinates></Point>
  </Placemark>
</Folder>
</Document></kml>
