<?xml version="1.0" encoding="utf-8" ?>
<kml xmlns="http://www.opengis.net/kml/2.2">
<Document id="root_doc">
<Schema name="1c04ec71" id="1c04ec71">
	<SimpleField name="title" type="string"></SimpleField>
	<SimpleField name="type" type="string"></SimpleField>
	<SimpleField name="ext_sign" type="string"></SimpleField>
	<SimpleField name="class_lvl" type="string"></SimpleField>
	<SimpleField name="height_lvl" type="string"></SimpleField>
	<SimpleField name="height_ctrl" type="string"></SimpleField>
	<SimpleField name="ctrl_place" type="string"></SimpleField>
	<SimpleField name="mark_num" type="string"></SimpleField>
	<SimpleField name="center_type" type="string"></SimpleField>
	<SimpleField name="lvl_line" type="string"></SimpleField>
	<SimpleField name="guid" type="string"></SimpleField>
</Schema>
<Folder><name>1c04ec71</name>
  <Placemark id="1c04ec71.1">
	<name>2174</name>
	<description>грунтовый репер</description>
	<ExtendedData><SchemaData schemaUrl="#1c04ec71">
		<SimpleData name="type">1</SimpleData>
		<SimpleData name="ext_sign">155.063</SimpleData>
		<SimpleData name="ctrl_place">160 оп</SimpleData>
		<SimpleData name="center_type">Амантогай, с., в 12.0 км к юго-зап. от него, в 0.3 км к сев. от с.Махат, в 0.2 км к сев.-зап. от кладб., в 73 м к юго-вост. от трассы г.Аркалык-с.Амангельды</SimpleData>
		<SimpleData name="lvl_line">1c04ec71-13b8-4916-9a9b-9ab5b59eea77</SimpleData>
	</SchemaData></ExtendedData>
      <Point><coordinates>65.4843148132043,50.3824928025981</coordinates></Point>
  </Placemark>
</Folder>
</Document></kml>
