<?xml version="1.0" encoding="utf-8" ?>
<kml xmlns="http://www.opengis.net/kml/2.2">
<Document id="root_doc">
<Schema name="1c2b4273" id="1c2b4273">
	<SimpleField name="type" type="string"></SimpleField>
	<SimpleField name="view" type="string"></SimpleField>
	<SimpleField name="leveling_order" type="string"></SimpleField>
	<SimpleField name="leveling_height" type="string"></SimpleField>
	<SimpleField name="control_height" type="string"></SimpleField>
	<SimpleField name="benchmark_number" type="string"></SimpleField>
	<SimpleField name="control_location" type="string"></SimpleField>
	<SimpleField name="benchmark_type" type="string"></SimpleField>
	<SimpleField name="leveling_line_section" type="string"></SimpleField>
	<SimpleField name="location_description" type="string"></SimpleField>
	<SimpleField name="status" type="string"></SimpleField>
	<SimpleField name="guid" type="string"></SimpleField>
	<SimpleField name="kml" type="string"></SimpleField>
	<SimpleField name="kml_link" type="string"></SimpleField>
</Schema>
<Folder><name>1c2b4273</name>
  <Placemark id="1c2b4273.1">
	<name>2589</name>
	<name>грунт. реп.</name>
	<ExtendedData><SchemaData schemaUrl="#1c2b4273">
		<SimpleData name="type">2</SimpleData>
		<SimpleData name="view">100.089</SimpleData>
		<SimpleData name="leveling_order">98.984</SimpleData>
		<SimpleData name="benchmark_number">121 оп. знак</SimpleData>
		<SimpleData name="control_location">Линия № 2 : Коккабак - Жынгылдак, II класс. Участок: фунд. реп. 2 - грунт. реп. 308</SimpleData>
		<SimpleData name="benchmark_type">Караунгир, зим., в 11.5 км к сев.-вост. от неё, в 0.7 км к сев. от зимовки, в 0.4 км к вост. от грунт. дороги с. Карасу - гор. Аральск</SimpleData>
		<SimpleData name="location_description">1c2b4273-a113-428f-84bf-96c3944055e3</SimpleData>
		<SimpleData name="status">data/stations/1c2b4273.kml</SimpleData>
		<SimpleData name="guid">&lt;a href='data/stations/1c2b4273.kml' target='_blank'&gt;Download KML&lt;/a&gt;</SimpleData>
	</SchemaData></ExtendedData>
      <Point><coordinates>63.7003291070297,47.7234862275312</coordinates></Point>
  </Placemark>
</Folder>
</Document></kml>
