<?xml version="1.0" encoding="utf-8" ?>
<kml xmlns="http://www.opengis.net/kml/2.2">
<Document id="root_doc">
<Schema name="1c3cc894" id="1c3cc894">
	<SimpleField name="type" type="string"></SimpleField>
	<SimpleField name="view" type="string"></SimpleField>
	<SimpleField name="leveling_order" type="string"></SimpleField>
	<SimpleField name="leveling_height" type="string"></SimpleField>
	<SimpleField name="control_height" type="string"></SimpleField>
	<SimpleField name="benchmark_number" type="string"></SimpleField>
	<SimpleField name="control_location" type="string"></SimpleField>
	<SimpleField name="benchmark_type" type="string"></SimpleField>
	<SimpleField name="leveling_line_section" type="string"></SimpleField>
	<SimpleField name="location_description" type="string"></SimpleField>
	<SimpleField name="status" type="string"></SimpleField>
	<SimpleField name="guid" type="string"></SimpleField>
	<SimpleField name="kml" type="string"></SimpleField>
	<SimpleField name="kml_link" type="string"></SimpleField>
</Schema>
<Folder><name>1c3cc894</name>
  <Placemark id="1c3cc894.1">
	<name>1291,</name>
	<name>грунт.реп.</name>
	<description>грунт.реп.</description>
	<ExtendedData><SchemaData schemaUrl="#1c3cc894">
		<SimpleData name="type">II</SimpleData>
		<SimpleData name="view">346.912</SimpleData>
		<SimpleData name="benchmark_number">160 оп.знак</SimpleData>
		<SimpleData name="control_location">Линия № 1:Акколь -урочище Куйган. II класс  Участок: грунт.реп. 960-пир. 3кл. Заозерный 6236</SimpleData>
		<SimpleData name="benchmark_type">Томар,разв., в 28.9 км к юго-вост.от них,-в 2.9 км к юго-зап.от пир.2 кл. 
Шошкаколь,в 33 м к сев.-вост.от.песчаных бугров </SimpleData>
		<SimpleData name="location_description">1c3cc894-4add-4c07-8435-4c4132397f5a</SimpleData>
		<SimpleData name="status">data/stations/1c3cc894.kml</SimpleData>
		<SimpleData name="guid">&lt;a href='data/stations/1c3cc894.kml' target='_blank'&gt;Download KML&lt;/a&gt;</SimpleData>
	</SchemaData></ExtendedData>
      <Point><coordinates>75.3887013775069,46.3049265983654</coordinates></Point>
  </Placemark>
</Folder>
</Document></kml>
