<?xml version="1.0" encoding="utf-8" ?>
<kml xmlns="http://www.opengis.net/kml/2.2">
<Document id="root_doc">
<Schema name="1c7e45f2" id="1c7e45f2">
	<SimpleField name="type" type="string"></SimpleField>
	<SimpleField name="view" type="string"></SimpleField>
	<SimpleField name="leveling_order" type="string"></SimpleField>
	<SimpleField name="leveling_height" type="string"></SimpleField>
	<SimpleField name="control_height" type="string"></SimpleField>
	<SimpleField name="benchmark_number" type="string"></SimpleField>
	<SimpleField name="control_location" type="string"></SimpleField>
	<SimpleField name="benchmark_type" type="string"></SimpleField>
	<SimpleField name="leveling_line_section" type="string"></SimpleField>
	<SimpleField name="location_description" type="string"></SimpleField>
	<SimpleField name="status" type="string"></SimpleField>
	<SimpleField name="guid" type="string"></SimpleField>
	<SimpleField name="kml" type="string"></SimpleField>
	<SimpleField name="kml_link" type="string"></SimpleField>
</Schema>
<Folder><name>1c7e45f2</name>
  <Placemark id="1c7e45f2.1">
	<name>301</name>
	<name>грунтовый репер</name>
	<ExtendedData><SchemaData schemaUrl="#1c7e45f2">
		<SimpleData name="type">2</SimpleData>
		<SimpleData name="view">360,789</SimpleData>
		<SimpleData name="control_location">Линия № 3: Жезказган - р,Сарысу, 2 класс (4) Участок: фунд, реп. 495 - грунт. реп. 826</SimpleData>
		<SimpleData name="benchmark_type">Жиренбайсай, арт, к,, в 9,5 км к сев,-зап, от него, в 20 м к вост, от перекрёстка полевых дорог, в 5 м к сев, от полевой дороги</SimpleData>
		<SimpleData name="location_description">1c7e45f2-138d-452d-bb3f-480df03487b2</SimpleData>
		<SimpleData name="status">data/stations/1c7e45f2.kml</SimpleData>
		<SimpleData name="guid">&lt;a href='data/stations/1c7e45f2.kml' target='_blank'&gt;Download KML&lt;/a&gt;</SimpleData>
	</SchemaData></ExtendedData>
      <Point><coordinates>67.4601651855537,47.5763578671653</coordinates></Point>
  </Placemark>
</Folder>
</Document></kml>
