<?xml version="1.0" encoding="utf-8" ?>
<kml xmlns="http://www.opengis.net/kml/2.2">
<Document id="root_doc">
<Schema name="1c989414" id="1c989414">
	<SimpleField name="type" type="string"></SimpleField>
	<SimpleField name="view" type="string"></SimpleField>
	<SimpleField name="leveling_order" type="string"></SimpleField>
	<SimpleField name="leveling_height" type="string"></SimpleField>
	<SimpleField name="control_height" type="string"></SimpleField>
	<SimpleField name="benchmark_number" type="string"></SimpleField>
	<SimpleField name="control_location" type="string"></SimpleField>
	<SimpleField name="benchmark_type" type="string"></SimpleField>
	<SimpleField name="leveling_line_section" type="string"></SimpleField>
	<SimpleField name="location_description" type="string"></SimpleField>
	<SimpleField name="status" type="string"></SimpleField>
	<SimpleField name="guid" type="string"></SimpleField>
	<SimpleField name="kml" type="string"></SimpleField>
	<SimpleField name="kml_link" type="string"></SimpleField>
</Schema>
<Folder><name>1c989414</name>
  <Placemark id="1c989414.1">
	<name>8616</name>
	<name>грунтовый репер</name>
	<ExtendedData><SchemaData schemaUrl="#1c989414">
		<SimpleData name="type">1</SimpleData>
		<SimpleData name="view">253.451</SimpleData>
		<SimpleData name="benchmark_number">160 оп, знак</SimpleData>
		<SimpleData name="control_location">Линия № 1: Торыустаган - Бирлик, 1 класс (1) Участок: грунт, реп,5839 - пир, 3 кл, Кызылкурган</SimpleData>
		<SimpleData name="benchmark_type">Жайлауколь, с,, в 2,0 км к вост, от него, в 2,3 км к зап, от буг, Итмурын, в 13 м к сев, от грунт, дороги с, Жайлауколь - с, Уланбель</SimpleData>
		<SimpleData name="location_description">1c989414-08db-4a9b-81b9-f2c07d3223e9</SimpleData>
		<SimpleData name="status">data/stations/1c989414.kml</SimpleData>
		<SimpleData name="guid">&lt;a href='data/stations/1c989414.kml' target='_blank'&gt;Download KML&lt;/a&gt;</SimpleData>
	</SchemaData></ExtendedData>
      <Point><coordinates>70.4720028459121,44.8363927709737</coordinates></Point>
  </Placemark>
</Folder>
</Document></kml>
