<?xml version="1.0" encoding="utf-8" ?>
<kml xmlns="http://www.opengis.net/kml/2.2">
<Document id="root_doc">
<Schema name="1cfa0959" id="1cfa0959">
	<SimpleField name="type" type="string"></SimpleField>
	<SimpleField name="view" type="string"></SimpleField>
	<SimpleField name="leveling_order" type="string"></SimpleField>
	<SimpleField name="leveling_height" type="string"></SimpleField>
	<SimpleField name="control_height" type="string"></SimpleField>
	<SimpleField name="benchmark_number" type="string"></SimpleField>
	<SimpleField name="control_location" type="string"></SimpleField>
	<SimpleField name="benchmark_type" type="string"></SimpleField>
	<SimpleField name="leveling_line_section" type="string"></SimpleField>
	<SimpleField name="location_description" type="string"></SimpleField>
	<SimpleField name="status" type="string"></SimpleField>
	<SimpleField name="guid" type="string"></SimpleField>
	<SimpleField name="kml" type="string"></SimpleField>
	<SimpleField name="kml_link" type="string"></SimpleField>
</Schema>
<Folder><name>1cfa0959</name>
  <Placemark id="1cfa0959.1">
	<name>743</name>
	<name>грунтовый репер</name>
	<ExtendedData><SchemaData schemaUrl="#1cfa0959">
		<SimpleData name="type">2</SimpleData>
		<SimpleData name="view">73,702</SimpleData>
		<SimpleData name="control_location">Линия № 1: Развалины Пикета № 8 - Сарысу, 2 класс (1) Участок: пир.2 кл.Арыссай - грунт. реп. 9255</SimpleData>
		<SimpleData name="benchmark_type">Кылы, арт. к., в 3.1 км к сев.-зап. от него, в 1.7 км к юго­ вост. от пир. 2 кл. Арыс, в 60 м к юго-зап. от полевой дороги</SimpleData>
		<SimpleData name="location_description">1cfa0959-e539-4bf5-b698-0499e2e9eb0f</SimpleData>
		<SimpleData name="status">data/stations/1cfa0959.kml</SimpleData>
		<SimpleData name="guid">&lt;a href='data/stations/1cfa0959.kml' target='_blank'&gt;Download KML&lt;/a&gt;</SimpleData>
	</SchemaData></ExtendedData>
      <Point><coordinates>66.1535716836848,45.9344054643413</coordinates></Point>
  </Placemark>
</Folder>
</Document></kml>
