<?xml version="1.0" encoding="utf-8" ?>
<kml xmlns="http://www.opengis.net/kml/2.2">
<Document id="root_doc">
<Schema name="1d7beb17" id="1d7beb17">
	<SimpleField name="title" type="string"></SimpleField>
	<SimpleField name="type" type="string"></SimpleField>
	<SimpleField name="ext_sign" type="string"></SimpleField>
	<SimpleField name="class_lvl" type="string"></SimpleField>
	<SimpleField name="height_lvl" type="string"></SimpleField>
	<SimpleField name="height_ctrl" type="string"></SimpleField>
	<SimpleField name="ctrl_place" type="string"></SimpleField>
	<SimpleField name="mark_num" type="string"></SimpleField>
	<SimpleField name="center_type" type="string"></SimpleField>
	<SimpleField name="lvl_line" type="string"></SimpleField>
	<SimpleField name="guid" type="string"></SimpleField>
</Schema>
<Folder><name>1d7beb17</name>
  <Placemark id="1d7beb17.1">
	<name>1135</name>
	<description>грунтовый репер</description>
	<ExtendedData><SchemaData schemaUrl="#1d7beb17">
		<SimpleData name="type">2</SimpleData>
		<SimpleData name="ext_sign">-8,438</SimpleData>
		<SimpleData name="ctrl_place">160 оп знак</SimpleData>
		<SimpleData name="mark_num">Линия II класса: Богдо-Нов.Уштаган-Малый Арал</SimpleData>
		<SimpleData name="center_type">Уштаган, с., в 6,7 км к сев.-зап. от него, в 0,3 км к зап. от солончако-вого озера, в 0,2 км к зап. от по-левой дороги</SimpleData>
		<SimpleData name="lvl_line">1d7beb17-ca97-4101-989d-da9281f7596f</SimpleData>
	</SchemaData></ExtendedData>
      <Point><coordinates>48.695791047078,47.9543191572372</coordinates></Point>
  </Placemark>
</Folder>
</Document></kml>
