<?xml version="1.0" encoding="utf-8" ?>
<kml xmlns="http://www.opengis.net/kml/2.2">
<Document id="root_doc">
<Schema name="1dc41e96" id="1dc41e96">
	<SimpleField name="title" type="string"></SimpleField>
	<SimpleField name="type" type="string"></SimpleField>
	<SimpleField name="ext_sign" type="string"></SimpleField>
	<SimpleField name="class_lvl" type="string"></SimpleField>
	<SimpleField name="height_lvl" type="string"></SimpleField>
	<SimpleField name="height_ctrl" type="string"></SimpleField>
	<SimpleField name="ctrl_place" type="string"></SimpleField>
	<SimpleField name="mark_num" type="string"></SimpleField>
	<SimpleField name="center_type" type="string"></SimpleField>
	<SimpleField name="lvl_line" type="string"></SimpleField>
	<SimpleField name="guid" type="string"></SimpleField>
</Schema>
<Folder><name>1dc41e96</name>
  <Placemark id="1dc41e96.1">
	<name>2118_0</name>
	<description>грунтовый репер</description>
	<ExtendedData><SchemaData schemaUrl="#1dc41e96">
		<SimpleData name="height_ctrl">2118</SimpleData>
		<SimpleData name="ctrl_place">160оп.</SimpleData>
		<SimpleData name="center_type">Жарлы, с., в 9,5 км к сев. от него, в 87 м к сев.-зап. от дороги г.Каркаралинск-с.Жарлы.
</SimpleData>
		<SimpleData name="lvl_line">1dc41e96-81eb-471d-8f63-ebe8d0e35e40</SimpleData>
	</SchemaData></ExtendedData>
      <Point><coordinates>75.2808793669434,49.2570345962904</coordinates></Point>
  </Placemark>
</Folder>
</Document></kml>
