<?xml version="1.0" encoding="utf-8" ?>
<kml xmlns="http://www.opengis.net/kml/2.2">
<Document id="root_doc">
<Schema name="1dc9e7f4" id="1dc9e7f4">
	<SimpleField name="title" type="string"></SimpleField>
	<SimpleField name="type" type="string"></SimpleField>
	<SimpleField name="ext_sign" type="string"></SimpleField>
	<SimpleField name="class_lvl" type="string"></SimpleField>
	<SimpleField name="height_lvl" type="string"></SimpleField>
	<SimpleField name="height_ctrl" type="string"></SimpleField>
	<SimpleField name="ctrl_place" type="string"></SimpleField>
	<SimpleField name="mark_num" type="string"></SimpleField>
	<SimpleField name="center_type" type="string"></SimpleField>
	<SimpleField name="lvl_line" type="string"></SimpleField>
	<SimpleField name="guid" type="string"></SimpleField>
</Schema>
<Folder><name>1dc9e7f4</name>
  <Placemark id="1dc9e7f4.1">
	<name>8819</name>
	<description>грунтовый репер</description>
	<ExtendedData><SchemaData schemaUrl="#1dc9e7f4">
		<SimpleData name="type">2</SimpleData>
		<SimpleData name="ext_sign">-11,531</SimpleData>
		<SimpleData name="class_lvl">-12,647</SimpleData>
		<SimpleData name="height_lvl">контрольный репер №410 в верхней плоскости монолита</SimpleData>
		<SimpleData name="ctrl_place">121 оп знак</SimpleData>
		<SimpleData name="mark_num">Линия II класса: Богдо-Нов.Уштаган-Малый Арал</SimpleData>
		<SimpleData name="center_type">Асан, с., центр фермы № 3, в 10,7 км к сев.-вост. от него, в 3,0 км к зап. от кладб. Тналя, в 1,0 км к сев. от разв. Кадын</SimpleData>
		<SimpleData name="lvl_line">1dc9e7f4-f8bf-4db3-ac80-95e164efd156</SimpleData>
	</SchemaData></ExtendedData>
      <Point><coordinates>48.5554867442433,47.9766013170835</coordinates></Point>
  </Placemark>
</Folder>
</Document></kml>
