<?xml version="1.0" encoding="utf-8" ?>
<kml xmlns="http://www.opengis.net/kml/2.2">
<Document id="root_doc">
<Schema name="1dda32ee" id="1dda32ee">
	<SimpleField name="type" type="string"></SimpleField>
	<SimpleField name="view" type="string"></SimpleField>
	<SimpleField name="leveling_order" type="string"></SimpleField>
	<SimpleField name="leveling_height" type="string"></SimpleField>
	<SimpleField name="control_height" type="string"></SimpleField>
	<SimpleField name="benchmark_number" type="string"></SimpleField>
	<SimpleField name="control_location" type="string"></SimpleField>
	<SimpleField name="benchmark_type" type="string"></SimpleField>
	<SimpleField name="leveling_line_section" type="string"></SimpleField>
	<SimpleField name="location_description" type="string"></SimpleField>
	<SimpleField name="status" type="string"></SimpleField>
	<SimpleField name="guid" type="string"></SimpleField>
	<SimpleField name="kml" type="string"></SimpleField>
	<SimpleField name="kml_link" type="string"></SimpleField>
</Schema>
<Folder><name>1dda32ee</name>
  <Placemark id="1dda32ee.1">
	<name>20241</name>
	<name>марка</name>
	<ExtendedData><SchemaData schemaUrl="#1dda32ee">
		<SimpleData name="type">1</SimpleData>
		<SimpleData name="view">718.116</SimpleData>
		<SimpleData name="control_location">Линия № 1: Сарыозек  - Алажиде, I класс             Участок: фунд. реп.  384 -  марка 20241</SimpleData>
		<SimpleData name="benchmark_type">Айнабулак станц.. в 0.8 км к юго-вост. от нее. на 2 пк 1454 км. в вост. стене южного устоя жел.-дор. Моста</SimpleData>
		<SimpleData name="leveling_line_section">уничтожен</SimpleData>
		<SimpleData name="location_description">1dda32ee-5bb4-4130-bacc-8edf876a9318</SimpleData>
		<SimpleData name="status">data/stations/1dda32ee.kml</SimpleData>
		<SimpleData name="guid">&lt;a href='data/stations/1dda32ee.kml' target='_blank'&gt;Download KML&lt;/a&gt;</SimpleData>
	</SchemaData></ExtendedData>
      <Point><coordinates>77.9953290634024,44.6151712557454</coordinates></Point>
  </Placemark>
</Folder>
</Document></kml>
