<?xml version="1.0" encoding="utf-8" ?>
<kml xmlns="http://www.opengis.net/kml/2.2">
<Document id="root_doc">
<Schema name="1e6c9c60" id="1e6c9c60">
	<SimpleField name="type" type="string"></SimpleField>
	<SimpleField name="view" type="string"></SimpleField>
	<SimpleField name="leveling_order" type="string"></SimpleField>
	<SimpleField name="leveling_height" type="string"></SimpleField>
	<SimpleField name="control_height" type="string"></SimpleField>
	<SimpleField name="benchmark_number" type="string"></SimpleField>
	<SimpleField name="control_location" type="string"></SimpleField>
	<SimpleField name="benchmark_type" type="string"></SimpleField>
	<SimpleField name="leveling_line_section" type="string"></SimpleField>
	<SimpleField name="location_description" type="string"></SimpleField>
	<SimpleField name="status" type="string"></SimpleField>
	<SimpleField name="guid" type="string"></SimpleField>
	<SimpleField name="kml" type="string"></SimpleField>
	<SimpleField name="kml_link" type="string"></SimpleField>
</Schema>
<Folder><name>1e6c9c60</name>
  <Placemark id="1e6c9c60.1">
	<name>166</name>
	<name>грунт. Реп.</name>
	<ExtendedData><SchemaData schemaUrl="#1e6c9c60">
		<SimpleData name="type">2</SimpleData>
		<SimpleData name="view">135.939</SimpleData>
		<SimpleData name="leveling_order">134.376</SimpleData>
		<SimpleData name="benchmark_number">116</SimpleData>
		<SimpleData name="control_location">Линия №4 : Амангельды-Байконур, II класс(2) . Участок : марка 2839-грунт. Реп. 0671</SimpleData>
		<SimpleData name="benchmark_type">Амангельды, с. , в 9.6 км к юго.-вост. От него, в 0.4 км к югу от перекрестка полевых дорог, в 15 м к зап. От полевой дороги</SimpleData>
		<SimpleData name="location_description">1e6c9c60-bff3-4aa3-b921-e430b4ded6c5</SimpleData>
		<SimpleData name="status">data/stations/1e6c9c60.kml</SimpleData>
		<SimpleData name="guid">&lt;a href='data/stations/1e6c9c60.kml' target='_blank'&gt;Download KML&lt;/a&gt;</SimpleData>
	</SchemaData></ExtendedData>
      <Point><coordinates>65.2708805359091,50.1125605593192</coordinates></Point>
  </Placemark>
</Folder>
</Document></kml>
