<?xml version="1.0" encoding="utf-8" ?>
<kml xmlns="http://www.opengis.net/kml/2.2">
<Document id="root_doc">
<Schema name="1f6ed268" id="1f6ed268">
	<SimpleField name="title" type="string"></SimpleField>
	<SimpleField name="type" type="string"></SimpleField>
	<SimpleField name="ext_sign" type="string"></SimpleField>
	<SimpleField name="class_lvl" type="string"></SimpleField>
	<SimpleField name="height_lvl" type="string"></SimpleField>
	<SimpleField name="height_ctrl" type="string"></SimpleField>
	<SimpleField name="ctrl_place" type="string"></SimpleField>
	<SimpleField name="mark_num" type="string"></SimpleField>
	<SimpleField name="center_type" type="string"></SimpleField>
	<SimpleField name="lvl_line" type="string"></SimpleField>
	<SimpleField name="guid" type="string"></SimpleField>
</Schema>
<Folder><name>1f6ed268</name>
  <Placemark id="1f6ed268.1">
	<name>Закладка </name>
	<description>Грунтовый репер </description>
	<ExtendedData><SchemaData schemaUrl="#1f6ed268">
		<SimpleData name="height_ctrl">0925</SimpleData>
		<SimpleData name="lvl_line">1f6ed268-62a1-47de-890f-fe113ee65340</SimpleData>
	</SchemaData></ExtendedData>
      <Point><coordinates>84.11295,49.301855</coordinates></Point>
  </Placemark>
</Folder>
</Document></kml>
