<?xml version="1.0" encoding="UTF-8"?>
<kml xmlns="http://www.opengis.net/kml/2.2">
  <Document id="root_doc">
    <Schema id="1f85e4f9" name="1f85e4f9">
      <SimpleField name="title" type="string"/>
      <SimpleField name="type" type="string"/>
      <SimpleField name="ext_sign" type="string"/>
      <SimpleField name="class_lvl" type="string"/>
      <SimpleField name="height_lvl" type="string"/>
      <SimpleField name="height_ctrl" type="string"/>
      <SimpleField name="ctrl_place" type="string"/>
      <SimpleField name="mark_num" type="string"/>
      <SimpleField name="center_type" type="string"/>
      <SimpleField name="lvl_line" type="string"/>
      <SimpleField name="guid" type="string"/>
    </Schema>
    <Schema id="_1f85e4f9.schema">
      <SimpleField name="title" type="string"/>
      <SimpleField name="type" type="string"/>
      <SimpleField name="ext_sign" type="string"/>
      <SimpleField name="class_lvl" type="string"/>
      <SimpleField name="height_lvl" type="string"/>
      <SimpleField name="height_ctrl" type="string"/>
      <SimpleField name="ctrl_place" type="string"/>
      <SimpleField name="mark_num" type="string"/>
      <SimpleField name="center_type" type="string"/>
      <SimpleField name="lvl_line" type="string"/>
      <SimpleField name="guid" type="string"/>
    </Schema>
    <Document id="_1f85e4f9">
      <name>1f85e4f9</name>
      <Placemark id="_1f85e4f9.1">
        <description>Шоктобе. к..  в 11.0 км к сев. от него. в 4.0 км к вост. от к. Доныз. в 1.6 км к югу от полевой дороги</description>
        <ExtendedData>
          <SchemaData schemaUrl="#_1f85e4f9.schema">
            <SimpleData name="title">4660</SimpleData>
            <SimpleData name="type">грунтовый репер</SimpleData>
            <SimpleData name="ext_sign">грунт. реп.</SimpleData>
            <SimpleData name="class_lvl">2</SimpleData>
            <SimpleData name="height_lvl">107.577</SimpleData>
            <SimpleData name="center_type">160</SimpleData>
            <SimpleData name="lvl_line">Линия № 5:  Тасбулак-Жалагаш.   Участок:           грунт. реп. 2162-фунд.реп. 9597.                II класс</SimpleData>
            <SimpleData name="guid">1f85e4f9-9b39-47b0-ab0a-fea84ca1ca1b</SimpleData>
          </SchemaData>
        </ExtendedData>
        <Point>
          <coordinates>
            64.7868414062507,45.6410882583616,0
          </coordinates>
        </Point>
      </Placemark>
    </Document>
  </Document>
</kml>
