<?xml version="1.0" encoding="utf-8" ?>
<kml xmlns="http://www.opengis.net/kml/2.2">
<Document id="root_doc">
<Schema name="1f952c19" id="1f952c19">
	<SimpleField name="title" type="string"></SimpleField>
	<SimpleField name="type" type="string"></SimpleField>
	<SimpleField name="ext_sign" type="string"></SimpleField>
	<SimpleField name="class_lvl" type="string"></SimpleField>
	<SimpleField name="height_lvl" type="string"></SimpleField>
	<SimpleField name="height_ctrl" type="string"></SimpleField>
	<SimpleField name="ctrl_place" type="string"></SimpleField>
	<SimpleField name="mark_num" type="string"></SimpleField>
	<SimpleField name="center_type" type="string"></SimpleField>
	<SimpleField name="lvl_line" type="string"></SimpleField>
	<SimpleField name="guid" type="string"></SimpleField>
</Schema>
<Folder><name>1f952c19</name>
  <Placemark id="1f952c19.1">
	<name>2783</name>
	<description>грунтовый репер</description>
	<ExtendedData><SchemaData schemaUrl="#1f952c19">
		<SimpleData name="type">1</SimpleData>
		<SimpleData name="ext_sign">110.253</SimpleData>
		<SimpleData name="ctrl_place">160оп</SimpleData>
		<SimpleData name="mark_num">Линия №79: Уил-Сагиз, ІІ класс Участок: грунт.реп.3634-фунд.реп.145</SimpleData>
		<SimpleData name="center_type">Сагиз, станц., в 50.0км к сев.-зап.от нее, в 0.1км к сев.от пересения дороги с сухим руслом, в 15м к зап.от полевой дороги</SimpleData>
		<SimpleData name="lvl_line">1f952c19-0e2b-47f6-a3cd-13aaf3411123</SimpleData>
	</SchemaData></ExtendedData>
      <Point><coordinates>54.6111631546919,48.5984433314529</coordinates></Point>
  </Placemark>
</Folder>
</Document></kml>
