<?xml version="1.0" encoding="utf-8" ?>
<kml xmlns="http://www.opengis.net/kml/2.2">
<Document id="root_doc">
<Schema name="1fa1f155" id="1fa1f155">
	<SimpleField name="type" type="string"></SimpleField>
	<SimpleField name="view" type="string"></SimpleField>
	<SimpleField name="leveling_order" type="string"></SimpleField>
	<SimpleField name="leveling_height" type="string"></SimpleField>
	<SimpleField name="control_height" type="string"></SimpleField>
	<SimpleField name="benchmark_number" type="string"></SimpleField>
	<SimpleField name="control_location" type="string"></SimpleField>
	<SimpleField name="benchmark_type" type="string"></SimpleField>
	<SimpleField name="leveling_line_section" type="string"></SimpleField>
	<SimpleField name="location_description" type="string"></SimpleField>
	<SimpleField name="status" type="string"></SimpleField>
	<SimpleField name="guid" type="string"></SimpleField>
	<SimpleField name="kml" type="string"></SimpleField>
	<SimpleField name="kml_link" type="string"></SimpleField>
</Schema>
<Folder><name>1fa1f155</name>
  <Placemark id="1fa1f155.1">
	<name>4786,</name>
	<name>грунт.реп.</name>
	<description>грунт.реп.</description>
	<ExtendedData><SchemaData schemaUrl="#1fa1f155">
		<SimpleData name="type">II</SimpleData>
		<SimpleData name="view">721.863</SimpleData>
		<SimpleData name="benchmark_number">160оп.знак</SimpleData>
		<SimpleData name="control_location">Линия №2:Балхаш-Акчатау II класс                            Участок:грунт.реп.2857-грунт.реп. 4786</SimpleData>
		<SimpleData name="benchmark_type">Акчатау,с.,в 2.2 км к зап.от него,,
к югу от дороги,соединяющей
с.Акчатау с шоссе Караганда-Балхаш</SimpleData>
		<SimpleData name="location_description">1fa1f155-5e58-4a9e-aa20-a6adc5fd6cde</SimpleData>
		<SimpleData name="status">data/stations/1fa1f155.kml</SimpleData>
		<SimpleData name="guid">&lt;a href='data/stations/1fa1f155.kml' target='_blank'&gt;Download KML&lt;/a&gt;</SimpleData>
	</SchemaData></ExtendedData>
      <Point><coordinates>74.0040039655176,47.9820464863956</coordinates></Point>
  </Placemark>
</Folder>
</Document></kml>
