<?xml version="1.0" encoding="utf-8" ?>
<kml xmlns="http://www.opengis.net/kml/2.2">
<Document id="root_doc">
<Schema name="1fe2c68e" id="1fe2c68e">
	<SimpleField name="type" type="string"></SimpleField>
	<SimpleField name="view" type="string"></SimpleField>
	<SimpleField name="leveling_order" type="string"></SimpleField>
	<SimpleField name="leveling_height" type="string"></SimpleField>
	<SimpleField name="control_height" type="string"></SimpleField>
	<SimpleField name="benchmark_number" type="string"></SimpleField>
	<SimpleField name="control_location" type="string"></SimpleField>
	<SimpleField name="benchmark_type" type="string"></SimpleField>
	<SimpleField name="leveling_line_section" type="string"></SimpleField>
	<SimpleField name="location_description" type="string"></SimpleField>
	<SimpleField name="status" type="string"></SimpleField>
	<SimpleField name="guid" type="string"></SimpleField>
	<SimpleField name="kml" type="string"></SimpleField>
	<SimpleField name="kml_link" type="string"></SimpleField>
</Schema>
<Folder><name>1fe2c68e</name>
  <Placemark id="1fe2c68e.1">
	<name>4349</name>
	<name>грунтовый репер</name>
	<ExtendedData><SchemaData schemaUrl="#1fe2c68e">
		<SimpleData name="type">1</SimpleData>
		<SimpleData name="view">208.722</SimpleData>
		<SimpleData name="benchmark_number">159</SimpleData>
		<SimpleData name="control_location">Линия № 1: Туйемойнак - Торыустаган, 1 класс (1) Участок: грунт, реп, 3215 - фунд, реп, 9993</SimpleData>
		<SimpleData name="benchmark_type">Торыустаган, с,, в 4,5 км к сев,-вост, от него, в 8,4 км к юго-зап, от арт, к, № 4837, в 10 м к вост, от развилки полевой дороги</SimpleData>
		<SimpleData name="location_description">1fe2c68e-1ed4-494f-9482-e0bde942cdbc</SimpleData>
		<SimpleData name="status">data/stations/1fe2c68e.kml</SimpleData>
		<SimpleData name="guid">&lt;a href='data/stations/1fe2c68e.kml' target='_blank'&gt;Download KML&lt;/a&gt;</SimpleData>
	</SchemaData></ExtendedData>
      <Point><coordinates>69.6743932615358,44.8225070189118</coordinates></Point>
  </Placemark>
</Folder>
</Document></kml>
