<?xml version="1.0" encoding="utf-8" ?>
<kml xmlns="http://www.opengis.net/kml/2.2">
<Document id="root_doc">
<Schema name="1ff5de9e" id="1ff5de9e">
	<SimpleField name="title" type="string"></SimpleField>
	<SimpleField name="type" type="string"></SimpleField>
	<SimpleField name="ext_sign" type="string"></SimpleField>
	<SimpleField name="class_lvl" type="string"></SimpleField>
	<SimpleField name="height_lvl" type="string"></SimpleField>
	<SimpleField name="height_ctrl" type="string"></SimpleField>
	<SimpleField name="ctrl_place" type="string"></SimpleField>
	<SimpleField name="mark_num" type="string"></SimpleField>
	<SimpleField name="center_type" type="string"></SimpleField>
	<SimpleField name="lvl_line" type="string"></SimpleField>
	<SimpleField name="guid" type="string"></SimpleField>
</Schema>
<Folder><name>1ff5de9e</name>
  <Placemark id="1ff5de9e.1">
	<name>4635</name>
	<ExtendedData><SchemaData schemaUrl="#1ff5de9e">
		<SimpleData name="title">грунт. реп.</SimpleData>
		<SimpleData name="type">2</SimpleData>
		<SimpleData name="ext_sign">189.993</SimpleData>
		<SimpleData name="ctrl_place">146 оп</SimpleData>
		<SimpleData name="mark_num">Линия №1: Тургай - Кызылуй, II класс. Участок: грунт. реп. 59 - грунт. реп. 9260</SimpleData>
		<SimpleData name="center_type">Али, с., в 12.0 км к юго-вост. от него, в 4.2 км к юго-вост. от зим. Котыбар, в 6 м к юго-зап. от дороги с. Тургай - с. Байконур</SimpleData>
		<SimpleData name="lvl_line">1ff5de9e-b9ae-4557-a150-ec0393c35d1f</SimpleData>
	</SchemaData></ExtendedData>
      <Point><coordinates>64.9563373961819,48.2712312100632</coordinates></Point>
  </Placemark>
</Folder>
</Document></kml>
