<?xml version="1.0" encoding="utf-8" ?>
<kml xmlns="http://www.opengis.net/kml/2.2">
<Document id="root_doc">
<Schema name="200af41d" id="200af41d">
	<SimpleField name="type" type="string"></SimpleField>
	<SimpleField name="view" type="string"></SimpleField>
	<SimpleField name="leveling_order" type="string"></SimpleField>
	<SimpleField name="leveling_height" type="string"></SimpleField>
	<SimpleField name="control_height" type="string"></SimpleField>
	<SimpleField name="benchmark_number" type="string"></SimpleField>
	<SimpleField name="control_location" type="string"></SimpleField>
	<SimpleField name="benchmark_type" type="string"></SimpleField>
	<SimpleField name="leveling_line_section" type="string"></SimpleField>
	<SimpleField name="location_description" type="string"></SimpleField>
	<SimpleField name="status" type="string"></SimpleField>
	<SimpleField name="guid" type="string"></SimpleField>
	<SimpleField name="kml" type="string"></SimpleField>
	<SimpleField name="kml_link" type="string"></SimpleField>
</Schema>
<Folder><name>200af41d</name>
  <Placemark id="200af41d.1">
	<name>1375</name>
	<name>скальный репер</name>
	<ExtendedData><SchemaData schemaUrl="#200af41d">
		<SimpleData name="type">II</SimpleData>
		<SimpleData name="view">803,460</SimpleData>
		<SimpleData name="benchmark_number">99</SimpleData>
		<SimpleData name="control_location">Линия № 1: Акбулак - Акозек, II класс (1) Участок: ск.реп. 12181 - грунт.реп. 1026</SimpleData>
		<SimpleData name="benchmark_type">Аласиыр, род., в 1.9 км к сев.-зап. от него, в 1.9 км к юго-вост. от мог.Насен, в 70 м к сев. от дороги с.Татан-с.Жорга.</SimpleData>
		<SimpleData name="location_description">200af41d-4e7d-427a-b26d-9a08a77168b5</SimpleData>
		<SimpleData name="status">data/stations/200af41d.kml</SimpleData>
		<SimpleData name="guid">&lt;a href='data/stations/200af41d.kml' target='_blank'&gt;Download KML&lt;/a&gt;</SimpleData>
	</SchemaData></ExtendedData>
      <Point><coordinates>76.9878576746884,48.066621408354</coordinates></Point>
  </Placemark>
</Folder>
</Document></kml>
