<?xml version="1.0" encoding="utf-8" ?>
<kml xmlns="http://www.opengis.net/kml/2.2">
<Document id="root_doc">
<Schema name="2091b221" id="2091b221">
	<SimpleField name="type" type="string"></SimpleField>
	<SimpleField name="view" type="string"></SimpleField>
	<SimpleField name="leveling_order" type="string"></SimpleField>
	<SimpleField name="leveling_height" type="string"></SimpleField>
	<SimpleField name="control_height" type="string"></SimpleField>
	<SimpleField name="benchmark_number" type="string"></SimpleField>
	<SimpleField name="control_location" type="string"></SimpleField>
	<SimpleField name="benchmark_type" type="string"></SimpleField>
	<SimpleField name="leveling_line_section" type="string"></SimpleField>
	<SimpleField name="location_description" type="string"></SimpleField>
	<SimpleField name="status" type="string"></SimpleField>
	<SimpleField name="guid" type="string"></SimpleField>
	<SimpleField name="kml" type="string"></SimpleField>
	<SimpleField name="kml_link" type="string"></SimpleField>
</Schema>
<Folder><name>2091b221</name>
  <Placemark id="2091b221.1">
	<name>3450</name>
	<name>грунтовый репер</name>
	<ExtendedData><SchemaData schemaUrl="#2091b221">
		<SimpleData name="type">1</SimpleData>
		<SimpleData name="view">145.790</SimpleData>
		<SimpleData name="benchmark_number">146 оп</SimpleData>
		<SimpleData name="control_location">Линия № 1 : Целиноград -Кулунда, I класс(1) Участок: гр.рп. 2335-марка 1327</SimpleData>
		<SimpleData name="benchmark_type">Щербакты, станц. ,в 14.5 км к сев.-вост. от нее,в 1.4 км к сев.-вост. от разв. № 128, в 30 м к юго-зап. от тлгр.стб № 254, в 10 м к сев. от жел.-дор.полотна, на 9 пикете км. стб. 534/535</SimpleData>
		<SimpleData name="location_description">2091b221-cc45-4c05-b2b7-afd103fd8d64</SimpleData>
		<SimpleData name="status">data/stations/2091b221.kml</SimpleData>
		<SimpleData name="guid">&lt;a href='data/stations/2091b221.kml' target='_blank'&gt;Download KML&lt;/a&gt;</SimpleData>
	</SchemaData></ExtendedData>
      <Point><coordinates>78.1790495130464,52.4796104199241</coordinates></Point>
  </Placemark>
</Folder>
</Document></kml>
