<?xml version="1.0" encoding="utf-8" ?>
<kml xmlns="http://www.opengis.net/kml/2.2">
<Document id="root_doc">
<Schema name="213c30f7" id="213c30f7">
	<SimpleField name="title" type="string"></SimpleField>
	<SimpleField name="type" type="string"></SimpleField>
	<SimpleField name="ext_sign" type="string"></SimpleField>
	<SimpleField name="class_lvl" type="string"></SimpleField>
	<SimpleField name="height_lvl" type="string"></SimpleField>
	<SimpleField name="height_ctrl" type="string"></SimpleField>
	<SimpleField name="ctrl_place" type="string"></SimpleField>
	<SimpleField name="mark_num" type="string"></SimpleField>
	<SimpleField name="center_type" type="string"></SimpleField>
	<SimpleField name="lvl_line" type="string"></SimpleField>
	<SimpleField name="guid" type="string"></SimpleField>
</Schema>
<Folder><name>213c30f7</name>
  <Placemark id="213c30f7.1">
	<name>IX</name>
	<description>грунтовый репер</description>
	<ExtendedData><SchemaData schemaUrl="#213c30f7">
		<SimpleData name="title">грунтовый репер</SimpleData>
		<SimpleData name="type">2</SimpleData>
		<SimpleData name="ext_sign">270.518</SimpleData>
		<SimpleData name="ctrl_place">121</SimpleData>
		<SimpleData name="mark_num">Линия №2: Нецветаевка-Каратал, II класс (2) Участок: грунт.реп. 86-ск.реп. XIX</SimpleData>
		<SimpleData name="center_type">В 0.3 км к сев. от пересыхающего русла р.Карсакбай, в 2.6 км к сев.-вост. от г.Жонадыр, в 1.0 км к зап. от могилы</SimpleData>
		<SimpleData name="lvl_line">213c30f7-b71f-40bd-8f38-50f59b9d1f87</SimpleData>
	</SchemaData></ExtendedData>
      <Point><coordinates>73.1169338767096,52.0569300710983</coordinates></Point>
  </Placemark>
</Folder>
</Document></kml>
