<?xml version="1.0" encoding="utf-8" ?>
<kml xmlns="http://www.opengis.net/kml/2.2">
<Document id="root_doc">
<Schema name="217d9fec" id="217d9fec">
	<SimpleField name="title" type="string"></SimpleField>
	<SimpleField name="type" type="string"></SimpleField>
	<SimpleField name="ext_sign" type="string"></SimpleField>
	<SimpleField name="class_lvl" type="string"></SimpleField>
	<SimpleField name="height_lvl" type="string"></SimpleField>
	<SimpleField name="height_ctrl" type="string"></SimpleField>
	<SimpleField name="ctrl_place" type="string"></SimpleField>
	<SimpleField name="mark_num" type="string"></SimpleField>
	<SimpleField name="center_type" type="string"></SimpleField>
	<SimpleField name="lvl_line" type="string"></SimpleField>
	<SimpleField name="guid" type="string"></SimpleField>
</Schema>
<Folder><name>217d9fec</name>
  <Placemark id="217d9fec.1">
	<name>564</name>
	<description>грунтовый репер</description>
	<ExtendedData><SchemaData schemaUrl="#217d9fec">
		<SimpleData name="type">2</SimpleData>
		<SimpleData name="ext_sign">80.495</SimpleData>
		<SimpleData name="class_lvl">79.183</SimpleData>
		<SimpleData name="height_lvl">Контрольный репер  в фундаментной плите</SimpleData>
		<SimpleData name="ctrl_place">116</SimpleData>
		<SimpleData name="mark_num">Линия №3: Сагиз-Уил, ІІ класс Участок: фунд.реп.145-пир.3кл.Камысколь</SimpleData>
		<SimpleData name="center_type">Шолаксай, с., в 0.9км к сев.от него, в 0.7км к сев.от кладбище, в 40м к зап.от полевой дороги</SimpleData>
		<SimpleData name="lvl_line">217d9fec-691f-43d6-afb0-096259154d84</SimpleData>
	</SchemaData></ExtendedData>
      <Point><coordinates>54.7095393765361,48.4068450300933</coordinates></Point>
  </Placemark>
</Folder>
</Document></kml>
