<?xml version="1.0" encoding="utf-8" ?>
<kml xmlns="http://www.opengis.net/kml/2.2">
<Document id="root_doc">
<Schema name="21e2da06" id="21e2da06">
	<SimpleField name="title" type="string"></SimpleField>
	<SimpleField name="type" type="string"></SimpleField>
	<SimpleField name="ext_sign" type="string"></SimpleField>
	<SimpleField name="class_lvl" type="string"></SimpleField>
	<SimpleField name="height_lvl" type="string"></SimpleField>
	<SimpleField name="height_ctrl" type="string"></SimpleField>
	<SimpleField name="ctrl_place" type="string"></SimpleField>
	<SimpleField name="mark_num" type="string"></SimpleField>
	<SimpleField name="center_type" type="string"></SimpleField>
	<SimpleField name="lvl_line" type="string"></SimpleField>
	<SimpleField name="guid" type="string"></SimpleField>
</Schema>
<Folder><name>21e2da06</name>
  <Placemark id="21e2da06.1">
	<name>6011</name>
	<description>грунт.реп.</description>
	<ExtendedData><SchemaData schemaUrl="#21e2da06">
		<SimpleData name="title">грунт.реп.</SimpleData>
		<SimpleData name="type">II</SimpleData>
		<SimpleData name="ext_sign">345.995</SimpleData>
		<SimpleData name="ctrl_place">160 оп.знак</SimpleData>
		<SimpleData name="mark_num">Линия №3: Акко.ль - урочище Куйган II класс Участок: грунт.реп.6011 - грунт.реп.512</SimpleData>
		<SimpleData name="center_type">Актамша,мог.,в 7.0 км к сев.-вост.от нее,в 3.2 км к сев.-вост.от пир. 2 кл.Актамша,в 10 м к зап.от полевой дороги</SimpleData>
		<SimpleData name="lvl_line">21e2da06-85e1-47ee-863c-12c7013c6da3</SimpleData>
	</SchemaData></ExtendedData>
      <Point><coordinates>75.9911062277989,46.4108313661418</coordinates></Point>
  </Placemark>
</Folder>
</Document></kml>
