<?xml version="1.0" encoding="utf-8" ?>
<kml xmlns="http://www.opengis.net/kml/2.2">
<Document id="root_doc">
<Schema name="22850696" id="22850696">
	<SimpleField name="type" type="string"></SimpleField>
	<SimpleField name="view" type="string"></SimpleField>
	<SimpleField name="leveling_order" type="string"></SimpleField>
	<SimpleField name="leveling_height" type="string"></SimpleField>
	<SimpleField name="control_height" type="string"></SimpleField>
	<SimpleField name="benchmark_number" type="string"></SimpleField>
	<SimpleField name="control_location" type="string"></SimpleField>
	<SimpleField name="benchmark_type" type="string"></SimpleField>
	<SimpleField name="leveling_line_section" type="string"></SimpleField>
	<SimpleField name="location_description" type="string"></SimpleField>
	<SimpleField name="status" type="string"></SimpleField>
	<SimpleField name="guid" type="string"></SimpleField>
	<SimpleField name="kml" type="string"></SimpleField>
	<SimpleField name="kml_link" type="string"></SimpleField>
</Schema>
<Folder><name>22850696</name>
  <Placemark id="22850696.1">
	<name>7053</name>
	<name>грунт. реп.</name>
	<ExtendedData><SchemaData schemaUrl="#22850696">
		<SimpleData name="type">1</SimpleData>
		<SimpleData name="view">362.092</SimpleData>
		<SimpleData name="control_location">Линия №2 : Карталы-Кандагач, I класс . Участок : грунт. реп. 8626-фунд. реп. 142.  </SimpleData>
		<SimpleData name="benchmark_type">Токмансай, станция, в 2,0 км к юго-зап. от неё, на 8 пк. 180 км жел. дор., в 23 м к зап. от жел.-дор. полотна</SimpleData>
		<SimpleData name="location_description">22850696-4477-4ab7-8bfd-23ae71f30e0e</SimpleData>
		<SimpleData name="status">data/stations/22850696.kml</SimpleData>
		<SimpleData name="guid">&lt;a href='data/stations/22850696.kml' target='_blank'&gt;Download KML&lt;/a&gt;</SimpleData>
	</SchemaData></ExtendedData>
      <Point><coordinates>57.9689672246011,49.760247525366</coordinates></Point>
  </Placemark>
</Folder>
</Document></kml>
