<?xml version="1.0" encoding="utf-8" ?>
<kml xmlns="http://www.opengis.net/kml/2.2">
<Document id="root_doc">
<Schema name="22e842d4" id="22e842d4">
	<SimpleField name="type" type="string"></SimpleField>
	<SimpleField name="view" type="string"></SimpleField>
	<SimpleField name="leveling_order" type="string"></SimpleField>
	<SimpleField name="leveling_height" type="string"></SimpleField>
	<SimpleField name="control_height" type="string"></SimpleField>
	<SimpleField name="benchmark_number" type="string"></SimpleField>
	<SimpleField name="control_location" type="string"></SimpleField>
	<SimpleField name="benchmark_type" type="string"></SimpleField>
	<SimpleField name="leveling_line_section" type="string"></SimpleField>
	<SimpleField name="location_description" type="string"></SimpleField>
	<SimpleField name="status" type="string"></SimpleField>
	<SimpleField name="guid" type="string"></SimpleField>
	<SimpleField name="kml" type="string"></SimpleField>
	<SimpleField name="kml_link" type="string"></SimpleField>
</Schema>
<Folder><name>22e842d4</name>
  <Placemark id="22e842d4.1">
	<name>Котургансай</name>
	<description>пирамида</description>
	<ExtendedData><SchemaData schemaUrl="#22e842d4">
		<SimpleData name="type">1</SimpleData>
		<SimpleData name="view">564.671</SimpleData>
		<SimpleData name="leveling_height">257</SimpleData>
		<SimpleData name="benchmark_number">2</SimpleData>
		<SimpleData name="control_location">Линия № 1: Оз. Жаланашколь - Аягоз, I класс 
Участок: грунт.реп. 4536 – грунт.реп. 4176
</SimpleData>
		<SimpleData name="benchmark_type">Жоргалы Егинсу, с., в 6.4 км к сев.-вост. от него, на 69 км шоссе с. Таскескен – с. Бахты, в 75 м к сев. от шоссе, на бугре</SimpleData>
		<SimpleData name="location_description">22e842d4-f56e-433d-9585-69586af55b97</SimpleData>
		<SimpleData name="status">data/stations/22e842d4.kml</SimpleData>
		<SimpleData name="guid">&lt;a href='data/stations/22e842d4.kml' target='_blank'&gt;Download KML&lt;/a&gt;</SimpleData>
	</SchemaData></ExtendedData>
      <Point><coordinates>81.4770160425567,47.0511713734769</coordinates></Point>
  </Placemark>
</Folder>
</Document></kml>
