<?xml version="1.0" encoding="utf-8" ?>
<kml xmlns="http://www.opengis.net/kml/2.2">
<Document id="root_doc">
<Schema name="2302d3ab" id="2302d3ab">
	<SimpleField name="title" type="string"></SimpleField>
	<SimpleField name="type" type="string"></SimpleField>
	<SimpleField name="ext_sign" type="string"></SimpleField>
	<SimpleField name="class_lvl" type="string"></SimpleField>
	<SimpleField name="height_lvl" type="string"></SimpleField>
	<SimpleField name="height_ctrl" type="string"></SimpleField>
	<SimpleField name="ctrl_place" type="string"></SimpleField>
	<SimpleField name="mark_num" type="string"></SimpleField>
	<SimpleField name="center_type" type="string"></SimpleField>
	<SimpleField name="lvl_line" type="string"></SimpleField>
	<SimpleField name="guid" type="string"></SimpleField>
</Schema>
<Folder><name>2302d3ab</name>
  <Placemark id="2302d3ab.1">
	<name>3376</name>
	<description>грунтовый репер</description>
	<ExtendedData><SchemaData schemaUrl="#2302d3ab">
		<SimpleData name="title">грунт. реп.</SimpleData>
		<SimpleData name="type">2</SimpleData>
		<SimpleData name="ext_sign">188,702</SimpleData>
		<SimpleData name="ctrl_place">160</SimpleData>
		<SimpleData name="mark_num">Линия № 2 Иргиз (фунд.реп.7707) - Толыбай (фунд.реп.3780)</SimpleData>
		<SimpleData name="center_type">Тышканбай,с.,в 10,7км к вост.от него,
в 70м к ого-вост.от пересыхающего русла Тышканбай,в 20м к югу от пол.дороги</SimpleData>
		<SimpleData name="lvl_line">2302d3ab-3a76-4219-84b0-f916b82b5a19</SimpleData>
	</SchemaData></ExtendedData>
      <Point><coordinates>62.23841232,50.15370871</coordinates></Point>
  </Placemark>
</Folder>
</Document></kml>
