<?xml version="1.0" encoding="utf-8" ?>
<kml xmlns="http://www.opengis.net/kml/2.2">
<Document id="root_doc">
<Schema name="23515509" id="23515509">
	<SimpleField name="type" type="string"></SimpleField>
	<SimpleField name="view" type="string"></SimpleField>
	<SimpleField name="leveling_order" type="string"></SimpleField>
	<SimpleField name="leveling_height" type="string"></SimpleField>
	<SimpleField name="control_height" type="string"></SimpleField>
	<SimpleField name="benchmark_number" type="string"></SimpleField>
	<SimpleField name="control_location" type="string"></SimpleField>
	<SimpleField name="benchmark_type" type="string"></SimpleField>
	<SimpleField name="leveling_line_section" type="string"></SimpleField>
	<SimpleField name="location_description" type="string"></SimpleField>
	<SimpleField name="status" type="string"></SimpleField>
	<SimpleField name="guid" type="string"></SimpleField>
	<SimpleField name="kml" type="string"></SimpleField>
	<SimpleField name="kml_link" type="string"></SimpleField>
</Schema>
<Folder><name>23515509</name>
  <Placemark id="23515509.1">
	<name>3605</name>
	<name>грунт. реп.</name>
	<ExtendedData><SchemaData schemaUrl="#23515509">
		<SimpleData name="type">II</SimpleData>
		<SimpleData name="view">430.446</SimpleData>
		<SimpleData name="benchmark_number">121 </SimpleData>
		<SimpleData name="control_location">Линия № 1: Максимовка - Макинск, II класс,  Ход от грунт. реп. 3741 до грунт. реп. 3491, II класс</SimpleData>
		<SimpleData name="benchmark_type">Тучное, с., в 4.7 км к сев.-вост. от него, в 4.4 км к юго-зап. от разв. Ясеновка, в 3.6 км к сев.-зап. от пол. ст., к зап. от полевой дороги</SimpleData>
		<SimpleData name="location_description">23515509-b0f2-4905-a634-b22e4f706f45</SimpleData>
		<SimpleData name="status">data/stations/23515509.kml</SimpleData>
		<SimpleData name="guid">&lt;a href='data/stations/23515509.kml' target='_blank'&gt;Download KML&lt;/a&gt;</SimpleData>
	</SchemaData></ExtendedData>
      <Point><coordinates>69.3661216877176,52.3714860694561</coordinates></Point>
  </Placemark>
</Folder>
</Document></kml>
