<?xml version="1.0" encoding="utf-8" ?>
<kml xmlns="http://www.opengis.net/kml/2.2">
<Document id="root_doc">
<Schema name="23f897c0" id="23f897c0">
	<SimpleField name="type" type="string"></SimpleField>
	<SimpleField name="view" type="string"></SimpleField>
	<SimpleField name="leveling_order" type="string"></SimpleField>
	<SimpleField name="leveling_height" type="string"></SimpleField>
	<SimpleField name="control_height" type="string"></SimpleField>
	<SimpleField name="benchmark_number" type="string"></SimpleField>
	<SimpleField name="control_location" type="string"></SimpleField>
	<SimpleField name="benchmark_type" type="string"></SimpleField>
	<SimpleField name="leveling_line_section" type="string"></SimpleField>
	<SimpleField name="location_description" type="string"></SimpleField>
	<SimpleField name="status" type="string"></SimpleField>
	<SimpleField name="guid" type="string"></SimpleField>
	<SimpleField name="kml" type="string"></SimpleField>
	<SimpleField name="kml_link" type="string"></SimpleField>
</Schema>
<Folder><name>23f897c0</name>
  <Placemark id="23f897c0.1">
	<name>4239</name>
	<name>грунт. реп.</name>
	<ExtendedData><SchemaData schemaUrl="#23f897c0">
		<SimpleData name="type">1</SimpleData>
		<SimpleData name="view">454.447</SimpleData>
		<SimpleData name="benchmark_number">160 оп. знак</SimpleData>
		<SimpleData name="control_location">Линия № 1: Алажиде - оз.Жаланашколь, I класс. Участок: грунт.реп. 4351 – грунт.реп. 833</SimpleData>
		<SimpleData name="benchmark_type">Тектурмас, г., в 9.9 км к зап. от нее, в 0.1 км к сев.-зап. от км. стб. 19/117 шоссе с. Маканши – станц. Жаланашколь, в 28 м к сев.-вост. от лесополосы, в 24 м к юго-зап. от шоссе</SimpleData>
		<SimpleData name="location_description">23f897c0-7383-4c34-864f-7e6ce3797902</SimpleData>
		<SimpleData name="status">data/stations/23f897c0.kml</SimpleData>
		<SimpleData name="guid">&lt;a href='data/stations/23f897c0.kml' target='_blank'&gt;Download KML&lt;/a&gt;</SimpleData>
	</SchemaData></ExtendedData>
      <Point><coordinates>82.1983604151526,46.5948304194635</coordinates></Point>
  </Placemark>
</Folder>
</Document></kml>
