<?xml version="1.0" encoding="UTF-8"?>
<kml xmlns="http://www.opengis.net/kml/2.2">
  <Document id="root_doc">
    <Schema id="243ac2f1" name="243ac2f1">
      <SimpleField name="title" type="string"/>
      <SimpleField name="type" type="string"/>
      <SimpleField name="ext_sign" type="string"/>
      <SimpleField name="class_lvl" type="string"/>
      <SimpleField name="height_lvl" type="string"/>
      <SimpleField name="height_ctrl" type="string"/>
      <SimpleField name="ctrl_place" type="string"/>
      <SimpleField name="mark_num" type="string"/>
      <SimpleField name="center_type" type="string"/>
      <SimpleField name="lvl_line" type="string"/>
      <SimpleField name="guid" type="string"/>
    </Schema>
    <Schema id="_243ac2f1.schema">
      <SimpleField name="title" type="string"/>
      <SimpleField name="type" type="string"/>
      <SimpleField name="ext_sign" type="string"/>
      <SimpleField name="class_lvl" type="string"/>
      <SimpleField name="height_lvl" type="string"/>
      <SimpleField name="height_ctrl" type="string"/>
      <SimpleField name="ctrl_place" type="string"/>
      <SimpleField name="mark_num" type="string"/>
      <SimpleField name="center_type" type="string"/>
      <SimpleField name="lvl_line" type="string"/>
      <SimpleField name="guid" type="string"/>
    </Schema>
    <Document id="_243ac2f1">
      <name>243ac2f1</name>
      <Placemark id="_243ac2f1.1">
        <description>№10 раз., в  10,0 км к зап. от него, в 0,2 км к юго-вост. от кладб. Арабай,в 75 м к сев.-зап. от фунд. реп.12-2081, в 30 мк сев. от грунт. дороги станц.Шетпе-станц. Сайотес</description>
        <ExtendedData>
          <SchemaData schemaUrl="#_243ac2f1.schema">
            <SimpleData name="title">12-174</SimpleData>
            <SimpleData name="type">фундаментальный репер</SimpleData>
            <SimpleData name="class_lvl">1</SimpleData>
            <SimpleData name="height_lvl">65,987</SimpleData>
            <SimpleData name="center_type">161</SimpleData>
            <SimpleData name="lvl_line">ЛинияБейнеу-Актау (Шевченко), 1 класс</SimpleData>
            <SimpleData name="guid">243ac2f1-b95a-4d66-96bb-0218ce164018</SimpleData>
          </SchemaData>
        </ExtendedData>
        <Point>
          <coordinates>
            52.825581259932,44.166475768659,0
          </coordinates>
        </Point>
      </Placemark>
    </Document>
  </Document>
</kml>
