<?xml version="1.0" encoding="utf-8" ?>
<kml xmlns="http://www.opengis.net/kml/2.2">
<Document id="root_doc">
<Schema name="247aaae5" id="247aaae5">
	<SimpleField name="type" type="string"></SimpleField>
	<SimpleField name="view" type="string"></SimpleField>
	<SimpleField name="leveling_order" type="string"></SimpleField>
	<SimpleField name="leveling_height" type="string"></SimpleField>
	<SimpleField name="control_height" type="string"></SimpleField>
	<SimpleField name="benchmark_number" type="string"></SimpleField>
	<SimpleField name="control_location" type="string"></SimpleField>
	<SimpleField name="benchmark_type" type="string"></SimpleField>
	<SimpleField name="leveling_line_section" type="string"></SimpleField>
	<SimpleField name="location_description" type="string"></SimpleField>
	<SimpleField name="status" type="string"></SimpleField>
	<SimpleField name="guid" type="string"></SimpleField>
	<SimpleField name="kml" type="string"></SimpleField>
	<SimpleField name="kml_link" type="string"></SimpleField>
</Schema>
<Folder><name>247aaae5</name>
  <Placemark id="247aaae5.1">
	<name>2</name>
	<name>ск. реп.</name>
	<ExtendedData><SchemaData schemaUrl="#247aaae5">
		<SimpleData name="type">2</SimpleData>
		<SimpleData name="view">542,931</SimpleData>
		<SimpleData name="benchmark_number">99оп</SimpleData>
		<SimpleData name="control_location">Линия №2: Жангиз- Тобе- Ак- Булак, II класс (2) Участок: грунт. реп. 511- фунд.реп. 274</SimpleData>
		<SimpleData name="benchmark_type">Баир, оз., в 1,7км к зап. от него, в 0,7км к сев.- зап. от зим. Копа, в 0,6км к юго- вост. от мог. Мартас, в 50м к сев. от перекрестка полевых дорог</SimpleData>
		<SimpleData name="location_description">247aaae5-e1b0-49c7-8f9b-89e11d343128</SimpleData>
		<SimpleData name="status">data/stations/247aaae5.kml</SimpleData>
		<SimpleData name="guid">&lt;a href='data/stations/247aaae5.kml' target='_blank'&gt;Download KML&lt;/a&gt;</SimpleData>
	</SchemaData></ExtendedData>
      <Point><coordinates>80.2132551411579,49.1117373061799</coordinates></Point>
  </Placemark>
</Folder>
</Document></kml>
