<?xml version="1.0" encoding="utf-8" ?>
<kml xmlns="http://www.opengis.net/kml/2.2">
<Document id="root_doc">
<Schema name="24a310af" id="24a310af">
	<SimpleField name="title" type="string"></SimpleField>
	<SimpleField name="type" type="string"></SimpleField>
	<SimpleField name="ext_sign" type="string"></SimpleField>
	<SimpleField name="class_lvl" type="string"></SimpleField>
	<SimpleField name="height_lvl" type="string"></SimpleField>
	<SimpleField name="height_ctrl" type="string"></SimpleField>
	<SimpleField name="ctrl_place" type="string"></SimpleField>
	<SimpleField name="mark_num" type="string"></SimpleField>
	<SimpleField name="center_type" type="string"></SimpleField>
	<SimpleField name="lvl_line" type="string"></SimpleField>
	<SimpleField name="guid" type="string"></SimpleField>
</Schema>
<Folder><name>24a310af</name>
  <Placemark id="24a310af.1">
	<name>7512</name>
	<description>грунтовый репер</description>
	<ExtendedData><SchemaData schemaUrl="#24a310af">
		<SimpleData name="type">2</SimpleData>
		<SimpleData name="ext_sign">91.724</SimpleData>
		<SimpleData name="ctrl_place">160 оп</SimpleData>
		<SimpleData name="mark_num">Линия №4: Ащылысай - Майлыозек, 2 класс. Участок: фунд.реп. 3917 - грунт.реп. 7512</SimpleData>
		<SimpleData name="center_type">Комекбаев, с., в 15,3 км к сев.-зап.от него, в 2,1 км к сев.от кладб. Кольдытам, в 0,2 км к вост.от р. Куандария и брода, в 12 м к сев.от полевой дороги</SimpleData>
		<SimpleData name="lvl_line">24a310af-269d-47c1-9930-0a9ecdab5aa7</SimpleData>
	</SchemaData></ExtendedData>
      <Point><coordinates>63.0040889734816,44.8757384619676</coordinates></Point>
  </Placemark>
</Folder>
</Document></kml>
