<?xml version="1.0" encoding="utf-8" ?>
<kml xmlns="http://www.opengis.net/kml/2.2">
<Document id="root_doc">
<Schema name="24fa0a75" id="24fa0a75">
	<SimpleField name="type" type="string"></SimpleField>
	<SimpleField name="view" type="string"></SimpleField>
	<SimpleField name="leveling_order" type="string"></SimpleField>
	<SimpleField name="leveling_height" type="string"></SimpleField>
	<SimpleField name="control_height" type="string"></SimpleField>
	<SimpleField name="benchmark_number" type="string"></SimpleField>
	<SimpleField name="control_location" type="string"></SimpleField>
	<SimpleField name="benchmark_type" type="string"></SimpleField>
	<SimpleField name="leveling_line_section" type="string"></SimpleField>
	<SimpleField name="location_description" type="string"></SimpleField>
	<SimpleField name="status" type="string"></SimpleField>
	<SimpleField name="guid" type="string"></SimpleField>
	<SimpleField name="kml" type="string"></SimpleField>
	<SimpleField name="kml_link" type="string"></SimpleField>
</Schema>
<Folder><name>24fa0a75</name>
  <Placemark id="24fa0a75.1">
	<name>7300</name>
	<name>грунт. реп.</name>
	<ExtendedData><SchemaData schemaUrl="#24fa0a75">
		<SimpleData name="type">2</SimpleData>
		<SimpleData name="view">1149.474</SimpleData>
		<SimpleData name="benchmark_number">160 оп. знак</SimpleData>
		<SimpleData name="control_location">Линия № 3: Карабута – Белая Школа, II класс , Участок: фунд.реп. 131 – ск.реп. 2274</SimpleData>
		<SimpleData name="benchmark_type">Предгорное, с., сев. окраина его, в 0.1 км от последнего дома, в 30 м к юго-зап. от брода через речку</SimpleData>
		<SimpleData name="location_description">24fa0a75-02e8-4293-9744-cff98ba8f814</SimpleData>
		<SimpleData name="status">data/stations/24fa0a75.kml</SimpleData>
		<SimpleData name="guid">&lt;a href='data/stations/24fa0a75.kml' target='_blank'&gt;Download KML&lt;/a&gt;</SimpleData>
	</SchemaData></ExtendedData>
      <Point><coordinates>82.7539492793394,47.0936562628882</coordinates></Point>
  </Placemark>
</Folder>
</Document></kml>
