<?xml version="1.0" encoding="utf-8" ?>
<kml xmlns="http://www.opengis.net/kml/2.2">
<Document id="root_doc">
<Schema name="24fcd11e" id="24fcd11e">
	<SimpleField name="title" type="string"></SimpleField>
	<SimpleField name="type" type="string"></SimpleField>
	<SimpleField name="ext_sign" type="string"></SimpleField>
	<SimpleField name="class_lvl" type="string"></SimpleField>
	<SimpleField name="height_lvl" type="string"></SimpleField>
	<SimpleField name="height_ctrl" type="string"></SimpleField>
	<SimpleField name="ctrl_place" type="string"></SimpleField>
	<SimpleField name="mark_num" type="string"></SimpleField>
	<SimpleField name="center_type" type="string"></SimpleField>
	<SimpleField name="lvl_line" type="string"></SimpleField>
	<SimpleField name="guid" type="string"></SimpleField>
</Schema>
<Folder><name>24fcd11e</name>
  <Placemark id="24fcd11e.1">
	<name>0020</name>
	<description>грунтовый репер</description>
	<ExtendedData><SchemaData schemaUrl="#24fcd11e">
		<SimpleData name="title">z26</SimpleData>
		<SimpleData name="lvl_line">24fcd11e-5e8b-4ff4-9690-991d27724cf1</SimpleData>
	</SchemaData></ExtendedData>
      <Point><coordinates>48.4928869650739,47.9372101904115</coordinates></Point>
  </Placemark>
</Folder>
</Document></kml>
