<?xml version="1.0" encoding="utf-8" ?>
<kml xmlns="http://www.opengis.net/kml/2.2">
<Document id="root_doc">
<Schema name="25150e46" id="25150e46">
	<SimpleField name="title" type="string"></SimpleField>
	<SimpleField name="type" type="string"></SimpleField>
	<SimpleField name="ext_sign" type="string"></SimpleField>
	<SimpleField name="class_lvl" type="string"></SimpleField>
	<SimpleField name="height_lvl" type="string"></SimpleField>
	<SimpleField name="height_ctrl" type="string"></SimpleField>
	<SimpleField name="ctrl_place" type="string"></SimpleField>
	<SimpleField name="mark_num" type="string"></SimpleField>
	<SimpleField name="center_type" type="string"></SimpleField>
	<SimpleField name="lvl_line" type="string"></SimpleField>
	<SimpleField name="guid" type="string"></SimpleField>
</Schema>
<Folder><name>25150e46</name>
  <Placemark id="25150e46.1">
	<name>308</name>
	<description>грунтовый репер</description>
	<ExtendedData><SchemaData schemaUrl="#25150e46">
		<SimpleData name="type">2</SimpleData>
		<SimpleData name="ext_sign">110,861</SimpleData>
		<SimpleData name="class_lvl">108,549</SimpleData>
		<SimpleData name="height_lvl">контрольный репер №132   в верхней плоскости монолита</SimpleData>
		<SimpleData name="ctrl_place">131</SimpleData>
		<SimpleData name="mark_num">Линия: Урлютюп-Качиры, II класс Участок: фунд. реп. 310-грунт. реп. 341</SimpleData>
		<SimpleData name="center_type">Башмачное, с., в 1.5 км к северу от него,влево от улучшенной грунтовой дороги с.Пятирыжик -с.Прииртышское, в 135 м к югу от развилка дороги в с. Башмачное, в 9 м к востоку от поворотного столба</SimpleData>
		<SimpleData name="lvl_line">25150e46-2d4a-43c4-bc18-6f497542be16</SimpleData>
	</SchemaData></ExtendedData>
      <Point><coordinates>75.1503904614224,53.6498429288311</coordinates></Point>
  </Placemark>
</Folder>
</Document></kml>
