<?xml version="1.0" encoding="utf-8" ?>
<kml xmlns="http://www.opengis.net/kml/2.2">
<Document id="root_doc">
<Schema name="255e0685" id="255e0685">
	<SimpleField name="type" type="string"></SimpleField>
	<SimpleField name="view" type="string"></SimpleField>
	<SimpleField name="leveling_order" type="string"></SimpleField>
	<SimpleField name="leveling_height" type="string"></SimpleField>
	<SimpleField name="control_height" type="string"></SimpleField>
	<SimpleField name="benchmark_number" type="string"></SimpleField>
	<SimpleField name="control_location" type="string"></SimpleField>
	<SimpleField name="benchmark_type" type="string"></SimpleField>
	<SimpleField name="leveling_line_section" type="string"></SimpleField>
	<SimpleField name="location_description" type="string"></SimpleField>
	<SimpleField name="status" type="string"></SimpleField>
	<SimpleField name="guid" type="string"></SimpleField>
	<SimpleField name="kml" type="string"></SimpleField>
	<SimpleField name="kml_link" type="string"></SimpleField>
</Schema>
<Folder><name>255e0685</name>
  <Placemark id="255e0685.1">
	<name>1199</name>
	<name>ск. реп.</name>
	<ExtendedData><SchemaData schemaUrl="#255e0685">
		<SimpleData name="type">II</SimpleData>
		<SimpleData name="view">365,796</SimpleData>
		<SimpleData name="benchmark_number">99</SimpleData>
		<SimpleData name="control_location">Линия № 6: Коржунколь-Степное, II класс (2)    Участок: ск. реп. 1-грунт. реп. 1231</SimpleData>
		<SimpleData name="benchmark_type">Коржынколь, станц., в 4,1 км к зап. от разв. Зим. Торежал,  в 1,2 км к сев.- зап. от зим. Жангызтобе, в 0,3 км к зап. от полевой дороги</SimpleData>
		<SimpleData name="location_description">255e0685-375a-4b06-b0c4-a77b79d43a87</SimpleData>
		<SimpleData name="status">data/stations/255e0685.kml</SimpleData>
		<SimpleData name="guid">&lt;a href='data/stations/255e0685.kml' target='_blank'&gt;Download KML&lt;/a&gt;</SimpleData>
	</SchemaData></ExtendedData>
      <Point><coordinates>73.3953579271454,51.4667250356025</coordinates></Point>
  </Placemark>
</Folder>
</Document></kml>
