<?xml version="1.0" encoding="utf-8" ?>
<kml xmlns="http://www.opengis.net/kml/2.2">
<Document id="root_doc">
<Schema name="260fe667" id="260fe667">
	<SimpleField name="type" type="string"></SimpleField>
	<SimpleField name="view" type="string"></SimpleField>
	<SimpleField name="leveling_order" type="string"></SimpleField>
	<SimpleField name="leveling_height" type="string"></SimpleField>
	<SimpleField name="control_height" type="string"></SimpleField>
	<SimpleField name="benchmark_number" type="string"></SimpleField>
	<SimpleField name="control_location" type="string"></SimpleField>
	<SimpleField name="benchmark_type" type="string"></SimpleField>
	<SimpleField name="leveling_line_section" type="string"></SimpleField>
	<SimpleField name="location_description" type="string"></SimpleField>
	<SimpleField name="status" type="string"></SimpleField>
	<SimpleField name="guid" type="string"></SimpleField>
	<SimpleField name="kml" type="string"></SimpleField>
	<SimpleField name="kml_link" type="string"></SimpleField>
</Schema>
<Folder><name>260fe667</name>
  <Placemark id="260fe667.1">
	<name>1782</name>
	<name>грунт. реп.</name>
	<ExtendedData><SchemaData schemaUrl="#260fe667">
		<SimpleData name="type">2</SimpleData>
		<SimpleData name="view">492,971</SimpleData>
		<SimpleData name="benchmark_number">146оп</SimpleData>
		<SimpleData name="control_location">Линия №49: Семипалатинск - Каркаралинск, 2 класс (6)   Участок: грунт. реп 8824 - грунт. реп. 2762</SimpleData>
		<SimpleData name="benchmark_type">Самай, с., в 18.8 км к сев.-вост. от него, в 1.8 км к сев.-вост. от зимовки, в 0.1 км к зап. от развилки дороги</SimpleData>
		<SimpleData name="location_description">260fe667-c788-43d2-8b07-fb501f737a15</SimpleData>
		<SimpleData name="status">data/stations/260fe667.kml</SimpleData>
		<SimpleData name="guid">&lt;a href='data/stations/260fe667.kml' target='_blank'&gt;Download KML&lt;/a&gt;</SimpleData>
	</SchemaData></ExtendedData>
      <Point><coordinates>78.48878272131,49.4612006033559</coordinates></Point>
  </Placemark>
</Folder>
</Document></kml>
