<?xml version="1.0" encoding="utf-8" ?>
<kml xmlns="http://www.opengis.net/kml/2.2">
<Document id="root_doc">
<Schema name="2638cafe" id="2638cafe">
	<SimpleField name="title" type="string"></SimpleField>
	<SimpleField name="type" type="string"></SimpleField>
	<SimpleField name="ext_sign" type="string"></SimpleField>
	<SimpleField name="class_lvl" type="string"></SimpleField>
	<SimpleField name="height_lvl" type="string"></SimpleField>
	<SimpleField name="height_ctrl" type="string"></SimpleField>
	<SimpleField name="ctrl_place" type="string"></SimpleField>
	<SimpleField name="mark_num" type="string"></SimpleField>
	<SimpleField name="center_type" type="string"></SimpleField>
	<SimpleField name="lvl_line" type="string"></SimpleField>
	<SimpleField name="guid" type="string"></SimpleField>
</Schema>
<Folder><name>2638cafe</name>
  <Placemark id="2638cafe.1">
	<name>491</name>
	<description>грунт.реп.</description>
	<ExtendedData><SchemaData schemaUrl="#2638cafe">
		<SimpleData name="type">2</SimpleData>
		<SimpleData name="ext_sign">-16.681</SimpleData>
		<SimpleData name="ctrl_place">160 оп</SimpleData>
		<SimpleData name="mark_num">Линия нивелирования II класса на объекте &quot;Баван-Зелёный, Актонук-Баван, Баван-Керей&quot; 06.03.1751</SimpleData>
		<SimpleData name="center_type">Раз. № 12, в 20,6 км к сев.-зап. от него, в 3,2 км к сев.-зап. от  п. трианг. Бурный, в 0,8 км к юго-вост. от  колодца, в 50 м к югу от пол. дороги.</SimpleData>
		<SimpleData name="lvl_line">2638cafe-67a6-468c-8503-ef85a448999f</SimpleData>
	</SchemaData></ExtendedData>
      <Point><coordinates>50.2802926769994,47.1360119824366</coordinates></Point>
  </Placemark>
</Folder>
</Document></kml>
