<?xml version="1.0" encoding="utf-8" ?>
<kml xmlns="http://www.opengis.net/kml/2.2">
<Document id="root_doc">
<Schema name="268f8139" id="268f8139">
	<SimpleField name="type" type="string"></SimpleField>
	<SimpleField name="view" type="string"></SimpleField>
	<SimpleField name="leveling_order" type="string"></SimpleField>
	<SimpleField name="leveling_height" type="string"></SimpleField>
	<SimpleField name="control_height" type="string"></SimpleField>
	<SimpleField name="benchmark_number" type="string"></SimpleField>
	<SimpleField name="control_location" type="string"></SimpleField>
	<SimpleField name="benchmark_type" type="string"></SimpleField>
	<SimpleField name="leveling_line_section" type="string"></SimpleField>
	<SimpleField name="location_description" type="string"></SimpleField>
	<SimpleField name="status" type="string"></SimpleField>
	<SimpleField name="guid" type="string"></SimpleField>
	<SimpleField name="kml" type="string"></SimpleField>
	<SimpleField name="kml_link" type="string"></SimpleField>
</Schema>
<Folder><name>268f8139</name>
  <Placemark id="268f8139.1">
	<name>9962</name>
	<name>ск. реп.</name>
	<ExtendedData><SchemaData schemaUrl="#268f8139">
		<SimpleData name="type">2</SimpleData>
		<SimpleData name="view">872.006</SimpleData>
		<SimpleData name="benchmark_number">99</SimpleData>
		<SimpleData name="control_location">Линия №50: Усть-Каменогорск - Чиганчи, 2 класс (13)  Участок: грунт. реп. 793 - ск. реп. 8522</SimpleData>
		<SimpleData name="benchmark_type">Таинты, с., в 3.0 км к сев. от него, в 2.0 км к югу от с. Нов. Таинты, в 25 м к вост. от дороги с. Таинты - руд. Асубулак</SimpleData>
		<SimpleData name="location_description">268f8139-9073-4aeb-b3e5-aedab958883b</SimpleData>
		<SimpleData name="status">data/stations/268f8139.kml</SimpleData>
		<SimpleData name="guid">&lt;a href='data/stations/268f8139.kml' target='_blank'&gt;Download KML&lt;/a&gt;</SimpleData>
	</SchemaData></ExtendedData>
      <Point><coordinates>83.0625491098556,49.4134316949978</coordinates></Point>
  </Placemark>
</Folder>
</Document></kml>
