<?xml version="1.0" encoding="utf-8" ?>
<kml xmlns="http://www.opengis.net/kml/2.2">
<Document id="root_doc">
<Schema name="26e30a4c" id="26e30a4c">
	<SimpleField name="type" type="string"></SimpleField>
	<SimpleField name="view" type="string"></SimpleField>
	<SimpleField name="leveling_order" type="string"></SimpleField>
	<SimpleField name="leveling_height" type="string"></SimpleField>
	<SimpleField name="control_height" type="string"></SimpleField>
	<SimpleField name="benchmark_number" type="string"></SimpleField>
	<SimpleField name="control_location" type="string"></SimpleField>
	<SimpleField name="benchmark_type" type="string"></SimpleField>
	<SimpleField name="leveling_line_section" type="string"></SimpleField>
	<SimpleField name="location_description" type="string"></SimpleField>
	<SimpleField name="status" type="string"></SimpleField>
	<SimpleField name="guid" type="string"></SimpleField>
	<SimpleField name="kml" type="string"></SimpleField>
	<SimpleField name="kml_link" type="string"></SimpleField>
</Schema>
<Folder><name>26e30a4c</name>
  <Placemark id="26e30a4c.1">
	<name>1649</name>
	<name>грунт.реп.</name>
	<ExtendedData><SchemaData schemaUrl="#26e30a4c">
		<SimpleData name="type">II</SimpleData>
		<SimpleData name="view">498.195</SimpleData>
		<SimpleData name="benchmark_number">160 оп</SimpleData>
		<SimpleData name="control_location">Линия №2: Ивановка - Жана-Арка, II класс (4) Участок: грунт.реп.4029 - фунд.реп.501</SimpleData>
		<SimpleData name="benchmark_type">Алгабас,с.,в 3.3 км к вост.от него,в 1.0 км к югу от оз.Караколь,в 20 м к зап.от полевой дороги</SimpleData>
		<SimpleData name="location_description">26e30a4c-1d70-44a7-9c35-dcc4b175f71d</SimpleData>
		<SimpleData name="status">data/stations/26e30a4c.kml</SimpleData>
		<SimpleData name="guid">&lt;a href='data/stations/26e30a4c.kml' target='_blank'&gt;Download KML&lt;/a&gt;</SimpleData>
	</SchemaData></ExtendedData>
      <Point><coordinates>71.6225014149703,48.7424239257882</coordinates></Point>
  </Placemark>
</Folder>
</Document></kml>
