<?xml version="1.0" encoding="utf-8" ?>
<kml xmlns="http://www.opengis.net/kml/2.2">
<Document id="root_doc">
<Schema name="2731c063" id="2731c063">
	<SimpleField name="title" type="string"></SimpleField>
	<SimpleField name="type" type="string"></SimpleField>
	<SimpleField name="ext_sign" type="string"></SimpleField>
	<SimpleField name="class_lvl" type="string"></SimpleField>
	<SimpleField name="height_lvl" type="string"></SimpleField>
	<SimpleField name="height_ctrl" type="string"></SimpleField>
	<SimpleField name="ctrl_place" type="string"></SimpleField>
	<SimpleField name="mark_num" type="string"></SimpleField>
	<SimpleField name="center_type" type="string"></SimpleField>
	<SimpleField name="lvl_line" type="string"></SimpleField>
	<SimpleField name="guid" type="string"></SimpleField>
</Schema>
<Folder><name>2731c063</name>
  <Placemark id="2731c063.1">
	<name>3632</name>
	<ExtendedData><SchemaData schemaUrl="#2731c063">
		<SimpleData name="title">скальный репер</SimpleData>
		<SimpleData name="type">2</SimpleData>
		<SimpleData name="ext_sign">536.474</SimpleData>
		<SimpleData name="ctrl_place">99 оп. знак</SimpleData>
		<SimpleData name="mark_num">Линия № 2: Аркарлы - Актас. 2 класс ( 2 ) Участок: фунд. реп. 23 - фунд. реп. 3025</SimpleData>
		<SimpleData name="center_type">Пыстан, г., в 8.6 км к сев.-зап. от нее, в 3.0 км к юго­ вост. от кладбища и водокачки, в 47 м к юго-вост, от полевой дороги</SimpleData>
		<SimpleData name="lvl_line">2731c063-fec3-4f58-b734-f39e29d97767</SimpleData>
	</SchemaData></ExtendedData>
      <Point><coordinates>70.7464087958244,46.7527638685565</coordinates></Point>
  </Placemark>
</Folder>
</Document></kml>
