<?xml version="1.0" encoding="utf-8" ?>
<kml xmlns="http://www.opengis.net/kml/2.2">
<Document id="root_doc">
<Schema name="2745fb78" id="2745fb78">
	<SimpleField name="title" type="string"></SimpleField>
	<SimpleField name="type" type="string"></SimpleField>
	<SimpleField name="ext_sign" type="string"></SimpleField>
	<SimpleField name="class_lvl" type="string"></SimpleField>
	<SimpleField name="height_lvl" type="string"></SimpleField>
	<SimpleField name="height_ctrl" type="string"></SimpleField>
	<SimpleField name="ctrl_place" type="string"></SimpleField>
	<SimpleField name="mark_num" type="string"></SimpleField>
	<SimpleField name="center_type" type="string"></SimpleField>
	<SimpleField name="lvl_line" type="string"></SimpleField>
	<SimpleField name="guid" type="string"></SimpleField>
</Schema>
<Folder><name>2745fb78</name>
  <Placemark id="2745fb78.1">
	<name>4837</name>
	<description>скальный репер</description>
	<ExtendedData><SchemaData schemaUrl="#2745fb78">
		<SimpleData name="type">2</SimpleData>
		<SimpleData name="ext_sign">399.7144</SimpleData>
		<SimpleData name="ctrl_place">99 оп</SimpleData>
		<SimpleData name="mark_num">Линия: № 1: Уть-Каменогорск-Зайсан, II класс (1) Ход от фунд. реп. 21592-грунт. реп. 1452</SimpleData>
		<SimpleData name="center_type">Приморское, с., в 2.3 кс к сев.-вост. от него, в 250 м к зап. от развилки шоссе в с.Н-Хайрюзовка, в 40 м к сев.- от шоссе, в 30 м к зап. от поворотного стб. линии связи.</SimpleData>
		<SimpleData name="lvl_line">2745fb78-3ee8-4662-8937-71316f327b25</SimpleData>
	</SchemaData></ExtendedData>
      <Point><coordinates>84.3694696868922,49.2247649434462</coordinates></Point>
  </Placemark>
</Folder>
</Document></kml>
