<?xml version="1.0" encoding="utf-8" ?>
<kml xmlns="http://www.opengis.net/kml/2.2">
<Document id="root_doc">
<Schema name="27f5e37c" id="27f5e37c">
	<SimpleField name="title" type="string"></SimpleField>
	<SimpleField name="type" type="string"></SimpleField>
	<SimpleField name="ext_sign" type="string"></SimpleField>
	<SimpleField name="class_lvl" type="string"></SimpleField>
	<SimpleField name="height_lvl" type="string"></SimpleField>
	<SimpleField name="height_ctrl" type="string"></SimpleField>
	<SimpleField name="ctrl_place" type="string"></SimpleField>
	<SimpleField name="mark_num" type="string"></SimpleField>
	<SimpleField name="center_type" type="string"></SimpleField>
	<SimpleField name="lvl_line" type="string"></SimpleField>
	<SimpleField name="guid" type="string"></SimpleField>
</Schema>
<Folder><name>27f5e37c</name>
  <Placemark id="27f5e37c.1">
	<name>462</name>
	<description>фундаментальный репер</description>
	<ExtendedData><SchemaData schemaUrl="#27f5e37c">
		<SimpleData name="title">1А39</SimpleData>
		<SimpleData name="lvl_line">27f5e37c-8773-479a-8597-bac27b9ee9dd</SimpleData>
	</SchemaData></ExtendedData>
      <Point><coordinates>51.27101945,47.3449254</coordinates></Point>
  </Placemark>
</Folder>
</Document></kml>
