<?xml version="1.0" encoding="utf-8" ?>
<kml xmlns="http://www.opengis.net/kml/2.2">
<Document id="root_doc">
<Schema name="283339b9" id="283339b9">
	<SimpleField name="title" type="string"></SimpleField>
	<SimpleField name="type" type="string"></SimpleField>
	<SimpleField name="ext_sign" type="string"></SimpleField>
	<SimpleField name="class_lvl" type="string"></SimpleField>
	<SimpleField name="height_lvl" type="string"></SimpleField>
	<SimpleField name="height_ctrl" type="string"></SimpleField>
	<SimpleField name="ctrl_place" type="string"></SimpleField>
	<SimpleField name="mark_num" type="string"></SimpleField>
	<SimpleField name="center_type" type="string"></SimpleField>
	<SimpleField name="lvl_line" type="string"></SimpleField>
	<SimpleField name="guid" type="string"></SimpleField>
</Schema>
<Folder><name>283339b9</name>
  <Placemark id="283339b9.1">
	<name>2179_0</name>
	<description>грунтовый репер</description>
	<ExtendedData><SchemaData schemaUrl="#283339b9">
		<SimpleData name="height_ctrl">2179</SimpleData>
		<SimpleData name="ctrl_place">160 оп.</SimpleData>
		<SimpleData name="center_type">Восточно-Коунрадский, с., в 11,5 км м к сев.-вост от него, в 4,9  км к востоку от дороги г.Балхаш – с.Актогай, возле полевой дороги.
</SimpleData>
		<SimpleData name="lvl_line">283339b9-a067-43a7-9baa-ee5ee3ffcee2</SimpleData>
	</SchemaData></ExtendedData>
      <Point><coordinates>75.243498259598,47.0708983925079</coordinates></Point>
  </Placemark>
</Folder>
</Document></kml>
