<?xml version="1.0" encoding="utf-8" ?>
<kml xmlns="http://www.opengis.net/kml/2.2">
<Document id="root_doc">
<Schema name="285ec3ef" id="285ec3ef">
	<SimpleField name="title" type="string"></SimpleField>
	<SimpleField name="type" type="string"></SimpleField>
	<SimpleField name="ext_sign" type="string"></SimpleField>
	<SimpleField name="class_lvl" type="string"></SimpleField>
	<SimpleField name="height_lvl" type="string"></SimpleField>
	<SimpleField name="height_ctrl" type="string"></SimpleField>
	<SimpleField name="ctrl_place" type="string"></SimpleField>
	<SimpleField name="mark_num" type="string"></SimpleField>
	<SimpleField name="center_type" type="string"></SimpleField>
	<SimpleField name="lvl_line" type="string"></SimpleField>
	<SimpleField name="guid" type="string"></SimpleField>
</Schema>
<Folder><name>285ec3ef</name>
  <Placemark id="285ec3ef.1">
	<name>276</name>
	<ExtendedData><SchemaData schemaUrl="#285ec3ef">
		<SimpleData name="title">грунтовый репер</SimpleData>
		<SimpleData name="type">1</SimpleData>
		<SimpleData name="ext_sign">506,236</SimpleData>
		<SimpleData name="ctrl_place">146 оп</SimpleData>
		<SimpleData name="mark_num">Линия №1; Сары-Озек - Пржевальск, 1 класс(2) Участок: грунт. реп. 155- грунт.реп. 682</SimpleData>
		<SimpleData name="center_type">Борохудэир, с., в 2.5 км к юго-зап. от него, в 60м к зап. от поворотного стб. ЛЭП, в 25м к сев.-зап.от стб. ЛЭП 363</SimpleData>
		<SimpleData name="lvl_line">285ec3ef-34a2-42d3-b035-4f7cd51070da</SimpleData>
	</SchemaData></ExtendedData>
      <Point><coordinates>79.5771906351005,43.9374091845111</coordinates></Point>
  </Placemark>
</Folder>
</Document></kml>
