<?xml version="1.0" encoding="utf-8" ?>
<kml xmlns="http://www.opengis.net/kml/2.2">
<Document id="root_doc">
<Schema name="292ea90f" id="292ea90f">
	<SimpleField name="type" type="string"></SimpleField>
	<SimpleField name="view" type="string"></SimpleField>
	<SimpleField name="leveling_order" type="string"></SimpleField>
	<SimpleField name="leveling_height" type="string"></SimpleField>
	<SimpleField name="control_height" type="string"></SimpleField>
	<SimpleField name="benchmark_number" type="string"></SimpleField>
	<SimpleField name="control_location" type="string"></SimpleField>
	<SimpleField name="benchmark_type" type="string"></SimpleField>
	<SimpleField name="leveling_line_section" type="string"></SimpleField>
	<SimpleField name="location_description" type="string"></SimpleField>
	<SimpleField name="status" type="string"></SimpleField>
	<SimpleField name="guid" type="string"></SimpleField>
	<SimpleField name="kml" type="string"></SimpleField>
	<SimpleField name="kml_link" type="string"></SimpleField>
</Schema>
<Folder><name>292ea90f</name>
  <Placemark id="292ea90f.1">
	<name>348</name>
	<name>грунт. реп.</name>
	<ExtendedData><SchemaData schemaUrl="#292ea90f">
		<SimpleData name="type">2</SimpleData>
		<SimpleData name="view">234.406</SimpleData>
		<SimpleData name="leveling_order">232.818</SimpleData>
		<SimpleData name="benchmark_number">121</SimpleData>
		<SimpleData name="control_location">Линия №2 :  Семиозерное-Жанатурмыс, II класс.  Участок : грунт. реп. 802-фунд. реп. 1336</SimpleData>
		<SimpleData name="benchmark_type">Улькенсор, с., в 5,0 км к сев. от них, в 12,0 км к юго-вост.от асф.дороги с. Семиозерное - с. Бестауский, между следами пол. Дорог свх. Дружба - разв. Улькенсор</SimpleData>
		<SimpleData name="location_description">292ea90f-b5e1-4837-bd89-8a1c773ac755</SimpleData>
		<SimpleData name="status">data/stations/292ea90f.kml</SimpleData>
		<SimpleData name="guid">&lt;a href='data/stations/292ea90f.kml' target='_blank'&gt;Download KML&lt;/a&gt;</SimpleData>
	</SchemaData></ExtendedData>
      <Point><coordinates>62.9687687247988,51.3312359543124</coordinates></Point>
  </Placemark>
</Folder>
</Document></kml>
