<?xml version="1.0" encoding="utf-8" ?>
<kml xmlns="http://www.opengis.net/kml/2.2">
<Document id="root_doc">
<Schema name="299afe9c" id="299afe9c">
	<SimpleField name="type" type="string"></SimpleField>
	<SimpleField name="view" type="string"></SimpleField>
	<SimpleField name="leveling_order" type="string"></SimpleField>
	<SimpleField name="leveling_height" type="string"></SimpleField>
	<SimpleField name="control_height" type="string"></SimpleField>
	<SimpleField name="benchmark_number" type="string"></SimpleField>
	<SimpleField name="control_location" type="string"></SimpleField>
	<SimpleField name="benchmark_type" type="string"></SimpleField>
	<SimpleField name="leveling_line_section" type="string"></SimpleField>
	<SimpleField name="location_description" type="string"></SimpleField>
	<SimpleField name="status" type="string"></SimpleField>
	<SimpleField name="guid" type="string"></SimpleField>
	<SimpleField name="kml" type="string"></SimpleField>
	<SimpleField name="kml_link" type="string"></SimpleField>
</Schema>
<Folder><name>299afe9c</name>
  <Placemark id="299afe9c.1">
	<name>43</name>
	<name>грунтовый репер</name>
	<ExtendedData><SchemaData schemaUrl="#299afe9c">
		<SimpleData name="type">II</SimpleData>
		<SimpleData name="view">438,886</SimpleData>
		<SimpleData name="leveling_order">436,581</SimpleData>
		<SimpleData name="control_height">Контрольный репер в верхней плоскости монолита</SimpleData>
		<SimpleData name="benchmark_number">124оп</SimpleData>
		<SimpleData name="control_location">Линия №3: фунд.реп. 6752 - фунд.реп. б/№ (3), II класс (1) Участок: фунд.реп. 6752 - грунт.реп. 42</SimpleData>
		<SimpleData name="benchmark_type">Владимировка, с., в 9,0 км к вост.от него, в 1,2 км к зап.от оз.Шункырлыколь, в 27 м к югу от дороги с. Владимировка -  с.Новодолинка</SimpleData>
		<SimpleData name="leveling_line_section">утрачен</SimpleData>
		<SimpleData name="location_description">299afe9c-bdbc-45ee-aec1-e604f8a3a308</SimpleData>
		<SimpleData name="status">data/stations/299afe9c.kml</SimpleData>
		<SimpleData name="guid">&lt;a href='data/stations/299afe9c.kml' target='_blank'&gt;Download KML&lt;/a&gt;</SimpleData>
	</SchemaData></ExtendedData>
      <Point><coordinates>72.4913792837688,51.1938788656349</coordinates></Point>
  </Placemark>
</Folder>
</Document></kml>
