<?xml version="1.0" encoding="utf-8" ?>
<kml xmlns="http://www.opengis.net/kml/2.2">
<Document id="root_doc">
<Schema name="29a857ee" id="29a857ee">
	<SimpleField name="type" type="string"></SimpleField>
	<SimpleField name="view" type="string"></SimpleField>
	<SimpleField name="leveling_order" type="string"></SimpleField>
	<SimpleField name="leveling_height" type="string"></SimpleField>
	<SimpleField name="control_height" type="string"></SimpleField>
	<SimpleField name="benchmark_number" type="string"></SimpleField>
	<SimpleField name="control_location" type="string"></SimpleField>
	<SimpleField name="benchmark_type" type="string"></SimpleField>
	<SimpleField name="leveling_line_section" type="string"></SimpleField>
	<SimpleField name="location_description" type="string"></SimpleField>
	<SimpleField name="status" type="string"></SimpleField>
	<SimpleField name="guid" type="string"></SimpleField>
	<SimpleField name="kml" type="string"></SimpleField>
	<SimpleField name="kml_link" type="string"></SimpleField>
</Schema>
<Folder><name>29a857ee</name>
  <Placemark id="29a857ee.1">
	<name>4293</name>
	<description>грунт. реп.</description>
	<ExtendedData><SchemaData schemaUrl="#29a857ee">
		<SimpleData name="type">2</SimpleData>
		<SimpleData name="view">198.836</SimpleData>
		<SimpleData name="leveling_order">197,376</SimpleData>
		<SimpleData name="benchmark_number">121 оп</SimpleData>
		<SimpleData name="control_location">Линия № 1: Амангельды - Байконур,  II класс Участок: грунт.реп. 301 - грунт.реп. 4293      </SimpleData>
		<SimpleData name="benchmark_type">Рахмет, с., в 9.1 км к сев.-вост. от него, в 2.7 км к юго-зап. от зим. Жанды-Бай,  в 20 м к зап. от дороги с. Амангельды - с. Рахмет</SimpleData>
		<SimpleData name="location_description">29a857ee-0e43-472b-b4b4-2eb7bd67d95d</SimpleData>
		<SimpleData name="status">data/stations/29a857ee.kml</SimpleData>
		<SimpleData name="guid">&lt;a href='data/stations/29a857ee.kml' target='_blank'&gt;Download KML&lt;/a&gt;</SimpleData>
	</SchemaData></ExtendedData>
      <Point><coordinates>65.3706359473544,49.3246532739554</coordinates></Point>
  </Placemark>
</Folder>
</Document></kml>
