<?xml version="1.0" encoding="utf-8" ?>
<kml xmlns="http://www.opengis.net/kml/2.2">
<Document id="root_doc">
<Schema name="29bae615" id="29bae615">
	<SimpleField name="type" type="string"></SimpleField>
	<SimpleField name="view" type="string"></SimpleField>
	<SimpleField name="leveling_order" type="string"></SimpleField>
	<SimpleField name="leveling_height" type="string"></SimpleField>
	<SimpleField name="control_height" type="string"></SimpleField>
	<SimpleField name="benchmark_number" type="string"></SimpleField>
	<SimpleField name="control_location" type="string"></SimpleField>
	<SimpleField name="benchmark_type" type="string"></SimpleField>
	<SimpleField name="leveling_line_section" type="string"></SimpleField>
	<SimpleField name="location_description" type="string"></SimpleField>
	<SimpleField name="status" type="string"></SimpleField>
	<SimpleField name="guid" type="string"></SimpleField>
	<SimpleField name="kml" type="string"></SimpleField>
	<SimpleField name="kml_link" type="string"></SimpleField>
</Schema>
<Folder><name>29bae615</name>
  <Placemark id="29bae615.1">
	<name>6878</name>
	<name>грунтовый репер</name>
	<ExtendedData><SchemaData schemaUrl="#29bae615">
		<SimpleData name="type">1</SimpleData>
		<SimpleData name="view">295.712</SimpleData>
		<SimpleData name="benchmark_number">160 оп, знак</SimpleData>
		<SimpleData name="control_location">Линия № 1: Торыустаган - Бирлик, 1 класс (1) Участок: грунт, реп, 1284 - грунт, реп, 7842</SimpleData>
		<SimpleData name="benchmark_type">Батсай, мог,, в 10,5 км к югу от неё, в 0,4 км к вост, от км, стб, 61/160 шоссе с, Уланбель - с, Мойынкум, в 30 м к сев, от шоссе</SimpleData>
		<SimpleData name="location_description">29bae615-4242-4882-bbda-2e5b0b2b8936</SimpleData>
		<SimpleData name="status">data/stations/29bae615.kml</SimpleData>
		<SimpleData name="guid">&lt;a href='data/stations/29bae615.kml' target='_blank'&gt;Download KML&lt;/a&gt;</SimpleData>
	</SchemaData></ExtendedData>
      <Point><coordinates>71.8104703604171,44.5991329220076</coordinates></Point>
  </Placemark>
</Folder>
</Document></kml>
