<?xml version="1.0" encoding="utf-8" ?>
<kml xmlns="http://www.opengis.net/kml/2.2">
<Document id="root_doc">
<Schema name="2a263be4" id="2a263be4">
	<SimpleField name="type" type="string"></SimpleField>
	<SimpleField name="view" type="string"></SimpleField>
	<SimpleField name="leveling_order" type="string"></SimpleField>
	<SimpleField name="leveling_height" type="string"></SimpleField>
	<SimpleField name="control_height" type="string"></SimpleField>
	<SimpleField name="benchmark_number" type="string"></SimpleField>
	<SimpleField name="control_location" type="string"></SimpleField>
	<SimpleField name="benchmark_type" type="string"></SimpleField>
	<SimpleField name="leveling_line_section" type="string"></SimpleField>
	<SimpleField name="location_description" type="string"></SimpleField>
	<SimpleField name="status" type="string"></SimpleField>
	<SimpleField name="guid" type="string"></SimpleField>
	<SimpleField name="kml" type="string"></SimpleField>
	<SimpleField name="kml_link" type="string"></SimpleField>
</Schema>
<Folder><name>2a263be4</name>
  <Placemark id="2a263be4.1">
	<name>8</name>
	<description>грунт. реп.</description>
	<ExtendedData><SchemaData schemaUrl="#2a263be4">
		<SimpleData name="control_location">Линия 1 класса :Тактайконыр -Семиозёрное(фунд.реп.83 -фунд.реп.349)  Участок :фунд.реп.893 -пир.3 кл.Алгабас</SimpleData>
		<SimpleData name="benchmark_type">Бестамак,с.(нежил.),в 1.4 км к сев.-вост.от него,в 1.1 км к сев.-вост.от зимовки,в 20 м к вост.от грунт.дороги с.Бестамак -с.Кайгы</SimpleData>
		<SimpleData name="location_description">2a263be4-4713-4c58-b029-9842f59e1dbf</SimpleData>
		<SimpleData name="status">data/stations/2a263be4.kml</SimpleData>
		<SimpleData name="guid">&lt;a href='data/stations/2a263be4.kml' target='_blank'&gt;Download KML&lt;/a&gt;</SimpleData>
	</SchemaData></ExtendedData>
      <Point><coordinates>64.6782300783542,50.839769086563</coordinates></Point>
  </Placemark>
</Folder>
</Document></kml>
