<?xml version="1.0" encoding="utf-8" ?>
<kml xmlns="http://www.opengis.net/kml/2.2">
<Document id="root_doc">
<Schema name="2a5b9e7f" id="2a5b9e7f">
	<SimpleField name="title" type="string"></SimpleField>
	<SimpleField name="type" type="string"></SimpleField>
	<SimpleField name="ext_sign" type="string"></SimpleField>
	<SimpleField name="class_lvl" type="string"></SimpleField>
	<SimpleField name="height_lvl" type="string"></SimpleField>
	<SimpleField name="height_ctrl" type="string"></SimpleField>
	<SimpleField name="ctrl_place" type="string"></SimpleField>
	<SimpleField name="mark_num" type="string"></SimpleField>
	<SimpleField name="center_type" type="string"></SimpleField>
	<SimpleField name="lvl_line" type="string"></SimpleField>
	<SimpleField name="guid" type="string"></SimpleField>
</Schema>
<Folder><name>2a5b9e7f</name>
  <Placemark id="2a5b9e7f.1">
	<name>3380</name>
	<description>грунтовый репер</description>
	<ExtendedData><SchemaData schemaUrl="#2a5b9e7f">
		<SimpleData name="type">1</SimpleData>
		<SimpleData name="ext_sign">27.462</SimpleData>
		<SimpleData name="ctrl_place">121</SimpleData>
		<SimpleData name="mark_num">Линия нивелирования 1 класса Уральск-Жанибек</SimpleData>
		<SimpleData name="center_type">Аккурай, с., в 4.0км к сев.-вост.от него, в 0.3км к сев. От зим., в 150м к сев.-зап.от кургана, в 78м к зап.от дороги с.Аккурай-с.Карташов</SimpleData>
		<SimpleData name="lvl_line">2a5b9e7f-083d-4d0e-9401-bbad7ed89426</SimpleData>
	</SchemaData></ExtendedData>
      <Point><coordinates>49.0415167823205,50.6093434072497</coordinates></Point>
  </Placemark>
</Folder>
</Document></kml>
