<?xml version="1.0" encoding="utf-8" ?>
<kml xmlns="http://www.opengis.net/kml/2.2">
<Document id="root_doc">
<Schema name="2a6bea07" id="2a6bea07">
	<SimpleField name="type" type="string"></SimpleField>
	<SimpleField name="view" type="string"></SimpleField>
	<SimpleField name="leveling_order" type="string"></SimpleField>
	<SimpleField name="leveling_height" type="string"></SimpleField>
	<SimpleField name="control_height" type="string"></SimpleField>
	<SimpleField name="benchmark_number" type="string"></SimpleField>
	<SimpleField name="control_location" type="string"></SimpleField>
	<SimpleField name="benchmark_type" type="string"></SimpleField>
	<SimpleField name="leveling_line_section" type="string"></SimpleField>
	<SimpleField name="location_description" type="string"></SimpleField>
	<SimpleField name="status" type="string"></SimpleField>
	<SimpleField name="guid" type="string"></SimpleField>
	<SimpleField name="kml" type="string"></SimpleField>
	<SimpleField name="kml_link" type="string"></SimpleField>
</Schema>
<Folder><name>2a6bea07</name>
  <Placemark id="2a6bea07.1">
	<name>112</name>
	<name>фунд. реп.</name>
	<ExtendedData><SchemaData schemaUrl="#2a6bea07">
		<SimpleData name="type">1</SimpleData>
		<SimpleData name="view">238,852</SimpleData>
		<SimpleData name="leveling_order">237,871</SimpleData>
		<SimpleData name="control_height">марка № 1263 в фундаментной плите</SimpleData>
		<SimpleData name="benchmark_number">140</SimpleData>
		<SimpleData name="control_location">Линия: Семипалатинск - Локоть, I класс (1) Участок: грунт. реп. б/№ - фунд. реп. 3 (Вдоль жел. дор. Новосибирск - Семипалатинск)</SimpleData>
		<SimpleData name="benchmark_type">Ост. п. 552 км, в 6.6 км к сев.-вост. от него, на 10 пикете 545 км, здание жел. - дор. казармы, в восточной стене фундамента</SimpleData>
		<SimpleData name="location_description">2a6bea07-de14-443c-949c-d08a3538946a</SimpleData>
		<SimpleData name="status">data/stations/2a6bea07.kml</SimpleData>
		<SimpleData name="guid">&lt;a href='data/stations/2a6bea07.kml' target='_blank'&gt;Download KML&lt;/a&gt;</SimpleData>
	</SchemaData></ExtendedData>
      <Point><coordinates>81.06795424658,51.0877829161725</coordinates></Point>
  </Placemark>
</Folder>
</Document></kml>
