<?xml version="1.0" encoding="utf-8" ?>
<kml xmlns="http://www.opengis.net/kml/2.2">
<Document id="root_doc">
<Schema name="2ac91029" id="2ac91029">
	<SimpleField name="type" type="string"></SimpleField>
	<SimpleField name="view" type="string"></SimpleField>
	<SimpleField name="leveling_order" type="string"></SimpleField>
	<SimpleField name="leveling_height" type="string"></SimpleField>
	<SimpleField name="control_height" type="string"></SimpleField>
	<SimpleField name="benchmark_number" type="string"></SimpleField>
	<SimpleField name="control_location" type="string"></SimpleField>
	<SimpleField name="benchmark_type" type="string"></SimpleField>
	<SimpleField name="leveling_line_section" type="string"></SimpleField>
	<SimpleField name="location_description" type="string"></SimpleField>
	<SimpleField name="status" type="string"></SimpleField>
	<SimpleField name="guid" type="string"></SimpleField>
	<SimpleField name="kml" type="string"></SimpleField>
	<SimpleField name="kml_link" type="string"></SimpleField>
</Schema>
<Folder><name>2ac91029</name>
  <Placemark id="2ac91029.1">
	<name>59</name>
	<description>грунт.реп.</description>
	<ExtendedData><SchemaData schemaUrl="#2ac91029">
		<SimpleData name="type">2</SimpleData>
		<SimpleData name="view">200.546</SimpleData>
		<SimpleData name="leveling_order">199.044</SimpleData>
		<SimpleData name="benchmark_number">Г</SimpleData>
		<SimpleData name="control_location">Линия  № 3 : Новоильиновка - Кулыколь, II класс                            Участок : фунд.реп.4090 - грунт.реп.106</SimpleData>
		<SimpleData name="benchmark_type">Прохоровское, разв., в 1.3 км к вост.от них, в 0.7 км к юго-вост.от р.Тобол, в 0.5 км к сев.-вост.от поворота ЛЭП</SimpleData>
		<SimpleData name="location_description">2ac91029-31ee-419a-b882-f4f2cb488b73</SimpleData>
		<SimpleData name="status">data/stations/2ac91029.kml</SimpleData>
		<SimpleData name="guid">&lt;a href='data/stations/2ac91029.kml' target='_blank'&gt;Download KML&lt;/a&gt;</SimpleData>
	</SchemaData></ExtendedData>
      <Point><coordinates>62.2698724055105,52.5054485228619</coordinates></Point>
  </Placemark>
</Folder>
</Document></kml>
