<?xml version="1.0" encoding="utf-8" ?>
<kml xmlns="http://www.opengis.net/kml/2.2">
<Document id="root_doc">
<Schema name="2acf3d16" id="2acf3d16">
	<SimpleField name="title" type="string"></SimpleField>
	<SimpleField name="type" type="string"></SimpleField>
	<SimpleField name="ext_sign" type="string"></SimpleField>
	<SimpleField name="class_lvl" type="string"></SimpleField>
	<SimpleField name="height_lvl" type="string"></SimpleField>
	<SimpleField name="height_ctrl" type="string"></SimpleField>
	<SimpleField name="ctrl_place" type="string"></SimpleField>
	<SimpleField name="mark_num" type="string"></SimpleField>
	<SimpleField name="center_type" type="string"></SimpleField>
	<SimpleField name="lvl_line" type="string"></SimpleField>
	<SimpleField name="guid" type="string"></SimpleField>
</Schema>
<Folder><name>2acf3d16</name>
  <Placemark id="2acf3d16.1">
	<name>785</name>
	<ExtendedData><SchemaData schemaUrl="#2acf3d16">
		<SimpleData name="title">Грунт.реп.</SimpleData>
		<SimpleData name="height_ctrl">785</SimpleData>
		<SimpleData name="ctrl_place">121</SimpleData>
		<SimpleData name="center_type">Шайгус, с., в 4.5 км к юго-вост.от него, в 1.0 км к зап.от развалин, в 16 м к зап.от дороги с.Каратобе-с.Кзыл-Куга</SimpleData>
		<SimpleData name="lvl_line">2acf3d16-0540-4833-9729-677f12b0054f</SimpleData>
	</SchemaData></ExtendedData>
      <Point><coordinates>53.15914511,48.71182777</coordinates></Point>
  </Placemark>
</Folder>
</Document></kml>
