<?xml version="1.0" encoding="utf-8" ?>
<kml xmlns="http://www.opengis.net/kml/2.2">
<Document id="root_doc">
<Schema name="2b28a89b" id="2b28a89b">
	<SimpleField name="type" type="string"></SimpleField>
	<SimpleField name="view" type="string"></SimpleField>
	<SimpleField name="leveling_order" type="string"></SimpleField>
	<SimpleField name="leveling_height" type="string"></SimpleField>
	<SimpleField name="control_height" type="string"></SimpleField>
	<SimpleField name="benchmark_number" type="string"></SimpleField>
	<SimpleField name="control_location" type="string"></SimpleField>
	<SimpleField name="benchmark_type" type="string"></SimpleField>
	<SimpleField name="leveling_line_section" type="string"></SimpleField>
	<SimpleField name="location_description" type="string"></SimpleField>
	<SimpleField name="status" type="string"></SimpleField>
	<SimpleField name="guid" type="string"></SimpleField>
	<SimpleField name="kml" type="string"></SimpleField>
	<SimpleField name="kml_link" type="string"></SimpleField>
</Schema>
<Folder><name>2b28a89b</name>
  <Placemark id="2b28a89b.1">
	<name>2511</name>
	<name>ск.реп.</name>
	<ExtendedData><SchemaData schemaUrl="#2b28a89b">
		<SimpleData name="type">II</SimpleData>
		<SimpleData name="view">661.653</SimpleData>
		<SimpleData name="benchmark_number">99 оп.знак</SimpleData>
		<SimpleData name="control_location">Линия № 1:Кaрacу - Актогай. II класс                         Участок: фунд. реп. 39 -  ск.реп. 2511</SimpleData>
		<SimpleData name="benchmark_type">Сарытерек, с., в 6.7км к юго-вост. от него, в 0.3км к югу от р.Токрау., в 0.2км к вост. от пол. дороги, в 35м к югу от сух. русла, на выходе коренных пород</SimpleData>
		<SimpleData name="location_description">2b28a89b-f952-47e4-81f4-b48e589827e2</SimpleData>
		<SimpleData name="status">data/stations/2b28a89b.kml</SimpleData>
		<SimpleData name="guid">&lt;a href='data/stations/2b28a89b.kml' target='_blank'&gt;Download KML&lt;/a&gt;</SimpleData>
	</SchemaData></ExtendedData>
      <Point><coordinates>75.4337119543532,48.025436521552</coordinates></Point>
  </Placemark>
</Folder>
</Document></kml>
