<?xml version="1.0" encoding="utf-8" ?>
<kml xmlns="http://www.opengis.net/kml/2.2">
<Document id="root_doc">
<Schema name="2b314fba" id="2b314fba">
	<SimpleField name="type" type="string"></SimpleField>
	<SimpleField name="view" type="string"></SimpleField>
	<SimpleField name="leveling_order" type="string"></SimpleField>
	<SimpleField name="leveling_height" type="string"></SimpleField>
	<SimpleField name="control_height" type="string"></SimpleField>
	<SimpleField name="benchmark_number" type="string"></SimpleField>
	<SimpleField name="control_location" type="string"></SimpleField>
	<SimpleField name="benchmark_type" type="string"></SimpleField>
	<SimpleField name="leveling_line_section" type="string"></SimpleField>
	<SimpleField name="location_description" type="string"></SimpleField>
	<SimpleField name="status" type="string"></SimpleField>
	<SimpleField name="guid" type="string"></SimpleField>
	<SimpleField name="kml" type="string"></SimpleField>
	<SimpleField name="kml_link" type="string"></SimpleField>
</Schema>
<Folder><name>2b314fba</name>
  <Placemark id="2b314fba.1">
	<name>16691</name>
	<name>грунт.реп.</name>
	<ExtendedData><SchemaData schemaUrl="#2b314fba">
		<SimpleData name="type">2</SimpleData>
		<SimpleData name="view">773,149</SimpleData>
		<SimpleData name="leveling_order">772,052</SimpleData>
		<SimpleData name="control_height">репер № 6663   в верхней плоскости монолита</SimpleData>
		<SimpleData name="benchmark_number">121</SimpleData>
		<SimpleData name="control_location">Линия  :              Яровское - Лениногорск,           2 класс (1), Участок : грунт.реп. 4467 - фунд.реп. 191 </SimpleData>
		<SimpleData name="benchmark_type">Крольчатник, с., на северной  окраине его, в 19 м  к востоку  от полотна узкоколейной жел./дор., в 0,8 км к северу от км стб. 9/10</SimpleData>
		<SimpleData name="location_description">2b314fba-d25f-4c52-91c0-15d173d85f4f</SimpleData>
		<SimpleData name="status">data/stations/2b314fba.kml</SimpleData>
		<SimpleData name="guid">&lt;a href='data/stations/2b314fba.kml' target='_blank'&gt;Download KML&lt;/a&gt;</SimpleData>
	</SchemaData></ExtendedData>
      <Point><coordinates>83.5059530733929,50.426171190443</coordinates></Point>
  </Placemark>
</Folder>
</Document></kml>
