<?xml version="1.0" encoding="utf-8" ?>
<kml xmlns="http://www.opengis.net/kml/2.2">
<Document id="root_doc">
<Schema name="2b4c0a60" id="2b4c0a60">
	<SimpleField name="type" type="string"></SimpleField>
	<SimpleField name="view" type="string"></SimpleField>
	<SimpleField name="leveling_order" type="string"></SimpleField>
	<SimpleField name="leveling_height" type="string"></SimpleField>
	<SimpleField name="control_height" type="string"></SimpleField>
	<SimpleField name="benchmark_number" type="string"></SimpleField>
	<SimpleField name="control_location" type="string"></SimpleField>
	<SimpleField name="benchmark_type" type="string"></SimpleField>
	<SimpleField name="leveling_line_section" type="string"></SimpleField>
	<SimpleField name="location_description" type="string"></SimpleField>
	<SimpleField name="status" type="string"></SimpleField>
	<SimpleField name="guid" type="string"></SimpleField>
	<SimpleField name="kml" type="string"></SimpleField>
	<SimpleField name="kml_link" type="string"></SimpleField>
</Schema>
<Folder><name>2b4c0a60</name>
  <Placemark id="2b4c0a60.1">
	<name>7791</name>
	<name>фунд. реп.</name>
	<ExtendedData><SchemaData schemaUrl="#2b4c0a60">
		<SimpleData name="type">2</SimpleData>
		<SimpleData name="view">589,456</SimpleData>
		<SimpleData name="leveling_order">588,101</SimpleData>
		<SimpleData name="control_height">репер № 5513 в фундаментной плите</SimpleData>
		<SimpleData name="benchmark_number">161 оп</SimpleData>
		<SimpleData name="control_location">Линия № 122: Усть-Каменогорск - Чтганчи, II класс (14) Участок: ск. реп. 8987 - грунт. реп. 0979</SimpleData>
		<SimpleData name="benchmark_type">Самарка, с., в 4.2 км к сев. от него, в 0.5 км к югу от км. стб. 4, в 0.2 км к югу от с. Лайлы, в 12 м к вост. от дороги с. Самарка - гор. Усть-Каменогорск</SimpleData>
		<SimpleData name="location_description">2b4c0a60-6098-40b8-9a69-e9c5a24fb256</SimpleData>
		<SimpleData name="status">data/stations/2b4c0a60.kml</SimpleData>
		<SimpleData name="guid">&lt;a href='data/stations/2b4c0a60.kml' target='_blank'&gt;Download KML&lt;/a&gt;</SimpleData>
	</SchemaData></ExtendedData>
      <Point><coordinates>83.3672185929689,49.0703613869449</coordinates></Point>
  </Placemark>
</Folder>
</Document></kml>
