<?xml version="1.0" encoding="utf-8" ?>
<kml xmlns="http://www.opengis.net/kml/2.2">
<Document id="root_doc">
<Schema name="2b51ff58" id="2b51ff58">
	<SimpleField name="title" type="string"></SimpleField>
	<SimpleField name="type" type="string"></SimpleField>
	<SimpleField name="ext_sign" type="string"></SimpleField>
	<SimpleField name="class_lvl" type="string"></SimpleField>
	<SimpleField name="height_lvl" type="string"></SimpleField>
	<SimpleField name="height_ctrl" type="string"></SimpleField>
	<SimpleField name="ctrl_place" type="string"></SimpleField>
	<SimpleField name="mark_num" type="string"></SimpleField>
	<SimpleField name="center_type" type="string"></SimpleField>
	<SimpleField name="lvl_line" type="string"></SimpleField>
	<SimpleField name="guid" type="string"></SimpleField>
</Schema>
<Folder><name>2b51ff58</name>
  <Placemark id="2b51ff58.1">
	<name>6088</name>
	<description>грунтовый репер</description>
	<ExtendedData><SchemaData schemaUrl="#2b51ff58">
		<SimpleData name="type">1</SimpleData>
		<SimpleData name="ext_sign">131,541</SimpleData>
		<SimpleData name="ctrl_place">160 оп. знак</SimpleData>
		<SimpleData name="mark_num">Линия № 1: Кызылорда - Торыустаган. 1 класс (11
Участок: грунт, реп. 6294 - грунт, реп. 774</SimpleData>
		<SimpleData name="center_type">Жангьпжар, разв., в 8.9 км к сев.-вост. от них, в 1.4 км к сев.-вост. от вдхр., в 90 м к зап. от такыра, в 18 м к югу
от полевой дороги</SimpleData>
		<SimpleData name="lvl_line">2b51ff58-cf4e-423d-a2ce-f4064080d375</SimpleData>
	</SchemaData></ExtendedData>
      <Point><coordinates>66.1283486286882,44.8360762095738</coordinates></Point>
  </Placemark>
</Folder>
</Document></kml>
