<?xml version="1.0" encoding="utf-8" ?>
<kml xmlns="http://www.opengis.net/kml/2.2">
<Document id="root_doc">
<Schema name="2b9d3513" id="2b9d3513">
	<SimpleField name="type" type="string"></SimpleField>
	<SimpleField name="view" type="string"></SimpleField>
	<SimpleField name="leveling_order" type="string"></SimpleField>
	<SimpleField name="leveling_height" type="string"></SimpleField>
	<SimpleField name="control_height" type="string"></SimpleField>
	<SimpleField name="benchmark_number" type="string"></SimpleField>
	<SimpleField name="control_location" type="string"></SimpleField>
	<SimpleField name="benchmark_type" type="string"></SimpleField>
	<SimpleField name="leveling_line_section" type="string"></SimpleField>
	<SimpleField name="location_description" type="string"></SimpleField>
	<SimpleField name="status" type="string"></SimpleField>
	<SimpleField name="guid" type="string"></SimpleField>
	<SimpleField name="kml" type="string"></SimpleField>
	<SimpleField name="kml_link" type="string"></SimpleField>
</Schema>
<Folder><name>2b9d3513</name>
  <Placemark id="2b9d3513.1">
	<name>2528</name>
	<description>грунт. реп.</description>
	<ExtendedData><SchemaData schemaUrl="#2b9d3513">
		<SimpleData name="type">1</SimpleData>
		<SimpleData name="view">754.436</SimpleData>
		<SimpleData name="benchmark_number">160оп</SimpleData>
		<SimpleData name="control_location">Линия №1: Каркаралинск - Аягуз, I класс (1) Участок: грунт. реп. 2886 - ск. реп. 0686</SimpleData>
		<SimpleData name="benchmark_type">Омархан, зим., в 23,0 км к сев.-зап. от нее, в 2,9 км к сев.-зап. от мог. Балапан, в 0,5 км к зап. от курганов, в 20 м от пол. дороги </SimpleData>
		<SimpleData name="location_description">2b9d3513-a310-4351-9672-296946ebc757</SimpleData>
		<SimpleData name="status">data/stations/2b9d3513.kml</SimpleData>
		<SimpleData name="guid">&lt;a href='data/stations/2b9d3513.kml' target='_blank'&gt;Download KML&lt;/a&gt;</SimpleData>
	</SchemaData></ExtendedData>
      <Point><coordinates>77.5549794536985,48.4619451737694</coordinates></Point>
  </Placemark>
</Folder>
</Document></kml>
