<?xml version="1.0" encoding="UTF-8"?>
<kml xmlns="http://www.opengis.net/kml/2.2">
  <Document id="root_doc">
    <Schema id="2c16cb72" name="2c16cb72">
      <SimpleField name="title" type="string"/>
      <SimpleField name="type" type="string"/>
      <SimpleField name="ext_sign" type="string"/>
      <SimpleField name="class_lvl" type="string"/>
      <SimpleField name="height_lvl" type="string"/>
      <SimpleField name="height_ctrl" type="string"/>
      <SimpleField name="ctrl_place" type="string"/>
      <SimpleField name="mark_num" type="string"/>
      <SimpleField name="center_type" type="string"/>
      <SimpleField name="lvl_line" type="string"/>
      <SimpleField name="guid" type="string"/>
    </Schema>
    <Schema id="_2c16cb72.schema">
      <SimpleField name="title" type="string"/>
      <SimpleField name="type" type="string"/>
      <SimpleField name="ext_sign" type="string"/>
      <SimpleField name="class_lvl" type="string"/>
      <SimpleField name="height_lvl" type="string"/>
      <SimpleField name="height_ctrl" type="string"/>
      <SimpleField name="ctrl_place" type="string"/>
      <SimpleField name="mark_num" type="string"/>
      <SimpleField name="center_type" type="string"/>
      <SimpleField name="lvl_line" type="string"/>
      <SimpleField name="guid" type="string"/>
    </Schema>
    <Document id="_2c16cb72">
      <name>2c16cb72</name>
      <Placemark id="_2c16cb72.1">
        <description>Карамола, к., в 3.5 км к сев.-вост. от него, в 0.2 км к юго-вост. от могилы, к сев. от шоссе гор. Жезказган - гор. Кызьшорда</description>
        <ExtendedData>
          <SchemaData schemaUrl="#_2c16cb72.schema">
            <SimpleData name="title">7485</SimpleData>
            <SimpleData name="type">фундаментальный репер</SimpleData>
            <SimpleData name="ext_sign">фундаментальный репер</SimpleData>
            <SimpleData name="class_lvl">2</SimpleData>
            <SimpleData name="height_lvl">127,366</SimpleData>
            <SimpleData name="height_ctrl">125,838</SimpleData>
            <SimpleData name="ctrl_place">в фундаментной плите</SimpleData>
            <SimpleData name="mark_num">8183</SimpleData>
            <SimpleData name="center_type">161 оп. знак</SimpleData>
            <SimpleData name="lvl_line">Линия № 2: Кызылорда- р. Сарысу. 2 класс (3) Унасток: грунт, реп. 5040-грунт, реп. 1761</SimpleData>
            <SimpleData name="guid">2c16cb72-5ea8-495e-b6be-b18b8fcaeafc</SimpleData>
          </SchemaData>
        </ExtendedData>
        <Point>
          <coordinates>
            66.4895247789439,45.2540165303087,0
          </coordinates>
        </Point>
      </Placemark>
    </Document>
  </Document>
</kml>
