<?xml version="1.0" encoding="utf-8" ?>
<kml xmlns="http://www.opengis.net/kml/2.2">
<Document id="root_doc">
<Schema name="2c5944f5" id="2c5944f5">
	<SimpleField name="type" type="string"></SimpleField>
	<SimpleField name="view" type="string"></SimpleField>
	<SimpleField name="leveling_order" type="string"></SimpleField>
	<SimpleField name="leveling_height" type="string"></SimpleField>
	<SimpleField name="control_height" type="string"></SimpleField>
	<SimpleField name="benchmark_number" type="string"></SimpleField>
	<SimpleField name="control_location" type="string"></SimpleField>
	<SimpleField name="benchmark_type" type="string"></SimpleField>
	<SimpleField name="leveling_line_section" type="string"></SimpleField>
	<SimpleField name="location_description" type="string"></SimpleField>
	<SimpleField name="status" type="string"></SimpleField>
	<SimpleField name="guid" type="string"></SimpleField>
	<SimpleField name="kml" type="string"></SimpleField>
	<SimpleField name="kml_link" type="string"></SimpleField>
</Schema>
<Folder><name>2c5944f5</name>
  <Placemark id="2c5944f5.1">
	<name>17</name>
	<name>грунтовый репер</name>
	<ExtendedData><SchemaData schemaUrl="#2c5944f5">
		<SimpleData name="type">II</SimpleData>
		<SimpleData name="view">349,656</SimpleData>
		<SimpleData name="benchmark_number">160оп</SimpleData>
		<SimpleData name="control_location">Линия №1: Сарыкияк - Степное, II класс (1)  Участок: грунт.реп.2 - грунт.реп. 10974</SimpleData>
		<SimpleData name="benchmark_type">Кумдыколь, оз., в 3,7 км к юго-вост. от него, в 3,1 км к сев.-зап. от зим.Оспанши, в 0,1 км к зап.от пересыхающего русла</SimpleData>
		<SimpleData name="location_description">2c5944f5-01a7-4521-923c-0c10d38ae364</SimpleData>
		<SimpleData name="status">data/stations/2c5944f5.kml</SimpleData>
		<SimpleData name="guid">&lt;a href='data/stations/2c5944f5.kml' target='_blank'&gt;Download KML&lt;/a&gt;</SimpleData>
	</SchemaData></ExtendedData>
      <Point><coordinates>74.7750817240805,51.0290888006287</coordinates></Point>
  </Placemark>
</Folder>
</Document></kml>
