<?xml version="1.0" encoding="utf-8" ?>
<kml xmlns="http://www.opengis.net/kml/2.2">
<Document id="root_doc">
<Schema name="2cdcb11a" id="2cdcb11a">
	<SimpleField name="type" type="string"></SimpleField>
	<SimpleField name="view" type="string"></SimpleField>
	<SimpleField name="leveling_order" type="string"></SimpleField>
	<SimpleField name="leveling_height" type="string"></SimpleField>
	<SimpleField name="control_height" type="string"></SimpleField>
	<SimpleField name="benchmark_number" type="string"></SimpleField>
	<SimpleField name="control_location" type="string"></SimpleField>
	<SimpleField name="benchmark_type" type="string"></SimpleField>
	<SimpleField name="leveling_line_section" type="string"></SimpleField>
	<SimpleField name="location_description" type="string"></SimpleField>
	<SimpleField name="status" type="string"></SimpleField>
	<SimpleField name="guid" type="string"></SimpleField>
	<SimpleField name="kml" type="string"></SimpleField>
	<SimpleField name="kml_link" type="string"></SimpleField>
</Schema>
<Folder><name>2cdcb11a</name>
  <Placemark id="2cdcb11a.1">
	<name>6490</name>
	<name>грунт.реп.</name>
	<ExtendedData><SchemaData schemaUrl="#2cdcb11a">
		<SimpleData name="type">II</SimpleData>
		<SimpleData name="view">317.796</SimpleData>
		<SimpleData name="leveling_order">267.263</SimpleData>
		<SimpleData name="benchmark_number">160 оп.знак</SimpleData>
		<SimpleData name="control_location">Линия № 2: Кокшетау- Володарское, - Сергеевка, II класс Участок: грунт. Реп. 8360 - фунд. Реп. 4925</SimpleData>
		<SimpleData name="benchmark_type">Еленовка, с., в 10.0 км к зап. от него, в 27 м к сев.   от шоссе с. Саумалколь - гор. Кокшетау,у колки леса</SimpleData>
		<SimpleData name="location_description">2cdcb11a-1598-4b22-b773-c4df63d6600f</SimpleData>
		<SimpleData name="status">data/stations/2cdcb11a.kml</SimpleData>
		<SimpleData name="guid">&lt;a href='data/stations/2cdcb11a.kml' target='_blank'&gt;Download KML&lt;/a&gt;</SimpleData>
	</SchemaData></ExtendedData>
      <Point><coordinates>68.7290631217299,53.2659849469535</coordinates></Point>
  </Placemark>
</Folder>
</Document></kml>
