<?xml version="1.0" encoding="utf-8" ?>
<kml xmlns="http://www.opengis.net/kml/2.2">
<Document id="root_doc">
<Schema name="2d6a820b" id="2d6a820b">
	<SimpleField name="type" type="string"></SimpleField>
	<SimpleField name="view" type="string"></SimpleField>
	<SimpleField name="leveling_order" type="string"></SimpleField>
	<SimpleField name="leveling_height" type="string"></SimpleField>
	<SimpleField name="control_height" type="string"></SimpleField>
	<SimpleField name="benchmark_number" type="string"></SimpleField>
	<SimpleField name="control_location" type="string"></SimpleField>
	<SimpleField name="benchmark_type" type="string"></SimpleField>
	<SimpleField name="leveling_line_section" type="string"></SimpleField>
	<SimpleField name="location_description" type="string"></SimpleField>
	<SimpleField name="status" type="string"></SimpleField>
	<SimpleField name="guid" type="string"></SimpleField>
	<SimpleField name="kml" type="string"></SimpleField>
	<SimpleField name="kml_link" type="string"></SimpleField>
</Schema>
<Folder><name>2d6a820b</name>
  <Placemark id="2d6a820b.1">
	<name>9338</name>
	<name>грунт.реп.</name>
	<ExtendedData><SchemaData schemaUrl="#2d6a820b">
		<SimpleData name="type">2</SimpleData>
		<SimpleData name="view">63.013</SimpleData>
		<SimpleData name="benchmark_number">160</SimpleData>
		<SimpleData name="control_location">Линия №2 Айтеке Би (Новоказалинск)-Ащылысай, II класс(4) Участок: фунд.реп. 9412-грунт.реп. 4945</SimpleData>
		<SimpleData name="benchmark_type">Сагыр. мог. в 4,9 км к югу от нее, в 2,2 км к сев. от кладб. Баулыке, в 28 м к зап. от полевой дороги</SimpleData>
		<SimpleData name="location_description">2d6a820b-9a1b-47da-94e9-f171db496956</SimpleData>
		<SimpleData name="status">data/stations/2d6a820b.kml</SimpleData>
		<SimpleData name="guid">&lt;a href='data/stations/2d6a820b.kml' target='_blank'&gt;Download KML&lt;/a&gt;</SimpleData>
	</SchemaData></ExtendedData>
      <Point><coordinates>62.0306762832399,45.5644728457484</coordinates></Point>
  </Placemark>
</Folder>
</Document></kml>
