<?xml version="1.0" encoding="utf-8" ?>
<kml xmlns="http://www.opengis.net/kml/2.2">
<Document id="root_doc">
<Schema name="2e01b7e2" id="2e01b7e2">
	<SimpleField name="type" type="string"></SimpleField>
	<SimpleField name="view" type="string"></SimpleField>
	<SimpleField name="leveling_order" type="string"></SimpleField>
	<SimpleField name="leveling_height" type="string"></SimpleField>
	<SimpleField name="control_height" type="string"></SimpleField>
	<SimpleField name="benchmark_number" type="string"></SimpleField>
	<SimpleField name="control_location" type="string"></SimpleField>
	<SimpleField name="benchmark_type" type="string"></SimpleField>
	<SimpleField name="leveling_line_section" type="string"></SimpleField>
	<SimpleField name="location_description" type="string"></SimpleField>
	<SimpleField name="status" type="string"></SimpleField>
	<SimpleField name="guid" type="string"></SimpleField>
	<SimpleField name="kml" type="string"></SimpleField>
	<SimpleField name="kml_link" type="string"></SimpleField>
</Schema>
<Folder><name>2e01b7e2</name>
  <Placemark id="2e01b7e2.1">
	<name>3419</name>
	<name>грунт. реп.</name>
	<ExtendedData><SchemaData schemaUrl="#2e01b7e2">
		<SimpleData name="type">2</SimpleData>
		<SimpleData name="view">86.539</SimpleData>
		<SimpleData name="benchmark_number">160</SimpleData>
		<SimpleData name="control_location">Линия №2; Коккабак-Жосалы, II класс (1), Участок; грунт.реп. 8976-грунт.реп. 4878</SimpleData>
		<SimpleData name="benchmark_type">Топпай,, мог., в 12.0 км к сев.от нее, в 8.0 км к юго-вост.от мог Жабагы, в 6.6 км к юго-зап.от г.Каратобе</SimpleData>
		<SimpleData name="location_description">2e01b7e2-c0b0-4f66-b73f-820a8306dda6</SimpleData>
		<SimpleData name="status">data/stations/2e01b7e2.kml</SimpleData>
		<SimpleData name="guid">&lt;a href='data/stations/2e01b7e2.kml' target='_blank'&gt;Download KML&lt;/a&gt;</SimpleData>
	</SchemaData></ExtendedData>
      <Point><coordinates>63.6864722532397,47.290188780679</coordinates></Point>
  </Placemark>
</Folder>
</Document></kml>
