<?xml version="1.0" encoding="utf-8" ?>
<kml xmlns="http://www.opengis.net/kml/2.2">
<Document id="root_doc">
<Schema name="2e5c1c5a" id="2e5c1c5a">
	<SimpleField name="title" type="string"></SimpleField>
	<SimpleField name="type" type="string"></SimpleField>
	<SimpleField name="ext_sign" type="string"></SimpleField>
	<SimpleField name="class_lvl" type="string"></SimpleField>
	<SimpleField name="height_lvl" type="string"></SimpleField>
	<SimpleField name="height_ctrl" type="string"></SimpleField>
	<SimpleField name="ctrl_place" type="string"></SimpleField>
	<SimpleField name="mark_num" type="string"></SimpleField>
	<SimpleField name="center_type" type="string"></SimpleField>
	<SimpleField name="lvl_line" type="string"></SimpleField>
	<SimpleField name="guid" type="string"></SimpleField>
</Schema>
<Folder><name>2e5c1c5a</name>
  <Placemark id="2e5c1c5a.1">
	<name>8603</name>
	<description>грунтовый репер</description>
	<ExtendedData><SchemaData schemaUrl="#2e5c1c5a">
		<SimpleData name="type">2</SimpleData>
		<SimpleData name="ext_sign">633,85</SimpleData>
		<SimpleData name="ctrl_place">160оп</SimpleData>
		<SimpleData name="mark_num">Линия №1: Карасорский-Каркаралинск, II класс (1) Участок: грунт.реп. 50 - грунт.реп.0224</SimpleData>
		<SimpleData name="center_type">Шоптыколь, с., в 16,0 км к сев.-зап. от него, в 1,5 км к сев.-вост. от лет. Кыргын, в 10 м к вост. от дороги с. Первое Мая – с. Шоптыколь</SimpleData>
		<SimpleData name="lvl_line">2e5c1c5a-bf10-478f-a697-bc4ab2263e95</SimpleData>
	</SchemaData></ExtendedData>
      <Point><coordinates>75.6094351111714,50.2726465413109</coordinates></Point>
  </Placemark>
</Folder>
</Document></kml>
