<?xml version="1.0" encoding="utf-8" ?>
<kml xmlns="http://www.opengis.net/kml/2.2">
<Document id="root_doc">
<Schema name="2e698768" id="2e698768">
	<SimpleField name="title" type="string"></SimpleField>
	<SimpleField name="type" type="string"></SimpleField>
	<SimpleField name="ext_sign" type="string"></SimpleField>
	<SimpleField name="class_lvl" type="string"></SimpleField>
	<SimpleField name="height_lvl" type="string"></SimpleField>
	<SimpleField name="height_ctrl" type="string"></SimpleField>
	<SimpleField name="ctrl_place" type="string"></SimpleField>
	<SimpleField name="mark_num" type="string"></SimpleField>
	<SimpleField name="center_type" type="string"></SimpleField>
	<SimpleField name="lvl_line" type="string"></SimpleField>
	<SimpleField name="guid" type="string"></SimpleField>
</Schema>
<Folder><name>2e698768</name>
  <Placemark id="2e698768.1">
	<name>9374</name>
	<ExtendedData><SchemaData schemaUrl="#2e698768">
		<SimpleData name="title">грунт.реп.</SimpleData>
		<SimpleData name="type">II</SimpleData>
		<SimpleData name="ext_sign">342.979</SimpleData>
		<SimpleData name="ctrl_place">146 оп</SimpleData>
		<SimpleData name="mark_num">Линия №2: Терсаккан=Бала-Терсаккан, II класс (1) Участок: грунт.реп.3371 - грунт.реп.2910</SimpleData>
		<SimpleData name="center_type">Целинное,с.,в 3.5 км к юго-зап.от него,в 1.0 км к юго-вост.от ЛЭП,в 0.6 км к зап.от р.Терисккан</SimpleData>
		<SimpleData name="lvl_line">2e698768-d40c-43dd-bc17-b66c9da6293b</SimpleData>
	</SchemaData></ExtendedData>
      <Point><coordinates>67.2742852581141,50.0886335368475</coordinates></Point>
  </Placemark>
</Folder>
</Document></kml>
