<?xml version="1.0" encoding="utf-8" ?>
<kml xmlns="http://www.opengis.net/kml/2.2">
<Document id="root_doc">
<Schema name="2f033f48" id="2f033f48">
	<SimpleField name="type" type="string"></SimpleField>
	<SimpleField name="view" type="string"></SimpleField>
	<SimpleField name="leveling_order" type="string"></SimpleField>
	<SimpleField name="leveling_height" type="string"></SimpleField>
	<SimpleField name="control_height" type="string"></SimpleField>
	<SimpleField name="benchmark_number" type="string"></SimpleField>
	<SimpleField name="control_location" type="string"></SimpleField>
	<SimpleField name="benchmark_type" type="string"></SimpleField>
	<SimpleField name="leveling_line_section" type="string"></SimpleField>
	<SimpleField name="location_description" type="string"></SimpleField>
	<SimpleField name="status" type="string"></SimpleField>
	<SimpleField name="guid" type="string"></SimpleField>
	<SimpleField name="kml" type="string"></SimpleField>
	<SimpleField name="kml_link" type="string"></SimpleField>
</Schema>
<Folder><name>2f033f48</name>
  <Placemark id="2f033f48.1">
	<name>699</name>
	<name>грунт.реп.</name>
	<description>грунт.реп.</description>
	<ExtendedData><SchemaData schemaUrl="#2f033f48">
		<SimpleData name="type">II</SimpleData>
		<SimpleData name="view">372.247</SimpleData>
		<SimpleData name="leveling_order">370,467*</SimpleData>
		<SimpleData name="leveling_height">№407</SimpleData>
		<SimpleData name="control_height">В фундаментной плите</SimpleData>
		<SimpleData name="control_location">Линия № 1:Акколь-урочище Куйган II класс                                         Участок: фунд.реп. 8890-грунт.реп. 362</SimpleData>
		<SimpleData name="benchmark_type">??????,?.,? 25.0 ?? ? ???.-???.??Босага, станц., в 6,4км к юго-зап. от ????,? ?.0 ?? ? ???-???.?? ???.??????,? 0.2 ?? ? ??? ?? ??????</SimpleData>
		<SimpleData name="location_description">2f033f48-3e3a-4795-a709-f3b9481e2dba</SimpleData>
		<SimpleData name="status">data/stations/2f033f48.kml</SimpleData>
		<SimpleData name="guid">&lt;a href='data/stations/2f033f48.kml' target='_blank'&gt;Download KML&lt;/a&gt;</SimpleData>
	</SchemaData></ExtendedData>
      <Point><coordinates>75.5405250091009,45.229092802064</coordinates></Point>
  </Placemark>
</Folder>
</Document></kml>
