<?xml version="1.0" encoding="utf-8" ?>
<kml xmlns="http://www.opengis.net/kml/2.2">
<Document id="root_doc">
<Schema name="3012f00c" id="3012f00c">
	<SimpleField name="type" type="string"></SimpleField>
	<SimpleField name="view" type="string"></SimpleField>
	<SimpleField name="leveling_order" type="string"></SimpleField>
	<SimpleField name="leveling_height" type="string"></SimpleField>
	<SimpleField name="control_height" type="string"></SimpleField>
	<SimpleField name="benchmark_number" type="string"></SimpleField>
	<SimpleField name="control_location" type="string"></SimpleField>
	<SimpleField name="benchmark_type" type="string"></SimpleField>
	<SimpleField name="leveling_line_section" type="string"></SimpleField>
	<SimpleField name="location_description" type="string"></SimpleField>
	<SimpleField name="status" type="string"></SimpleField>
	<SimpleField name="guid" type="string"></SimpleField>
	<SimpleField name="kml" type="string"></SimpleField>
	<SimpleField name="kml_link" type="string"></SimpleField>
</Schema>
<Folder><name>3012f00c</name>
  <Placemark id="3012f00c.1">
	<name>8282</name>
	<description>грунт. реп.</description>
	<ExtendedData><SchemaData schemaUrl="#3012f00c">
		<SimpleData name="type">1</SimpleData>
		<SimpleData name="view">327.124</SimpleData>
		<SimpleData name="benchmark_number">160оп</SimpleData>
		<SimpleData name="control_location">Линия № 1: Целиноград-Кулунда, I класс (1) Участок: грунт. реп. 2222-грунт. реп. 5220</SimpleData>
		<SimpleData name="benchmark_type">Бозтал, с., в 11,1 км к сев.-вост. от него, в 30 м к сев. от км стб. 203/204, в 20 м к сев. от жел. дор. полотна, в 15 м к сев. от стб.ЛЭП, в 7 м к югу от подз. Кабельной линии связи и полевой дороги</SimpleData>
		<SimpleData name="location_description">3012f00c-8e87-44da-ab8c-bee428682bc2</SimpleData>
		<SimpleData name="status">data/stations/3012f00c.kml</SimpleData>
		<SimpleData name="guid">&lt;a href='data/stations/3012f00c.kml' target='_blank'&gt;Download KML&lt;/a&gt;</SimpleData>
	</SchemaData></ExtendedData>
      <Point><coordinates>73.8804976331422,51.627281813944</coordinates></Point>
  </Placemark>
</Folder>
</Document></kml>
