<?xml version="1.0" encoding="utf-8" ?>
<kml xmlns="http://www.opengis.net/kml/2.2">
<Document id="root_doc">
<Schema name="30720317" id="30720317">
	<SimpleField name="title" type="string"></SimpleField>
	<SimpleField name="type" type="string"></SimpleField>
	<SimpleField name="ext_sign" type="string"></SimpleField>
	<SimpleField name="class_lvl" type="string"></SimpleField>
	<SimpleField name="height_lvl" type="string"></SimpleField>
	<SimpleField name="height_ctrl" type="string"></SimpleField>
	<SimpleField name="ctrl_place" type="string"></SimpleField>
	<SimpleField name="mark_num" type="string"></SimpleField>
	<SimpleField name="center_type" type="string"></SimpleField>
	<SimpleField name="lvl_line" type="string"></SimpleField>
	<SimpleField name="guid" type="string"></SimpleField>
</Schema>
<Folder><name>30720317</name>
  <Placemark id="30720317.1">
	<name>Водородомерный пост Б/Н</name>
	<ExtendedData><SchemaData schemaUrl="#30720317">
		<SimpleData name="lvl_line">30720317-9d2b-45f6-b49d-63eb57c7227b</SimpleData>
	</SchemaData></ExtendedData>
      <Point><coordinates>73.5708,50.725325</coordinates></Point>
  </Placemark>
</Folder>
</Document></kml>
