<?xml version="1.0" encoding="utf-8" ?>
<kml xmlns="http://www.opengis.net/kml/2.2">
<Document id="root_doc">
<Schema name="30b9ee94" id="30b9ee94">
	<SimpleField name="type" type="string"></SimpleField>
	<SimpleField name="view" type="string"></SimpleField>
	<SimpleField name="leveling_order" type="string"></SimpleField>
	<SimpleField name="leveling_height" type="string"></SimpleField>
	<SimpleField name="control_height" type="string"></SimpleField>
	<SimpleField name="benchmark_number" type="string"></SimpleField>
	<SimpleField name="control_location" type="string"></SimpleField>
	<SimpleField name="benchmark_type" type="string"></SimpleField>
	<SimpleField name="leveling_line_section" type="string"></SimpleField>
	<SimpleField name="location_description" type="string"></SimpleField>
	<SimpleField name="status" type="string"></SimpleField>
	<SimpleField name="guid" type="string"></SimpleField>
	<SimpleField name="kml" type="string"></SimpleField>
	<SimpleField name="kml_link" type="string"></SimpleField>
</Schema>
<Folder><name>30b9ee94</name>
  <Placemark id="30b9ee94.1">
	<name>87</name>
	<description>фунд. реп.</description>
	<ExtendedData><SchemaData schemaUrl="#30b9ee94">
		<SimpleData name="type">1</SimpleData>
		<SimpleData name="view">99.234</SimpleData>
		<SimpleData name="leveling_order">98,291</SimpleData>
		<SimpleData name="leveling_height">Контрольный репер №203 в фундаментной плите  </SimpleData>
		<SimpleData name="benchmark_number">104 оп</SimpleData>
		<SimpleData name="control_location">линия №1: Аральск - Семиозерное, I класс Участок: грунт.реп. 114 - грунт.реп. 11</SimpleData>
		<SimpleData name="benchmark_type">Сарысу, с., в 3,7 км к югу от него, в 1,7 км к юго-вост.от автодороги с покрытием, в 1,2 км к сев.вост.от развалин</SimpleData>
		<SimpleData name="location_description">30b9ee94-a2f2-404e-80f5-ff4247b8898a</SimpleData>
		<SimpleData name="status">data/stations/30b9ee94.kml</SimpleData>
		<SimpleData name="guid">&lt;a href='data/stations/30b9ee94.kml' target='_blank'&gt;Download KML&lt;/a&gt;</SimpleData>
	</SchemaData></ExtendedData>
      <Point><coordinates>63.7161899068757,49.8331724915387</coordinates></Point>
  </Placemark>
</Folder>
</Document></kml>
