<?xml version="1.0" encoding="utf-8" ?>
<kml xmlns="http://www.opengis.net/kml/2.2">
<Document id="root_doc">
<Schema name="30fe4568" id="30fe4568">
	<SimpleField name="title" type="string"></SimpleField>
	<SimpleField name="type" type="string"></SimpleField>
	<SimpleField name="ext_sign" type="string"></SimpleField>
	<SimpleField name="class_lvl" type="string"></SimpleField>
	<SimpleField name="height_lvl" type="string"></SimpleField>
	<SimpleField name="height_ctrl" type="string"></SimpleField>
	<SimpleField name="ctrl_place" type="string"></SimpleField>
	<SimpleField name="mark_num" type="string"></SimpleField>
	<SimpleField name="center_type" type="string"></SimpleField>
	<SimpleField name="lvl_line" type="string"></SimpleField>
	<SimpleField name="guid" type="string"></SimpleField>
</Schema>
<Folder><name>30fe4568</name>
  <Placemark id="30fe4568.1">
	<name>3064</name>
	<description>грунтовый репер</description>
	<ExtendedData><SchemaData schemaUrl="#30fe4568">
		<SimpleData name="type">1</SimpleData>
		<SimpleData name="ext_sign">115.955</SimpleData>
		<SimpleData name="class_lvl">114.825</SimpleData>
		<SimpleData name="height_lvl">контрольный репер № 5067 в верхней плоскости монолита</SimpleData>
		<SimpleData name="ctrl_place">121 оп. знак</SimpleData>
		<SimpleData name="mark_num">Линия №1 : Аральск - Тактайконыр, I класс. Участок: грунт. реп. 9144 - грунт. реп. 8047</SimpleData>
		<SimpleData name="center_type">Конысбай, зим., в 2.1 км к юго-зап. от нее, в 2.0 км к сев.-вост. от к. Торткудык и летника, в 36 м к вост. от полевой дороги</SimpleData>
		<SimpleData name="lvl_line">30fe4568-d14e-4257-91fd-4268c4e290aa</SimpleData>
	</SchemaData></ExtendedData>
      <Point><coordinates>61.4190703967073,47.7039096838683</coordinates></Point>
  </Placemark>
</Folder>
</Document></kml>
