<?xml version="1.0" encoding="utf-8" ?>
<kml xmlns="http://www.opengis.net/kml/2.2">
<Document id="root_doc">
<Schema name="323aacbc" id="323aacbc">
	<SimpleField name="type" type="string"></SimpleField>
	<SimpleField name="view" type="string"></SimpleField>
	<SimpleField name="leveling_order" type="string"></SimpleField>
	<SimpleField name="leveling_height" type="string"></SimpleField>
	<SimpleField name="control_height" type="string"></SimpleField>
	<SimpleField name="benchmark_number" type="string"></SimpleField>
	<SimpleField name="control_location" type="string"></SimpleField>
	<SimpleField name="benchmark_type" type="string"></SimpleField>
	<SimpleField name="leveling_line_section" type="string"></SimpleField>
	<SimpleField name="location_description" type="string"></SimpleField>
	<SimpleField name="status" type="string"></SimpleField>
	<SimpleField name="guid" type="string"></SimpleField>
	<SimpleField name="kml" type="string"></SimpleField>
	<SimpleField name="kml_link" type="string"></SimpleField>
</Schema>
<Folder><name>323aacbc</name>
  <Placemark id="323aacbc.1">
	<name>3246</name>
	<description>скальный реп.</description>
	<ExtendedData><SchemaData schemaUrl="#323aacbc">
		<SimpleData name="type">1</SimpleData>
		<SimpleData name="view">909.045</SimpleData>
		<SimpleData name="benchmark_number">99 оп</SimpleData>
		<SimpleData name="control_location">Линия № I: Каркаралиннск-Аягуз, I класс (1) Участок: грунт.реп.3998 - ск.реп.3442</SimpleData>
		<SimpleData name="benchmark_type">Татан, с., в 19.2 км к сев.-вост. от его центра, в 9.4 км к сев.-вост. от г.Тасшокы, в 2.0 км к юго-вост. от зим.Бекетбулак, в 1.7 км к сев.- зап. от разв., в 38 м к сев.-вост. от пол .дороги.</SimpleData>
		<SimpleData name="location_description">323aacbc-9660-4105-bf58-5f221dc26aed</SimpleData>
		<SimpleData name="status">data/stations/323aacbc.kml</SimpleData>
		<SimpleData name="guid">&lt;a href='data/stations/323aacbc.kml' target='_blank'&gt;Download KML&lt;/a&gt;</SimpleData>
	</SchemaData></ExtendedData>
      <Point><coordinates>76.9437435162027,48.7655219428328</coordinates></Point>
  </Placemark>
</Folder>
</Document></kml>
