<?xml version="1.0" encoding="utf-8" ?>
<kml xmlns="http://www.opengis.net/kml/2.2">
<Document id="root_doc">
<Schema name="336e9cc4" id="336e9cc4">
	<SimpleField name="title" type="string"></SimpleField>
	<SimpleField name="type" type="string"></SimpleField>
	<SimpleField name="ext_sign" type="string"></SimpleField>
	<SimpleField name="class_lvl" type="string"></SimpleField>
	<SimpleField name="height_lvl" type="string"></SimpleField>
	<SimpleField name="height_ctrl" type="string"></SimpleField>
	<SimpleField name="ctrl_place" type="string"></SimpleField>
	<SimpleField name="mark_num" type="string"></SimpleField>
	<SimpleField name="center_type" type="string"></SimpleField>
	<SimpleField name="lvl_line" type="string"></SimpleField>
	<SimpleField name="guid" type="string"></SimpleField>
</Schema>
<Folder><name>336e9cc4</name>
  <Placemark id="336e9cc4.1">
	<name>R024</name>
	<description>Ск.реп</description>
	<ExtendedData><SchemaData schemaUrl="#336e9cc4">
		<SimpleData name="height_ctrl">R024</SimpleData>
		<SimpleData name="ctrl_place">66</SimpleData>
		<SimpleData name="lvl_line">336e9cc4-40b4-456b-9e45-0fa0abaca8d4</SimpleData>
	</SchemaData></ExtendedData>
      <Point><coordinates>53.1136085634975,42.7653411949118</coordinates></Point>
  </Placemark>
</Folder>
</Document></kml>
