<?xml version="1.0" encoding="utf-8" ?>
<kml xmlns="http://www.opengis.net/kml/2.2">
<Document id="root_doc">
<Schema name="3425cc07" id="3425cc07">
	<SimpleField name="type" type="string"></SimpleField>
	<SimpleField name="view" type="string"></SimpleField>
	<SimpleField name="leveling_order" type="string"></SimpleField>
	<SimpleField name="leveling_height" type="string"></SimpleField>
	<SimpleField name="control_height" type="string"></SimpleField>
	<SimpleField name="benchmark_number" type="string"></SimpleField>
	<SimpleField name="control_location" type="string"></SimpleField>
	<SimpleField name="benchmark_type" type="string"></SimpleField>
	<SimpleField name="leveling_line_section" type="string"></SimpleField>
	<SimpleField name="location_description" type="string"></SimpleField>
	<SimpleField name="status" type="string"></SimpleField>
	<SimpleField name="guid" type="string"></SimpleField>
	<SimpleField name="kml" type="string"></SimpleField>
	<SimpleField name="kml_link" type="string"></SimpleField>
</Schema>
<Folder><name>3425cc07</name>
  <Placemark id="3425cc07.1">
	<name>8428</name>
	<name>грунтовый репер</name>
	<ExtendedData><SchemaData schemaUrl="#3425cc07">
		<SimpleData name="type">II</SimpleData>
		<SimpleData name="view">653,320</SimpleData>
		<SimpleData name="benchmark_number">160оп.</SimpleData>
		<SimpleData name="control_location">Линия № 4: Карасорский-Каркаралинск, II класс (3) Участок: грунтовый репер 9858 - фундаментальный репер 7349</SimpleData>
		<SimpleData name="benchmark_type">Коянды, с., в 4.0 км к юго-зап. от него, в 0.3 к м к зап. от дороги с.Коянды-с.Пригородное (Акжол), в 40 м к вост. от ЛЭП</SimpleData>
		<SimpleData name="location_description">3425cc07-1902-405d-b1a0-b82bc3ec45d5</SimpleData>
		<SimpleData name="status">data/stations/3425cc07.kml</SimpleData>
		<SimpleData name="guid">&lt;a href='data/stations/3425cc07.kml' target='_blank'&gt;Download KML&lt;/a&gt;</SimpleData>
	</SchemaData></ExtendedData>
      <Point><coordinates>75.6442849561615,49.8363964483778</coordinates></Point>
  </Placemark>
</Folder>
</Document></kml>
