<?xml version="1.0" encoding="utf-8" ?>
<kml xmlns="http://www.opengis.net/kml/2.2">
<Document id="root_doc">
<Schema name="34318ead" id="34318ead">
	<SimpleField name="type" type="string"></SimpleField>
	<SimpleField name="view" type="string"></SimpleField>
	<SimpleField name="leveling_order" type="string"></SimpleField>
	<SimpleField name="leveling_height" type="string"></SimpleField>
	<SimpleField name="control_height" type="string"></SimpleField>
	<SimpleField name="benchmark_number" type="string"></SimpleField>
	<SimpleField name="control_location" type="string"></SimpleField>
	<SimpleField name="benchmark_type" type="string"></SimpleField>
	<SimpleField name="leveling_line_section" type="string"></SimpleField>
	<SimpleField name="location_description" type="string"></SimpleField>
	<SimpleField name="status" type="string"></SimpleField>
	<SimpleField name="guid" type="string"></SimpleField>
	<SimpleField name="kml" type="string"></SimpleField>
	<SimpleField name="kml_link" type="string"></SimpleField>
</Schema>
<Folder><name>34318ead</name>
  <Placemark id="34318ead.1">
	<name>6382</name>
	<name>ск.реп.</name>
	<ExtendedData><SchemaData schemaUrl="#34318ead">
		<SimpleData name="type">2</SimpleData>
		<SimpleData name="view">2148.501</SimpleData>
		<SimpleData name="benchmark_number">99 оп</SimpleData>
		<SimpleData name="control_location">Участок: ск. реп. 1213-фунд. реп. 8659</SimpleData>
		<SimpleData name="benchmark_type">Асы, с., в 6.3 км к сев.-вост. от него, в 0.4 км к сев. от р. Асы, в 20 м к зап. от ручья</SimpleData>
		<SimpleData name="location_description">34318ead-bc7d-491f-968e-85b5242d1170</SimpleData>
		<SimpleData name="status">data/stations/34318ead.kml</SimpleData>
		<SimpleData name="guid">&lt;a href='data/stations/34318ead.kml' target='_blank'&gt;Download KML&lt;/a&gt;</SimpleData>
	</SchemaData></ExtendedData>
      <Point><coordinates>78.16444750187,43.3134426292891</coordinates></Point>
  </Placemark>
</Folder>
</Document></kml>
