<?xml version="1.0" encoding="utf-8" ?>
<kml xmlns="http://www.opengis.net/kml/2.2">
<Document id="root_doc">
<Schema name="34ae57d8" id="34ae57d8">
	<SimpleField name="title" type="string"></SimpleField>
	<SimpleField name="type" type="string"></SimpleField>
	<SimpleField name="ext_sign" type="string"></SimpleField>
	<SimpleField name="class_lvl" type="string"></SimpleField>
	<SimpleField name="height_lvl" type="string"></SimpleField>
	<SimpleField name="height_ctrl" type="string"></SimpleField>
	<SimpleField name="ctrl_place" type="string"></SimpleField>
	<SimpleField name="mark_num" type="string"></SimpleField>
	<SimpleField name="center_type" type="string"></SimpleField>
	<SimpleField name="lvl_line" type="string"></SimpleField>
	<SimpleField name="guid" type="string"></SimpleField>
</Schema>
<Folder><name>34ae57d8</name>
  <Placemark id="34ae57d8.1">
	<name>0749</name>
	<ExtendedData><SchemaData schemaUrl="#34ae57d8">
		<SimpleData name="title">грунтовый репер</SimpleData>
		<SimpleData name="type">2</SimpleData>
		<SimpleData name="ext_sign">442.229</SimpleData>
		<SimpleData name="ctrl_place">160 оп.знак</SimpleData>
		<SimpleData name="mark_num">Линия № 3: фунд. реп. 2723 -Аркарлы. II класс (2) Участок: фунд. реп. 2723 -грунт. реп. 9571 </SimpleData>
		<SimpleData name="center_type">Шалкия, с .. в 1.1 км к зап. от него, в 0.3 км к сев.-вост. от развилки шоссе с. Шалкия - с. Тасты - гор. Каражал, в 60 м к сев. от шоссе, в 20 м к сев. от трубопровода </SimpleData>
		<SimpleData name="lvl_line">34ae57d8-6f37-4614-9d56-dd66804e2971</SimpleData>
	</SchemaData></ExtendedData>
      <Point><coordinates>70.6333829679677,47.3409324298959</coordinates></Point>
  </Placemark>
</Folder>
</Document></kml>
