<?xml version="1.0" encoding="utf-8" ?>
<kml xmlns="http://www.opengis.net/kml/2.2">
<Document id="root_doc">
<Schema name="35282893" id="35282893">
	<SimpleField name="type" type="string"></SimpleField>
	<SimpleField name="view" type="string"></SimpleField>
	<SimpleField name="leveling_order" type="string"></SimpleField>
	<SimpleField name="leveling_height" type="string"></SimpleField>
	<SimpleField name="control_height" type="string"></SimpleField>
	<SimpleField name="benchmark_number" type="string"></SimpleField>
	<SimpleField name="control_location" type="string"></SimpleField>
	<SimpleField name="benchmark_type" type="string"></SimpleField>
	<SimpleField name="leveling_line_section" type="string"></SimpleField>
	<SimpleField name="location_description" type="string"></SimpleField>
	<SimpleField name="status" type="string"></SimpleField>
	<SimpleField name="guid" type="string"></SimpleField>
	<SimpleField name="kml" type="string"></SimpleField>
	<SimpleField name="kml_link" type="string"></SimpleField>
</Schema>
<Folder><name>35282893</name>
  <Placemark id="35282893.1">
	<name>4342</name>
	<description>грунт. реп.</description>
	<ExtendedData><SchemaData schemaUrl="#35282893">
		<SimpleData name="type">1</SimpleData>
		<SimpleData name="view">686.654</SimpleData>
		<SimpleData name="benchmark_number">160 оп</SimpleData>
		<SimpleData name="control_location">Участок: ск.реп.20341-фунд.реп.89</SimpleData>
		<SimpleData name="benchmark_type">Бурма, с., в 0.5 км к юго- вост. от него, на 6 ПК 844 км, в 20 м к сев.-вост. от ж.д. полотна</SimpleData>
		<SimpleData name="location_description">35282893-66b1-410e-83d9-c18c8d84a5af</SimpleData>
		<SimpleData name="status">data/stations/35282893.kml</SimpleData>
		<SimpleData name="guid">&lt;a href='data/stations/35282893.kml' target='_blank'&gt;Download KML&lt;/a&gt;</SimpleData>
	</SchemaData></ExtendedData>
      <Point><coordinates>72.8462830193821,48.93270646832</coordinates></Point>
  </Placemark>
</Folder>
</Document></kml>
