<?xml version="1.0" encoding="utf-8" ?>
<kml xmlns="http://www.opengis.net/kml/2.2">
<Document id="root_doc">
<Schema name="3542fb6e" id="3542fb6e">
	<SimpleField name="title" type="string"></SimpleField>
	<SimpleField name="type" type="string"></SimpleField>
	<SimpleField name="ext_sign" type="string"></SimpleField>
	<SimpleField name="class_lvl" type="string"></SimpleField>
	<SimpleField name="height_lvl" type="string"></SimpleField>
	<SimpleField name="height_ctrl" type="string"></SimpleField>
	<SimpleField name="ctrl_place" type="string"></SimpleField>
	<SimpleField name="mark_num" type="string"></SimpleField>
	<SimpleField name="center_type" type="string"></SimpleField>
	<SimpleField name="lvl_line" type="string"></SimpleField>
	<SimpleField name="guid" type="string"></SimpleField>
</Schema>
<Folder><name>3542fb6e</name>
  <Placemark id="3542fb6e.1">
	<name>5935</name>
	<ExtendedData><SchemaData schemaUrl="#3542fb6e">
		<SimpleData name="lvl_line">3542fb6e-1549-4469-9f53-a2304417b67e</SimpleData>
	</SchemaData></ExtendedData>
      <Point><coordinates>81.22331,49.235485</coordinates></Point>
  </Placemark>
</Folder>
</Document></kml>
