<?xml version="1.0" encoding="utf-8" ?>
<kml xmlns="http://www.opengis.net/kml/2.2">
<Document id="root_doc">
<Schema name="35bd2c6c" id="35bd2c6c">
	<SimpleField name="type" type="string"></SimpleField>
	<SimpleField name="view" type="string"></SimpleField>
	<SimpleField name="leveling_order" type="string"></SimpleField>
	<SimpleField name="leveling_height" type="string"></SimpleField>
	<SimpleField name="control_height" type="string"></SimpleField>
	<SimpleField name="benchmark_number" type="string"></SimpleField>
	<SimpleField name="control_location" type="string"></SimpleField>
	<SimpleField name="benchmark_type" type="string"></SimpleField>
	<SimpleField name="leveling_line_section" type="string"></SimpleField>
	<SimpleField name="location_description" type="string"></SimpleField>
	<SimpleField name="status" type="string"></SimpleField>
	<SimpleField name="guid" type="string"></SimpleField>
	<SimpleField name="kml" type="string"></SimpleField>
	<SimpleField name="kml_link" type="string"></SimpleField>
</Schema>
<Folder><name>35bd2c6c</name>
  <Placemark id="35bd2c6c.1">
	<name>536</name>
	<name>грунт. реп.</name>
	<ExtendedData><SchemaData schemaUrl="#35bd2c6c">
		<SimpleData name="type">2</SimpleData>
		<SimpleData name="view">104.355</SimpleData>
		<SimpleData name="benchmark_number">160 оп</SimpleData>
		<SimpleData name="control_location">Линия №3:  Развалины Пикета №8 - Сарысу. 2 класс. Участок: фунд.реп.. 520 - грунт.реп. 1842</SimpleData>
		<SimpleData name="benchmark_type">Кумколь. вахт.пос.. в 10.0 км к зап.от него. в 2.3 км к сев.от арт.к. Мустафа 2-й. в 0.2 км к вост.от такыра. в 36 м к сев.от полевой дороги</SimpleData>
		<SimpleData name="location_description">35bd2c6c-4044-43a9-b162-df7908604b9d</SimpleData>
		<SimpleData name="status">data/stations/35bd2c6c.kml</SimpleData>
		<SimpleData name="guid">&lt;a href='data/stations/35bd2c6c.kml' target='_blank'&gt;Download KML&lt;/a&gt;</SimpleData>
	</SchemaData></ExtendedData>
      <Point><coordinates>65.5901567008269,46.3926561697005</coordinates></Point>
  </Placemark>
</Folder>
</Document></kml>
