<?xml version="1.0" encoding="utf-8" ?>
<kml xmlns="http://www.opengis.net/kml/2.2">
<Document id="root_doc">
<Schema name="35f08c4f" id="35f08c4f">
	<SimpleField name="title" type="string"></SimpleField>
	<SimpleField name="type" type="string"></SimpleField>
	<SimpleField name="ext_sign" type="string"></SimpleField>
	<SimpleField name="class_lvl" type="string"></SimpleField>
	<SimpleField name="height_lvl" type="string"></SimpleField>
	<SimpleField name="height_ctrl" type="string"></SimpleField>
	<SimpleField name="ctrl_place" type="string"></SimpleField>
	<SimpleField name="mark_num" type="string"></SimpleField>
	<SimpleField name="center_type" type="string"></SimpleField>
	<SimpleField name="lvl_line" type="string"></SimpleField>
	<SimpleField name="guid" type="string"></SimpleField>
</Schema>
<Folder><name>35f08c4f</name>
  <Placemark id="35f08c4f.1">
	<name>z5</name>
	<description>грунтовый репер</description>
	<ExtendedData><SchemaData schemaUrl="#35f08c4f">
		<SimpleData name="lvl_line">35f08c4f-a555-4fa9-b9b9-c005b4cbeafb</SimpleData>
	</SchemaData></ExtendedData>
      <Point><coordinates>49.0081167839555,46.8745334560845</coordinates></Point>
  </Placemark>
</Folder>
</Document></kml>
