<?xml version="1.0" encoding="utf-8" ?>
<kml xmlns="http://www.opengis.net/kml/2.2">
<Document id="root_doc">
<Schema name="36d38cb9" id="36d38cb9">
	<SimpleField name="type" type="string"></SimpleField>
	<SimpleField name="view" type="string"></SimpleField>
	<SimpleField name="leveling_order" type="string"></SimpleField>
	<SimpleField name="leveling_height" type="string"></SimpleField>
	<SimpleField name="control_height" type="string"></SimpleField>
	<SimpleField name="benchmark_number" type="string"></SimpleField>
	<SimpleField name="control_location" type="string"></SimpleField>
	<SimpleField name="benchmark_type" type="string"></SimpleField>
	<SimpleField name="leveling_line_section" type="string"></SimpleField>
	<SimpleField name="location_description" type="string"></SimpleField>
	<SimpleField name="status" type="string"></SimpleField>
	<SimpleField name="guid" type="string"></SimpleField>
	<SimpleField name="kml" type="string"></SimpleField>
	<SimpleField name="kml_link" type="string"></SimpleField>
</Schema>
<Folder><name>36d38cb9</name>
  <Placemark id="36d38cb9.1">
	<name>3266</name>
	<name>ск.реп.</name>
	<ExtendedData><SchemaData schemaUrl="#36d38cb9">
		<SimpleData name="type">2</SimpleData>
		<SimpleData name="view">2763.72</SimpleData>
		<SimpleData name="benchmark_number">99 оп</SimpleData>
		<SimpleData name="control_location">Линия № 12: Беловодск-Курметы, II класс, Участок: фунд. реп. 143-фунд. реп. 7959</SimpleData>
		<SimpleData name="benchmark_type">Курметы, с., в 15.5 км к сев. от него, в 0.6 км к югу от опушки леса, в большом валуне</SimpleData>
		<SimpleData name="location_description">36d38cb9-cf39-408a-af4f-efd9a4690c66</SimpleData>
		<SimpleData name="status">data/stations/36d38cb9.kml</SimpleData>
		<SimpleData name="guid">&lt;a href='data/stations/36d38cb9.kml' target='_blank'&gt;Download KML&lt;/a&gt;</SimpleData>
	</SchemaData></ExtendedData>
      <Point><coordinates>78.2380556961253,42.9390145520801</coordinates></Point>
  </Placemark>
</Folder>
</Document></kml>
