<?xml version="1.0" encoding="utf-8" ?>
<kml xmlns="http://www.opengis.net/kml/2.2">
<Document id="root_doc">
<Schema name="3730b483" id="3730b483">
	<SimpleField name="type" type="string"></SimpleField>
	<SimpleField name="view" type="string"></SimpleField>
	<SimpleField name="leveling_order" type="string"></SimpleField>
	<SimpleField name="leveling_height" type="string"></SimpleField>
	<SimpleField name="control_height" type="string"></SimpleField>
	<SimpleField name="benchmark_number" type="string"></SimpleField>
	<SimpleField name="control_location" type="string"></SimpleField>
	<SimpleField name="benchmark_type" type="string"></SimpleField>
	<SimpleField name="leveling_line_section" type="string"></SimpleField>
	<SimpleField name="location_description" type="string"></SimpleField>
	<SimpleField name="status" type="string"></SimpleField>
	<SimpleField name="guid" type="string"></SimpleField>
	<SimpleField name="kml" type="string"></SimpleField>
	<SimpleField name="kml_link" type="string"></SimpleField>
</Schema>
<Folder><name>3730b483</name>
  <Placemark id="3730b483.1">
	<name>8048</name>
	<name>фундаментальный репер</name>
	<ExtendedData><SchemaData schemaUrl="#3730b483">
		<SimpleData name="type">2</SimpleData>
		<SimpleData name="view">367,134</SimpleData>
		<SimpleData name="leveling_height">366,394</SimpleData>
		<SimpleData name="benchmark_number">в фундаментной плите</SimpleData>
		<SimpleData name="control_location">Линия № 1: Жезказган - Сарысу. II класс (1) Участок: грунт, реп. 683 - грунт, реп. 626</SimpleData>
		<SimpleData name="benchmark_type">Мустафакудук, к., в 14.9 км к сев. от него, в 11.4 км к  югу от линии связи, в 10 м к вост. от полевой дороги</SimpleData>
		<SimpleData name="location_description">3730b483-590f-4d82-bff1-a53a29079d16</SimpleData>
		<SimpleData name="status">data/stations/3730b483.kml</SimpleData>
		<SimpleData name="guid">&lt;a href='data/stations/3730b483.kml' target='_blank'&gt;Download KML&lt;/a&gt;</SimpleData>
	</SchemaData></ExtendedData>
      <Point><coordinates>67.6982736455195,47.2492287053219</coordinates></Point>
  </Placemark>
</Folder>
</Document></kml>
