<?xml version="1.0" encoding="utf-8" ?>
<kml xmlns="http://www.opengis.net/kml/2.2">
<Document id="root_doc">
<Schema name="37a18be1" id="37a18be1">
	<SimpleField name="type" type="string"></SimpleField>
	<SimpleField name="view" type="string"></SimpleField>
	<SimpleField name="leveling_order" type="string"></SimpleField>
	<SimpleField name="leveling_height" type="string"></SimpleField>
	<SimpleField name="control_height" type="string"></SimpleField>
	<SimpleField name="benchmark_number" type="string"></SimpleField>
	<SimpleField name="control_location" type="string"></SimpleField>
	<SimpleField name="benchmark_type" type="string"></SimpleField>
	<SimpleField name="leveling_line_section" type="string"></SimpleField>
	<SimpleField name="location_description" type="string"></SimpleField>
	<SimpleField name="status" type="string"></SimpleField>
	<SimpleField name="guid" type="string"></SimpleField>
	<SimpleField name="kml" type="string"></SimpleField>
	<SimpleField name="kml_link" type="string"></SimpleField>
</Schema>
<Folder><name>37a18be1</name>
  <Placemark id="37a18be1.1">
	<name>391</name>
	<name>фунд. реп.</name>
	<ExtendedData><SchemaData schemaUrl="#37a18be1">
		<SimpleData name="type">1</SimpleData>
		<SimpleData name="view">328.206</SimpleData>
		<SimpleData name="leveling_order">327,434</SimpleData>
		<SimpleData name="control_height">репер № 1654 в фундаментной плите</SimpleData>
		<SimpleData name="benchmark_number">104</SimpleData>
		<SimpleData name="control_location">Линия № 1: Жангиз-Тобе-Локоть, I класс (1) Участок: марка 20128-марка 20077</SimpleData>
		<SimpleData name="benchmark_type">Разъезд № 6, в 3.0 км к юго-вост. от него, на 1 пикете 106 км, в 0.1 км вост. от км стб. 105/106, в 70 м к сев.-вост. от жел.-дор. полотна</SimpleData>
		<SimpleData name="leveling_line_section">утрачен по объекту F.07.13.4233</SimpleData>
		<SimpleData name="location_description">37a18be1-60d5-4133-99f1-af5769df6a54</SimpleData>
		<SimpleData name="status">data/stations/37a18be1.kml</SimpleData>
		<SimpleData name="guid">&lt;a href='data/stations/37a18be1.kml' target='_blank'&gt;Download KML&lt;/a&gt;</SimpleData>
	</SchemaData></ExtendedData>
      <Point><coordinates>80.9939277151256,49.6350277435309</coordinates></Point>
  </Placemark>
</Folder>
</Document></kml>
