<?xml version="1.0" encoding="utf-8" ?>
<kml xmlns="http://www.opengis.net/kml/2.2">
<Document id="root_doc">
<Schema name="37bb2bd0" id="37bb2bd0">
	<SimpleField name="title" type="string"></SimpleField>
	<SimpleField name="type" type="string"></SimpleField>
	<SimpleField name="ext_sign" type="string"></SimpleField>
	<SimpleField name="class_lvl" type="string"></SimpleField>
	<SimpleField name="height_lvl" type="string"></SimpleField>
	<SimpleField name="height_ctrl" type="string"></SimpleField>
	<SimpleField name="ctrl_place" type="string"></SimpleField>
	<SimpleField name="mark_num" type="string"></SimpleField>
	<SimpleField name="center_type" type="string"></SimpleField>
	<SimpleField name="lvl_line" type="string"></SimpleField>
	<SimpleField name="guid" type="string"></SimpleField>
</Schema>
<Folder><name>37bb2bd0</name>
  <Placemark id="37bb2bd0.1">
	<name>425</name>
	<description>фундаментальный репер</description>
	<ExtendedData><SchemaData schemaUrl="#37bb2bd0">
		<SimpleData name="title">1фунд.р</SimpleData>
		<SimpleData name="lvl_line">37bb2bd0-5598-4b51-b964-eca6972ace0b</SimpleData>
	</SchemaData></ExtendedData>
      <Point><coordinates>57.4291316666667,49.4461283333333</coordinates></Point>
  </Placemark>
</Folder>
</Document></kml>
