<?xml version="1.0" encoding="utf-8" ?>
<kml xmlns="http://www.opengis.net/kml/2.2">
<Document id="root_doc">
<Schema name="380ca99d" id="380ca99d">
	<SimpleField name="type" type="string"></SimpleField>
	<SimpleField name="view" type="string"></SimpleField>
	<SimpleField name="leveling_order" type="string"></SimpleField>
	<SimpleField name="leveling_height" type="string"></SimpleField>
	<SimpleField name="control_height" type="string"></SimpleField>
	<SimpleField name="benchmark_number" type="string"></SimpleField>
	<SimpleField name="control_location" type="string"></SimpleField>
	<SimpleField name="benchmark_type" type="string"></SimpleField>
	<SimpleField name="leveling_line_section" type="string"></SimpleField>
	<SimpleField name="location_description" type="string"></SimpleField>
	<SimpleField name="status" type="string"></SimpleField>
	<SimpleField name="guid" type="string"></SimpleField>
	<SimpleField name="kml" type="string"></SimpleField>
	<SimpleField name="kml_link" type="string"></SimpleField>
</Schema>
<Folder><name>380ca99d</name>
  <Placemark id="380ca99d.1">
	<name>7054</name>
	<description>грунт.реп.</description>
	<ExtendedData><SchemaData schemaUrl="#380ca99d">
		<SimpleData name="type">1</SimpleData>
		<SimpleData name="view">99,967</SimpleData>
		<SimpleData name="leveling_order">98,849</SimpleData>
		<SimpleData name="leveling_height">Контрольный репер№9313 в верхней плоскости монолита</SimpleData>
		<SimpleData name="benchmark_number">121</SimpleData>
		<SimpleData name="control_location">Линия №3: Иргиз-Аральск (Аральское море),          Участок: грунт.реп. 77-грунт.реп. 9212,      I класс. </SimpleData>
		<SimpleData name="benchmark_type">Ыргыз, с.,в 10.1 км к юго-зап.от него, в 80 м к сев. от такыра, в 60 м к зап. От дороги гор.Аральск - с. Куттыколь</SimpleData>
		<SimpleData name="location_description">380ca99d-3330-403f-8c22-75bf307e2165</SimpleData>
		<SimpleData name="status">data/stations/380ca99d.kml</SimpleData>
		<SimpleData name="guid">&lt;a href='data/stations/380ca99d.kml' target='_blank'&gt;Download KML&lt;/a&gt;</SimpleData>
	</SchemaData></ExtendedData>
      <Point><coordinates>61.2430138883003,48.5262678477194</coordinates></Point>
  </Placemark>
</Folder>
</Document></kml>
