<?xml version="1.0" encoding="utf-8" ?>
<kml xmlns="http://www.opengis.net/kml/2.2">
<Document id="root_doc">
<Schema name="3918defe" id="3918defe">
	<SimpleField name="title" type="string"></SimpleField>
	<SimpleField name="type" type="string"></SimpleField>
	<SimpleField name="ext_sign" type="string"></SimpleField>
	<SimpleField name="class_lvl" type="string"></SimpleField>
	<SimpleField name="height_lvl" type="string"></SimpleField>
	<SimpleField name="height_ctrl" type="string"></SimpleField>
	<SimpleField name="ctrl_place" type="string"></SimpleField>
	<SimpleField name="mark_num" type="string"></SimpleField>
	<SimpleField name="center_type" type="string"></SimpleField>
	<SimpleField name="lvl_line" type="string"></SimpleField>
	<SimpleField name="guid" type="string"></SimpleField>
</Schema>
<Folder><name>3918defe</name>
  <Placemark id="3918defe.1">
	<name>Закладка </name>
	<ExtendedData><SchemaData schemaUrl="#3918defe">
		<SimpleData name="lvl_line">3918defe-a83d-4cb4-bb12-85051456b23c</SimpleData>
	</SchemaData></ExtendedData>
      <Point><coordinates>64.3728648780924,48.1897926255922</coordinates></Point>
  </Placemark>
</Folder>
</Document></kml>
