<?xml version="1.0" encoding="utf-8" ?>
<kml xmlns="http://www.opengis.net/kml/2.2">
<Document id="root_doc">
<Schema name="395f2934" id="395f2934">
	<SimpleField name="type" type="string"></SimpleField>
	<SimpleField name="view" type="string"></SimpleField>
	<SimpleField name="leveling_order" type="string"></SimpleField>
	<SimpleField name="leveling_height" type="string"></SimpleField>
	<SimpleField name="control_height" type="string"></SimpleField>
	<SimpleField name="benchmark_number" type="string"></SimpleField>
	<SimpleField name="control_location" type="string"></SimpleField>
	<SimpleField name="benchmark_type" type="string"></SimpleField>
	<SimpleField name="leveling_line_section" type="string"></SimpleField>
	<SimpleField name="location_description" type="string"></SimpleField>
	<SimpleField name="status" type="string"></SimpleField>
	<SimpleField name="guid" type="string"></SimpleField>
	<SimpleField name="kml" type="string"></SimpleField>
	<SimpleField name="kml_link" type="string"></SimpleField>
</Schema>
<Folder><name>395f2934</name>
  <Placemark id="395f2934.1">
	<name>18</name>
	<description>грунт. реп.</description>
	<ExtendedData><SchemaData schemaUrl="#395f2934">
		<SimpleData name="type">1</SimpleData>
		<SimpleData name="view">635.2</SimpleData>
		<SimpleData name="leveling_order">632,396</SimpleData>
		<SimpleData name="control_height">контрольный репер №17 в верхней плоскости  монолита</SimpleData>
		<SimpleData name="benchmark_number">123</SimpleData>
		<SimpleData name="control_location">Линия №1: Ульяновский - Каркаралинск, I класс (1) Участок: грунт. реп.12 - фунд. реп.19</SimpleData>
		<SimpleData name="benchmark_type">Рыбинское, с., в 5,2 км к зап. от него, в 2,8 км к зап. от оз. Ащыколь, в 97 м к сев. от шоссе с. Хорошевское - с. Рыбинское </SimpleData>
		<SimpleData name="leveling_line_section">утрачен по тех.отчету </SimpleData>
		<SimpleData name="location_description">395f2934-b257-47f8-a815-53efe0a4e24d</SimpleData>
		<SimpleData name="status">data/stations/395f2934.kml</SimpleData>
		<SimpleData name="guid">&lt;a href='data/stations/395f2934.kml' target='_blank'&gt;Download KML&lt;/a&gt;</SimpleData>
	</SchemaData></ExtendedData>
      <Point><coordinates>74.4982849788594,50.0258972406474</coordinates></Point>
  </Placemark>
</Folder>
</Document></kml>
