<?xml version="1.0" encoding="utf-8" ?>
<kml xmlns="http://www.opengis.net/kml/2.2">
<Document id="root_doc">
<Schema name="398c3038" id="398c3038">
	<SimpleField name="type" type="string"></SimpleField>
	<SimpleField name="view" type="string"></SimpleField>
	<SimpleField name="leveling_order" type="string"></SimpleField>
	<SimpleField name="leveling_height" type="string"></SimpleField>
	<SimpleField name="control_height" type="string"></SimpleField>
	<SimpleField name="benchmark_number" type="string"></SimpleField>
	<SimpleField name="control_location" type="string"></SimpleField>
	<SimpleField name="benchmark_type" type="string"></SimpleField>
	<SimpleField name="leveling_line_section" type="string"></SimpleField>
	<SimpleField name="location_description" type="string"></SimpleField>
	<SimpleField name="status" type="string"></SimpleField>
	<SimpleField name="guid" type="string"></SimpleField>
	<SimpleField name="kml" type="string"></SimpleField>
	<SimpleField name="kml_link" type="string"></SimpleField>
</Schema>
<Folder><name>398c3038</name>
  <Placemark id="398c3038.1">
	<name>174</name>
	<name>грунт.реп</name>
	<ExtendedData><SchemaData schemaUrl="#398c3038">
		<SimpleData name="type">2</SimpleData>
		<SimpleData name="view">321.625</SimpleData>
		<SimpleData name="leveling_height">320.512</SimpleData>
		<SimpleData name="benchmark_number">репер в верзхней плоскости монолита</SimpleData>
		<SimpleData name="control_location">Линия № 1:Сузак- Коскызыл, 2 класс (1), Участок: грунт.реп.7355-грунт.реп.б/№ (202)</SimpleData>
		<SimpleData name="benchmark_type">ленино, с., в 4.5 км к зап.от него, в 1.8 км к югу от.Жумалакколь, в 72 м к югу от шоссе с.Чулаккурген-с.Байкадам</SimpleData>
		<SimpleData name="leveling_line_section">утрачен</SimpleData>
		<SimpleData name="location_description">398c3038-a626-4830-a546-2cb2aea42c62</SimpleData>
		<SimpleData name="status">data/stations/398c3038.kml</SimpleData>
		<SimpleData name="guid">&lt;a href='data/stations/398c3038.kml' target='_blank'&gt;Download KML&lt;/a&gt;</SimpleData>
	</SchemaData></ExtendedData>
      <Point><coordinates>69.7175995234395,43.7484902173865</coordinates></Point>
  </Placemark>
</Folder>
</Document></kml>
