<?xml version="1.0" encoding="utf-8" ?>
<kml xmlns="http://www.opengis.net/kml/2.2">
<Document id="root_doc">
<Schema name="39adc179" id="39adc179">
	<SimpleField name="type" type="string"></SimpleField>
	<SimpleField name="view" type="string"></SimpleField>
	<SimpleField name="leveling_order" type="string"></SimpleField>
	<SimpleField name="leveling_height" type="string"></SimpleField>
	<SimpleField name="control_height" type="string"></SimpleField>
	<SimpleField name="benchmark_number" type="string"></SimpleField>
	<SimpleField name="control_location" type="string"></SimpleField>
	<SimpleField name="benchmark_type" type="string"></SimpleField>
	<SimpleField name="leveling_line_section" type="string"></SimpleField>
	<SimpleField name="location_description" type="string"></SimpleField>
	<SimpleField name="status" type="string"></SimpleField>
	<SimpleField name="guid" type="string"></SimpleField>
	<SimpleField name="kml" type="string"></SimpleField>
	<SimpleField name="kml_link" type="string"></SimpleField>
</Schema>
<Folder><name>39adc179</name>
  <Placemark id="39adc179.1">
	<name>90</name>
	<description>фунд.репер</description>
	<ExtendedData><SchemaData schemaUrl="#39adc179">
		<SimpleData name="type">1</SimpleData>
		<SimpleData name="view">86.098</SimpleData>
		<SimpleData name="leveling_order">85.112</SimpleData>
		<SimpleData name="leveling_height">Контрольный репер №206 в фундаментной плите</SimpleData>
		<SimpleData name="benchmark_number">104</SimpleData>
		<SimpleData name="control_location">Линия №1 Наурзум (Аксуат) -Иргиз Участок фунд.реп.89 -грунт.реп.30 </SimpleData>
		<SimpleData name="benchmark_type">Свх.им.XXI партсъезда,в 3.0 км к сев.-вост.от него,в 80 м к югу от дороги с.Тургай -с.Иргиз,в 57 м к юго-вост.от тлф.стб.</SimpleData>
		<SimpleData name="location_description">39adc179-a721-4760-82df-c83821fdc173</SimpleData>
		<SimpleData name="status">data/stations/39adc179.kml</SimpleData>
		<SimpleData name="guid">&lt;a href='data/stations/39adc179.kml' target='_blank'&gt;Download KML&lt;/a&gt;</SimpleData>
	</SchemaData></ExtendedData>
      <Point><coordinates>62.7515286859828,49.2920533008643</coordinates></Point>
  </Placemark>
</Folder>
</Document></kml>
