<?xml version="1.0" encoding="utf-8" ?>
<kml xmlns="http://www.opengis.net/kml/2.2">
<Document id="root_doc">
<Schema name="3a7f0ca6" id="3a7f0ca6">
	<SimpleField name="title" type="string"></SimpleField>
	<SimpleField name="type" type="string"></SimpleField>
	<SimpleField name="ext_sign" type="string"></SimpleField>
	<SimpleField name="class_lvl" type="string"></SimpleField>
	<SimpleField name="height_lvl" type="string"></SimpleField>
	<SimpleField name="height_ctrl" type="string"></SimpleField>
	<SimpleField name="ctrl_place" type="string"></SimpleField>
	<SimpleField name="mark_num" type="string"></SimpleField>
	<SimpleField name="center_type" type="string"></SimpleField>
	<SimpleField name="lvl_line" type="string"></SimpleField>
	<SimpleField name="guid" type="string"></SimpleField>
</Schema>
<Folder><name>3a7f0ca6</name>
  <Placemark id="3a7f0ca6.1">
	<name>5243</name>
	<description>грунтовый репер</description>
	<ExtendedData><SchemaData schemaUrl="#3a7f0ca6">
		<SimpleData name="title">грунт. реп.</SimpleData>
		<SimpleData name="type">2</SimpleData>
		<SimpleData name="ext_sign">57.239</SimpleData>
		<SimpleData name="ctrl_place">160 оп. знак</SimpleData>
		<SimpleData name="mark_num">Линия №1: Аральск - Коккабак, II класс. Участок: грунт. реп. 9049 - грунт. реп. 2665</SimpleData>
		<SimpleData name="center_type">Жаксыкылыш, с., в 18.9 км к сев.-вост. от него, в 1.2 км к сев.-вост. от кладб. Жанаберген, в 0.1 км к сев.-зап. от развилки полевой дороги</SimpleData>
		<SimpleData name="lvl_line">3a7f0ca6-73ac-4f94-86eb-9aa0c904efc4</SimpleData>
	</SchemaData></ExtendedData>
      <Point><coordinates>62.1757932818003,46.8979579118146</coordinates></Point>
  </Placemark>
</Folder>
</Document></kml>
