<?xml version="1.0" encoding="utf-8" ?>
<kml xmlns="http://www.opengis.net/kml/2.2">
<Document id="root_doc">
<Schema name="3aac3d86" id="3aac3d86">
	<SimpleField name="type" type="string"></SimpleField>
	<SimpleField name="view" type="string"></SimpleField>
	<SimpleField name="leveling_order" type="string"></SimpleField>
	<SimpleField name="leveling_height" type="string"></SimpleField>
	<SimpleField name="control_height" type="string"></SimpleField>
	<SimpleField name="benchmark_number" type="string"></SimpleField>
	<SimpleField name="control_location" type="string"></SimpleField>
	<SimpleField name="benchmark_type" type="string"></SimpleField>
	<SimpleField name="leveling_line_section" type="string"></SimpleField>
	<SimpleField name="location_description" type="string"></SimpleField>
	<SimpleField name="status" type="string"></SimpleField>
	<SimpleField name="guid" type="string"></SimpleField>
	<SimpleField name="kml" type="string"></SimpleField>
	<SimpleField name="kml_link" type="string"></SimpleField>
</Schema>
<Folder><name>3aac3d86</name>
  <Placemark id="3aac3d86.1">
	<name>7508</name>
	<name>грунтовый репер</name>
	<ExtendedData><SchemaData schemaUrl="#3aac3d86">
		<SimpleData name="type">1</SimpleData>
		<SimpleData name="view">132.042</SimpleData>
		<SimpleData name="benchmark_number">160 оп, знак</SimpleData>
		<SimpleData name="control_location">Линия № 1: Кызылорда - Торыустаган, 1 класс (11
Участок: грунт, реп, 6294 - грунт, реп, 774</SimpleData>
		<SimpleData name="benchmark_type">Жангызжар, разв,, в 1,2 км к сев,-вост, от них, в 0,7 км к сев,-вост, от кладб, Карманбай, у полевой дороги</SimpleData>
		<SimpleData name="location_description">3aac3d86-fa15-40e3-94c8-4cada3de3392</SimpleData>
		<SimpleData name="status">data/stations/3aac3d86.kml</SimpleData>
		<SimpleData name="guid">&lt;a href='data/stations/3aac3d86.kml' target='_blank'&gt;Download KML&lt;/a&gt;</SimpleData>
	</SchemaData></ExtendedData>
      <Point><coordinates>66.0322014368753,44.812912336364</coordinates></Point>
  </Placemark>
</Folder>
</Document></kml>
