<?xml version="1.0" encoding="utf-8" ?>
<kml xmlns="http://www.opengis.net/kml/2.2">
<Document id="root_doc">
<Schema name="3ab38476" id="3ab38476">
	<SimpleField name="title" type="string"></SimpleField>
	<SimpleField name="type" type="string"></SimpleField>
	<SimpleField name="ext_sign" type="string"></SimpleField>
	<SimpleField name="class_lvl" type="string"></SimpleField>
	<SimpleField name="height_lvl" type="string"></SimpleField>
	<SimpleField name="height_ctrl" type="string"></SimpleField>
	<SimpleField name="ctrl_place" type="string"></SimpleField>
	<SimpleField name="mark_num" type="string"></SimpleField>
	<SimpleField name="center_type" type="string"></SimpleField>
	<SimpleField name="lvl_line" type="string"></SimpleField>
	<SimpleField name="guid" type="string"></SimpleField>
</Schema>
<Folder><name>3ab38476</name>
  <Placemark id="3ab38476.1">
	<name>Высокий</name>
	<description>пир.</description>
	<ExtendedData><SchemaData schemaUrl="#3ab38476">
		<SimpleData name="type">2</SimpleData>
		<SimpleData name="ext_sign">134.984</SimpleData>
		<SimpleData name="ctrl_place">78</SimpleData>
		<SimpleData name="mark_num">Линия: фунд. ск. реп.Б/№ - грунт.реп. 15109, II класс (1,2) Участок:  грунт.реп. 18490 - грунт.реп. 13383 (2)</SimpleData>
		<SimpleData name="center_type">к. Бейнелес, в 6,8 км к сев.-зап. от него, в 3,7 км к сев.-вост. от к. Казыгул, у полевой дороги</SimpleData>
		<SimpleData name="lvl_line">3ab38476-44a6-44fd-b221-f8db9d59137e</SimpleData>
	</SchemaData></ExtendedData>
      <Point><coordinates>55.0494643132283,44.400961439876</coordinates></Point>
  </Placemark>
</Folder>
</Document></kml>
