<?xml version="1.0" encoding="utf-8" ?>
<kml xmlns="http://www.opengis.net/kml/2.2">
<Document id="root_doc">
<Schema name="3ac92989" id="3ac92989">
	<SimpleField name="type" type="string"></SimpleField>
	<SimpleField name="view" type="string"></SimpleField>
	<SimpleField name="leveling_order" type="string"></SimpleField>
	<SimpleField name="leveling_height" type="string"></SimpleField>
	<SimpleField name="control_height" type="string"></SimpleField>
	<SimpleField name="benchmark_number" type="string"></SimpleField>
	<SimpleField name="control_location" type="string"></SimpleField>
	<SimpleField name="benchmark_type" type="string"></SimpleField>
	<SimpleField name="leveling_line_section" type="string"></SimpleField>
	<SimpleField name="location_description" type="string"></SimpleField>
	<SimpleField name="status" type="string"></SimpleField>
	<SimpleField name="guid" type="string"></SimpleField>
	<SimpleField name="kml" type="string"></SimpleField>
	<SimpleField name="kml_link" type="string"></SimpleField>
</Schema>
<Folder><name>3ac92989</name>
  <Placemark id="3ac92989.1">
	<name>277</name>
	<name>грунт.реп.</name>
	<ExtendedData><SchemaData schemaUrl="#3ac92989">
		<SimpleData name="type">2</SimpleData>
		<SimpleData name="view">247.024</SimpleData>
		<SimpleData name="leveling_order">245.296</SimpleData>
		<SimpleData name="benchmark_number">118 оп</SimpleData>
		<SimpleData name="control_location">Линия №2: Сарысай-Челкар. II класс. Участок: грунт.реп. 277-фунд.реп. 1</SimpleData>
		<SimpleData name="benchmark_type">Ыргыз. с.. в 64.0 км к юго-зап. от него. в 2.3 км к югу от кладб.Айтымамбет.в 0.2 км к вост.от пол.дороги</SimpleData>
		<SimpleData name="location_description">3ac92989-189d-4959-a3ed-e02fe7df2136</SimpleData>
		<SimpleData name="status">data/stations/3ac92989.kml</SimpleData>
		<SimpleData name="guid">&lt;a href='data/stations/3ac92989.kml' target='_blank'&gt;Download KML&lt;/a&gt;</SimpleData>
	</SchemaData></ExtendedData>
      <Point><coordinates>60.5283306032081,48.3827265059531</coordinates></Point>
  </Placemark>
</Folder>
</Document></kml>
