<?xml version="1.0" encoding="utf-8" ?>
<kml xmlns="http://www.opengis.net/kml/2.2">
<Document id="root_doc">
<Schema name="3b00c13c" id="3b00c13c">
	<SimpleField name="type" type="string"></SimpleField>
	<SimpleField name="view" type="string"></SimpleField>
	<SimpleField name="leveling_order" type="string"></SimpleField>
	<SimpleField name="leveling_height" type="string"></SimpleField>
	<SimpleField name="control_height" type="string"></SimpleField>
	<SimpleField name="benchmark_number" type="string"></SimpleField>
	<SimpleField name="control_location" type="string"></SimpleField>
	<SimpleField name="benchmark_type" type="string"></SimpleField>
	<SimpleField name="leveling_line_section" type="string"></SimpleField>
	<SimpleField name="location_description" type="string"></SimpleField>
	<SimpleField name="status" type="string"></SimpleField>
	<SimpleField name="guid" type="string"></SimpleField>
	<SimpleField name="kml" type="string"></SimpleField>
	<SimpleField name="kml_link" type="string"></SimpleField>
</Schema>
<Folder><name>3b00c13c</name>
  <Placemark id="3b00c13c.1">
	<name>2790</name>
	<name>грунт.реп.</name>
	<ExtendedData><SchemaData schemaUrl="#3b00c13c">
		<SimpleData name="type">II</SimpleData>
		<SimpleData name="view">380.594</SimpleData>
		<SimpleData name="benchmark_number">160 оп.знак</SimpleData>
		<SimpleData name="control_location">Линия №4: р.Кон-Разъезд 189 км, II класс (I) Участок: фунд.реп.2286 - грунт.реп.947</SimpleData>
		<SimpleData name="benchmark_type">Бестамак, с., в 12.6 км к юго-вост.от него, в 0.5 км к югу от зим.Карамола, в 0.3 км к вост.от р.Ащылы, к зап.от дороги с.Бестамак-с.Кали</SimpleData>
		<SimpleData name="location_description">3b00c13c-1d8c-48df-a1e8-b23d25b37f26</SimpleData>
		<SimpleData name="status">data/stations/3b00c13c.kml</SimpleData>
		<SimpleData name="guid">&lt;a href='data/stations/3b00c13c.kml' target='_blank'&gt;Download KML&lt;/a&gt;</SimpleData>
	</SchemaData></ExtendedData>
      <Point><coordinates>69.887768241544,49.5183580128806</coordinates></Point>
  </Placemark>
</Folder>
</Document></kml>
