<?xml version="1.0" encoding="utf-8" ?>
<kml xmlns="http://www.opengis.net/kml/2.2">
<Document id="root_doc">
<Schema name="3b62c959" id="3b62c959">
	<SimpleField name="type" type="string"></SimpleField>
	<SimpleField name="view" type="string"></SimpleField>
	<SimpleField name="leveling_order" type="string"></SimpleField>
	<SimpleField name="leveling_height" type="string"></SimpleField>
	<SimpleField name="control_height" type="string"></SimpleField>
	<SimpleField name="benchmark_number" type="string"></SimpleField>
	<SimpleField name="control_location" type="string"></SimpleField>
	<SimpleField name="benchmark_type" type="string"></SimpleField>
	<SimpleField name="leveling_line_section" type="string"></SimpleField>
	<SimpleField name="location_description" type="string"></SimpleField>
	<SimpleField name="status" type="string"></SimpleField>
	<SimpleField name="guid" type="string"></SimpleField>
	<SimpleField name="kml" type="string"></SimpleField>
	<SimpleField name="kml_link" type="string"></SimpleField>
</Schema>
<Folder><name>3b62c959</name>
  <Placemark id="3b62c959.1">
	<name>б/№ </name>
	<name>грунт. реп.</name>
	<ExtendedData><SchemaData schemaUrl="#3b62c959">
		<SimpleData name="type">1</SimpleData>
		<SimpleData name="view">733.819</SimpleData>
		<SimpleData name="leveling_order">731,725</SimpleData>
		<SimpleData name="control_height">репер № 9549 в верхней плоскости монолита</SimpleData>
		<SimpleData name="benchmark_number">121 оп</SimpleData>
		<SimpleData name="control_location">Линия № 1: Аягуз-Жангиз-Тобе, I класс (1) Участок: марка 20827-грунт. реп. 4089</SimpleData>
		<SimpleData name="benchmark_type">Енрекей, раз., в 3.0 км к сев.-вост. от него, на 288 км, в 0.6 км к сев. от жел.-дор. моста, в 48 м к зап. от дороги гор. Аягуз-с. Ушбиик</SimpleData>
		<SimpleData name="location_description">3b62c959-1580-4ace-8250-7f245d119725</SimpleData>
		<SimpleData name="status">data/stations/3b62c959.kml</SimpleData>
		<SimpleData name="guid">&lt;a href='data/stations/3b62c959.kml' target='_blank'&gt;Download KML&lt;/a&gt;</SimpleData>
	</SchemaData></ExtendedData>
      <Point><coordinates>80.4607394769436,48.2624554771576</coordinates></Point>
  </Placemark>
</Folder>
</Document></kml>
