<?xml version="1.0" encoding="utf-8" ?>
<kml xmlns="http://www.opengis.net/kml/2.2">
<Document id="root_doc">
<Schema name="3b6ddb98" id="3b6ddb98">
	<SimpleField name="title" type="string"></SimpleField>
	<SimpleField name="type" type="string"></SimpleField>
	<SimpleField name="ext_sign" type="string"></SimpleField>
	<SimpleField name="class_lvl" type="string"></SimpleField>
	<SimpleField name="height_lvl" type="string"></SimpleField>
	<SimpleField name="height_ctrl" type="string"></SimpleField>
	<SimpleField name="ctrl_place" type="string"></SimpleField>
	<SimpleField name="mark_num" type="string"></SimpleField>
	<SimpleField name="center_type" type="string"></SimpleField>
	<SimpleField name="lvl_line" type="string"></SimpleField>
	<SimpleField name="guid" type="string"></SimpleField>
</Schema>
<Folder><name>3b6ddb98</name>
  <Placemark id="3b6ddb98.1">
	<name>4861</name>
	<description>грунтовый репер</description>
	<ExtendedData><SchemaData schemaUrl="#3b6ddb98">
		<SimpleData name="type">1</SimpleData>
		<SimpleData name="ext_sign">144.877</SimpleData>
		<SimpleData name="ctrl_place">160</SimpleData>
		<SimpleData name="center_type">Урпек, с., в 0.7 км к юго-зап. от него, в 0.6 кмк юго-зап. от вод.башни, в 17 м к сев.-зап. от грейдера с.Кабырга-с.Урпек.</SimpleData>
		<SimpleData name="lvl_line">3b6ddb98-e8cb-4fb2-93bb-fcf281514317</SimpleData>
	</SchemaData></ExtendedData>
      <Point><coordinates>65.2448087594941,50.095801237534</coordinates></Point>
  </Placemark>
</Folder>
</Document></kml>
