<?xml version="1.0" encoding="utf-8" ?>
<kml xmlns="http://www.opengis.net/kml/2.2">
<Document id="root_doc">
<Schema name="3b7a67b6" id="3b7a67b6">
	<SimpleField name="type" type="string"></SimpleField>
	<SimpleField name="view" type="string"></SimpleField>
	<SimpleField name="leveling_order" type="string"></SimpleField>
	<SimpleField name="leveling_height" type="string"></SimpleField>
	<SimpleField name="control_height" type="string"></SimpleField>
	<SimpleField name="benchmark_number" type="string"></SimpleField>
	<SimpleField name="control_location" type="string"></SimpleField>
	<SimpleField name="benchmark_type" type="string"></SimpleField>
	<SimpleField name="leveling_line_section" type="string"></SimpleField>
	<SimpleField name="location_description" type="string"></SimpleField>
	<SimpleField name="status" type="string"></SimpleField>
	<SimpleField name="guid" type="string"></SimpleField>
	<SimpleField name="kml" type="string"></SimpleField>
	<SimpleField name="kml_link" type="string"></SimpleField>
</Schema>
<Folder><name>3b7a67b6</name>
  <Placemark id="3b7a67b6.1">
	<name>4665</name>
	<name>грунт. реп. </name>
	<ExtendedData><SchemaData schemaUrl="#3b7a67b6">
		<SimpleData name="type">2</SimpleData>
		<SimpleData name="view">199.152</SimpleData>
		<SimpleData name="benchmark_number">160 оп. знак</SimpleData>
		<SimpleData name="control_location">Линия №1: Коккабак - Жосалы. 2 класс. Участок: грунт. реп. 4537 - грунт. реп. 5805</SimpleData>
		<SimpleData name="benchmark_type">Карагайлы. к.. в 5.3 км к юго-вост.от него. в 2.8 км к сев.-зап.от развалин. в 1.5 км к юго-зап.от к. Бектибай</SimpleData>
		<SimpleData name="location_description">3b7a67b6-b5d7-44b6-97b0-d0bb0529c9ed</SimpleData>
		<SimpleData name="status">data/stations/3b7a67b6.kml</SimpleData>
		<SimpleData name="guid">&lt;a href='data/stations/3b7a67b6.kml' target='_blank'&gt;Download KML&lt;/a&gt;</SimpleData>
	</SchemaData></ExtendedData>
      <Point><coordinates>63.967682043003,46.3931029581092</coordinates></Point>
  </Placemark>
</Folder>
</Document></kml>
