<?xml version="1.0" encoding="utf-8" ?>
<kml xmlns="http://www.opengis.net/kml/2.2">
<Document id="root_doc">
<Schema name="3b8446ee" id="3b8446ee">
	<SimpleField name="type" type="string"></SimpleField>
	<SimpleField name="view" type="string"></SimpleField>
	<SimpleField name="leveling_order" type="string"></SimpleField>
	<SimpleField name="leveling_height" type="string"></SimpleField>
	<SimpleField name="control_height" type="string"></SimpleField>
	<SimpleField name="benchmark_number" type="string"></SimpleField>
	<SimpleField name="control_location" type="string"></SimpleField>
	<SimpleField name="benchmark_type" type="string"></SimpleField>
	<SimpleField name="leveling_line_section" type="string"></SimpleField>
	<SimpleField name="location_description" type="string"></SimpleField>
	<SimpleField name="status" type="string"></SimpleField>
	<SimpleField name="guid" type="string"></SimpleField>
	<SimpleField name="kml" type="string"></SimpleField>
	<SimpleField name="kml_link" type="string"></SimpleField>
</Schema>
<Folder><name>3b8446ee</name>
  <Placemark id="3b8446ee.1">
	<name>0098</name>
	<name>грунт. реп.</name>
	<ExtendedData><SchemaData schemaUrl="#3b8446ee">
		<SimpleData name="type">2</SimpleData>
		<SimpleData name="view">200,421</SimpleData>
		<SimpleData name="benchmark_number">160 оп</SimpleData>
		<SimpleData name="control_location">Линия № 3: Семиярск-Михайловка, II класс (2) Участок: фунд. реп. 4422-грунт. реп., 446 </SimpleData>
		<SimpleData name="benchmark_type">Шильтиколь, зим., в 8.5 км к вост. от нее, в 6 м к вост. от развилки полевой дороги, в 1 м к зап. от оп. стб.</SimpleData>
		<SimpleData name="location_description">3b8446ee-674e-4773-9853-35a72b88e70f</SimpleData>
		<SimpleData name="status">data/stations/3b8446ee.kml</SimpleData>
		<SimpleData name="guid">&lt;a href='data/stations/3b8446ee.kml' target='_blank'&gt;Download KML&lt;/a&gt;</SimpleData>
	</SchemaData></ExtendedData>
      <Point><coordinates>78.7707455253222,51.1446744895929</coordinates></Point>
  </Placemark>
</Folder>
</Document></kml>
