<?xml version="1.0" encoding="utf-8" ?>
<kml xmlns="http://www.opengis.net/kml/2.2">
<Document id="root_doc">
<Schema name="3b90d9de" id="3b90d9de">
	<SimpleField name="type" type="string"></SimpleField>
	<SimpleField name="view" type="string"></SimpleField>
	<SimpleField name="leveling_order" type="string"></SimpleField>
	<SimpleField name="leveling_height" type="string"></SimpleField>
	<SimpleField name="control_height" type="string"></SimpleField>
	<SimpleField name="benchmark_number" type="string"></SimpleField>
	<SimpleField name="control_location" type="string"></SimpleField>
	<SimpleField name="benchmark_type" type="string"></SimpleField>
	<SimpleField name="leveling_line_section" type="string"></SimpleField>
	<SimpleField name="location_description" type="string"></SimpleField>
	<SimpleField name="status" type="string"></SimpleField>
	<SimpleField name="guid" type="string"></SimpleField>
	<SimpleField name="kml" type="string"></SimpleField>
	<SimpleField name="kml_link" type="string"></SimpleField>
</Schema>
<Folder><name>3b90d9de</name>
  <Placemark id="3b90d9de.1">
	<name>1113</name>
	<name>грунтовый репер</name>
	<ExtendedData><SchemaData schemaUrl="#3b90d9de">
		<SimpleData name="type">1</SimpleData>
		<SimpleData name="view">261.687</SimpleData>
		<SimpleData name="leveling_order">260,568</SimpleData>
		<SimpleData name="leveling_height">878</SimpleData>
		<SimpleData name="control_height">в верхней плоскости  монолита</SimpleData>
		<SimpleData name="benchmark_number">121 оп, знак</SimpleData>
		<SimpleData name="control_location">Линия № 1: Торыустаган - Бирлик, 1 класс (1) Участок: грунт, реп,5839 - пир, 3 кл, Кызылкурган</SimpleData>
		<SimpleData name="benchmark_type">Уланбель, с,, в 12,2 км к зап, от него, в 0,9 км к сев,-зап, от пов, стб, ЛЭП, в 60 м к сев, от полевой дороги</SimpleData>
		<SimpleData name="location_description">3b90d9de-a217-4ca6-9b30-7abd6470ff0a</SimpleData>
		<SimpleData name="status">data/stations/3b90d9de.kml</SimpleData>
		<SimpleData name="guid">&lt;a href='data/stations/3b90d9de.kml' target='_blank'&gt;Download KML&lt;/a&gt;</SimpleData>
	</SchemaData></ExtendedData>
      <Point><coordinates>70.9760222026133,44.8391044427269</coordinates></Point>
  </Placemark>
</Folder>
</Document></kml>
