<?xml version="1.0" encoding="utf-8" ?>
<kml xmlns="http://www.opengis.net/kml/2.2">
<Document id="root_doc">
<Schema name="3b93478e" id="3b93478e">
	<SimpleField name="type" type="string"></SimpleField>
	<SimpleField name="view" type="string"></SimpleField>
	<SimpleField name="leveling_order" type="string"></SimpleField>
	<SimpleField name="leveling_height" type="string"></SimpleField>
	<SimpleField name="control_height" type="string"></SimpleField>
	<SimpleField name="benchmark_number" type="string"></SimpleField>
	<SimpleField name="control_location" type="string"></SimpleField>
	<SimpleField name="benchmark_type" type="string"></SimpleField>
	<SimpleField name="leveling_line_section" type="string"></SimpleField>
	<SimpleField name="location_description" type="string"></SimpleField>
	<SimpleField name="status" type="string"></SimpleField>
	<SimpleField name="guid" type="string"></SimpleField>
	<SimpleField name="kml" type="string"></SimpleField>
	<SimpleField name="kml_link" type="string"></SimpleField>
</Schema>
<Folder><name>3b93478e</name>
  <Placemark id="3b93478e.1">
	<name>2059</name>
	<name>грунт.реп.</name>
	<ExtendedData><SchemaData schemaUrl="#3b93478e">
		<SimpleData name="type">2</SimpleData>
		<SimpleData name="view">150,997</SimpleData>
		<SimpleData name="leveling_order">149,593</SimpleData>
		<SimpleData name="benchmark_number">121 оп</SimpleData>
		<SimpleData name="control_location">Линия №4: Актасты-Тургай, II класс. Участок: фунд.реп. 3780-грунт.реп. 5454</SimpleData>
		<SimpleData name="benchmark_type">Толыбай (Амангельды), с., в 38.3 км к юго-вост. от него, в 0.9 км к юго-вост. от зим. Сасыксор, в 190 м к юго-вост. от полевой дороги</SimpleData>
		<SimpleData name="location_description">3b93478e-ead2-41a7-b2be-4e3bcfdcc917</SimpleData>
		<SimpleData name="status">data/stations/3b93478e.kml</SimpleData>
		<SimpleData name="guid">&lt;a href='data/stations/3b93478e.kml' target='_blank'&gt;Download KML&lt;/a&gt;</SimpleData>
	</SchemaData></ExtendedData>
      <Point><coordinates>62.7041198381559,50.312392281514</coordinates></Point>
  </Placemark>
</Folder>
</Document></kml>
