<?xml version="1.0" encoding="utf-8" ?>
<kml xmlns="http://www.opengis.net/kml/2.2">
<Document id="root_doc">
<Schema name="3c637c98" id="3c637c98">
	<SimpleField name="type" type="string"></SimpleField>
	<SimpleField name="view" type="string"></SimpleField>
	<SimpleField name="leveling_order" type="string"></SimpleField>
	<SimpleField name="leveling_height" type="string"></SimpleField>
	<SimpleField name="control_height" type="string"></SimpleField>
	<SimpleField name="benchmark_number" type="string"></SimpleField>
	<SimpleField name="control_location" type="string"></SimpleField>
	<SimpleField name="benchmark_type" type="string"></SimpleField>
	<SimpleField name="leveling_line_section" type="string"></SimpleField>
	<SimpleField name="location_description" type="string"></SimpleField>
	<SimpleField name="status" type="string"></SimpleField>
	<SimpleField name="guid" type="string"></SimpleField>
	<SimpleField name="kml" type="string"></SimpleField>
	<SimpleField name="kml_link" type="string"></SimpleField>
</Schema>
<Folder><name>3c637c98</name>
  <Placemark id="3c637c98.1">
	<name>59</name>
	<name>грунт. реп. </name>
	<ExtendedData><SchemaData schemaUrl="#3c637c98">
		<SimpleData name="type">1</SimpleData>
		<SimpleData name="control_location">15</SimpleData>
		<SimpleData name="benchmark_type">
Линия № 1: Алажиде – Оз. Жаланашколь, I класс 
Участок: пир. 3 кл. Шагамбай – грунт. реп. 8618</SimpleData>
		<SimpleData name="leveling_line_section">не найден</SimpleData>
		<SimpleData name="location_description">3c637c98-c167-424c-864a-9983c3e4b8ac</SimpleData>
		<SimpleData name="status">data/stations/3c637c98.kml</SimpleData>
		<SimpleData name="guid">&lt;a href='data/stations/3c637c98.kml' target='_blank'&gt;Download KML&lt;/a&gt;</SimpleData>
	</SchemaData></ExtendedData>
      <Point><coordinates>79.5373344101102,45.3830171145812</coordinates></Point>
  </Placemark>
</Folder>
</Document></kml>
