<?xml version="1.0" encoding="utf-8" ?>
<kml xmlns="http://www.opengis.net/kml/2.2">
<Document id="root_doc">
<Schema name="3d12836c" id="3d12836c">
	<SimpleField name="title" type="string"></SimpleField>
	<SimpleField name="type" type="string"></SimpleField>
	<SimpleField name="ext_sign" type="string"></SimpleField>
	<SimpleField name="class_lvl" type="string"></SimpleField>
	<SimpleField name="height_lvl" type="string"></SimpleField>
	<SimpleField name="height_ctrl" type="string"></SimpleField>
	<SimpleField name="ctrl_place" type="string"></SimpleField>
	<SimpleField name="mark_num" type="string"></SimpleField>
	<SimpleField name="center_type" type="string"></SimpleField>
	<SimpleField name="lvl_line" type="string"></SimpleField>
	<SimpleField name="guid" type="string"></SimpleField>
</Schema>
<Folder><name>3d12836c</name>
  <Placemark id="3d12836c.1">
	<name>8899</name>
	<ExtendedData><SchemaData schemaUrl="#3d12836c">
		<SimpleData name="title">грунтовый репер</SimpleData>
		<SimpleData name="type">2</SimpleData>
		<SimpleData name="ext_sign">353,658</SimpleData>
		<SimpleData name="ctrl_place">160 оп. знак</SimpleData>
		<SimpleData name="mark_num">Линия № 2: р. Шу - Коскызыл, 2 класс (2) Участок: грунт. реп. 8342 - грунт. реп. 1173</SimpleData>
		<SimpleData name="center_type">Жолай, зим., в 4.7 км к юго-вост. от неё, в 0.2 км к сев. от км. стб. 50/121 шоссе с. Уланбель - с. Уйик, в 25 м к зап. от полевой дороги, на бархане</SimpleData>
		<SimpleData name="lvl_line">3d12836c-16a6-435e-8d39-15a0048aa2fa</SimpleData>
	</SchemaData></ExtendedData>
      <Point><coordinates>71.0464433333333,44.3858</coordinates></Point>
  </Placemark>
</Folder>
</Document></kml>
