<?xml version="1.0" encoding="utf-8" ?>
<kml xmlns="http://www.opengis.net/kml/2.2">
<Document id="root_doc">
<Schema name="3e053fca" id="3e053fca">
	<SimpleField name="type" type="string"></SimpleField>
	<SimpleField name="view" type="string"></SimpleField>
	<SimpleField name="leveling_order" type="string"></SimpleField>
	<SimpleField name="leveling_height" type="string"></SimpleField>
	<SimpleField name="control_height" type="string"></SimpleField>
	<SimpleField name="benchmark_number" type="string"></SimpleField>
	<SimpleField name="control_location" type="string"></SimpleField>
	<SimpleField name="benchmark_type" type="string"></SimpleField>
	<SimpleField name="leveling_line_section" type="string"></SimpleField>
	<SimpleField name="location_description" type="string"></SimpleField>
	<SimpleField name="status" type="string"></SimpleField>
	<SimpleField name="guid" type="string"></SimpleField>
	<SimpleField name="kml" type="string"></SimpleField>
	<SimpleField name="kml_link" type="string"></SimpleField>
</Schema>
<Folder><name>3e053fca</name>
  <Placemark id="3e053fca.1">
	<name>9867</name>
	<name>ск. реп.</name>
	<ExtendedData><SchemaData schemaUrl="#3e053fca">
		<SimpleData name="type">2</SimpleData>
		<SimpleData name="view">679.433</SimpleData>
		<SimpleData name="benchmark_number">99</SimpleData>
		<SimpleData name="control_location">Линия №49: Усть-Каменогорск - Зайсан, 2 класс (13)  Участок: ск. реп. 4733 - грунт. реп. 1805</SimpleData>
		<SimpleData name="benchmark_type">Феклистово, с., в 5.0 км к сев.-зап. от него, в 0.1 км к юго-вост. от поворотного стб. линии связи №45/559 - 51/557, в сев. части водосточной трубы</SimpleData>
		<SimpleData name="location_description">3e053fca-38db-4c03-92e4-f6f37e1dca9b</SimpleData>
		<SimpleData name="status">data/stations/3e053fca.kml</SimpleData>
		<SimpleData name="guid">&lt;a href='data/stations/3e053fca.kml' target='_blank'&gt;Download KML&lt;/a&gt;</SimpleData>
	</SchemaData></ExtendedData>
      <Point><coordinates>83.0181222225533,49.9411419520806</coordinates></Point>
  </Placemark>
</Folder>
</Document></kml>
