<?xml version="1.0" encoding="utf-8" ?>
<kml xmlns="http://www.opengis.net/kml/2.2">
<Document id="root_doc">
<Schema name="3e1f5fc8" id="3e1f5fc8">
	<SimpleField name="type" type="string"></SimpleField>
	<SimpleField name="view" type="string"></SimpleField>
	<SimpleField name="leveling_order" type="string"></SimpleField>
	<SimpleField name="leveling_height" type="string"></SimpleField>
	<SimpleField name="control_height" type="string"></SimpleField>
	<SimpleField name="benchmark_number" type="string"></SimpleField>
	<SimpleField name="control_location" type="string"></SimpleField>
	<SimpleField name="benchmark_type" type="string"></SimpleField>
	<SimpleField name="leveling_line_section" type="string"></SimpleField>
	<SimpleField name="location_description" type="string"></SimpleField>
	<SimpleField name="status" type="string"></SimpleField>
	<SimpleField name="guid" type="string"></SimpleField>
	<SimpleField name="kml" type="string"></SimpleField>
	<SimpleField name="kml_link" type="string"></SimpleField>
</Schema>
<Folder><name>3e1f5fc8</name>
  <Placemark id="3e1f5fc8.1">
	<name>1806</name>
	<name>ск.реп</name>
	<ExtendedData><SchemaData schemaUrl="#3e1f5fc8">
		<SimpleData name="type">2</SimpleData>
		<SimpleData name="view">1063.330</SimpleData>
		<SimpleData name="benchmark_number">99</SimpleData>
		<SimpleData name="control_location">Линия  № 6: Кольбастау - Асы, П класс (I) Участок: ск.реп. 1806 - ск.оеп. 6738</SimpleData>
		<SimpleData name="benchmark_type">Бартогай, с., в 2,0 км к югу от него, в 0,1 км к югу  от моста через р. Чилик, в 2 м к вост. От берегового обрыва </SimpleData>
		<SimpleData name="location_description">3e1f5fc8-e456-4b93-9008-5b276f4bb83d</SimpleData>
		<SimpleData name="status">data/stations/3e1f5fc8.kml</SimpleData>
		<SimpleData name="guid">&lt;a href='data/stations/3e1f5fc8.kml' target='_blank'&gt;Download KML&lt;/a&gt;</SimpleData>
	</SchemaData></ExtendedData>
      <Point><coordinates>78.5142860324989,43.3188853028179</coordinates></Point>
  </Placemark>
</Folder>
</Document></kml>
