<?xml version="1.0" encoding="utf-8" ?>
<kml xmlns="http://www.opengis.net/kml/2.2">
<Document id="root_doc">
<Schema name="3feffdcb" id="3feffdcb">
	<SimpleField name="title" type="string"></SimpleField>
	<SimpleField name="type" type="string"></SimpleField>
	<SimpleField name="ext_sign" type="string"></SimpleField>
	<SimpleField name="class_lvl" type="string"></SimpleField>
	<SimpleField name="height_lvl" type="string"></SimpleField>
	<SimpleField name="height_ctrl" type="string"></SimpleField>
	<SimpleField name="ctrl_place" type="string"></SimpleField>
	<SimpleField name="mark_num" type="string"></SimpleField>
	<SimpleField name="center_type" type="string"></SimpleField>
	<SimpleField name="lvl_line" type="string"></SimpleField>
	<SimpleField name="guid" type="string"></SimpleField>
</Schema>
<Folder><name>3feffdcb</name>
  <Placemark id="3feffdcb.1">
	<name>7978</name>
	<ExtendedData><SchemaData schemaUrl="#3feffdcb">
		<SimpleData name="title">Грунт.реп.</SimpleData>
		<SimpleData name="height_ctrl">7978</SimpleData>
		<SimpleData name="ctrl_place">121</SimpleData>
		<SimpleData name="center_type">Ферма №4 свх.Каракуль, в 0.3 км к зап.от нее, в 20 м  к зап.от дороги ферма №4 свх.Каракуль-С.Торткудук</SimpleData>
		<SimpleData name="lvl_line">3feffdcb-d16b-4cd3-aec1-1811587d5385</SimpleData>
	</SchemaData></ExtendedData>
      <Point><coordinates>52.88501381,48.20754424</coordinates></Point>
  </Placemark>
</Folder>
</Document></kml>
