<?xml version="1.0" encoding="utf-8" ?>
<kml xmlns="http://www.opengis.net/kml/2.2">
<Document id="root_doc">
<Schema name="400d419e" id="400d419e">
	<SimpleField name="title" type="string"></SimpleField>
	<SimpleField name="type" type="string"></SimpleField>
	<SimpleField name="ext_sign" type="string"></SimpleField>
	<SimpleField name="class_lvl" type="string"></SimpleField>
	<SimpleField name="height_lvl" type="string"></SimpleField>
	<SimpleField name="height_ctrl" type="string"></SimpleField>
	<SimpleField name="ctrl_place" type="string"></SimpleField>
	<SimpleField name="mark_num" type="string"></SimpleField>
	<SimpleField name="center_type" type="string"></SimpleField>
	<SimpleField name="lvl_line" type="string"></SimpleField>
	<SimpleField name="guid" type="string"></SimpleField>
</Schema>
<Folder><name>400d419e</name>
  <Placemark id="400d419e.1">
	<name>295</name>
	<description>ск. реп.</description>
	<ExtendedData><SchemaData schemaUrl="#400d419e">
		<SimpleData name="type">4</SimpleData>
		<SimpleData name="ext_sign">1052.671</SimpleData>
		<SimpleData name="ctrl_place">99</SimpleData>
		<SimpleData name="mark_num">Линия № 10: ск. реп. 24 - ск. реп. 767, IV класс (10)</SimpleData>
		<SimpleData name="center_type">Трудовик, с., в 3.4 км к сев.-вост. от него, в 0.3 км к югу от кладбища, в 50 м к вост. от дороги с. Таинты - с. Пантелеймоновка</SimpleData>
		<SimpleData name="lvl_line">400d419e-2ada-4e30-9db2-6dbe78caa7f6</SimpleData>
	</SchemaData></ExtendedData>
      <Point><coordinates>83.21694175038,49.19927691399</coordinates></Point>
  </Placemark>
</Folder>
</Document></kml>
