<?xml version="1.0" encoding="utf-8" ?>
<kml xmlns="http://www.opengis.net/kml/2.2">
<Document id="root_doc">
<Schema name="40fb55e4" id="40fb55e4">
	<SimpleField name="title" type="string"></SimpleField>
	<SimpleField name="type" type="string"></SimpleField>
	<SimpleField name="ext_sign" type="string"></SimpleField>
	<SimpleField name="class_lvl" type="string"></SimpleField>
	<SimpleField name="height_lvl" type="string"></SimpleField>
	<SimpleField name="height_ctrl" type="string"></SimpleField>
	<SimpleField name="ctrl_place" type="string"></SimpleField>
	<SimpleField name="mark_num" type="string"></SimpleField>
	<SimpleField name="center_type" type="string"></SimpleField>
	<SimpleField name="lvl_line" type="string"></SimpleField>
	<SimpleField name="guid" type="string"></SimpleField>
</Schema>
<Folder><name>40fb55e4</name>
  <Placemark id="40fb55e4.1">
	<name>5956</name>
	<ExtendedData><SchemaData schemaUrl="#40fb55e4">
		<SimpleData name="title">грунт. реп.</SimpleData>
		<SimpleData name="type">1</SimpleData>
		<SimpleData name="ext_sign">595.820</SimpleData>
		<SimpleData name="ctrl_place">160 оп. знак</SimpleData>
		<SimpleData name="mark_num">Линия  № 1: Сарыозек – Каракол (Пржевальск), I класс
Участок: грунт. реп.  520 – грунт.реп. 155</SimpleData>
		<SimpleData name="center_type">Коктал, с., в 10.1 км к зап. от него, в 57 м к сев.-вост. от развилки шоссе с. Сарыозек – гор. Жаркент и полевой дороги, в 24 м к югу от шоссе, в 20 м к югу от км. стб. 166/11</SimpleData>
		<SimpleData name="lvl_line">40fb55e4-a73a-447d-89c8-f72402b635f2</SimpleData>
	</SchemaData></ExtendedData>
      <Point><coordinates>79.6779553574435,44.1289753092735</coordinates></Point>
  </Placemark>
</Folder>
</Document></kml>
