<?xml version="1.0" encoding="utf-8" ?>
<kml xmlns="http://www.opengis.net/kml/2.2">
<Document id="root_doc">
<Schema name="414d946e" id="414d946e">
	<SimpleField name="title" type="string"></SimpleField>
	<SimpleField name="type" type="string"></SimpleField>
	<SimpleField name="ext_sign" type="string"></SimpleField>
	<SimpleField name="class_lvl" type="string"></SimpleField>
	<SimpleField name="height_lvl" type="string"></SimpleField>
	<SimpleField name="height_ctrl" type="string"></SimpleField>
	<SimpleField name="ctrl_place" type="string"></SimpleField>
	<SimpleField name="mark_num" type="string"></SimpleField>
	<SimpleField name="center_type" type="string"></SimpleField>
	<SimpleField name="lvl_line" type="string"></SimpleField>
	<SimpleField name="guid" type="string"></SimpleField>
</Schema>
<Folder><name>414d946e</name>
  <Placemark id="414d946e.1">
	<name>2457_0</name>
	<description>грунтовый репер</description>
	<ExtendedData><SchemaData schemaUrl="#414d946e">
		<SimpleData name="center_type">Каркаралинск, с., в 13,9 км к юго-зап. от него, в 120,1 м к сев.-зап. от дороги г.Каркаралинск- с.Жарлы.
</SimpleData>
		<SimpleData name="lvl_line">414d946e-29eb-407b-a97f-48586dbb7762</SimpleData>
	</SchemaData></ExtendedData>
      <Point><coordinates>75.3623165525976,49.3098588500674</coordinates></Point>
  </Placemark>
</Folder>
</Document></kml>
