<?xml version="1.0" encoding="utf-8" ?>
<kml xmlns="http://www.opengis.net/kml/2.2">
<Document id="root_doc">
<Schema name="41c0256f" id="41c0256f">
	<SimpleField name="type" type="string"></SimpleField>
	<SimpleField name="view" type="string"></SimpleField>
	<SimpleField name="leveling_order" type="string"></SimpleField>
	<SimpleField name="leveling_height" type="string"></SimpleField>
	<SimpleField name="control_height" type="string"></SimpleField>
	<SimpleField name="benchmark_number" type="string"></SimpleField>
	<SimpleField name="control_location" type="string"></SimpleField>
	<SimpleField name="benchmark_type" type="string"></SimpleField>
	<SimpleField name="leveling_line_section" type="string"></SimpleField>
	<SimpleField name="location_description" type="string"></SimpleField>
	<SimpleField name="status" type="string"></SimpleField>
	<SimpleField name="guid" type="string"></SimpleField>
	<SimpleField name="kml" type="string"></SimpleField>
	<SimpleField name="kml_link" type="string"></SimpleField>
</Schema>
<Folder><name>41c0256f</name>
  <Placemark id="41c0256f.1">
	<name>82</name>
	<description>грунт. реп.</description>
	<ExtendedData><SchemaData schemaUrl="#41c0256f">
		<SimpleData name="type">2</SimpleData>
		<SimpleData name="view">133.134</SimpleData>
		<SimpleData name="leveling_order">131.764</SimpleData>
		<SimpleData name="leveling_height">Контрольный репер в верхней плоскости монолита</SimpleData>
		<SimpleData name="benchmark_number">118</SimpleData>
		<SimpleData name="control_location">Ход от грунт. реп. 89 до грунт. Реп. 342. II класс </SimpleData>
		<SimpleData name="benchmark_type">Жосалы. станц..  в 11.2 км к сев.-вост. от неё. в 7.8 км к юго-вост. от к. Таскудык. в 40 м к вост. от  полевой дороги</SimpleData>
		<SimpleData name="location_description">41c0256f-342d-457c-b4f5-aab3f3734e1f</SimpleData>
		<SimpleData name="status">data/stations/41c0256f.kml</SimpleData>
		<SimpleData name="guid">&lt;a href='data/stations/41c0256f.kml' target='_blank'&gt;Download KML&lt;/a&gt;</SimpleData>
	</SchemaData></ExtendedData>
      <Point><coordinates>64.1595498052547,45.577392400808</coordinates></Point>
  </Placemark>
</Folder>
</Document></kml>
