<?xml version="1.0" encoding="UTF-8"?>
<kml xmlns="http://www.opengis.net/kml/2.2">
  <Document id="root_doc">
    <Schema id="41c28613" name="41c28613">
      <SimpleField name="title" type="string"/>
      <SimpleField name="type" type="string"/>
      <SimpleField name="ext_sign" type="string"/>
      <SimpleField name="class_lvl" type="string"/>
      <SimpleField name="height_lvl" type="string"/>
      <SimpleField name="height_ctrl" type="string"/>
      <SimpleField name="ctrl_place" type="string"/>
      <SimpleField name="mark_num" type="string"/>
      <SimpleField name="center_type" type="string"/>
      <SimpleField name="lvl_line" type="string"/>
      <SimpleField name="guid" type="string"/>
    </Schema>
    <Schema id="_41c28613.schema">
      <SimpleField name="title" type="string"/>
      <SimpleField name="type" type="string"/>
      <SimpleField name="ext_sign" type="string"/>
      <SimpleField name="class_lvl" type="string"/>
      <SimpleField name="height_lvl" type="string"/>
      <SimpleField name="height_ctrl" type="string"/>
      <SimpleField name="ctrl_place" type="string"/>
      <SimpleField name="mark_num" type="string"/>
      <SimpleField name="center_type" type="string"/>
      <SimpleField name="lvl_line" type="string"/>
      <SimpleField name="guid" type="string"/>
    </Schema>
    <Document id="_41c28613">
      <name>41c28613</name>
      <Placemark id="_41c28613.1">
        <description>Кызылжар, станция, с сев,-вост, стороны здания вокзала</description>
        <ExtendedData>
          <SchemaData schemaUrl="#_41c28613.schema">
            <SimpleData name="title">423</SimpleData>
            <SimpleData name="type">марка</SimpleData>
            <SimpleData name="ext_sign">марка</SimpleData>
            <SimpleData name="class_lvl">1</SimpleData>
            <SimpleData name="height_lvl">362,528</SimpleData>
            <SimpleData name="lvl_line">Линия №2: Тюемойнак-Жарык, I класс (2) Участок: фунд,реп,497 - пир, 1 кл,Арал-Тюбе</SimpleData>
            <SimpleData name="guid">41c28613-4544-408d-9721-2bdfd9eaa39d</SimpleData>
          </SchemaData>
        </ExtendedData>
        <Point>
          <coordinates>
            69.6501007267257,48.297790363672,0
          </coordinates>
        </Point>
      </Placemark>
    </Document>
  </Document>
</kml>
