<?xml version="1.0" encoding="utf-8" ?>
<kml xmlns="http://www.opengis.net/kml/2.2">
<Document id="root_doc">
<Schema name="4243e987" id="4243e987">
	<SimpleField name="type" type="string"></SimpleField>
	<SimpleField name="view" type="string"></SimpleField>
	<SimpleField name="leveling_order" type="string"></SimpleField>
	<SimpleField name="leveling_height" type="string"></SimpleField>
	<SimpleField name="control_height" type="string"></SimpleField>
	<SimpleField name="benchmark_number" type="string"></SimpleField>
	<SimpleField name="control_location" type="string"></SimpleField>
	<SimpleField name="benchmark_type" type="string"></SimpleField>
	<SimpleField name="leveling_line_section" type="string"></SimpleField>
	<SimpleField name="location_description" type="string"></SimpleField>
	<SimpleField name="status" type="string"></SimpleField>
	<SimpleField name="guid" type="string"></SimpleField>
	<SimpleField name="kml" type="string"></SimpleField>
	<SimpleField name="kml_link" type="string"></SimpleField>
</Schema>
<Folder><name>4243e987</name>
  <Placemark id="4243e987.1">
	<name>1880</name>
	<description>грунт. реп.</description>
	<ExtendedData><SchemaData schemaUrl="#4243e987">
		<SimpleData name="type">1</SimpleData>
		<SimpleData name="view">115.571</SimpleData>
		<SimpleData name="benchmark_number">146 оп</SimpleData>
		<SimpleData name="control_location">Линия №4 : Целиноград - Токтайконыр, I класс. Участок: грунт. реп. 1024 - грунт. реп. 0632 </SimpleData>
		<SimpleData name="benchmark_type">Мукыр, с., в 5.0 км к сев.-зап. от него, в 2.4 км к юго-вост. от п.тр. Карабидайк, в 2.7 км к сев.-вост. от разв. зим. Карабидайк, в 87 м к сев.-вост. от старой полевой дороги</SimpleData>
		<SimpleData name="location_description">4243e987-2d53-4a9e-a978-0e94fcfbbbb7</SimpleData>
		<SimpleData name="status">data/stations/4243e987.kml</SimpleData>
		<SimpleData name="guid">&lt;a href='data/stations/4243e987.kml' target='_blank'&gt;Download KML&lt;/a&gt;</SimpleData>
	</SchemaData></ExtendedData>
      <Point><coordinates>64.7643478856733,50.5951708545719</coordinates></Point>
  </Placemark>
</Folder>
</Document></kml>
