<?xml version="1.0" encoding="utf-8" ?>
<kml xmlns="http://www.opengis.net/kml/2.2">
<Document id="root_doc">
<Schema name="427dc868" id="427dc868">
	<SimpleField name="type" type="string"></SimpleField>
	<SimpleField name="view" type="string"></SimpleField>
	<SimpleField name="leveling_order" type="string"></SimpleField>
	<SimpleField name="leveling_height" type="string"></SimpleField>
	<SimpleField name="control_height" type="string"></SimpleField>
	<SimpleField name="benchmark_number" type="string"></SimpleField>
	<SimpleField name="control_location" type="string"></SimpleField>
	<SimpleField name="benchmark_type" type="string"></SimpleField>
	<SimpleField name="leveling_line_section" type="string"></SimpleField>
	<SimpleField name="location_description" type="string"></SimpleField>
	<SimpleField name="status" type="string"></SimpleField>
	<SimpleField name="guid" type="string"></SimpleField>
	<SimpleField name="kml" type="string"></SimpleField>
	<SimpleField name="kml_link" type="string"></SimpleField>
</Schema>
<Folder><name>427dc868</name>
  <Placemark id="427dc868.1">
	<name>2611</name>
	<name>грунт.реп</name>
	<ExtendedData><SchemaData schemaUrl="#427dc868">
		<SimpleData name="type">2</SimpleData>
		<SimpleData name="view">313.779</SimpleData>
		<SimpleData name="control_location">Линия № 5: грунт.реп. 9368-пир. 3 кл. Уйрок, III класс (5). Участок: грунт.реп. 9368-грунт.реп.6460</SimpleData>
		<SimpleData name="benchmark_type">Талас,с., в 15.5 км к югу от него, в 0.2 км к зап.от зимовки, в 83 м к зап.от полевой дороги</SimpleData>
		<SimpleData name="location_description">427dc868-1da3-4de3-b241-d85e9c510867</SimpleData>
		<SimpleData name="status">data/stations/427dc868.kml</SimpleData>
		<SimpleData name="guid">&lt;a href='data/stations/427dc868.kml' target='_blank'&gt;Download KML&lt;/a&gt;</SimpleData>
	</SchemaData></ExtendedData>
      <Point><coordinates>70.0011874292913,43.9732777457925</coordinates></Point>
  </Placemark>
</Folder>
</Document></kml>
