<?xml version="1.0" encoding="utf-8" ?>
<kml xmlns="http://www.opengis.net/kml/2.2">
<Document id="root_doc">
<Schema name="42a4769d" id="42a4769d">
	<SimpleField name="type" type="string"></SimpleField>
	<SimpleField name="view" type="string"></SimpleField>
	<SimpleField name="leveling_order" type="string"></SimpleField>
	<SimpleField name="leveling_height" type="string"></SimpleField>
	<SimpleField name="control_height" type="string"></SimpleField>
	<SimpleField name="benchmark_number" type="string"></SimpleField>
	<SimpleField name="control_location" type="string"></SimpleField>
	<SimpleField name="benchmark_type" type="string"></SimpleField>
	<SimpleField name="leveling_line_section" type="string"></SimpleField>
	<SimpleField name="location_description" type="string"></SimpleField>
	<SimpleField name="status" type="string"></SimpleField>
	<SimpleField name="guid" type="string"></SimpleField>
	<SimpleField name="kml" type="string"></SimpleField>
	<SimpleField name="kml_link" type="string"></SimpleField>
</Schema>
<Folder><name>42a4769d</name>
  <Placemark id="42a4769d.1">
	<name>1186</name>
	<name>фунд. реп.</name>
	<ExtendedData><SchemaData schemaUrl="#42a4769d">
		<SimpleData name="type">1</SimpleData>
		<SimpleData name="view">641.460*</SimpleData>
		<SimpleData name="leveling_order">Контрольный репер № 9879 в фундаментной плите </SimpleData>
		<SimpleData name="leveling_height">161 оп. знак</SimpleData>
		<SimpleData name="benchmark_number">Линия № 1: Алажиде – Оз. Жаланашколь, I класс 
Участок: грунт. реп. 7982 – грунт. реп. 5195
</SimpleData>
		<SimpleData name="control_location">Кабанбай, с., в 0.6 км к сев. от него, в 70 м к сев.-вост. от км. стб. 511/570 шоссе гор. Алматы – гор. Усть-Каменогорск, в 20 м к сев.-вост. от шоссе</SimpleData>
		<SimpleData name="benchmark_type">L-44-78-А</SimpleData>
		<SimpleData name="location_description">42a4769d-3cfb-40eb-9dd0-e49333033cbe</SimpleData>
		<SimpleData name="status">data/stations/42a4769d.kml</SimpleData>
		<SimpleData name="guid">&lt;a href='data/stations/42a4769d.kml' target='_blank'&gt;Download KML&lt;/a&gt;</SimpleData>
	</SchemaData></ExtendedData>
      <Point><coordinates>80.6077688160664,45.8541647655183</coordinates></Point>
  </Placemark>
</Folder>
</Document></kml>
