<?xml version="1.0" encoding="utf-8" ?>
<kml xmlns="http://www.opengis.net/kml/2.2">
<Document id="root_doc">
<Schema name="43532c5b" id="43532c5b">
	<SimpleField name="type" type="string"></SimpleField>
	<SimpleField name="view" type="string"></SimpleField>
	<SimpleField name="leveling_order" type="string"></SimpleField>
	<SimpleField name="leveling_height" type="string"></SimpleField>
	<SimpleField name="control_height" type="string"></SimpleField>
	<SimpleField name="benchmark_number" type="string"></SimpleField>
	<SimpleField name="control_location" type="string"></SimpleField>
	<SimpleField name="benchmark_type" type="string"></SimpleField>
	<SimpleField name="leveling_line_section" type="string"></SimpleField>
	<SimpleField name="location_description" type="string"></SimpleField>
	<SimpleField name="status" type="string"></SimpleField>
	<SimpleField name="guid" type="string"></SimpleField>
	<SimpleField name="kml" type="string"></SimpleField>
	<SimpleField name="kml_link" type="string"></SimpleField>
</Schema>
<Folder><name>43532c5b</name>
  <Placemark id="43532c5b.1">
	<name>5147</name>
	<name>грунтовый репер</name>
	<ExtendedData><SchemaData schemaUrl="#43532c5b">
		<SimpleData name="type">1</SimpleData>
		<SimpleData name="view">287.773</SimpleData>
		<SimpleData name="benchmark_number">160 оп, знак</SimpleData>
		<SimpleData name="control_location">Линия № 1: Туйемойнак - Торыустаган, І класс (1) Участок: грунт, реп, 2520 - грунт,реп, 5187</SimpleData>
		<SimpleData name="benchmark_type">Балакандым, к,, в 14,0 км к сев,-зап, от него, в 8,0 км к сев,-зап, от сол, род, Сорбулак, в 10 м к сев, от полевой дороги</SimpleData>
		<SimpleData name="location_description">43532c5b-3a5e-482a-8f94-512321b49e73</SimpleData>
		<SimpleData name="status">data/stations/43532c5b.kml</SimpleData>
		<SimpleData name="guid">&lt;a href='data/stations/43532c5b.kml' target='_blank'&gt;Download KML&lt;/a&gt;</SimpleData>
	</SchemaData></ExtendedData>
      <Point><coordinates>69.4948622348074,45.8374275698058</coordinates></Point>
  </Placemark>
</Folder>
</Document></kml>
