<?xml version="1.0" encoding="utf-8" ?>
<kml xmlns="http://www.opengis.net/kml/2.2">
<Document id="root_doc">
<Schema name="43af4c2d" id="43af4c2d">
	<SimpleField name="type" type="string"></SimpleField>
	<SimpleField name="view" type="string"></SimpleField>
	<SimpleField name="leveling_order" type="string"></SimpleField>
	<SimpleField name="leveling_height" type="string"></SimpleField>
	<SimpleField name="control_height" type="string"></SimpleField>
	<SimpleField name="benchmark_number" type="string"></SimpleField>
	<SimpleField name="control_location" type="string"></SimpleField>
	<SimpleField name="benchmark_type" type="string"></SimpleField>
	<SimpleField name="leveling_line_section" type="string"></SimpleField>
	<SimpleField name="location_description" type="string"></SimpleField>
	<SimpleField name="status" type="string"></SimpleField>
	<SimpleField name="guid" type="string"></SimpleField>
	<SimpleField name="kml" type="string"></SimpleField>
	<SimpleField name="kml_link" type="string"></SimpleField>
</Schema>
<Folder><name>43af4c2d</name>
  <Placemark id="43af4c2d.1">
	<name>351</name>
	<name>грунт,реп,</name>
	<ExtendedData><SchemaData schemaUrl="#43af4c2d">
		<SimpleData name="type">1</SimpleData>
		<SimpleData name="view">475.41</SimpleData>
		<SimpleData name="leveling_order">474,414</SimpleData>
		<SimpleData name="control_height">в трубе</SimpleData>
		<SimpleData name="benchmark_number">118 оп</SimpleData>
		<SimpleData name="control_location">Линия № I: Арысь - Хаваст, 1 класс
Участок: грунт,реп, 12-317 = фунд,реп,12-762</SimpleData>
		<SimpleData name="benchmark_type">Дарбаза станц,,в 6,4 км к сев,-зап,от
неё,на 10 ПК 3321 км,в 24 м к сев,-вост,от жел, дор,</SimpleData>
		<SimpleData name="location_description">43af4c2d-f794-4e1d-bfd5-e75fabb91cdb</SimpleData>
		<SimpleData name="status">data/stations/43af4c2d.kml</SimpleData>
		<SimpleData name="guid">&lt;a href='data/stations/43af4c2d.kml' target='_blank'&gt;Download KML&lt;/a&gt;</SimpleData>
	</SchemaData></ExtendedData>
      <Point><coordinates>69.0748505734634,41.6263616268284</coordinates></Point>
  </Placemark>
</Folder>
</Document></kml>
