<?xml version="1.0" encoding="utf-8" ?>
<kml xmlns="http://www.opengis.net/kml/2.2">
<Document id="root_doc">
<Schema name="43dcac59" id="43dcac59">
	<SimpleField name="title" type="string"></SimpleField>
	<SimpleField name="type" type="string"></SimpleField>
	<SimpleField name="ext_sign" type="string"></SimpleField>
	<SimpleField name="class_lvl" type="string"></SimpleField>
	<SimpleField name="height_lvl" type="string"></SimpleField>
	<SimpleField name="height_ctrl" type="string"></SimpleField>
	<SimpleField name="ctrl_place" type="string"></SimpleField>
	<SimpleField name="mark_num" type="string"></SimpleField>
	<SimpleField name="center_type" type="string"></SimpleField>
	<SimpleField name="lvl_line" type="string"></SimpleField>
	<SimpleField name="guid" type="string"></SimpleField>
</Schema>
<Folder><name>43dcac59</name>
  <Placemark id="43dcac59.1">
	<name>1426</name>
	<description>грунт.реп.</description>
	<ExtendedData><SchemaData schemaUrl="#43dcac59">
		<SimpleData name="type">2</SimpleData>
		<SimpleData name="ext_sign">13.2</SimpleData>
		<SimpleData name="class_lvl">12.087</SimpleData>
		<SimpleData name="height_lvl">Контрольный репер № 1429 в верхней плоскости монолита</SimpleData>
		<SimpleData name="ctrl_place">121 оп</SimpleData>
		<SimpleData name="mark_num">Линия №2: Жаман - Как= Нов. Уштаган, II класс (2) Участок: грунт.реп. 9335 - фунд.реп. 13</SimpleData>
		<SimpleData name="center_type">клх. Им. Калинина, в 5,0 км к юго-вост. от него в 2.3 км к сев. от зимовки в 12 м к зап. от полевой дороги</SimpleData>
		<SimpleData name="lvl_line">43dcac59-db50-4f7e-855b-d8cf2cc46426</SimpleData>
	</SchemaData></ExtendedData>
      <Point><coordinates>48.712174128576,48.8801085122093</coordinates></Point>
  </Placemark>
</Folder>
</Document></kml>
