<?xml version="1.0" encoding="utf-8" ?>
<kml xmlns="http://www.opengis.net/kml/2.2">
<Document id="root_doc">
<Schema name="44196927" id="44196927">
	<SimpleField name="title" type="string"></SimpleField>
	<SimpleField name="type" type="string"></SimpleField>
	<SimpleField name="ext_sign" type="string"></SimpleField>
	<SimpleField name="class_lvl" type="string"></SimpleField>
	<SimpleField name="height_lvl" type="string"></SimpleField>
	<SimpleField name="height_ctrl" type="string"></SimpleField>
	<SimpleField name="ctrl_place" type="string"></SimpleField>
	<SimpleField name="mark_num" type="string"></SimpleField>
	<SimpleField name="center_type" type="string"></SimpleField>
	<SimpleField name="lvl_line" type="string"></SimpleField>
	<SimpleField name="guid" type="string"></SimpleField>
</Schema>
<Folder><name>44196927</name>
  <Placemark id="44196927.1">
	<name>2951</name>
	<description>грунтовый репер</description>
	<ExtendedData><SchemaData schemaUrl="#44196927">
		<SimpleData name="type">1</SimpleData>
		<SimpleData name="ext_sign">277.936</SimpleData>
		<SimpleData name="height_lvl">160 оп</SimpleData>
		<SimpleData name="mark_num">Линия № 1: Сергеевка-Терсаккан. І класс </SimpleData>
		<SimpleData name="center_type">Шалгай.с..в 4.5 км к югу от него. в 1.5 км к зап.от мог.Косым.в 50 м к зап.от дороги с.Шалгай-с.Матросово</SimpleData>
		<SimpleData name="lvl_line">44196927-0321-4dc7-a2c4-af4b69bed074</SimpleData>
	</SchemaData></ExtendedData>
      <Point><coordinates>67.8284440392434,50.6815175585558</coordinates></Point>
  </Placemark>
</Folder>
</Document></kml>
