<?xml version="1.0" encoding="utf-8" ?>
<kml xmlns="http://www.opengis.net/kml/2.2">
<Document id="root_doc">
<Schema name="441bc9bf" id="441bc9bf">
	<SimpleField name="type" type="string"></SimpleField>
	<SimpleField name="view" type="string"></SimpleField>
	<SimpleField name="leveling_order" type="string"></SimpleField>
	<SimpleField name="leveling_height" type="string"></SimpleField>
	<SimpleField name="control_height" type="string"></SimpleField>
	<SimpleField name="benchmark_number" type="string"></SimpleField>
	<SimpleField name="control_location" type="string"></SimpleField>
	<SimpleField name="benchmark_type" type="string"></SimpleField>
	<SimpleField name="leveling_line_section" type="string"></SimpleField>
	<SimpleField name="location_description" type="string"></SimpleField>
	<SimpleField name="status" type="string"></SimpleField>
	<SimpleField name="guid" type="string"></SimpleField>
	<SimpleField name="kml" type="string"></SimpleField>
	<SimpleField name="kml_link" type="string"></SimpleField>
</Schema>
<Folder><name>441bc9bf</name>
  <Placemark id="441bc9bf.1">
	<name>2929</name>
	<name>грунтовый репер</name>
	<ExtendedData><SchemaData schemaUrl="#441bc9bf">
		<SimpleData name="type">1</SimpleData>
		<SimpleData name="view">357.786</SimpleData>
		<SimpleData name="benchmark_number">160 оп,зн</SimpleData>
		<SimpleData name="control_location">Линия №1: Тюемойнак - Торетоган, I класс (1) Участок: грунт, реп, 2929 - грунт,реп, 1029</SimpleData>
		<SimpleData name="benchmark_type">Сатыбалды, к,, в 10,0 км к сев, от него, в 3,2 км к юго­ вост, от пир, 2 кл, Иин, в 10 м к вост, от полевой дороги </SimpleData>
		<SimpleData name="location_description">441bc9bf-4ca6-43d1-885b-ef413b75907e</SimpleData>
		<SimpleData name="status">data/stations/441bc9bf.kml</SimpleData>
		<SimpleData name="guid">&lt;a href='data/stations/441bc9bf.kml' target='_blank'&gt;Download KML&lt;/a&gt;</SimpleData>
	</SchemaData></ExtendedData>
      <Point><coordinates>69.3301352142097,46.6810900530098</coordinates></Point>
  </Placemark>
</Folder>
</Document></kml>
