<?xml version="1.0" encoding="utf-8" ?>
<kml xmlns="http://www.opengis.net/kml/2.2">
<Document id="root_doc">
<Schema name="442ef510" id="442ef510">
	<SimpleField name="title" type="string"></SimpleField>
	<SimpleField name="type" type="string"></SimpleField>
	<SimpleField name="ext_sign" type="string"></SimpleField>
	<SimpleField name="class_lvl" type="string"></SimpleField>
	<SimpleField name="height_lvl" type="string"></SimpleField>
	<SimpleField name="height_ctrl" type="string"></SimpleField>
	<SimpleField name="ctrl_place" type="string"></SimpleField>
	<SimpleField name="mark_num" type="string"></SimpleField>
	<SimpleField name="center_type" type="string"></SimpleField>
	<SimpleField name="lvl_line" type="string"></SimpleField>
	<SimpleField name="guid" type="string"></SimpleField>
</Schema>
<Folder><name>442ef510</name>
  <Placemark id="442ef510.1">
	<name>Закладка</name>
	<description>Грунтовый репер</description>
	<ExtendedData><SchemaData schemaUrl="#442ef510">
		<SimpleData name="height_ctrl">3480</SimpleData>
		<SimpleData name="ctrl_place">162</SimpleData>
		<SimpleData name="lvl_line">442ef510-ce45-4716-86eb-37602f294f81</SimpleData>
	</SchemaData></ExtendedData>
      <Point><coordinates>75.7175316666667,50.06012</coordinates></Point>
  </Placemark>
</Folder>
</Document></kml>
