<?xml version="1.0" encoding="utf-8" ?>
<kml xmlns="http://www.opengis.net/kml/2.2">
<Document id="root_doc">
<Schema name="449d8c38" id="449d8c38">
	<SimpleField name="type" type="string"></SimpleField>
	<SimpleField name="view" type="string"></SimpleField>
	<SimpleField name="leveling_order" type="string"></SimpleField>
	<SimpleField name="leveling_height" type="string"></SimpleField>
	<SimpleField name="control_height" type="string"></SimpleField>
	<SimpleField name="benchmark_number" type="string"></SimpleField>
	<SimpleField name="control_location" type="string"></SimpleField>
	<SimpleField name="benchmark_type" type="string"></SimpleField>
	<SimpleField name="leveling_line_section" type="string"></SimpleField>
	<SimpleField name="location_description" type="string"></SimpleField>
	<SimpleField name="status" type="string"></SimpleField>
	<SimpleField name="guid" type="string"></SimpleField>
	<SimpleField name="kml" type="string"></SimpleField>
	<SimpleField name="kml_link" type="string"></SimpleField>
</Schema>
<Folder><name>449d8c38</name>
  <Placemark id="449d8c38.1">
	<name>221</name>
	<name>грунтовый репер</name>
	<ExtendedData><SchemaData schemaUrl="#449d8c38">
		<SimpleData name="type">II</SimpleData>
		<SimpleData name="view">533,216</SimpleData>
		<SimpleData name="leveling_order">530,450</SimpleData>
		<SimpleData name="control_height">Контрольный репер в верхней плоскости монолита</SimpleData>
		<SimpleData name="benchmark_number">121 оп</SimpleData>
		<SimpleData name="control_location">Линия № 7: Ульяновский - Степное. II класс (6)</SimpleData>
		<SimpleData name="benchmark_type">Жастлек, с., в 4,7 км к сев.-вост. от него, в 1,4 км к юго-вост. от мог. Кызтам, в 30 м к вост. от дороги с. Курома – с. Жастлек</SimpleData>
		<SimpleData name="location_description">449d8c38-c288-4568-a68d-85761c1a2d16</SimpleData>
		<SimpleData name="status">data/stations/449d8c38.kml</SimpleData>
		<SimpleData name="guid">&lt;a href='data/stations/449d8c38.kml' target='_blank'&gt;Download KML&lt;/a&gt;</SimpleData>
	</SchemaData></ExtendedData>
      <Point><coordinates>73.8527363504136,50.20840311042</coordinates></Point>
  </Placemark>
</Folder>
</Document></kml>
