<?xml version="1.0" encoding="utf-8" ?>
<kml xmlns="http://www.opengis.net/kml/2.2">
<Document id="root_doc">
<Schema name="44b2e3a3" id="44b2e3a3">
	<SimpleField name="title" type="string"></SimpleField>
	<SimpleField name="type" type="string"></SimpleField>
	<SimpleField name="ext_sign" type="string"></SimpleField>
	<SimpleField name="class_lvl" type="string"></SimpleField>
	<SimpleField name="height_lvl" type="string"></SimpleField>
	<SimpleField name="height_ctrl" type="string"></SimpleField>
	<SimpleField name="ctrl_place" type="string"></SimpleField>
	<SimpleField name="mark_num" type="string"></SimpleField>
	<SimpleField name="center_type" type="string"></SimpleField>
	<SimpleField name="lvl_line" type="string"></SimpleField>
	<SimpleField name="guid" type="string"></SimpleField>
</Schema>
<Folder><name>44b2e3a3</name>
  <Placemark id="44b2e3a3.1">
	<name>Закладка </name>
	<ExtendedData><SchemaData schemaUrl="#44b2e3a3">
		<SimpleData name="lvl_line">44b2e3a3-5332-46d3-ad96-3469a516e515</SimpleData>
	</SchemaData></ExtendedData>
      <Point><coordinates>64.3508231216812,50.0575177977479</coordinates></Point>
  </Placemark>
</Folder>
</Document></kml>
