<?xml version="1.0" encoding="utf-8" ?>
<kml xmlns="http://www.opengis.net/kml/2.2">
<Document id="root_doc">
<Schema name="4528c16a" id="4528c16a">
	<SimpleField name="type" type="string"></SimpleField>
	<SimpleField name="view" type="string"></SimpleField>
	<SimpleField name="leveling_order" type="string"></SimpleField>
	<SimpleField name="leveling_height" type="string"></SimpleField>
	<SimpleField name="control_height" type="string"></SimpleField>
	<SimpleField name="benchmark_number" type="string"></SimpleField>
	<SimpleField name="control_location" type="string"></SimpleField>
	<SimpleField name="benchmark_type" type="string"></SimpleField>
	<SimpleField name="leveling_line_section" type="string"></SimpleField>
	<SimpleField name="location_description" type="string"></SimpleField>
	<SimpleField name="status" type="string"></SimpleField>
	<SimpleField name="guid" type="string"></SimpleField>
	<SimpleField name="kml" type="string"></SimpleField>
	<SimpleField name="kml_link" type="string"></SimpleField>
</Schema>
<Folder><name>4528c16a</name>
  <Placemark id="4528c16a.1">
	<name>6123</name>
	<name>грунтовый репер</name>
	<ExtendedData><SchemaData schemaUrl="#4528c16a">
		<SimpleData name="type">2</SimpleData>
		<SimpleData name="view">102.033</SimpleData>
		<SimpleData name="benchmark_number">146 оп</SimpleData>
		<SimpleData name="benchmark_type">В 0,4 км к сев.от с. Черноярский, в 0,2 км к юго-зап.от МТМ, в 35 м к вост.от обрыва р. Иртыш, к зап.от дороги</SimpleData>
		<SimpleData name="leveling_line_section">утрачен</SimpleData>
		<SimpleData name="location_description">4528c16a-f44a-45c4-92c3-6a9d3550225d</SimpleData>
		<SimpleData name="status">data/stations/4528c16a.kml</SimpleData>
		<SimpleData name="guid">&lt;a href='data/stations/4528c16a.kml' target='_blank'&gt;Download KML&lt;/a&gt;</SimpleData>
	</SchemaData></ExtendedData>
      <Point><coordinates>76.7057797332614,52.6851563897723</coordinates></Point>
  </Placemark>
</Folder>
</Document></kml>
