<?xml version="1.0" encoding="utf-8" ?>
<kml xmlns="http://www.opengis.net/kml/2.2">
<Document id="root_doc">
<Schema name="452cd474" id="452cd474">
	<SimpleField name="type" type="string"></SimpleField>
	<SimpleField name="view" type="string"></SimpleField>
	<SimpleField name="leveling_order" type="string"></SimpleField>
	<SimpleField name="leveling_height" type="string"></SimpleField>
	<SimpleField name="control_height" type="string"></SimpleField>
	<SimpleField name="benchmark_number" type="string"></SimpleField>
	<SimpleField name="control_location" type="string"></SimpleField>
	<SimpleField name="benchmark_type" type="string"></SimpleField>
	<SimpleField name="leveling_line_section" type="string"></SimpleField>
	<SimpleField name="location_description" type="string"></SimpleField>
	<SimpleField name="status" type="string"></SimpleField>
	<SimpleField name="guid" type="string"></SimpleField>
	<SimpleField name="kml" type="string"></SimpleField>
	<SimpleField name="kml_link" type="string"></SimpleField>
</Schema>
<Folder><name>452cd474</name>
  <Placemark id="452cd474.1">
	<name>472</name>
	<name>грунт. реп.</name>
	<ExtendedData><SchemaData schemaUrl="#452cd474">
		<SimpleData name="type">2</SimpleData>
		<SimpleData name="view">236.583</SimpleData>
		<SimpleData name="leveling_order">235.383</SimpleData>
		<SimpleData name="benchmark_number">121 оп</SimpleData>
		<SimpleData name="control_location">Линия №2 : Новоильиновка - Актасты. II класс. Участок : грунт. реп. 7228- грунт. реп. 3085</SimpleData>
		<SimpleData name="benchmark_type">Глебовка. с.. в 1.2 км к сев. от него. в 0.2 км к сев.- зап. от брода через р.Тобол. в 42 м к сев. от дороги с. Львовка -с. Тобольский</SimpleData>
		<SimpleData name="location_description">452cd474-038b-4fb9-9316-bdf0ecc00238</SimpleData>
		<SimpleData name="status">data/stations/452cd474.kml</SimpleData>
		<SimpleData name="guid">&lt;a href='data/stations/452cd474.kml' target='_blank'&gt;Download KML&lt;/a&gt;</SimpleData>
	</SchemaData></ExtendedData>
      <Point><coordinates>61.485848165089,52.2193955558652</coordinates></Point>
  </Placemark>
</Folder>
</Document></kml>
