<?xml version="1.0" encoding="utf-8" ?>
<kml xmlns="http://www.opengis.net/kml/2.2">
<Document id="root_doc">
<Schema name="4547ec31" id="4547ec31">
	<SimpleField name="type" type="string"></SimpleField>
	<SimpleField name="view" type="string"></SimpleField>
	<SimpleField name="leveling_order" type="string"></SimpleField>
	<SimpleField name="leveling_height" type="string"></SimpleField>
	<SimpleField name="control_height" type="string"></SimpleField>
	<SimpleField name="benchmark_number" type="string"></SimpleField>
	<SimpleField name="control_location" type="string"></SimpleField>
	<SimpleField name="benchmark_type" type="string"></SimpleField>
	<SimpleField name="leveling_line_section" type="string"></SimpleField>
	<SimpleField name="location_description" type="string"></SimpleField>
	<SimpleField name="status" type="string"></SimpleField>
	<SimpleField name="guid" type="string"></SimpleField>
	<SimpleField name="kml" type="string"></SimpleField>
	<SimpleField name="kml_link" type="string"></SimpleField>
</Schema>
<Folder><name>4547ec31</name>
  <Placemark id="4547ec31.1">
	<name>2731</name>
	<name>грунт. реп.</name>
	<ExtendedData><SchemaData schemaUrl="#4547ec31">
		<SimpleData name="type">2</SimpleData>
		<SimpleData name="view">177,482</SimpleData>
		<SimpleData name="benchmark_number">160 оп</SimpleData>
		<SimpleData name="control_location">Линия № 3: Семиярск-Михайловка, II класс (2) Участок: фунд. реп. 4422-грунт. реп., 446 </SimpleData>
		<SimpleData name="benchmark_type">Жандос, отд. дв., в 9.5 км к юго-зап. от него, в 3 м к сев. от сев.-зап. Ноги пожарной вышки, в 1 м к сев. от оп. стб.</SimpleData>
		<SimpleData name="location_description">4547ec31-f8e3-44b3-9f41-2060a3edaa01</SimpleData>
		<SimpleData name="status">data/stations/4547ec31.kml</SimpleData>
		<SimpleData name="guid">&lt;a href='data/stations/4547ec31.kml' target='_blank'&gt;Download KML&lt;/a&gt;</SimpleData>
	</SchemaData></ExtendedData>
      <Point><coordinates>78.8546010843302,51.242822483496</coordinates></Point>
  </Placemark>
</Folder>
</Document></kml>
