<?xml version="1.0" encoding="utf-8" ?>
<kml xmlns="http://www.opengis.net/kml/2.2">
<Document id="root_doc">
<Schema name="45725fac" id="45725fac">
	<SimpleField name="title" type="string"></SimpleField>
	<SimpleField name="type" type="string"></SimpleField>
	<SimpleField name="ext_sign" type="string"></SimpleField>
	<SimpleField name="class_lvl" type="string"></SimpleField>
	<SimpleField name="height_lvl" type="string"></SimpleField>
	<SimpleField name="height_ctrl" type="string"></SimpleField>
	<SimpleField name="ctrl_place" type="string"></SimpleField>
	<SimpleField name="mark_num" type="string"></SimpleField>
	<SimpleField name="center_type" type="string"></SimpleField>
	<SimpleField name="lvl_line" type="string"></SimpleField>
	<SimpleField name="guid" type="string"></SimpleField>
</Schema>
<Folder><name>45725fac</name>
  <Placemark id="45725fac.1">
	<name>5365</name>
	<ExtendedData><SchemaData schemaUrl="#45725fac">
		<SimpleData name="title">грунтовый репер</SimpleData>
		<SimpleData name="type">2</SimpleData>
		<SimpleData name="ext_sign">504.112</SimpleData>
		<SimpleData name="ctrl_place">160 оп. знак</SimpleData>
		<SimpleData name="mark_num">Линия № 2: Аркарлы - Актас. 2 класс ( 2 ) Участок: фунд. реп. 23 - фунд. реп. 3029</SimpleData>
		<SimpleData name="center_type">Пыстан, г., в 5.4 км к юго-вост, от нее, в 2.2 км к сев. от к. Узынтас, в 22 м к вост, от полевой дороги</SimpleData>
		<SimpleData name="lvl_line">45725fac-d168-43bc-997e-3baa2c94fcb3</SimpleData>
	</SchemaData></ExtendedData>
      <Point><coordinates>70.8744170737976,46.6697750085147</coordinates></Point>
  </Placemark>
</Folder>
</Document></kml>
