<?xml version="1.0" encoding="utf-8" ?>
<kml xmlns="http://www.opengis.net/kml/2.2">
<Document id="root_doc">
<Schema name="45723728" id="45723728">
	<SimpleField name="title" type="string"></SimpleField>
	<SimpleField name="type" type="string"></SimpleField>
	<SimpleField name="ext_sign" type="string"></SimpleField>
	<SimpleField name="class_lvl" type="string"></SimpleField>
	<SimpleField name="height_lvl" type="string"></SimpleField>
	<SimpleField name="height_ctrl" type="string"></SimpleField>
	<SimpleField name="ctrl_place" type="string"></SimpleField>
	<SimpleField name="mark_num" type="string"></SimpleField>
	<SimpleField name="center_type" type="string"></SimpleField>
	<SimpleField name="lvl_line" type="string"></SimpleField>
	<SimpleField name="guid" type="string"></SimpleField>
</Schema>
<Folder><name>45723728</name>
  <Placemark id="45723728.1">
	<name>3181</name>
	<description>грунтовый репер</description>
	<ExtendedData><SchemaData schemaUrl="#45723728">
		<SimpleData name="type">1</SimpleData>
		<SimpleData name="ext_sign">496.145</SimpleData>
		<SimpleData name="height_lvl">116</SimpleData>
		<SimpleData name="ctrl_place">12</SimpleData>
		<SimpleData name="mark_num">Линия № 5: Талдысай - Тюемойнак. І класс </SimpleData>
		<SimpleData name="center_type">Жаксыкопа. оз.. в 6.0 км к югу от него. в 4.5 км к юго-вост. от п. тр. Жаксыкопа. в 60 м к сев. от родников и солончака. на сопке</SimpleData>
		<SimpleData name="lvl_line">45723728-4014-46bf-95df-ef30775a04ff</SimpleData>
	</SchemaData></ExtendedData>
      <Point><coordinates>68.7149658452322,49.1220319857295</coordinates></Point>
  </Placemark>
</Folder>
</Document></kml>
