<?xml version="1.0" encoding="utf-8" ?>
<kml xmlns="http://www.opengis.net/kml/2.2">
<Document id="root_doc">
<Schema name="45d7e5d5" id="45d7e5d5">
	<SimpleField name="type" type="string"></SimpleField>
	<SimpleField name="view" type="string"></SimpleField>
	<SimpleField name="leveling_order" type="string"></SimpleField>
	<SimpleField name="leveling_height" type="string"></SimpleField>
	<SimpleField name="control_height" type="string"></SimpleField>
	<SimpleField name="benchmark_number" type="string"></SimpleField>
	<SimpleField name="control_location" type="string"></SimpleField>
	<SimpleField name="benchmark_type" type="string"></SimpleField>
	<SimpleField name="leveling_line_section" type="string"></SimpleField>
	<SimpleField name="location_description" type="string"></SimpleField>
	<SimpleField name="status" type="string"></SimpleField>
	<SimpleField name="guid" type="string"></SimpleField>
	<SimpleField name="kml" type="string"></SimpleField>
	<SimpleField name="kml_link" type="string"></SimpleField>
</Schema>
<Folder><name>45d7e5d5</name>
  <Placemark id="45d7e5d5.1">
	<name>б/№</name>
	<name>грунт,реп,</name>
	<ExtendedData><SchemaData schemaUrl="#45d7e5d5">
		<SimpleData name="type">I</SimpleData>
		<SimpleData name="view">179.101</SimpleData>
		<SimpleData name="benchmark_number">160 оп,знак</SimpleData>
		<SimpleData name="control_location">Линия №1: Костанай - Петропавловска, I класс, Участок: грунт,реп, 0712 - грунт,реп, 0731</SimpleData>
		<SimpleData name="benchmark_type">Куприяновка, с,, в 0,3 км к сев,-зап,от него, в 0,3 км к сев,-вост,от кладбища, в 0,1 км к зап,от улучшенной грунт,дороги с, Новоишимское - с, Октябрьское</SimpleData>
		<SimpleData name="location_description">45d7e5d5-13e6-4e5d-871c-14a1af377bc0</SimpleData>
		<SimpleData name="status">data/stations/45d7e5d5.kml</SimpleData>
		<SimpleData name="guid">&lt;a href='data/stations/45d7e5d5.kml' target='_blank'&gt;Download KML&lt;/a&gt;</SimpleData>
	</SchemaData></ExtendedData>
      <Point><coordinates>66.9569692791229,53.3474527469635</coordinates></Point>
  </Placemark>
</Folder>
</Document></kml>
