<?xml version="1.0" encoding="utf-8" ?>
<kml xmlns="http://www.opengis.net/kml/2.2">
<Document id="root_doc">
<Schema name="45d7782d" id="45d7782d">
	<SimpleField name="type" type="string"></SimpleField>
	<SimpleField name="view" type="string"></SimpleField>
	<SimpleField name="leveling_order" type="string"></SimpleField>
	<SimpleField name="leveling_height" type="string"></SimpleField>
	<SimpleField name="control_height" type="string"></SimpleField>
	<SimpleField name="benchmark_number" type="string"></SimpleField>
	<SimpleField name="control_location" type="string"></SimpleField>
	<SimpleField name="benchmark_type" type="string"></SimpleField>
	<SimpleField name="leveling_line_section" type="string"></SimpleField>
	<SimpleField name="location_description" type="string"></SimpleField>
	<SimpleField name="status" type="string"></SimpleField>
	<SimpleField name="guid" type="string"></SimpleField>
	<SimpleField name="kml" type="string"></SimpleField>
	<SimpleField name="kml_link" type="string"></SimpleField>
</Schema>
<Folder><name>45d7782d</name>
  <Placemark id="45d7782d.1">
	<name>1856</name>
	<name>фунд. реп.</name>
	<ExtendedData><SchemaData schemaUrl="#45d7782d">
		<SimpleData name="type">2</SimpleData>
		<SimpleData name="view">199,268</SimpleData>
		<SimpleData name="benchmark_number">161 оп</SimpleData>
		<SimpleData name="control_location">Линия № 4: Семиярск-Коянды, II класс (3) Участок: грунт. реп. 1861-фунд. реп. 871</SimpleData>
		<SimpleData name="benchmark_type">Каракудык, лет., в 0.5 км к юго-зап. от него, в 75 м к сев.-зап. от грунт. реп. 2198, в 15 м к сев.-зап. от полевой дороги</SimpleData>
		<SimpleData name="leveling_line_section">не найден</SimpleData>
		<SimpleData name="location_description">45d7782d-2417-4b26-bb08-9462d3aa83d2</SimpleData>
		<SimpleData name="status">data/stations/45d7782d.kml</SimpleData>
		<SimpleData name="guid">&lt;a href='data/stations/45d7782d.kml' target='_blank'&gt;Download KML&lt;/a&gt;</SimpleData>
	</SchemaData></ExtendedData>
      <Point><coordinates>78.1117158349459,50.7230180060085</coordinates></Point>
  </Placemark>
</Folder>
</Document></kml>
