<?xml version="1.0" encoding="utf-8" ?>
<kml xmlns="http://www.opengis.net/kml/2.2">
<Document id="root_doc">
<Schema name="45f23e79" id="45f23e79">
	<SimpleField name="type" type="string"></SimpleField>
	<SimpleField name="view" type="string"></SimpleField>
	<SimpleField name="leveling_order" type="string"></SimpleField>
	<SimpleField name="leveling_height" type="string"></SimpleField>
	<SimpleField name="control_height" type="string"></SimpleField>
	<SimpleField name="benchmark_number" type="string"></SimpleField>
	<SimpleField name="control_location" type="string"></SimpleField>
	<SimpleField name="benchmark_type" type="string"></SimpleField>
	<SimpleField name="leveling_line_section" type="string"></SimpleField>
	<SimpleField name="location_description" type="string"></SimpleField>
	<SimpleField name="status" type="string"></SimpleField>
	<SimpleField name="guid" type="string"></SimpleField>
	<SimpleField name="kml" type="string"></SimpleField>
	<SimpleField name="kml_link" type="string"></SimpleField>
</Schema>
<Folder><name>45f23e79</name>
  <Placemark id="45f23e79.1">
	<name>2852</name>
	<name>грунт.реп.</name>
	<ExtendedData><SchemaData schemaUrl="#45f23e79">
		<SimpleData name="type">ІІ</SimpleData>
		<SimpleData name="view">524.322</SimpleData>
		<SimpleData name="control_height">Контрольный репер в верхней плоскости монолита</SimpleData>
		<SimpleData name="benchmark_number">160</SimpleData>
		<SimpleData name="control_location">Линия № 2: Талдысай-Жиделисай, ІІ класс (2) Участок: грунт.реп. 3097 - грунт.реп. 2925</SimpleData>
		<SimpleData name="benchmark_type">Бетбулак, с., в 18. 0 км к юго-зап от него, в 2.5 км к сев-вост от к. Аккудук, в 0.1 км к зап от дороги зим. Шахабай - с. Малшыбай</SimpleData>
		<SimpleData name="location_description">45f23e79-963e-4361-acd0-12b81c74cf03</SimpleData>
		<SimpleData name="status">data/stations/45f23e79.kml</SimpleData>
		<SimpleData name="guid">&lt;a href='data/stations/45f23e79.kml' target='_blank'&gt;Download KML&lt;/a&gt;</SimpleData>
	</SchemaData></ExtendedData>
      <Point><coordinates>67.9096418985139,48.7456627652602</coordinates></Point>
  </Placemark>
</Folder>
</Document></kml>
