<?xml version="1.0" encoding="utf-8" ?>
<kml xmlns="http://www.opengis.net/kml/2.2">
<Document id="root_doc">
<Schema name="4683cdd2" id="4683cdd2">
	<SimpleField name="title" type="string"></SimpleField>
	<SimpleField name="type" type="string"></SimpleField>
	<SimpleField name="ext_sign" type="string"></SimpleField>
	<SimpleField name="class_lvl" type="string"></SimpleField>
	<SimpleField name="height_lvl" type="string"></SimpleField>
	<SimpleField name="height_ctrl" type="string"></SimpleField>
	<SimpleField name="ctrl_place" type="string"></SimpleField>
	<SimpleField name="mark_num" type="string"></SimpleField>
	<SimpleField name="center_type" type="string"></SimpleField>
	<SimpleField name="lvl_line" type="string"></SimpleField>
	<SimpleField name="guid" type="string"></SimpleField>
</Schema>
<Folder><name>4683cdd2</name>
  <Placemark id="4683cdd2.1">
	<name>1043</name>
	<description>грунтовый репер</description>
	<ExtendedData><SchemaData schemaUrl="#4683cdd2">
		<SimpleData name="type">1</SimpleData>
		<SimpleData name="ext_sign">209,22</SimpleData>
		<SimpleData name="ctrl_place">160 оп, знак</SimpleData>
		<SimpleData name="mark_num">Линия № 1: Туйемойнак - Торыустаган, 1 класс (1) Участок: грунт, реп, 3215 - фунд, реп, 9993</SimpleData>
		<SimpleData name="center_type">Торыустаган, с,, в 15,4 км к сев,-вост, от него, в 2,6 км к сев, от арт, к, № 4837, в 90 м к югу от развилки полевой дороги</SimpleData>
		<SimpleData name="lvl_line">4683cdd2-1983-4de5-a7da-599496ace189</SimpleData>
	</SchemaData></ExtendedData>
      <Point><coordinates>69.7333256249597,44.9113774330991</coordinates></Point>
  </Placemark>
</Folder>
</Document></kml>
