<?xml version="1.0" encoding="utf-8" ?>
<kml xmlns="http://www.opengis.net/kml/2.2">
<Document id="root_doc">
<Schema name="46fade3d" id="46fade3d">
	<SimpleField name="title" type="string"></SimpleField>
	<SimpleField name="type" type="string"></SimpleField>
	<SimpleField name="ext_sign" type="string"></SimpleField>
	<SimpleField name="class_lvl" type="string"></SimpleField>
	<SimpleField name="height_lvl" type="string"></SimpleField>
	<SimpleField name="height_ctrl" type="string"></SimpleField>
	<SimpleField name="ctrl_place" type="string"></SimpleField>
	<SimpleField name="mark_num" type="string"></SimpleField>
	<SimpleField name="center_type" type="string"></SimpleField>
	<SimpleField name="lvl_line" type="string"></SimpleField>
	<SimpleField name="guid" type="string"></SimpleField>
</Schema>
<Folder><name>46fade3d</name>
  <Placemark id="46fade3d.1">
	<name>5003фунд(найденый)</name>
	<description>Фунд. реп. </description>
	<ExtendedData><SchemaData schemaUrl="#46fade3d">
		<SimpleData name="lvl_line">46fade3d-1322-44f2-98ed-583415a67ca7</SimpleData>
	</SchemaData></ExtendedData>
      <Point><coordinates>69.4909044055907,50.0052319274195</coordinates></Point>
  </Placemark>
</Folder>
</Document></kml>
