<?xml version="1.0" encoding="utf-8" ?>
<kml xmlns="http://www.opengis.net/kml/2.2">
<Document id="root_doc">
<Schema name="47eb0475" id="47eb0475">
	<SimpleField name="type" type="string"></SimpleField>
	<SimpleField name="view" type="string"></SimpleField>
	<SimpleField name="leveling_order" type="string"></SimpleField>
	<SimpleField name="leveling_height" type="string"></SimpleField>
	<SimpleField name="control_height" type="string"></SimpleField>
	<SimpleField name="benchmark_number" type="string"></SimpleField>
	<SimpleField name="control_location" type="string"></SimpleField>
	<SimpleField name="benchmark_type" type="string"></SimpleField>
	<SimpleField name="leveling_line_section" type="string"></SimpleField>
	<SimpleField name="location_description" type="string"></SimpleField>
	<SimpleField name="status" type="string"></SimpleField>
	<SimpleField name="guid" type="string"></SimpleField>
	<SimpleField name="kml" type="string"></SimpleField>
	<SimpleField name="kml_link" type="string"></SimpleField>
</Schema>
<Folder><name>47eb0475</name>
  <Placemark id="47eb0475.1">
	<name>25</name>
	<description>грунт. реп.</description>
	<ExtendedData><SchemaData schemaUrl="#47eb0475">
		<SimpleData name="type">1</SimpleData>
		<SimpleData name="view">646.237</SimpleData>
		<SimpleData name="leveling_order">643,398</SimpleData>
		<SimpleData name="control_height">Контрольный репер в верхней плоскости монолита</SimpleData>
		<SimpleData name="benchmark_number">123</SimpleData>
		<SimpleData name="control_location">Участок: грунт.реп. 18 - грунт.реп. 27</SimpleData>
		<SimpleData name="benchmark_type">Новый Путь, с., в 1,5 км к юго-вост.от него, в 0,7 км к сев.-вост.от кладбища, у шоссе с. Новый Путь -с. Карбушевка</SimpleData>
		<SimpleData name="leveling_line_section">уничтожен  по сводному каталогу</SimpleData>
		<SimpleData name="location_description">47eb0475-6525-40fa-8d5a-0d590bc80ffd</SimpleData>
		<SimpleData name="status">data/stations/47eb0475.kml</SimpleData>
		<SimpleData name="guid">&lt;a href='data/stations/47eb0475.kml' target='_blank'&gt;Download KML&lt;/a&gt;</SimpleData>
	</SchemaData></ExtendedData>
      <Point><coordinates>74.9313644611321,49.7032980757183</coordinates></Point>
  </Placemark>
</Folder>
</Document></kml>
