<?xml version="1.0" encoding="utf-8" ?>
<kml xmlns="http://www.opengis.net/kml/2.2">
<Document id="root_doc">
<Schema name="486e82c7" id="486e82c7">
	<SimpleField name="type" type="string"></SimpleField>
	<SimpleField name="view" type="string"></SimpleField>
	<SimpleField name="leveling_order" type="string"></SimpleField>
	<SimpleField name="leveling_height" type="string"></SimpleField>
	<SimpleField name="control_height" type="string"></SimpleField>
	<SimpleField name="benchmark_number" type="string"></SimpleField>
	<SimpleField name="control_location" type="string"></SimpleField>
	<SimpleField name="benchmark_type" type="string"></SimpleField>
	<SimpleField name="leveling_line_section" type="string"></SimpleField>
	<SimpleField name="location_description" type="string"></SimpleField>
	<SimpleField name="status" type="string"></SimpleField>
	<SimpleField name="guid" type="string"></SimpleField>
	<SimpleField name="kml" type="string"></SimpleField>
	<SimpleField name="kml_link" type="string"></SimpleField>
</Schema>
<Folder><name>486e82c7</name>
  <Placemark id="486e82c7.1">
	<name>2</name>
	<name>грунт. реп. </name>
	<ExtendedData><SchemaData schemaUrl="#486e82c7">
		<SimpleData name="type">1</SimpleData>
		<SimpleData name="view">267,485</SimpleData>
		<SimpleData name="benchmark_number">138 оп</SimpleData>
		<SimpleData name="control_location">Линия № 3: Сары - Озек - Семей, I класс (1,2) Участок: грунт. реп. 6087 - фунд. реп. 2906</SimpleData>
		<SimpleData name="benchmark_type">Шоптыкак, станц., в 2.3 км к сев.-зап. от нее, на 10 пк 23 км, в 73 м к сев.-вост. от грунт. дороги станц.Шоптыкак - разъезд №1.</SimpleData>
		<SimpleData name="location_description">486e82c7-c32b-463b-ae5a-0c555b23d0a7</SimpleData>
		<SimpleData name="status">data/stations/486e82c7.kml</SimpleData>
		<SimpleData name="guid">&lt;a href='data/stations/486e82c7.kml' target='_blank'&gt;Download KML&lt;/a&gt;</SimpleData>
	</SchemaData></ExtendedData>
      <Point><coordinates>80.4386300237457,50.2495303113958</coordinates></Point>
  </Placemark>
</Folder>
</Document></kml>
