<?xml version="1.0" encoding="utf-8" ?>
<kml xmlns="http://www.opengis.net/kml/2.2">
<Document id="root_doc">
<Schema name="4880d74e" id="4880d74e">
	<SimpleField name="type" type="string"></SimpleField>
	<SimpleField name="view" type="string"></SimpleField>
	<SimpleField name="leveling_order" type="string"></SimpleField>
	<SimpleField name="leveling_height" type="string"></SimpleField>
	<SimpleField name="control_height" type="string"></SimpleField>
	<SimpleField name="benchmark_number" type="string"></SimpleField>
	<SimpleField name="control_location" type="string"></SimpleField>
	<SimpleField name="benchmark_type" type="string"></SimpleField>
	<SimpleField name="leveling_line_section" type="string"></SimpleField>
	<SimpleField name="location_description" type="string"></SimpleField>
	<SimpleField name="status" type="string"></SimpleField>
	<SimpleField name="guid" type="string"></SimpleField>
	<SimpleField name="kml" type="string"></SimpleField>
	<SimpleField name="kml_link" type="string"></SimpleField>
</Schema>
<Folder><name>4880d74e</name>
  <Placemark id="4880d74e.1">
	<name>957</name>
	<name>грунтовый репер</name>
	<ExtendedData><SchemaData schemaUrl="#4880d74e">
		<SimpleData name="type">II</SimpleData>
		<SimpleData name="view">382,333</SimpleData>
		<SimpleData name="benchmark_number">160оп</SimpleData>
		<SimpleData name="control_location">Линия №1: Сарыкияк - Степное, II класс (1)  Участок: грунт.реп.2 - грунт.реп. 10974</SimpleData>
		<SimpleData name="location_description">4880d74e-0be7-4590-832e-6b293ade23f7</SimpleData>
		<SimpleData name="status">data/stations/4880d74e.kml</SimpleData>
		<SimpleData name="guid">&lt;a href='data/stations/4880d74e.kml' target='_blank'&gt;Download KML&lt;/a&gt;</SimpleData>
	</SchemaData></ExtendedData>
      <Point><coordinates>74.7003055690472,51.189846112921</coordinates></Point>
  </Placemark>
</Folder>
</Document></kml>
