<?xml version="1.0" encoding="utf-8" ?>
<kml xmlns="http://www.opengis.net/kml/2.2">
<Document id="root_doc">
<Schema name="48818561" id="48818561">
	<SimpleField name="title" type="string"></SimpleField>
	<SimpleField name="type" type="string"></SimpleField>
	<SimpleField name="ext_sign" type="string"></SimpleField>
	<SimpleField name="class_lvl" type="string"></SimpleField>
	<SimpleField name="height_lvl" type="string"></SimpleField>
	<SimpleField name="height_ctrl" type="string"></SimpleField>
	<SimpleField name="ctrl_place" type="string"></SimpleField>
	<SimpleField name="mark_num" type="string"></SimpleField>
	<SimpleField name="center_type" type="string"></SimpleField>
	<SimpleField name="lvl_line" type="string"></SimpleField>
	<SimpleField name="guid" type="string"></SimpleField>
</Schema>
<Folder><name>48818561</name>
  <Placemark id="48818561.1">
	<name>7065</name>
	<description>грунтовый репер</description>
	<ExtendedData><SchemaData schemaUrl="#48818561">
		<SimpleData name="type">2</SimpleData>
		<SimpleData name="ext_sign">-12,383</SimpleData>
		<SimpleData name="ctrl_place">15 оп  знак</SimpleData>
		<SimpleData name="mark_num">Линия II класса: Богдо-Нов.Уштаган-Малый Арал</SimpleData>
		<SimpleData name="center_type">Кошалак, с., в 31,8 км к сев.-зап. от него, в 5,4 км к юго-зап. от зим. свх. им. Курмангазы, в 3,8 км к зап. от кладб. Шадьялмолла, в 30 м к зап. от полевой дороги</SimpleData>
		<SimpleData name="lvl_line">48818561-d992-4db3-b82d-4ae8fba7d6d1</SimpleData>
	</SchemaData></ExtendedData>
      <Point><coordinates>48.8426495558485,47.6099833118646</coordinates></Point>
  </Placemark>
</Folder>
</Document></kml>
