<?xml version="1.0" encoding="utf-8" ?>
<kml xmlns="http://www.opengis.net/kml/2.2">
<Document id="root_doc">
<Schema name="48d85d51" id="48d85d51">
	<SimpleField name="type" type="string"></SimpleField>
	<SimpleField name="view" type="string"></SimpleField>
	<SimpleField name="leveling_order" type="string"></SimpleField>
	<SimpleField name="leveling_height" type="string"></SimpleField>
	<SimpleField name="control_height" type="string"></SimpleField>
	<SimpleField name="benchmark_number" type="string"></SimpleField>
	<SimpleField name="control_location" type="string"></SimpleField>
	<SimpleField name="benchmark_type" type="string"></SimpleField>
	<SimpleField name="leveling_line_section" type="string"></SimpleField>
	<SimpleField name="location_description" type="string"></SimpleField>
	<SimpleField name="status" type="string"></SimpleField>
	<SimpleField name="guid" type="string"></SimpleField>
	<SimpleField name="kml" type="string"></SimpleField>
	<SimpleField name="kml_link" type="string"></SimpleField>
</Schema>
<Folder><name>48d85d51</name>
  <Placemark id="48d85d51.1">
	<name>1472</name>
	<description>фунд.реп.</description>
	<ExtendedData><SchemaData schemaUrl="#48d85d51">
		<SimpleData name="type">2</SimpleData>
		<SimpleData name="view">198.835</SimpleData>
		<SimpleData name="leveling_order">197.343</SimpleData>
		<SimpleData name="benchmark_number">117 оп</SimpleData>
		<SimpleData name="control_location">Линия № І : Троицк - Кустанай, II класс                     Участок : марка 3468 - грунт.реп. 931</SimpleData>
		<SimpleData name="benchmark_type">207-й км жел.дор., в 61 м к юго-вост. От пк. 5/6, в 43м к зап. От пк 6/7, в 27 м к юго-зап. От ближайшего рельса</SimpleData>
		<SimpleData name="leveling_line_section">утрачен</SimpleData>
		<SimpleData name="location_description">48d85d51-4c56-4cd9-ad3c-60dac3eab076</SimpleData>
		<SimpleData name="status">data/stations/48d85d51.kml</SimpleData>
		<SimpleData name="guid">&lt;a href='data/stations/48d85d51.kml' target='_blank'&gt;Download KML&lt;/a&gt;</SimpleData>
	</SchemaData></ExtendedData>
      <Point><coordinates>62.6887761131644,53.6565722964436</coordinates></Point>
  </Placemark>
</Folder>
</Document></kml>
