<?xml version="1.0" encoding="utf-8" ?>
<kml xmlns="http://www.opengis.net/kml/2.2">
<Document id="root_doc">
<Schema name="48f2e20f" id="48f2e20f">
	<SimpleField name="type" type="string"></SimpleField>
	<SimpleField name="view" type="string"></SimpleField>
	<SimpleField name="leveling_order" type="string"></SimpleField>
	<SimpleField name="leveling_height" type="string"></SimpleField>
	<SimpleField name="control_height" type="string"></SimpleField>
	<SimpleField name="benchmark_number" type="string"></SimpleField>
	<SimpleField name="control_location" type="string"></SimpleField>
	<SimpleField name="benchmark_type" type="string"></SimpleField>
	<SimpleField name="leveling_line_section" type="string"></SimpleField>
	<SimpleField name="location_description" type="string"></SimpleField>
	<SimpleField name="status" type="string"></SimpleField>
	<SimpleField name="guid" type="string"></SimpleField>
	<SimpleField name="kml" type="string"></SimpleField>
	<SimpleField name="kml_link" type="string"></SimpleField>
</Schema>
<Folder><name>48f2e20f</name>
  <Placemark id="48f2e20f.1">
	<name>3318</name>
	<name>грунт.реп.</name>
	<ExtendedData><SchemaData schemaUrl="#48f2e20f">
		<SimpleData name="type">2</SimpleData>
		<SimpleData name="view">519,922</SimpleData>
		<SimpleData name="benchmark_number">146 оп</SimpleData>
		<SimpleData name="control_location">Линия № 2 :       Усть-Каменогорск - Зайсан, II класс(1) Участок :                 ск.реп. 2906 - грунт.реп. 9861</SimpleData>
		<SimpleData name="benchmark_type">1-й Бокуон, зим., в 7,3 км к юго-зап. от нее, в 68 м к сев.-вост. от с. Такыр, в 5 м к югу от дороги зим. 1-й Бокуон - с. Такыр</SimpleData>
		<SimpleData name="location_description">48f2e20f-b635-4bd2-989a-05ab86f761f0</SimpleData>
		<SimpleData name="status">data/stations/48f2e20f.kml</SimpleData>
		<SimpleData name="guid">&lt;a href='data/stations/48f2e20f.kml' target='_blank'&gt;Download KML&lt;/a&gt;</SimpleData>
	</SchemaData></ExtendedData>
      <Point><coordinates>84.8802934481826,48.1812563244684</coordinates></Point>
  </Placemark>
</Folder>
</Document></kml>
