<?xml version="1.0" encoding="UTF-8"?>
<kml xmlns="http://www.opengis.net/kml/2.2">
  <Document id="root_doc">
    <Schema id="48fe92d9" name="48fe92d9">
      <SimpleField name="title" type="string"/>
      <SimpleField name="type" type="string"/>
      <SimpleField name="ext_sign" type="string"/>
      <SimpleField name="class_lvl" type="string"/>
      <SimpleField name="height_lvl" type="string"/>
      <SimpleField name="height_ctrl" type="string"/>
      <SimpleField name="ctrl_place" type="string"/>
      <SimpleField name="mark_num" type="string"/>
      <SimpleField name="center_type" type="string"/>
      <SimpleField name="lvl_line" type="string"/>
      <SimpleField name="guid" type="string"/>
    </Schema>
    <Schema id="_48fe92d9.schema">
      <SimpleField name="title" type="string"/>
      <SimpleField name="type" type="string"/>
      <SimpleField name="ext_sign" type="string"/>
      <SimpleField name="class_lvl" type="string"/>
      <SimpleField name="height_lvl" type="string"/>
      <SimpleField name="height_ctrl" type="string"/>
      <SimpleField name="ctrl_place" type="string"/>
      <SimpleField name="mark_num" type="string"/>
      <SimpleField name="center_type" type="string"/>
      <SimpleField name="lvl_line" type="string"/>
      <SimpleField name="guid" type="string"/>
    </Schema>
    <Document id="_48fe92d9">
      <name>48fe92d9</name>
      <Placemark id="_48fe92d9.1">
        <description>Талдыкудук, к., в 6.6 км к юго-вост, от него, в 0.9 км к сев.-зап. от пов. стб. ЛЭП, в 30 м к сев.-вост, от грунт, дороги гор. Жезказган - с. Сузак</description>
        <ExtendedData>
          <SchemaData schemaUrl="#_48fe92d9.schema">
            <SimpleData name="title">3515</SimpleData>
            <SimpleData name="type">грунтовый репер</SimpleData>
            <SimpleData name="ext_sign">грунтовый репер</SimpleData>
            <SimpleData name="class_lvl">2</SimpleData>
            <SimpleData name="height_lvl">268,73</SimpleData>
            <SimpleData name="center_type">160 оп. знак</SimpleData>
            <SimpleData name="lvl_line">Линия № 1. Древний Курган - Кендырлык (Айгарлык), 2 класс (2) Участок: грунт, реп. 8417 - грунт, реп. 242</SimpleData>
            <SimpleData name="guid">48fe92d9-056b-4bdf-a5cf-00f1f4751174</SimpleData>
          </SchemaData>
        </ExtendedData>
        <Point>
          <coordinates>
            68.1217896702996,47.0697278213821,0
          </coordinates>
        </Point>
      </Placemark>
    </Document>
  </Document>
</kml>
