<?xml version="1.0" encoding="utf-8" ?>
<kml xmlns="http://www.opengis.net/kml/2.2">
<Document id="root_doc">
<Schema name="49087cd2" id="49087cd2">
	<SimpleField name="type" type="string"></SimpleField>
	<SimpleField name="view" type="string"></SimpleField>
	<SimpleField name="leveling_order" type="string"></SimpleField>
	<SimpleField name="leveling_height" type="string"></SimpleField>
	<SimpleField name="control_height" type="string"></SimpleField>
	<SimpleField name="benchmark_number" type="string"></SimpleField>
	<SimpleField name="control_location" type="string"></SimpleField>
	<SimpleField name="benchmark_type" type="string"></SimpleField>
	<SimpleField name="leveling_line_section" type="string"></SimpleField>
	<SimpleField name="location_description" type="string"></SimpleField>
	<SimpleField name="status" type="string"></SimpleField>
	<SimpleField name="guid" type="string"></SimpleField>
	<SimpleField name="kml" type="string"></SimpleField>
	<SimpleField name="kml_link" type="string"></SimpleField>
</Schema>
<Folder><name>49087cd2</name>
  <Placemark id="49087cd2.1">
	<name>5344</name>
	<name>грунт.реп.</name>
	<description>грунт.реп.</description>
	<ExtendedData><SchemaData schemaUrl="#49087cd2">
		<SimpleData name="type">II</SimpleData>
		<SimpleData name="view">412.114</SimpleData>
		<SimpleData name="benchmark_number">160 оп.знак</SimpleData>
		<SimpleData name="control_location">Линия № 2:Капчагай-Акколь II класс                            Участок: грунт.реп. 5262-грунт.реп. 4845</SimpleData>
		<SimpleData name="benchmark_type">Бак6акты,с.,в 0.5 км к зап.от него,в 55 м к сев.-зап.от км.ст6.168/97 шоссе с.Баканас-гор.А.лматы </SimpleData>
		<SimpleData name="location_description">49087cd2-b9ab-47d7-bbcf-34a1b7fac89c</SimpleData>
		<SimpleData name="status">data/stations/49087cd2.kml</SimpleData>
		<SimpleData name="guid">&lt;a href='data/stations/49087cd2.kml' target='_blank'&gt;Download KML&lt;/a&gt;</SimpleData>
	</SchemaData></ExtendedData>
      <Point><coordinates>76.7020858837097,44.5676599432018</coordinates></Point>
  </Placemark>
</Folder>
</Document></kml>
