<?xml version="1.0" encoding="utf-8" ?>
<kml xmlns="http://www.opengis.net/kml/2.2">
<Document id="root_doc">
<Schema name="496fb448" id="496fb448">
	<SimpleField name="type" type="string"></SimpleField>
	<SimpleField name="view" type="string"></SimpleField>
	<SimpleField name="leveling_order" type="string"></SimpleField>
	<SimpleField name="leveling_height" type="string"></SimpleField>
	<SimpleField name="control_height" type="string"></SimpleField>
	<SimpleField name="benchmark_number" type="string"></SimpleField>
	<SimpleField name="control_location" type="string"></SimpleField>
	<SimpleField name="benchmark_type" type="string"></SimpleField>
	<SimpleField name="leveling_line_section" type="string"></SimpleField>
	<SimpleField name="location_description" type="string"></SimpleField>
	<SimpleField name="status" type="string"></SimpleField>
	<SimpleField name="guid" type="string"></SimpleField>
	<SimpleField name="kml" type="string"></SimpleField>
	<SimpleField name="kml_link" type="string"></SimpleField>
</Schema>
<Folder><name>496fb448</name>
  <Placemark id="496fb448.1">
	<name>2494</name>
	<name>грунт,реп,</name>
	<ExtendedData><SchemaData schemaUrl="#496fb448">
		<SimpleData name="type">I</SimpleData>
		<SimpleData name="view">406.055</SimpleData>
		<SimpleData name="benchmark_number">160 оп,</SimpleData>
		<SimpleData name="control_location">Линия №1: Петропавловск -Астана (Целиноград), I класса (1) Участок: грунт,реп,92009 - грунт,реп,91306</SimpleData>
		<SimpleData name="benchmark_type">Елизаветинка,с,, в 3,5 км к сев,-зап, от него, на 6 пк 553 км, в 60 м к вост,от стб,ЛЭП № 448, в 52 м к вост,от жел,-дор, полотна</SimpleData>
		<SimpleData name="leveling_line_section">1,Репер в хорошом состоянии, 2,Марка очищена от ржавчины и покрыта битумным лаком, Опознавательный знак окрашен,</SimpleData>
		<SimpleData name="location_description">496fb448-d7db-479c-b7b6-e2733daedfae</SimpleData>
		<SimpleData name="status">data/stations/496fb448.kml</SimpleData>
		<SimpleData name="guid">&lt;a href='data/stations/496fb448.kml' target='_blank'&gt;Download KML&lt;/a&gt;</SimpleData>
	</SchemaData></ExtendedData>
      <Point><coordinates>71.1665594667204,51.4969719254452</coordinates></Point>
  </Placemark>
</Folder>
</Document></kml>
