<?xml version="1.0" encoding="utf-8" ?>
<kml xmlns="http://www.opengis.net/kml/2.2">
<Document id="root_doc">
<Schema name="498488b4" id="498488b4">
	<SimpleField name="title" type="string"></SimpleField>
	<SimpleField name="type" type="string"></SimpleField>
	<SimpleField name="ext_sign" type="string"></SimpleField>
	<SimpleField name="class_lvl" type="string"></SimpleField>
	<SimpleField name="height_lvl" type="string"></SimpleField>
	<SimpleField name="height_ctrl" type="string"></SimpleField>
	<SimpleField name="ctrl_place" type="string"></SimpleField>
	<SimpleField name="mark_num" type="string"></SimpleField>
	<SimpleField name="center_type" type="string"></SimpleField>
	<SimpleField name="lvl_line" type="string"></SimpleField>
	<SimpleField name="guid" type="string"></SimpleField>
</Schema>
<Folder><name>498488b4</name>
  <Placemark id="498488b4.1">
	<name>8803</name>
	<description>грунтовый репер</description>
	<ExtendedData><SchemaData schemaUrl="#498488b4">
		<SimpleData name="type">2</SimpleData>
		<SimpleData name="ext_sign">570,738</SimpleData>
		<SimpleData name="ctrl_place">163</SimpleData>
		<SimpleData name="mark_num">Линия № 2 :       Усть-Каменогорск - Зайсан, II класс(1) Участок :                 ск.реп. 2906 - грунт.реп. 9861</SimpleData>
		<SimpleData name="center_type">1-й Бокуон, зим., в 0,5 км к югу от нее, в 0,4 км к вост. от развилки полевой дороги, в 15 м к сев. от дороги зим. 1-й Бокуон - с. Такыр</SimpleData>
		<SimpleData name="lvl_line">498488b4-c91e-4f63-915c-9be04497a237</SimpleData>
	</SchemaData></ExtendedData>
      <Point><coordinates>84.7868204809498,48.1966174956894</coordinates></Point>
  </Placemark>
</Folder>
</Document></kml>
