<?xml version="1.0" encoding="utf-8" ?>
<kml xmlns="http://www.opengis.net/kml/2.2">
<Document id="root_doc">
<Schema name="49c52bec" id="49c52bec">
	<SimpleField name="type" type="string"></SimpleField>
	<SimpleField name="view" type="string"></SimpleField>
	<SimpleField name="leveling_order" type="string"></SimpleField>
	<SimpleField name="leveling_height" type="string"></SimpleField>
	<SimpleField name="control_height" type="string"></SimpleField>
	<SimpleField name="benchmark_number" type="string"></SimpleField>
	<SimpleField name="control_location" type="string"></SimpleField>
	<SimpleField name="benchmark_type" type="string"></SimpleField>
	<SimpleField name="leveling_line_section" type="string"></SimpleField>
	<SimpleField name="location_description" type="string"></SimpleField>
	<SimpleField name="status" type="string"></SimpleField>
	<SimpleField name="guid" type="string"></SimpleField>
	<SimpleField name="kml" type="string"></SimpleField>
	<SimpleField name="kml_link" type="string"></SimpleField>
</Schema>
<Folder><name>49c52bec</name>
  <Placemark id="49c52bec.1">
	<name>2987</name>
	<name>фундаментальный репер</name>
	<ExtendedData><SchemaData schemaUrl="#49c52bec">
		<SimpleData name="type">2</SimpleData>
		<SimpleData name="view">164.859</SimpleData>
		<SimpleData name="benchmark_number">154 оп</SimpleData>
		<SimpleData name="control_location">Линия №1: Старый Ерментау-Седьмой Аул, II класс (I)</SimpleData>
		<SimpleData name="benchmark_type">Экибастузский,свх., в 2.0 км к сев.-зап. от него, в 1.5 км к юго-зап. от моста через р.Шидерты, в 70 м к юго-вост. от дороги свх. Экибастузский-гор.Экибастуз</SimpleData>
		<SimpleData name="location_description">49c52bec-45da-4a0d-8d4f-2e9de8ccf617</SimpleData>
		<SimpleData name="status">data/stations/49c52bec.kml</SimpleData>
		<SimpleData name="guid">&lt;a href='data/stations/49c52bec.kml' target='_blank'&gt;Download KML&lt;/a&gt;</SimpleData>
	</SchemaData></ExtendedData>
      <Point><coordinates>74.8856638278846,52.0035860233719</coordinates></Point>
  </Placemark>
</Folder>
</Document></kml>
