<?xml version="1.0" encoding="utf-8" ?>
<kml xmlns="http://www.opengis.net/kml/2.2">
<Document id="root_doc">
<Schema name="4a1cb659" id="4a1cb659">
	<SimpleField name="type" type="string"></SimpleField>
	<SimpleField name="view" type="string"></SimpleField>
	<SimpleField name="leveling_order" type="string"></SimpleField>
	<SimpleField name="leveling_height" type="string"></SimpleField>
	<SimpleField name="control_height" type="string"></SimpleField>
	<SimpleField name="benchmark_number" type="string"></SimpleField>
	<SimpleField name="control_location" type="string"></SimpleField>
	<SimpleField name="benchmark_type" type="string"></SimpleField>
	<SimpleField name="leveling_line_section" type="string"></SimpleField>
	<SimpleField name="location_description" type="string"></SimpleField>
	<SimpleField name="status" type="string"></SimpleField>
	<SimpleField name="guid" type="string"></SimpleField>
	<SimpleField name="kml" type="string"></SimpleField>
	<SimpleField name="kml_link" type="string"></SimpleField>
</Schema>
<Folder><name>4a1cb659</name>
  <Placemark id="4a1cb659.1">
	<name>3864</name>
	<description>марка</description>
	<ExtendedData><SchemaData schemaUrl="#4a1cb659">
		<SimpleData name="type">1</SimpleData>
		<SimpleData name="view">281.728</SimpleData>
		<SimpleData name="control_location">Линия №1: Аральск-Шалкар, 1 класс (1). Участок: грунт.реп. 0137 -грует.реп. 2495</SimpleData>
		<SimpleData name="benchmark_type">Кособа, разъезд., здание разъезда</SimpleData>
		<SimpleData name="leveling_line_section">утрачен</SimpleData>
		<SimpleData name="location_description">4a1cb659-cd94-4a64-9916-6bf215c05407</SimpleData>
		<SimpleData name="status">data/stations/4a1cb659.kml</SimpleData>
		<SimpleData name="guid">&lt;a href='data/stations/4a1cb659.kml' target='_blank'&gt;Download KML&lt;/a&gt;</SimpleData>
	</SchemaData></ExtendedData>
      <Point><coordinates>60.1708334420863,47.6917889891893</coordinates></Point>
  </Placemark>
</Folder>
</Document></kml>
