<?xml version="1.0" encoding="utf-8" ?>
<kml xmlns="http://www.opengis.net/kml/2.2">
<Document id="root_doc">
<Schema name="4a632608" id="4a632608">
	<SimpleField name="type" type="string"></SimpleField>
	<SimpleField name="view" type="string"></SimpleField>
	<SimpleField name="leveling_order" type="string"></SimpleField>
	<SimpleField name="leveling_height" type="string"></SimpleField>
	<SimpleField name="control_height" type="string"></SimpleField>
	<SimpleField name="benchmark_number" type="string"></SimpleField>
	<SimpleField name="control_location" type="string"></SimpleField>
	<SimpleField name="benchmark_type" type="string"></SimpleField>
	<SimpleField name="leveling_line_section" type="string"></SimpleField>
	<SimpleField name="location_description" type="string"></SimpleField>
	<SimpleField name="status" type="string"></SimpleField>
	<SimpleField name="guid" type="string"></SimpleField>
	<SimpleField name="kml" type="string"></SimpleField>
	<SimpleField name="kml_link" type="string"></SimpleField>
</Schema>
<Folder><name>4a632608</name>
  <Placemark id="4a632608.1">
	<name>89</name>
	<description>фунд.репер</description>
	<ExtendedData><SchemaData schemaUrl="#4a632608">
		<SimpleData name="type">1</SimpleData>
		<SimpleData name="view">101.095</SimpleData>
		<SimpleData name="leveling_order">100.114</SimpleData>
		<SimpleData name="leveling_height">Контрольный репер №205 в фундаментной плите</SimpleData>
		<SimpleData name="benchmark_number">104</SimpleData>
		<SimpleData name="control_location">Линия №1 Наурзум (Аксуат) -Иргиз Участок фунд.реп.89 -грунт.реп.30 </SimpleData>
		<SimpleData name="benchmark_type">Туйемойнак,с.,в 5.0 км к сев.-вост.от него,в 0.3 км к сев.-вост.от р.Тургай,в 0.1 км к  сев.от дороги с.Тургай -с.Иргиз</SimpleData>
		<SimpleData name="location_description">4a632608-eb53-4419-9644-9b86388829f9</SimpleData>
		<SimpleData name="status">data/stations/4a632608.kml</SimpleData>
		<SimpleData name="guid">&lt;a href='data/stations/4a632608.kml' target='_blank'&gt;Download KML&lt;/a&gt;</SimpleData>
	</SchemaData></ExtendedData>
      <Point><coordinates>62.9700791063626,49.337273869214</coordinates></Point>
  </Placemark>
</Folder>
</Document></kml>
