<?xml version="1.0" encoding="utf-8" ?>
<kml xmlns="http://www.opengis.net/kml/2.2">
<Document id="root_doc">
<Schema name="4a84ef58" id="4a84ef58">
	<SimpleField name="type" type="string"></SimpleField>
	<SimpleField name="view" type="string"></SimpleField>
	<SimpleField name="leveling_order" type="string"></SimpleField>
	<SimpleField name="leveling_height" type="string"></SimpleField>
	<SimpleField name="control_height" type="string"></SimpleField>
	<SimpleField name="benchmark_number" type="string"></SimpleField>
	<SimpleField name="control_location" type="string"></SimpleField>
	<SimpleField name="benchmark_type" type="string"></SimpleField>
	<SimpleField name="leveling_line_section" type="string"></SimpleField>
	<SimpleField name="location_description" type="string"></SimpleField>
	<SimpleField name="status" type="string"></SimpleField>
	<SimpleField name="guid" type="string"></SimpleField>
	<SimpleField name="kml" type="string"></SimpleField>
	<SimpleField name="kml_link" type="string"></SimpleField>
</Schema>
<Folder><name>4a84ef58</name>
  <Placemark id="4a84ef58.1">
	<name>2736</name>
	<name>грунт. реп.</name>
	<ExtendedData><SchemaData schemaUrl="#4a84ef58">
		<SimpleData name="type">2</SimpleData>
		<SimpleData name="view">98.169</SimpleData>
		<SimpleData name="benchmark_number">160</SimpleData>
		<SimpleData name="control_location">Линия № 4:  Коккабат-Жосалы.  Участок:           грунт. реп. 6005-фунд.реп. 153.                II класс   </SimpleData>
		<SimpleData name="benchmark_type">Боранбай. мог..  в 15.3 км юго-вост. от неё. в 2.4 км к юго-зап. от буг. Акшатау. в 0.3 км к сев.-зап. от арт. к..от развилки полевой дороги</SimpleData>
		<SimpleData name="location_description">4a84ef58-eeb6-4581-bdb3-97234020294d</SimpleData>
		<SimpleData name="status">data/stations/4a84ef58.kml</SimpleData>
		<SimpleData name="guid">&lt;a href='data/stations/4a84ef58.kml' target='_blank'&gt;Download KML&lt;/a&gt;</SimpleData>
	</SchemaData></ExtendedData>
      <Point><coordinates>64.159678226116,45.8505295944395</coordinates></Point>
  </Placemark>
</Folder>
</Document></kml>
