<?xml version="1.0" encoding="utf-8" ?>
<kml xmlns="http://www.opengis.net/kml/2.2">
<Document id="root_doc">
<Schema name="4b2e6e45" id="4b2e6e45">
	<SimpleField name="type" type="string"></SimpleField>
	<SimpleField name="view" type="string"></SimpleField>
	<SimpleField name="leveling_order" type="string"></SimpleField>
	<SimpleField name="leveling_height" type="string"></SimpleField>
	<SimpleField name="control_height" type="string"></SimpleField>
	<SimpleField name="benchmark_number" type="string"></SimpleField>
	<SimpleField name="control_location" type="string"></SimpleField>
	<SimpleField name="benchmark_type" type="string"></SimpleField>
	<SimpleField name="leveling_line_section" type="string"></SimpleField>
	<SimpleField name="location_description" type="string"></SimpleField>
	<SimpleField name="status" type="string"></SimpleField>
	<SimpleField name="guid" type="string"></SimpleField>
	<SimpleField name="kml" type="string"></SimpleField>
	<SimpleField name="kml_link" type="string"></SimpleField>
</Schema>
<Folder><name>4b2e6e45</name>
  <Placemark id="4b2e6e45.1">
	<name>489</name>
	<description>грунт. реп.</description>
	<ExtendedData><SchemaData schemaUrl="#4b2e6e45">
		<SimpleData name="type">1</SimpleData>
		<SimpleData name="view">125.511</SimpleData>
		<SimpleData name="benchmark_number">160 оп. знак</SimpleData>
		<SimpleData name="control_location">Линия № 1: Жосалы - Карсакбай.  I класс Участок: фунд.реп. 153 - грунт.реп. 6835      </SimpleData>
		<SimpleData name="benchmark_type">Жосалы. станц.. в 14.4 км к сев.-вост. от неё. в 6.7 км к зап. от оз. Караколь. в 50 м к вост. от  дороги с. Карсакбай - с. Жосалы</SimpleData>
		<SimpleData name="location_description">4b2e6e45-c4da-4b6c-bbdd-9b7a4fe55e52</SimpleData>
		<SimpleData name="status">data/stations/4b2e6e45.kml</SimpleData>
		<SimpleData name="guid">&lt;a href='data/stations/4b2e6e45.kml' target='_blank'&gt;Download KML&lt;/a&gt;</SimpleData>
	</SchemaData></ExtendedData>
      <Point><coordinates>64.1934647842435,45.5925188054825</coordinates></Point>
  </Placemark>
</Folder>
</Document></kml>
