<?xml version="1.0" encoding="utf-8" ?>
<kml xmlns="http://www.opengis.net/kml/2.2">
<Document id="root_doc">
<Schema name="4b37d9b4" id="4b37d9b4">
	<SimpleField name="type" type="string"></SimpleField>
	<SimpleField name="view" type="string"></SimpleField>
	<SimpleField name="leveling_order" type="string"></SimpleField>
	<SimpleField name="leveling_height" type="string"></SimpleField>
	<SimpleField name="control_height" type="string"></SimpleField>
	<SimpleField name="benchmark_number" type="string"></SimpleField>
	<SimpleField name="control_location" type="string"></SimpleField>
	<SimpleField name="benchmark_type" type="string"></SimpleField>
	<SimpleField name="leveling_line_section" type="string"></SimpleField>
	<SimpleField name="location_description" type="string"></SimpleField>
	<SimpleField name="status" type="string"></SimpleField>
	<SimpleField name="guid" type="string"></SimpleField>
	<SimpleField name="kml" type="string"></SimpleField>
	<SimpleField name="kml_link" type="string"></SimpleField>
</Schema>
<Folder><name>4b37d9b4</name>
  <Placemark id="4b37d9b4.1">
	<name>3939</name>
	<name>грунтовый репер</name>
	<ExtendedData><SchemaData schemaUrl="#4b37d9b4">
		<SimpleData name="type">2</SimpleData>
		<SimpleData name="view">213,593</SimpleData>
		<SimpleData name="control_location">Линия № 2: Сарысу - Кендырлык (Айгарлык),ІІ класс (1)            Участок: грунт, реп. 3939 - пир.         3 кл. Дувана Зап.</SimpleData>
		<SimpleData name="benchmark_type">Ахметишан. кладб., в 10.7 км к юго-вост. от него, в 6.8 км к сев.-вост. от мог. Мырзакельди, в 95 м к югу от полевой дороги</SimpleData>
		<SimpleData name="location_description">4b37d9b4-6e7f-4885-a863-fc29e5435521</SimpleData>
		<SimpleData name="status">data/stations/4b37d9b4.kml</SimpleData>
		<SimpleData name="guid">&lt;a href='data/stations/4b37d9b4.kml' target='_blank'&gt;Download KML&lt;/a&gt;</SimpleData>
	</SchemaData></ExtendedData>
      <Point><coordinates>67.2723260066708,45.9931428309499</coordinates></Point>
  </Placemark>
</Folder>
</Document></kml>
