<?xml version="1.0" encoding="utf-8" ?>
<kml xmlns="http://www.opengis.net/kml/2.2">
<Document id="root_doc">
<Schema name="4b536be1" id="4b536be1">
	<SimpleField name="type" type="string"></SimpleField>
	<SimpleField name="view" type="string"></SimpleField>
	<SimpleField name="leveling_order" type="string"></SimpleField>
	<SimpleField name="leveling_height" type="string"></SimpleField>
	<SimpleField name="control_height" type="string"></SimpleField>
	<SimpleField name="benchmark_number" type="string"></SimpleField>
	<SimpleField name="control_location" type="string"></SimpleField>
	<SimpleField name="benchmark_type" type="string"></SimpleField>
	<SimpleField name="leveling_line_section" type="string"></SimpleField>
	<SimpleField name="location_description" type="string"></SimpleField>
	<SimpleField name="status" type="string"></SimpleField>
	<SimpleField name="guid" type="string"></SimpleField>
	<SimpleField name="kml" type="string"></SimpleField>
	<SimpleField name="kml_link" type="string"></SimpleField>
</Schema>
<Folder><name>4b536be1</name>
  <Placemark id="4b536be1.1">
	<name>1217</name>
	<name>грунтовый репер</name>
	<ExtendedData><SchemaData schemaUrl="#4b536be1">
		<SimpleData name="type">II</SimpleData>
		<SimpleData name="view">501,456</SimpleData>
		<SimpleData name="benchmark_number">160оп</SimpleData>
		<SimpleData name="control_location">Линия № 1:Каржунколь-Степное,  II класс (1) Участок : ск.реп.1186-ск.реп.1207</SimpleData>
		<SimpleData name="benchmark_type">Белодымовка, с., в 7,1 км к сев.-зап. от него, в 2,1 км к юго-зап. от оз. Ажбай, в 0,1 км к зап. от полевой дороги</SimpleData>
		<SimpleData name="location_description">4b536be1-5e2c-4d04-bd80-2ed00182a69f</SimpleData>
		<SimpleData name="status">data/stations/4b536be1.kml</SimpleData>
		<SimpleData name="guid">&lt;a href='data/stations/4b536be1.kml' target='_blank'&gt;Download KML&lt;/a&gt;</SimpleData>
	</SchemaData></ExtendedData>
      <Point><coordinates>73.3565945923709,51.2847525935347</coordinates></Point>
  </Placemark>
</Folder>
</Document></kml>
