<?xml version="1.0" encoding="utf-8" ?>
<kml xmlns="http://www.opengis.net/kml/2.2">
<Document id="root_doc">
<Schema name="4b7f37b4" id="4b7f37b4">
	<SimpleField name="title" type="string"></SimpleField>
	<SimpleField name="type" type="string"></SimpleField>
	<SimpleField name="ext_sign" type="string"></SimpleField>
	<SimpleField name="class_lvl" type="string"></SimpleField>
	<SimpleField name="height_lvl" type="string"></SimpleField>
	<SimpleField name="height_ctrl" type="string"></SimpleField>
	<SimpleField name="ctrl_place" type="string"></SimpleField>
	<SimpleField name="mark_num" type="string"></SimpleField>
	<SimpleField name="center_type" type="string"></SimpleField>
	<SimpleField name="lvl_line" type="string"></SimpleField>
	<SimpleField name="guid" type="string"></SimpleField>
</Schema>
<Folder><name>4b7f37b4</name>
  <Placemark id="4b7f37b4.1">
	<name>2605</name>
	<description>грунтовый репер</description>
	<ExtendedData><SchemaData schemaUrl="#4b7f37b4">
		<SimpleData name="title">грунт. реп.</SimpleData>
		<SimpleData name="type">2</SimpleData>
		<SimpleData name="ext_sign">46.294</SimpleData>
		<SimpleData name="ctrl_place">160 оп. знак</SimpleData>
		<SimpleData name="mark_num">Линия №1: Аральск - Коккабак, II класс. Участок: грунт. реп. 9049 - грунт. реп. 2665</SimpleData>
		<SimpleData name="center_type">Сайкудык, зим., в 11.0 км к сев.-зап. от него, в 3.8 км к сев.-вост. от арт. к. Кашыбай 2-й, в 8 м к югу от грунтовой дороги с. Жинишкекум - с. Жаксыкылыш</SimpleData>
		<SimpleData name="lvl_line">4b7f37b4-b688-4c64-bc6b-9828e599a825</SimpleData>
	</SchemaData></ExtendedData>
      <Point><coordinates>62.691264536979,47.0075807121097</coordinates></Point>
  </Placemark>
</Folder>
</Document></kml>
