<?xml version="1.0" encoding="utf-8" ?>
<kml xmlns="http://www.opengis.net/kml/2.2">
<Document id="root_doc">
<Schema name="4b82dd1b" id="4b82dd1b">
	<SimpleField name="title" type="string"></SimpleField>
	<SimpleField name="type" type="string"></SimpleField>
	<SimpleField name="ext_sign" type="string"></SimpleField>
	<SimpleField name="class_lvl" type="string"></SimpleField>
	<SimpleField name="height_lvl" type="string"></SimpleField>
	<SimpleField name="height_ctrl" type="string"></SimpleField>
	<SimpleField name="ctrl_place" type="string"></SimpleField>
	<SimpleField name="mark_num" type="string"></SimpleField>
	<SimpleField name="center_type" type="string"></SimpleField>
	<SimpleField name="lvl_line" type="string"></SimpleField>
	<SimpleField name="guid" type="string"></SimpleField>
</Schema>
<Folder><name>4b82dd1b</name>
  <Placemark id="4b82dd1b.1">
	<name>0026</name>
	<description>Грунтовый репер </description>
	<ExtendedData><SchemaData schemaUrl="#4b82dd1b">
		<SimpleData name="title">Z13</SimpleData>
		<SimpleData name="lvl_line">4b82dd1b-b180-4446-be84-5338d10a5393</SimpleData>
	</SchemaData></ExtendedData>
      <Point><coordinates>49.0183145491524,47.4256442686424</coordinates></Point>
  </Placemark>
</Folder>
</Document></kml>
