<?xml version="1.0" encoding="utf-8" ?>
<kml xmlns="http://www.opengis.net/kml/2.2">
<Document id="root_doc">
<Schema name="4b92d8ac" id="4b92d8ac">
	<SimpleField name="type" type="string"></SimpleField>
	<SimpleField name="view" type="string"></SimpleField>
	<SimpleField name="leveling_order" type="string"></SimpleField>
	<SimpleField name="leveling_height" type="string"></SimpleField>
	<SimpleField name="control_height" type="string"></SimpleField>
	<SimpleField name="benchmark_number" type="string"></SimpleField>
	<SimpleField name="control_location" type="string"></SimpleField>
	<SimpleField name="benchmark_type" type="string"></SimpleField>
	<SimpleField name="leveling_line_section" type="string"></SimpleField>
	<SimpleField name="location_description" type="string"></SimpleField>
	<SimpleField name="status" type="string"></SimpleField>
	<SimpleField name="guid" type="string"></SimpleField>
	<SimpleField name="kml" type="string"></SimpleField>
	<SimpleField name="kml_link" type="string"></SimpleField>
</Schema>
<Folder><name>4b92d8ac</name>
  <Placemark id="4b92d8ac.1">
	<name>3239</name>
	<name>грунтовый репер</name>
	<ExtendedData><SchemaData schemaUrl="#4b92d8ac">
		<SimpleData name="type">II</SimpleData>
		<SimpleData name="view">6551,898</SimpleData>
		<SimpleData name="benchmark_number">160оп</SimpleData>
		<SimpleData name="control_location">Линия №2: Спасск-Акчатау, II класс (1) Участок: грунт.реп. 3394 - ск.реп. 8110</SimpleData>
		<SimpleData name="benchmark_type">Нураталды, с., в 5,3 км к сев.-зап.от него, в 0,2 км к сев.-зап.от км.стб. №91 шоссе Караганда-Балхаш</SimpleData>
		<SimpleData name="leveling_line_section">не найден</SimpleData>
		<SimpleData name="location_description">4b92d8ac-df9f-49c3-a9e8-b425c0c94b9c</SimpleData>
		<SimpleData name="status">data/stations/4b92d8ac.kml</SimpleData>
		<SimpleData name="guid">&lt;a href='data/stations/4b92d8ac.kml' target='_blank'&gt;Download KML&lt;/a&gt;</SimpleData>
	</SchemaData></ExtendedData>
      <Point><coordinates>73.5042362505,49.1065407048696</coordinates></Point>
  </Placemark>
</Folder>
</Document></kml>
