<?xml version="1.0" encoding="utf-8" ?>
<kml xmlns="http://www.opengis.net/kml/2.2">
<Document id="root_doc">
<Schema name="4ba1747f" id="4ba1747f">
	<SimpleField name="title" type="string"></SimpleField>
	<SimpleField name="type" type="string"></SimpleField>
	<SimpleField name="ext_sign" type="string"></SimpleField>
	<SimpleField name="class_lvl" type="string"></SimpleField>
	<SimpleField name="height_lvl" type="string"></SimpleField>
	<SimpleField name="height_ctrl" type="string"></SimpleField>
	<SimpleField name="ctrl_place" type="string"></SimpleField>
	<SimpleField name="mark_num" type="string"></SimpleField>
	<SimpleField name="center_type" type="string"></SimpleField>
	<SimpleField name="lvl_line" type="string"></SimpleField>
	<SimpleField name="guid" type="string"></SimpleField>
</Schema>
<Folder><name>4ba1747f</name>
  <Placemark id="4ba1747f.1">
	<name>Закладка 2</name>
	<ExtendedData><SchemaData schemaUrl="#4ba1747f">
		<SimpleData name="mark_num">Требует закладки</SimpleData>
		<SimpleData name="lvl_line">4ba1747f-41b8-4fa8-ae6c-2979ab6c7bd5</SimpleData>
	</SchemaData></ExtendedData>
      <Point><coordinates>65.5123761532177,44.8147302477756</coordinates></Point>
  </Placemark>
</Folder>
</Document></kml>
