<?xml version="1.0" encoding="utf-8" ?>
<kml xmlns="http://www.opengis.net/kml/2.2">
<Document id="root_doc">
<Schema name="4ba57b89" id="4ba57b89">
	<SimpleField name="title" type="string"></SimpleField>
	<SimpleField name="type" type="string"></SimpleField>
	<SimpleField name="ext_sign" type="string"></SimpleField>
	<SimpleField name="class_lvl" type="string"></SimpleField>
	<SimpleField name="height_lvl" type="string"></SimpleField>
	<SimpleField name="height_ctrl" type="string"></SimpleField>
	<SimpleField name="ctrl_place" type="string"></SimpleField>
	<SimpleField name="mark_num" type="string"></SimpleField>
	<SimpleField name="center_type" type="string"></SimpleField>
	<SimpleField name="lvl_line" type="string"></SimpleField>
	<SimpleField name="guid" type="string"></SimpleField>
</Schema>
<Folder><name>4ba57b89</name>
  <Placemark id="4ba57b89.1">
	<name>2223</name>
	<description>грунтовый репер</description>
	<ExtendedData><SchemaData schemaUrl="#4ba57b89">
		<SimpleData name="title">грунт.реп.</SimpleData>
		<SimpleData name="type">2</SimpleData>
		<SimpleData name="ext_sign">214,004</SimpleData>
		<SimpleData name="ctrl_place">146 оп</SimpleData>
		<SimpleData name="mark_num">Линия №6: Карабутак-Сарысай, II класс. Участок: фунд. реп. 5070-фунд. реп. 8140</SimpleData>
		<SimpleData name="center_type">Ферма №I, свх. им. XX съезда КПСС, в 6.6 км к юго-вост. от нее, в 1.0 км к югу от кладбища, в 38 м к вост. от дороги с. Аралтогай- с. Акбулак</SimpleData>
		<SimpleData name="lvl_line">4ba57b89-86e0-449e-b256-73d8b9c52b22</SimpleData>
	</SchemaData></ExtendedData>
      <Point><coordinates>60.2199244145669,49.6428549016497</coordinates></Point>
  </Placemark>
</Folder>
</Document></kml>
