<?xml version="1.0" encoding="utf-8" ?>
<kml xmlns="http://www.opengis.net/kml/2.2">
<Document id="root_doc">
<Schema name="4bb1c9a8" id="4bb1c9a8">
	<SimpleField name="type" type="string"></SimpleField>
	<SimpleField name="view" type="string"></SimpleField>
	<SimpleField name="leveling_order" type="string"></SimpleField>
	<SimpleField name="leveling_height" type="string"></SimpleField>
	<SimpleField name="control_height" type="string"></SimpleField>
	<SimpleField name="benchmark_number" type="string"></SimpleField>
	<SimpleField name="control_location" type="string"></SimpleField>
	<SimpleField name="benchmark_type" type="string"></SimpleField>
	<SimpleField name="leveling_line_section" type="string"></SimpleField>
	<SimpleField name="location_description" type="string"></SimpleField>
	<SimpleField name="status" type="string"></SimpleField>
	<SimpleField name="guid" type="string"></SimpleField>
	<SimpleField name="kml" type="string"></SimpleField>
	<SimpleField name="kml_link" type="string"></SimpleField>
</Schema>
<Folder><name>4bb1c9a8</name>
  <Placemark id="4bb1c9a8.1">
	<name>4840</name>
	<name>грунт. реп.</name>
	<ExtendedData><SchemaData schemaUrl="#4bb1c9a8">
		<SimpleData name="type">2</SimpleData>
		<SimpleData name="view">89.264</SimpleData>
		<SimpleData name="benchmark_number">160</SimpleData>
		<SimpleData name="control_location">Линия №1; Аральск-Коккабак, II класс (2), Участок; грунт.реп. 4762-грунт.реп. 83</SimpleData>
		<SimpleData name="benchmark_type">Жинишкекум, с., в 16.4 км к сев.от него, в 1.7 км к сев.-вост. от мог. Масак, в 7 м к юго-вост, от полевой дороги</SimpleData>
		<SimpleData name="location_description">4bb1c9a8-de7b-47c5-8845-b817f5836594</SimpleData>
		<SimpleData name="status">data/stations/4bb1c9a8.kml</SimpleData>
		<SimpleData name="guid">&lt;a href='data/stations/4bb1c9a8.kml' target='_blank'&gt;Download KML&lt;/a&gt;</SimpleData>
	</SchemaData></ExtendedData>
      <Point><coordinates>63.3015791852631,47.2567669333077</coordinates></Point>
  </Placemark>
</Folder>
</Document></kml>
