<?xml version="1.0" encoding="utf-8" ?>
<kml xmlns="http://www.opengis.net/kml/2.2">
<Document id="root_doc">
<Schema name="4c0f5f12" id="4c0f5f12">
	<SimpleField name="title" type="string"></SimpleField>
	<SimpleField name="type" type="string"></SimpleField>
	<SimpleField name="ext_sign" type="string"></SimpleField>
	<SimpleField name="class_lvl" type="string"></SimpleField>
	<SimpleField name="height_lvl" type="string"></SimpleField>
	<SimpleField name="height_ctrl" type="string"></SimpleField>
	<SimpleField name="ctrl_place" type="string"></SimpleField>
	<SimpleField name="mark_num" type="string"></SimpleField>
	<SimpleField name="center_type" type="string"></SimpleField>
	<SimpleField name="lvl_line" type="string"></SimpleField>
	<SimpleField name="guid" type="string"></SimpleField>
</Schema>
<Folder><name>4c0f5f12</name>
  <Placemark id="4c0f5f12.1">
	<name>2893</name>
	<description>грунтовый репер</description>
	<ExtendedData><SchemaData schemaUrl="#4c0f5f12">
		<SimpleData name="title">грунт. реп.</SimpleData>
		<SimpleData name="type">2</SimpleData>
		<SimpleData name="ext_sign">156.05</SimpleData>
		<SimpleData name="ctrl_place">160 оп. знак</SimpleData>
		<SimpleData name="mark_num">Линия №1: Коккабак - Жосалы. 2 класс. Участок: грунт. реп. 4537 - грунт. реп. 5805</SimpleData>
		<SimpleData name="center_type">Талас. к.. в 7.4 км к сев.-вост.от него. в 3.9 км к юго-зап.от мог. Калбагай. в 60 м к вост.от полевой дороги</SimpleData>
		<SimpleData name="lvl_line">4c0f5f12-d82a-41e6-b4ac-7e77bde5faa2</SimpleData>
	</SchemaData></ExtendedData>
      <Point><coordinates>63.9730391039734,46.2739251522585</coordinates></Point>
  </Placemark>
</Folder>
</Document></kml>
