<?xml version="1.0" encoding="utf-8" ?>
<kml xmlns="http://www.opengis.net/kml/2.2">
<Document id="root_doc">
<Schema name="4c3cabd0" id="4c3cabd0">
	<SimpleField name="title" type="string"></SimpleField>
	<SimpleField name="type" type="string"></SimpleField>
	<SimpleField name="ext_sign" type="string"></SimpleField>
	<SimpleField name="class_lvl" type="string"></SimpleField>
	<SimpleField name="height_lvl" type="string"></SimpleField>
	<SimpleField name="height_ctrl" type="string"></SimpleField>
	<SimpleField name="ctrl_place" type="string"></SimpleField>
	<SimpleField name="mark_num" type="string"></SimpleField>
	<SimpleField name="center_type" type="string"></SimpleField>
	<SimpleField name="lvl_line" type="string"></SimpleField>
	<SimpleField name="guid" type="string"></SimpleField>
</Schema>
<Folder><name>4c3cabd0</name>
  <Placemark id="4c3cabd0.1">
	<name>А1842</name>
	<description>грунтовый репер</description>
	<ExtendedData><SchemaData schemaUrl="#4c3cabd0">
		<SimpleData name="height_ctrl">А1842</SimpleData>
		<SimpleData name="ctrl_place">162оп</SimpleData>
		<SimpleData name="center_type">380 м к юго-западу от развилки полевых дорог, 0,1 км к юго-востоку от канавы, 300 м к северо-востоку от угла развалины</SimpleData>
		<SimpleData name="lvl_line">4c3cabd0-8b27-4460-b4ad-179cade0a401</SimpleData>
	</SchemaData></ExtendedData>
      <Point><coordinates>68.9687383333333,51.3113233333333</coordinates></Point>
  </Placemark>
</Folder>
</Document></kml>
