<?xml version="1.0" encoding="utf-8" ?>
<kml xmlns="http://www.opengis.net/kml/2.2">
<Document id="root_doc">
<Schema name="4c72f999" id="4c72f999">
	<SimpleField name="type" type="string"></SimpleField>
	<SimpleField name="view" type="string"></SimpleField>
	<SimpleField name="leveling_order" type="string"></SimpleField>
	<SimpleField name="leveling_height" type="string"></SimpleField>
	<SimpleField name="control_height" type="string"></SimpleField>
	<SimpleField name="benchmark_number" type="string"></SimpleField>
	<SimpleField name="control_location" type="string"></SimpleField>
	<SimpleField name="benchmark_type" type="string"></SimpleField>
	<SimpleField name="leveling_line_section" type="string"></SimpleField>
	<SimpleField name="location_description" type="string"></SimpleField>
	<SimpleField name="status" type="string"></SimpleField>
	<SimpleField name="guid" type="string"></SimpleField>
	<SimpleField name="kml" type="string"></SimpleField>
	<SimpleField name="kml_link" type="string"></SimpleField>
</Schema>
<Folder><name>4c72f999</name>
  <Placemark id="4c72f999.1">
	<name>101</name>
	<description>грунт.репер</description>
	<ExtendedData><SchemaData schemaUrl="#4c72f999">
		<SimpleData name="type">2</SimpleData>
		<SimpleData name="view">232.831</SimpleData>
		<SimpleData name="leveling_order">231,691</SimpleData>
		<SimpleData name="benchmark_number">121</SimpleData>
		<SimpleData name="control_location">Линия №2:Семиозёрное-Жанатурмыс,II класс(I)Участок:грунт.реп.101-грунт.реп.348</SimpleData>
		<SimpleData name="benchmark_type">Кожаколь,с.,в 2.0 км к юго-зап.от него,в 1.0 км к сев.-вост.от кладбища,в 1.0 км к югу от полевой дороги</SimpleData>
		<SimpleData name="location_description">4c72f999-13f1-4e4b-8623-c39e38a24315</SimpleData>
		<SimpleData name="status">data/stations/4c72f999.kml</SimpleData>
		<SimpleData name="guid">&lt;a href='data/stations/4c72f999.kml' target='_blank'&gt;Download KML&lt;/a&gt;</SimpleData>
	</SchemaData></ExtendedData>
      <Point><coordinates>63.0134255541183,51.932532168122</coordinates></Point>
  </Placemark>
</Folder>
</Document></kml>
