<?xml version="1.0" encoding="utf-8" ?>
<kml xmlns="http://www.opengis.net/kml/2.2">
<Document id="root_doc">
<Schema name="4d648510" id="4d648510">
	<SimpleField name="title" type="string"></SimpleField>
	<SimpleField name="type" type="string"></SimpleField>
	<SimpleField name="ext_sign" type="string"></SimpleField>
	<SimpleField name="class_lvl" type="string"></SimpleField>
	<SimpleField name="height_lvl" type="string"></SimpleField>
	<SimpleField name="height_ctrl" type="string"></SimpleField>
	<SimpleField name="ctrl_place" type="string"></SimpleField>
	<SimpleField name="mark_num" type="string"></SimpleField>
	<SimpleField name="center_type" type="string"></SimpleField>
	<SimpleField name="lvl_line" type="string"></SimpleField>
	<SimpleField name="guid" type="string"></SimpleField>
</Schema>
<Folder><name>4d648510</name>
  <Placemark id="4d648510.1">
	<name>9045</name>
	<description>скальный репер</description>
	<ExtendedData><SchemaData schemaUrl="#4d648510">
		<SimpleData name="type">2</SimpleData>
		<SimpleData name="ext_sign">863,104</SimpleData>
		<SimpleData name="ctrl_place">99 оп</SimpleData>
		<SimpleData name="mark_num">Линия № 7: Актогай-Каркаралинск, II класс (4) Участок: грунтовый репер 5348 -фундаментальный репер 7349</SimpleData>
		<SimpleData name="center_type">Каркаралинск, гор., в 8,8 км к юго-зап. от него, в 30 м к зап. от шоссе гор. Каркаралинск-с. Актогай, между км стб. 9 и 10</SimpleData>
		<SimpleData name="lvl_line">4d648510-a2cb-487b-bed8-9f6818787e43</SimpleData>
	</SchemaData></ExtendedData>
      <Point><coordinates>75.3914159205818,49.3376379633941</coordinates></Point>
  </Placemark>
</Folder>
</Document></kml>
