<?xml version="1.0" encoding="utf-8" ?>
<kml xmlns="http://www.opengis.net/kml/2.2">
<Document id="root_doc">
<Schema name="4da8c322" id="4da8c322">
	<SimpleField name="title" type="string"></SimpleField>
	<SimpleField name="type" type="string"></SimpleField>
	<SimpleField name="ext_sign" type="string"></SimpleField>
	<SimpleField name="class_lvl" type="string"></SimpleField>
	<SimpleField name="height_lvl" type="string"></SimpleField>
	<SimpleField name="height_ctrl" type="string"></SimpleField>
	<SimpleField name="ctrl_place" type="string"></SimpleField>
	<SimpleField name="mark_num" type="string"></SimpleField>
	<SimpleField name="center_type" type="string"></SimpleField>
	<SimpleField name="lvl_line" type="string"></SimpleField>
	<SimpleField name="guid" type="string"></SimpleField>
</Schema>
<Folder><name>4da8c322</name>
  <Placemark id="4da8c322.1">
	<name>2438</name>
	<description>фун.репер</description>
	<ExtendedData><SchemaData schemaUrl="#4da8c322">
		<SimpleData name="ctrl_place">161оп</SimpleData>
		<SimpleData name="center_type">Новонежинка, с., в 5,3 км к сев. от него, в 251,5 м к востоку от дороги с.Аулиеколь-г.Костанай.</SimpleData>
		<SimpleData name="lvl_line">4da8c322-f9e6-47ce-bf19-a7cef183b197</SimpleData>
	</SchemaData></ExtendedData>
      <Point><coordinates>64.0202773735523,52.5694438722478</coordinates></Point>
  </Placemark>
</Folder>
</Document></kml>
