<?xml version="1.0" encoding="utf-8" ?>
<kml xmlns="http://www.opengis.net/kml/2.2">
<Document id="root_doc">
<Schema name="4dd19fb4" id="4dd19fb4">
	<SimpleField name="type" type="string"></SimpleField>
	<SimpleField name="view" type="string"></SimpleField>
	<SimpleField name="leveling_order" type="string"></SimpleField>
	<SimpleField name="leveling_height" type="string"></SimpleField>
	<SimpleField name="control_height" type="string"></SimpleField>
	<SimpleField name="benchmark_number" type="string"></SimpleField>
	<SimpleField name="control_location" type="string"></SimpleField>
	<SimpleField name="benchmark_type" type="string"></SimpleField>
	<SimpleField name="leveling_line_section" type="string"></SimpleField>
	<SimpleField name="location_description" type="string"></SimpleField>
	<SimpleField name="status" type="string"></SimpleField>
	<SimpleField name="guid" type="string"></SimpleField>
	<SimpleField name="kml" type="string"></SimpleField>
	<SimpleField name="kml_link" type="string"></SimpleField>
</Schema>
<Folder><name>4dd19fb4</name>
  <Placemark id="4dd19fb4.1">
	<name>4017</name>
	<name>грунт,реп,</name>
	<ExtendedData><SchemaData schemaUrl="#4dd19fb4">
		<SimpleData name="type">I</SimpleData>
		<SimpleData name="view">519.126</SimpleData>
		<SimpleData name="benchmark_number">160 оп</SimpleData>
		<SimpleData name="control_location">Линия №1: Тюемойнак-Жарык, I класс (1) Участок: грунт,реп,5895 - грунт,реп,5272  </SimpleData>
		<SimpleData name="benchmark_type">69 км,раз,,в 3,5 км к вост,от него,на 1 пикете 67 км жел,дор,,в 32 м к сев,от жел,дор,полотна,в 8 м к юго-вост,от стб,линии связи</SimpleData>
		<SimpleData name="leveling_line_section">сохранен</SimpleData>
		<SimpleData name="location_description">4dd19fb4-5888-49ec-af13-408fb65fa941</SimpleData>
		<SimpleData name="status">data/stations/4dd19fb4.kml</SimpleData>
		<SimpleData name="guid">&lt;a href='data/stations/4dd19fb4.kml' target='_blank'&gt;Download KML&lt;/a&gt;</SimpleData>
	</SchemaData></ExtendedData>
      <Point><coordinates>71.9942560932606,48.7130204441772</coordinates></Point>
  </Placemark>
</Folder>
</Document></kml>
