<?xml version="1.0" encoding="utf-8" ?>
<kml xmlns="http://www.opengis.net/kml/2.2">
<Document id="root_doc">
<Schema name="4e249aa9" id="4e249aa9">
	<SimpleField name="type" type="string"></SimpleField>
	<SimpleField name="view" type="string"></SimpleField>
	<SimpleField name="leveling_order" type="string"></SimpleField>
	<SimpleField name="leveling_height" type="string"></SimpleField>
	<SimpleField name="control_height" type="string"></SimpleField>
	<SimpleField name="benchmark_number" type="string"></SimpleField>
	<SimpleField name="control_location" type="string"></SimpleField>
	<SimpleField name="benchmark_type" type="string"></SimpleField>
	<SimpleField name="leveling_line_section" type="string"></SimpleField>
	<SimpleField name="location_description" type="string"></SimpleField>
	<SimpleField name="status" type="string"></SimpleField>
	<SimpleField name="guid" type="string"></SimpleField>
	<SimpleField name="kml" type="string"></SimpleField>
	<SimpleField name="kml_link" type="string"></SimpleField>
</Schema>
<Folder><name>4e249aa9</name>
  <Placemark id="4e249aa9.1">
	<name>19</name>
	<name>грунт.реп.</name>
	<ExtendedData><SchemaData schemaUrl="#4e249aa9">
		<SimpleData name="type">II</SimpleData>
		<SimpleData name="view">327.712</SimpleData>
		<SimpleData name="benchmark_number">А</SimpleData>
		<SimpleData name="control_location">Линия №1: Кзыл-Сенгир = Жумай, II класса (1) Участок: фунд.реп.5003 - гркнт.реп.2940</SimpleData>
		<SimpleData name="benchmark_type">Куланутпес,с.,в 5.1 км к сев.от него, в 2.1 км к сев.-вост.от р.Куланотпес, в 0.1 км к вост.от полевой дороги</SimpleData>
		<SimpleData name="location_description">4e249aa9-226d-4cc3-b4bd-134f0d85c840</SimpleData>
		<SimpleData name="status">data/stations/4e249aa9.kml</SimpleData>
		<SimpleData name="guid">&lt;a href='data/stations/4e249aa9.kml' target='_blank'&gt;Download KML&lt;/a&gt;</SimpleData>
	</SchemaData></ExtendedData>
      <Point><coordinates>69.5397940565101,50.2036733348709</coordinates></Point>
  </Placemark>
</Folder>
</Document></kml>
