<?xml version="1.0" encoding="utf-8" ?>
<kml xmlns="http://www.opengis.net/kml/2.2">
<Document id="root_doc">
<Schema name="4e36c258" id="4e36c258">
	<SimpleField name="title" type="string"></SimpleField>
	<SimpleField name="type" type="string"></SimpleField>
	<SimpleField name="ext_sign" type="string"></SimpleField>
	<SimpleField name="class_lvl" type="string"></SimpleField>
	<SimpleField name="height_lvl" type="string"></SimpleField>
	<SimpleField name="height_ctrl" type="string"></SimpleField>
	<SimpleField name="ctrl_place" type="string"></SimpleField>
	<SimpleField name="mark_num" type="string"></SimpleField>
	<SimpleField name="center_type" type="string"></SimpleField>
	<SimpleField name="lvl_line" type="string"></SimpleField>
	<SimpleField name="guid" type="string"></SimpleField>
</Schema>
<Folder><name>4e36c258</name>
  <Placemark id="4e36c258.1">
	<name>0002</name>
	<description>Грунтовый репер </description>
	<ExtendedData><SchemaData schemaUrl="#4e36c258">
		<SimpleData name="title">Z9</SimpleData>
		<SimpleData name="lvl_line">4e36c258-767b-45f3-bbb8-55b9e1f9e56b</SimpleData>
	</SchemaData></ExtendedData>
      <Point><coordinates>49.1232498481825,47.1784374619808</coordinates></Point>
  </Placemark>
</Folder>
</Document></kml>
