<?xml version="1.0" encoding="utf-8" ?>
<kml xmlns="http://www.opengis.net/kml/2.2">
<Document id="root_doc">
<Schema name="4e7b6915" id="4e7b6915">
	<SimpleField name="title" type="string"></SimpleField>
	<SimpleField name="type" type="string"></SimpleField>
	<SimpleField name="ext_sign" type="string"></SimpleField>
	<SimpleField name="class_lvl" type="string"></SimpleField>
	<SimpleField name="height_lvl" type="string"></SimpleField>
	<SimpleField name="height_ctrl" type="string"></SimpleField>
	<SimpleField name="ctrl_place" type="string"></SimpleField>
	<SimpleField name="mark_num" type="string"></SimpleField>
	<SimpleField name="center_type" type="string"></SimpleField>
	<SimpleField name="lvl_line" type="string"></SimpleField>
	<SimpleField name="guid" type="string"></SimpleField>
</Schema>
<Folder><name>4e7b6915</name>
  <Placemark id="4e7b6915.1">
	<name>D18</name>
	<description>Грунтовый </description>
	<ExtendedData><SchemaData schemaUrl="#4e7b6915">
		<SimpleData name="lvl_line">4e7b6915-ea07-419a-9b77-4a769d5c42ea</SimpleData>
	</SchemaData></ExtendedData>
      <Point><coordinates>53.8256969487371,46.8272029825452</coordinates></Point>
  </Placemark>
</Folder>
</Document></kml>
