<?xml version="1.0" encoding="utf-8" ?>
<kml xmlns="http://www.opengis.net/kml/2.2">
<Document id="root_doc">
<Schema name="4f2429ad" id="4f2429ad">
	<SimpleField name="title" type="string"></SimpleField>
	<SimpleField name="type" type="string"></SimpleField>
	<SimpleField name="ext_sign" type="string"></SimpleField>
	<SimpleField name="class_lvl" type="string"></SimpleField>
	<SimpleField name="height_lvl" type="string"></SimpleField>
	<SimpleField name="height_ctrl" type="string"></SimpleField>
	<SimpleField name="ctrl_place" type="string"></SimpleField>
	<SimpleField name="mark_num" type="string"></SimpleField>
	<SimpleField name="center_type" type="string"></SimpleField>
	<SimpleField name="lvl_line" type="string"></SimpleField>
	<SimpleField name="guid" type="string"></SimpleField>
</Schema>
<Folder><name>4f2429ad</name>
  <Placemark id="4f2429ad.1">
	<name>880</name>
	<description>грунт.реп.</description>
	<ExtendedData><SchemaData schemaUrl="#4f2429ad">
		<SimpleData name="title">грунт.реп.</SimpleData>
		<SimpleData name="type">II</SimpleData>
		<SimpleData name="ext_sign">415.553</SimpleData>
		<SimpleData name="class_lvl">414.051*</SimpleData>
		<SimpleData name="height_lvl">в трубе</SimpleData>
		<SimpleData name="ctrl_place">А</SimpleData>
		<SimpleData name="mark_num">Линия  №  I; Каратурангы  - Колшенгель II класс .Участок: пир.1.кл. Ортажол - фунд.реп.5785</SimpleData>
		<SimpleData name="center_type">Каншенгель,с.,в 7.6 км  к  сев.от  него, в 2,5 км  к  сев.-вост.от  к.Сарышагыл.в
70  м  к  зап. от  дороги  с.Кокишбай-с.Кан-
шенгельс.Кокишбай-с.Каншенгель</SimpleData>
		<SimpleData name="lvl_line">4f2429ad-8372-430b-a38d-2687951801be</SimpleData>
	</SchemaData></ExtendedData>
      <Point><coordinates>75.5623767424347,44.3938833044126</coordinates></Point>
  </Placemark>
</Folder>
</Document></kml>
