<?xml version="1.0" encoding="utf-8" ?>
<kml xmlns="http://www.opengis.net/kml/2.2">
<Document id="root_doc">
<Schema name="4f2830dc" id="4f2830dc">
	<SimpleField name="title" type="string"></SimpleField>
	<SimpleField name="type" type="string"></SimpleField>
	<SimpleField name="ext_sign" type="string"></SimpleField>
	<SimpleField name="class_lvl" type="string"></SimpleField>
	<SimpleField name="height_lvl" type="string"></SimpleField>
	<SimpleField name="height_ctrl" type="string"></SimpleField>
	<SimpleField name="ctrl_place" type="string"></SimpleField>
	<SimpleField name="mark_num" type="string"></SimpleField>
	<SimpleField name="center_type" type="string"></SimpleField>
	<SimpleField name="lvl_line" type="string"></SimpleField>
	<SimpleField name="guid" type="string"></SimpleField>
</Schema>
<Folder><name>4f2830dc</name>
  <Placemark id="4f2830dc.1">
	<name>529</name>
	<description>грунтовый репер</description>
	<ExtendedData><SchemaData schemaUrl="#4f2830dc">
		<SimpleData name="type">II</SimpleData>
		<SimpleData name="ext_sign">793,235</SimpleData>
		<SimpleData name="class_lvl">790,817</SimpleData>
		<SimpleData name="height_lvl">Контрольный репер в верхней плоскости монолита</SimpleData>
		<SimpleData name="ctrl_place">121оп</SimpleData>
		<SimpleData name="mark_num">Линия № 2: Спасск - Каркаралинск, II класс (2) Участок: грунт.реп. 428 -ск.реп. 0131</SimpleData>
		<SimpleData name="center_type">Шункыркудык, с., в 14,7 км к зап.от него, в 1,7 км к юго-зап. от дороги с.Бесоба - с. Шункыркудык, в створе стб., под ЛЭП 35 кв.</SimpleData>
		<SimpleData name="lvl_line">4f2830dc-c777-485f-9a4e-66ed548cfc19</SimpleData>
	</SchemaData></ExtendedData>
      <Point><coordinates>74.7462183333333,49.338595</coordinates></Point>
  </Placemark>
</Folder>
</Document></kml>
