<?xml version="1.0" encoding="utf-8" ?>
<kml xmlns="http://www.opengis.net/kml/2.2">
<Document id="root_doc">
<Schema name="4f56d0dd" id="4f56d0dd">
	<SimpleField name="type" type="string"></SimpleField>
	<SimpleField name="view" type="string"></SimpleField>
	<SimpleField name="leveling_order" type="string"></SimpleField>
	<SimpleField name="leveling_height" type="string"></SimpleField>
	<SimpleField name="control_height" type="string"></SimpleField>
	<SimpleField name="benchmark_number" type="string"></SimpleField>
	<SimpleField name="control_location" type="string"></SimpleField>
	<SimpleField name="benchmark_type" type="string"></SimpleField>
	<SimpleField name="leveling_line_section" type="string"></SimpleField>
	<SimpleField name="location_description" type="string"></SimpleField>
	<SimpleField name="status" type="string"></SimpleField>
	<SimpleField name="guid" type="string"></SimpleField>
	<SimpleField name="kml" type="string"></SimpleField>
	<SimpleField name="kml_link" type="string"></SimpleField>
</Schema>
<Folder><name>4f56d0dd</name>
  <Placemark id="4f56d0dd.1">
	<name>399</name>
	<description>грунт. реп.</description>
	<ExtendedData><SchemaData schemaUrl="#4f56d0dd">
		<SimpleData name="type">1</SimpleData>
		<SimpleData name="view">201.833</SimpleData>
		<SimpleData name="leveling_order">200.368</SimpleData>
		<SimpleData name="leveling_height">контрольный репер №9402 в верхней плоскости монолита</SimpleData>
		<SimpleData name="benchmark_number">121</SimpleData>
		<SimpleData name="control_location">Линия 1 класса :Тактайконыр -Семиозёрное(фунд.реп.83 -фунд.реп.349)  Участок :фунд.реп.893 -пир.3 кл.Алгабас</SimpleData>
		<SimpleData name="benchmark_type">Кайгы,с.,в 24.1 км к сев.от него,в 0.7 км к сев.-вост.от род.Бозкаска,к сев.-зап.от грунт.дороги с.Наурызым -с.Кайгы</SimpleData>
		<SimpleData name="location_description">4f56d0dd-bbcf-40e1-9764-7b3c90716710</SimpleData>
		<SimpleData name="status">data/stations/4f56d0dd.kml</SimpleData>
		<SimpleData name="guid">&lt;a href='data/stations/4f56d0dd.kml' target='_blank'&gt;Download KML&lt;/a&gt;</SimpleData>
	</SchemaData></ExtendedData>
      <Point><coordinates>64.677999843096,51.1597354143943</coordinates></Point>
  </Placemark>
</Folder>
</Document></kml>
