<?xml version="1.0" encoding="utf-8" ?>
<kml xmlns="http://www.opengis.net/kml/2.2">
<Document id="root_doc">
<Schema name="4f7622e3" id="4f7622e3">
	<SimpleField name="title" type="string"></SimpleField>
	<SimpleField name="type" type="string"></SimpleField>
	<SimpleField name="ext_sign" type="string"></SimpleField>
	<SimpleField name="class_lvl" type="string"></SimpleField>
	<SimpleField name="height_lvl" type="string"></SimpleField>
	<SimpleField name="height_ctrl" type="string"></SimpleField>
	<SimpleField name="ctrl_place" type="string"></SimpleField>
	<SimpleField name="mark_num" type="string"></SimpleField>
	<SimpleField name="center_type" type="string"></SimpleField>
	<SimpleField name="lvl_line" type="string"></SimpleField>
	<SimpleField name="guid" type="string"></SimpleField>
</Schema>
<Folder><name>4f7622e3</name>
  <Placemark id="4f7622e3.1">
	<name>1Г</name>
	<description>грунтовый репер</description>
	<ExtendedData><SchemaData schemaUrl="#4f7622e3">
		<SimpleData name="type">2</SimpleData>
		<SimpleData name="ext_sign">75.760</SimpleData>
		<SimpleData name="ctrl_place">160 оп знак</SimpleData>
		<SimpleData name="mark_num">Линия № 1: Золоторунное - Кобенсай, II класс, Участок: грунт.реп. 957 - грунт.реп. 1Г</SimpleData>
		<SimpleData name="center_type">Талшык, станц., в 9.6 км вост.от нее, 0.1 км к сев.-вост. от жел.-дор. моста р. Карасу, в 30 м к сев. от стб. ЛЭП № 242, в 7 м к зап. от юго - зап. угла квадратной ямы</SimpleData>
		<SimpleData name="lvl_line">4f7622e3-077b-48de-be33-77d035aef08d</SimpleData>
	</SchemaData></ExtendedData>
      <Point><coordinates>72.0318384066993,53.6421964989722</coordinates></Point>
  </Placemark>
</Folder>
</Document></kml>
