<?xml version="1.0" encoding="utf-8" ?>
<kml xmlns="http://www.opengis.net/kml/2.2">
<Document id="root_doc">
<Schema name="4f9c4d83" id="4f9c4d83">
	<SimpleField name="type" type="string"></SimpleField>
	<SimpleField name="view" type="string"></SimpleField>
	<SimpleField name="leveling_order" type="string"></SimpleField>
	<SimpleField name="leveling_height" type="string"></SimpleField>
	<SimpleField name="control_height" type="string"></SimpleField>
	<SimpleField name="benchmark_number" type="string"></SimpleField>
	<SimpleField name="control_location" type="string"></SimpleField>
	<SimpleField name="benchmark_type" type="string"></SimpleField>
	<SimpleField name="leveling_line_section" type="string"></SimpleField>
	<SimpleField name="location_description" type="string"></SimpleField>
	<SimpleField name="status" type="string"></SimpleField>
	<SimpleField name="guid" type="string"></SimpleField>
	<SimpleField name="kml" type="string"></SimpleField>
	<SimpleField name="kml_link" type="string"></SimpleField>
</Schema>
<Folder><name>4f9c4d83</name>
  <Placemark id="4f9c4d83.1">
	<name>8318</name>
	<name>грунт. реп.</name>
	<ExtendedData><SchemaData schemaUrl="#4f9c4d83">
		<SimpleData name="type">1</SimpleData>
		<SimpleData name="view">150,777</SimpleData>
		<SimpleData name="benchmark_number">160 оп</SimpleData>
		<SimpleData name="control_location">Линия №2: Семиярск-Семипалатинск, I класс (1) Участок: фунд.реп. 871-грунт. реп. 5391</SimpleData>
		<SimpleData name="benchmark_type">Лесное, с., в 5.6 км к юго-вост. от него, в 2.7 км к зап. от вдкч., в 0.1 км к вост. от полевой дороги</SimpleData>
		<SimpleData name="location_description">4f9c4d83-43a2-4049-a61b-7844d095656f</SimpleData>
		<SimpleData name="status">data/stations/4f9c4d83.kml</SimpleData>
		<SimpleData name="guid">&lt;a href='data/stations/4f9c4d83.kml' target='_blank'&gt;Download KML&lt;/a&gt;</SimpleData>
	</SchemaData></ExtendedData>
      <Point><coordinates>78.5042240144567,50.8497704185767</coordinates></Point>
  </Placemark>
</Folder>
</Document></kml>
