<?xml version="1.0" encoding="utf-8" ?>
<kml xmlns="http://www.opengis.net/kml/2.2">
<Document id="root_doc">
<Schema name="4fbed186" id="4fbed186">
	<SimpleField name="title" type="string"></SimpleField>
	<SimpleField name="type" type="string"></SimpleField>
	<SimpleField name="ext_sign" type="string"></SimpleField>
	<SimpleField name="class_lvl" type="string"></SimpleField>
	<SimpleField name="height_lvl" type="string"></SimpleField>
	<SimpleField name="height_ctrl" type="string"></SimpleField>
	<SimpleField name="ctrl_place" type="string"></SimpleField>
	<SimpleField name="mark_num" type="string"></SimpleField>
	<SimpleField name="center_type" type="string"></SimpleField>
	<SimpleField name="lvl_line" type="string"></SimpleField>
	<SimpleField name="guid" type="string"></SimpleField>
</Schema>
<Folder><name>4fbed186</name>
  <Placemark id="4fbed186.1">
	<name>7947</name>
	<description>грунт.реп.</description>
	<ExtendedData><SchemaData schemaUrl="#4fbed186">
		<SimpleData name="type">2</SimpleData>
		<SimpleData name="ext_sign">296.595</SimpleData>
		<SimpleData name="ctrl_place">Г</SimpleData>
		<SimpleData name="mark_num">Линия: Аккудук-Караумбет</SimpleData>
		<SimpleData name="center_type">Кокосим,к., в 4.5 км к востоку от него, в 14 м к сев.-вост.от дороги к.Кокосим-к.Узын</SimpleData>
		<SimpleData name="lvl_line">4fbed186-7e6c-447d-a39b-81d0035fc250</SimpleData>
	</SchemaData></ExtendedData>
      <Point><coordinates>54.9417608277736,43.1633665887559</coordinates></Point>
  </Placemark>
</Folder>
</Document></kml>
