<?xml version="1.0" encoding="utf-8" ?>
<kml xmlns="http://www.opengis.net/kml/2.2">
<Document id="root_doc">
<Schema name="4fd16d08" id="4fd16d08">
	<SimpleField name="type" type="string"></SimpleField>
	<SimpleField name="view" type="string"></SimpleField>
	<SimpleField name="leveling_order" type="string"></SimpleField>
	<SimpleField name="leveling_height" type="string"></SimpleField>
	<SimpleField name="control_height" type="string"></SimpleField>
	<SimpleField name="benchmark_number" type="string"></SimpleField>
	<SimpleField name="control_location" type="string"></SimpleField>
	<SimpleField name="benchmark_type" type="string"></SimpleField>
	<SimpleField name="leveling_line_section" type="string"></SimpleField>
	<SimpleField name="location_description" type="string"></SimpleField>
	<SimpleField name="status" type="string"></SimpleField>
	<SimpleField name="guid" type="string"></SimpleField>
	<SimpleField name="kml" type="string"></SimpleField>
	<SimpleField name="kml_link" type="string"></SimpleField>
</Schema>
<Folder><name>4fd16d08</name>
  <Placemark id="4fd16d08.1">
	<name>5</name>
	<name>грунт. реп.</name>
	<ExtendedData><SchemaData schemaUrl="#4fd16d08">
		<SimpleData name="type">1</SimpleData>
		<SimpleData name="view">147,82</SimpleData>
		<SimpleData name="benchmark_number">66</SimpleData>
		<SimpleData name="control_location">Линия №2: Семиярск-Семипалатинск, I класс (1) Участок: фунд.реп. 871-грунт. реп. 5391</SimpleData>
		<SimpleData name="benchmark_type">Курчатов, гор., в 2.3 км к сев.-вост. от него, в 60 м к зап. от полевой дороги, в 30 м к вост. от контура кустарников шенгеля</SimpleData>
		<SimpleData name="location_description">4fd16d08-afdc-4053-963a-e2cc2bd9cb26</SimpleData>
		<SimpleData name="status">data/stations/4fd16d08.kml</SimpleData>
		<SimpleData name="guid">&lt;a href='data/stations/4fd16d08.kml' target='_blank'&gt;Download KML&lt;/a&gt;</SimpleData>
	</SchemaData></ExtendedData>
      <Point><coordinates>78.4511081711505,50.8895658339033</coordinates></Point>
  </Placemark>
</Folder>
</Document></kml>
