<?xml version="1.0" encoding="utf-8" ?>
<kml xmlns="http://www.opengis.net/kml/2.2">
<Document id="root_doc">
<Schema name="5037494a" id="5037494a">
	<SimpleField name="title" type="string"></SimpleField>
	<SimpleField name="type" type="string"></SimpleField>
	<SimpleField name="ext_sign" type="string"></SimpleField>
	<SimpleField name="class_lvl" type="string"></SimpleField>
	<SimpleField name="height_lvl" type="string"></SimpleField>
	<SimpleField name="height_ctrl" type="string"></SimpleField>
	<SimpleField name="ctrl_place" type="string"></SimpleField>
	<SimpleField name="mark_num" type="string"></SimpleField>
	<SimpleField name="center_type" type="string"></SimpleField>
	<SimpleField name="lvl_line" type="string"></SimpleField>
	<SimpleField name="guid" type="string"></SimpleField>
</Schema>
<Folder><name>5037494a</name>
  <Placemark id="5037494a.1">
	<name>6175</name>
	<ExtendedData><SchemaData schemaUrl="#5037494a">
		<SimpleData name="title">грунт.реп.</SimpleData>
		<SimpleData name="type">2</SimpleData>
		<SimpleData name="ext_sign">162.801</SimpleData>
		<SimpleData name="ctrl_place">121</SimpleData>
		<SimpleData name="mark_num">Линия №1: Сагиз-Бегимбет, II класс  Участок: грунт.реп.675-грунт.реп.6175.</SimpleData>
		<SimpleData name="center_type">Жинишке, с., в 46.6 км к сев-зап.от него,в 0.6 км к юго-зап.от колодца, в 39 м к юго-вост.от перекрестка дороги с.Чушкакуль-с.Бейкадам с полевой дороги</SimpleData>
		<SimpleData name="lvl_line">5037494a-db2e-4191-ab98-9b7f90cbf314</SimpleData>
	</SchemaData></ExtendedData>
      <Point><coordinates>58.6888561006765,47.3058098374353</coordinates></Point>
  </Placemark>
</Folder>
</Document></kml>
