<?xml version="1.0" encoding="UTF-8"?>
<kml xmlns="http://www.opengis.net/kml/2.2">
  <Document id="root_doc">
    <Schema id="50370582" name="50370582">
      <SimpleField name="title" type="string"/>
      <SimpleField name="type" type="string"/>
      <SimpleField name="ext_sign" type="string"/>
      <SimpleField name="class_lvl" type="string"/>
      <SimpleField name="height_lvl" type="string"/>
      <SimpleField name="height_ctrl" type="string"/>
      <SimpleField name="ctrl_place" type="string"/>
      <SimpleField name="mark_num" type="string"/>
      <SimpleField name="center_type" type="string"/>
      <SimpleField name="lvl_line" type="string"/>
      <SimpleField name="guid" type="string"/>
    </Schema>
    <Schema id="_50370582.schema">
      <SimpleField name="title" type="string"/>
      <SimpleField name="type" type="string"/>
      <SimpleField name="ext_sign" type="string"/>
      <SimpleField name="class_lvl" type="string"/>
      <SimpleField name="height_lvl" type="string"/>
      <SimpleField name="height_ctrl" type="string"/>
      <SimpleField name="ctrl_place" type="string"/>
      <SimpleField name="mark_num" type="string"/>
      <SimpleField name="center_type" type="string"/>
      <SimpleField name="lvl_line" type="string"/>
      <SimpleField name="guid" type="string"/>
    </Schema>
    <Document id="_50370582">
      <name>50370582</name>
      <Placemark id="_50370582.1">
        <description>Сарыбас, кладб,, в 8,0 км                        к юго-вост, от него, в 33 м к югу от фунт, дороги с, Жезказган - разв, Ески Талап, в 12 м к вост,           от мог, Жеменке</description>
        <ExtendedData>
          <SchemaData schemaUrl="#_50370582.schema">
            <SimpleData name="title">1443</SimpleData>
            <SimpleData name="type">грунтовый репер</SimpleData>
            <SimpleData name="ext_sign">грунтовый репер</SimpleData>
            <SimpleData name="class_lvl">2</SimpleData>
            <SimpleData name="height_lvl">342,798</SimpleData>
            <SimpleData name="center_type">160 оп. знак</SimpleData>
            <SimpleData name="lvl_line">Линия № 4: Жезказган (фунд, реп. 495) - Древний Курган (фунд, реп. 1377), 2 класс (5)</SimpleData>
            <SimpleData name="guid">50370582-52a4-4df9-a9e8-30cf7aa249b1</SimpleData>
          </SchemaData>
        </ExtendedData>
        <Point>
          <coordinates>
            67.5031429248438,47.6850451984562,0
          </coordinates>
        </Point>
      </Placemark>
    </Document>
  </Document>
</kml>
