<?xml version="1.0" encoding="utf-8" ?>
<kml xmlns="http://www.opengis.net/kml/2.2">
<Document id="root_doc">
<Schema name="50704afe" id="50704afe">
	<SimpleField name="type" type="string"></SimpleField>
	<SimpleField name="view" type="string"></SimpleField>
	<SimpleField name="leveling_order" type="string"></SimpleField>
	<SimpleField name="leveling_height" type="string"></SimpleField>
	<SimpleField name="control_height" type="string"></SimpleField>
	<SimpleField name="benchmark_number" type="string"></SimpleField>
	<SimpleField name="control_location" type="string"></SimpleField>
	<SimpleField name="benchmark_type" type="string"></SimpleField>
	<SimpleField name="leveling_line_section" type="string"></SimpleField>
	<SimpleField name="location_description" type="string"></SimpleField>
	<SimpleField name="status" type="string"></SimpleField>
	<SimpleField name="guid" type="string"></SimpleField>
	<SimpleField name="kml" type="string"></SimpleField>
	<SimpleField name="kml_link" type="string"></SimpleField>
</Schema>
<Folder><name>50704afe</name>
  <Placemark id="50704afe.1">
	<name>606</name>
	<name>грунт. реп.</name>
	<ExtendedData><SchemaData schemaUrl="#50704afe">
		<SimpleData name="type">1</SimpleData>
		<SimpleData name="view">1015.479</SimpleData>
		<SimpleData name="leveling_order">1014.443*</SimpleData>
		<SimpleData name="control_height">Контрольный репер в трубе</SimpleData>
		<SimpleData name="benchmark_number">118 оп. знак. </SimpleData>
		<SimpleData name="control_location">Линия № 3: Сарыозек – Каракол (Пржевальск) , I класс  Участок: фунд. реп. 384 – грунт. реп. 1216</SimpleData>
		<SimpleData name="benchmark_type">Калинино. с.. в 4.8 км к сев.-зап. от него. в 25 м к югу от шоссе с. Сарыозек – гор. Жаркент. в 20 м к юго-вост. от км. стб. 75/103</SimpleData>
		<SimpleData name="location_description">50704afe-a1d0-4795-8f6e-f94168219cd9</SimpleData>
		<SimpleData name="status">data/stations/50704afe.kml</SimpleData>
		<SimpleData name="guid">&lt;a href='data/stations/50704afe.kml' target='_blank'&gt;Download KML&lt;/a&gt;</SimpleData>
	</SchemaData></ExtendedData>
      <Point><coordinates>78.6952149245969,44.1807997173662</coordinates></Point>
  </Placemark>
</Folder>
</Document></kml>
