<?xml version="1.0" encoding="utf-8" ?>
<kml xmlns="http://www.opengis.net/kml/2.2">
<Document id="root_doc">
<Schema name="509a0605" id="509a0605">
	<SimpleField name="title" type="string"></SimpleField>
	<SimpleField name="type" type="string"></SimpleField>
	<SimpleField name="ext_sign" type="string"></SimpleField>
	<SimpleField name="class_lvl" type="string"></SimpleField>
	<SimpleField name="height_lvl" type="string"></SimpleField>
	<SimpleField name="height_ctrl" type="string"></SimpleField>
	<SimpleField name="ctrl_place" type="string"></SimpleField>
	<SimpleField name="mark_num" type="string"></SimpleField>
	<SimpleField name="center_type" type="string"></SimpleField>
	<SimpleField name="lvl_line" type="string"></SimpleField>
	<SimpleField name="guid" type="string"></SimpleField>
</Schema>
<Folder><name>509a0605</name>
  <Placemark id="509a0605.1">
	<name>9412</name>
	<description>фундаментальный репер</description>
	<ExtendedData><SchemaData schemaUrl="#509a0605">
		<SimpleData name="type">1</SimpleData>
		<SimpleData name="ext_sign">60.688</SimpleData>
		<SimpleData name="class_lvl">59.78</SimpleData>
		<SimpleData name="height_lvl">Контрольный репер № 1843 в фундаментной плите</SimpleData>
		<SimpleData name="ctrl_place">161</SimpleData>
		<SimpleData name="mark_num">Линия 1: Аральск- Айтеке Би (Новоказалинск)-Жосалы, I класс(1,2). Участок: Грунт. реп. 803-марка 3902</SimpleData>
		<SimpleData name="center_type">Айтеке Би, с., в 3,3 км к сев.-зап. от здания вокзала, в 25 м к юго-зап. от жел.- дор. полотна, в 23 м к югу от км. стб. 2496/2497, в 16 м к ююго-вост. от тлф. стб. 406/37</SimpleData>
		<SimpleData name="lvl_line">509a0605-3a35-475a-9199-00752c206ee5</SimpleData>
	</SchemaData></ExtendedData>
      <Point><coordinates>62.1201083468544,45.8627339101273</coordinates></Point>
  </Placemark>
</Folder>
</Document></kml>
