<?xml version="1.0" encoding="utf-8" ?>
<kml xmlns="http://www.opengis.net/kml/2.2">
<Document id="root_doc">
<Schema name="50fcdf2f" id="50fcdf2f">
	<SimpleField name="type" type="string"></SimpleField>
	<SimpleField name="view" type="string"></SimpleField>
	<SimpleField name="leveling_order" type="string"></SimpleField>
	<SimpleField name="leveling_height" type="string"></SimpleField>
	<SimpleField name="control_height" type="string"></SimpleField>
	<SimpleField name="benchmark_number" type="string"></SimpleField>
	<SimpleField name="control_location" type="string"></SimpleField>
	<SimpleField name="benchmark_type" type="string"></SimpleField>
	<SimpleField name="leveling_line_section" type="string"></SimpleField>
	<SimpleField name="location_description" type="string"></SimpleField>
	<SimpleField name="status" type="string"></SimpleField>
	<SimpleField name="guid" type="string"></SimpleField>
	<SimpleField name="kml" type="string"></SimpleField>
	<SimpleField name="kml_link" type="string"></SimpleField>
</Schema>
<Folder><name>50fcdf2f</name>
  <Placemark id="50fcdf2f.1">
	<name>6932</name>
	<name>ск. реп.</name>
	<ExtendedData><SchemaData schemaUrl="#50fcdf2f">
		<SimpleData name="type">2</SimpleData>
		<SimpleData name="view">523.532</SimpleData>
		<SimpleData name="benchmark_number">99</SimpleData>
		<SimpleData name="control_location">Линия № 76:            Усть-Каменогорск - Зайсан, 2 класс (14) Участок: ск.реп. 9561 - грунт. реп. 96</SimpleData>
		<SimpleData name="benchmark_type">Бородино, с., в 2.6 км к юго-вост. от него, в 0.3 км к юго-вост. от слияния рек Ширинкали и Черемшанка, в 20 м к зап. от дороги на скалистом мысе, в русле</SimpleData>
		<SimpleData name="location_description">50fcdf2f-9539-440c-b87a-1e5e6bc20ca3</SimpleData>
		<SimpleData name="status">data/stations/50fcdf2f.kml</SimpleData>
		<SimpleData name="guid">&lt;a href='data/stations/50fcdf2f.kml' target='_blank'&gt;Download KML&lt;/a&gt;</SimpleData>
	</SchemaData></ExtendedData>
      <Point><coordinates>84.0849073912585,49.4580477850698</coordinates></Point>
  </Placemark>
</Folder>
</Document></kml>
