<?xml version="1.0" encoding="utf-8" ?>
<kml xmlns="http://www.opengis.net/kml/2.2">
<Document id="root_doc">
<Schema name="50fd7782" id="50fd7782">
	<SimpleField name="type" type="string"></SimpleField>
	<SimpleField name="view" type="string"></SimpleField>
	<SimpleField name="leveling_order" type="string"></SimpleField>
	<SimpleField name="leveling_height" type="string"></SimpleField>
	<SimpleField name="control_height" type="string"></SimpleField>
	<SimpleField name="benchmark_number" type="string"></SimpleField>
	<SimpleField name="control_location" type="string"></SimpleField>
	<SimpleField name="benchmark_type" type="string"></SimpleField>
	<SimpleField name="leveling_line_section" type="string"></SimpleField>
	<SimpleField name="location_description" type="string"></SimpleField>
	<SimpleField name="status" type="string"></SimpleField>
	<SimpleField name="guid" type="string"></SimpleField>
	<SimpleField name="kml" type="string"></SimpleField>
	<SimpleField name="kml_link" type="string"></SimpleField>
</Schema>
<Folder><name>50fd7782</name>
  <Placemark id="50fd7782.1">
	<name>1953</name>
	<name>грунтовый репер</name>
	<ExtendedData><SchemaData schemaUrl="#50fd7782">
		<SimpleData name="type">II</SimpleData>
		<SimpleData name="view">531.237</SimpleData>
		<SimpleData name="benchmark_number">146</SimpleData>
		<SimpleData name="control_location">Линия №17: грунт.реп. 1008 - марка 3487, II класс (3)</SimpleData>
		<SimpleData name="benchmark_type">Майкудук, с., в 0.7 км к сев. от него, в 0.2 км к зап. от завода пластмассовых изделий</SimpleData>
		<SimpleData name="location_description">50fd7782-5261-48eb-926c-96097260972c</SimpleData>
		<SimpleData name="status">data/stations/50fd7782.kml</SimpleData>
		<SimpleData name="guid">&lt;a href='data/stations/50fd7782.kml' target='_blank'&gt;Download KML&lt;/a&gt;</SimpleData>
	</SchemaData></ExtendedData>
      <Point><coordinates>73.1949726538612,49.9095346365748</coordinates></Point>
  </Placemark>
</Folder>
</Document></kml>
