<?xml version="1.0" encoding="utf-8" ?>
<kml xmlns="http://www.opengis.net/kml/2.2">
<Document id="root_doc">
<Schema name="510cf72c" id="510cf72c">
	<SimpleField name="type" type="string"></SimpleField>
	<SimpleField name="view" type="string"></SimpleField>
	<SimpleField name="leveling_order" type="string"></SimpleField>
	<SimpleField name="leveling_height" type="string"></SimpleField>
	<SimpleField name="control_height" type="string"></SimpleField>
	<SimpleField name="benchmark_number" type="string"></SimpleField>
	<SimpleField name="control_location" type="string"></SimpleField>
	<SimpleField name="benchmark_type" type="string"></SimpleField>
	<SimpleField name="leveling_line_section" type="string"></SimpleField>
	<SimpleField name="location_description" type="string"></SimpleField>
	<SimpleField name="status" type="string"></SimpleField>
	<SimpleField name="guid" type="string"></SimpleField>
	<SimpleField name="kml" type="string"></SimpleField>
	<SimpleField name="kml_link" type="string"></SimpleField>
</Schema>
<Folder><name>510cf72c</name>
  <Placemark id="510cf72c.1">
	<name>1725</name>
	<name>грунт.реп.</name>
	<ExtendedData><SchemaData schemaUrl="#510cf72c">
		<SimpleData name="type">II</SimpleData>
		<SimpleData name="view">348.918</SimpleData>
		<SimpleData name="leveling_order">347.416</SimpleData>
		<SimpleData name="control_height">Контрольный репер №1410 в фундаментной плите</SimpleData>
		<SimpleData name="benchmark_number">116 оп.знак</SimpleData>
		<SimpleData name="control_location">Линия №2: Ивановка - р.Кон, II класс (I) Участок: грунт.реп.1983 - фунд.реп.2295</SimpleData>
		<SimpleData name="benchmark_type">Баршино, с., в 8.5 км к сев.-вост.от него, в 3.0 км к юго-вост.от мог.Акмыс, в 25 м к сев.от полевой дороги</SimpleData>
		<SimpleData name="location_description">510cf72c-29fb-4550-9435-9bbd9a19251c</SimpleData>
		<SimpleData name="status">data/stations/510cf72c.kml</SimpleData>
		<SimpleData name="guid">&lt;a href='data/stations/510cf72c.kml' target='_blank'&gt;Download KML&lt;/a&gt;</SimpleData>
	</SchemaData></ExtendedData>
      <Point><coordinates>69.5893072224079,49.76263476008</coordinates></Point>
  </Placemark>
</Folder>
</Document></kml>
