<?xml version="1.0" encoding="utf-8" ?>
<kml xmlns="http://www.opengis.net/kml/2.2">
<Document id="root_doc">
<Schema name="511f5d8b" id="511f5d8b">
	<SimpleField name="title" type="string"></SimpleField>
	<SimpleField name="type" type="string"></SimpleField>
	<SimpleField name="ext_sign" type="string"></SimpleField>
	<SimpleField name="class_lvl" type="string"></SimpleField>
	<SimpleField name="height_lvl" type="string"></SimpleField>
	<SimpleField name="height_ctrl" type="string"></SimpleField>
	<SimpleField name="ctrl_place" type="string"></SimpleField>
	<SimpleField name="mark_num" type="string"></SimpleField>
	<SimpleField name="center_type" type="string"></SimpleField>
	<SimpleField name="lvl_line" type="string"></SimpleField>
	<SimpleField name="guid" type="string"></SimpleField>
</Schema>
<Folder><name>511f5d8b</name>
  <Placemark id="511f5d8b.1">
	<name>468</name>
	<description>фундаментальный репер</description>
	<ExtendedData><SchemaData schemaUrl="#511f5d8b">
		<SimpleData name="title">1А33</SimpleData>
		<SimpleData name="lvl_line">511f5d8b-5ecb-4da3-86be-be92139b5931</SimpleData>
	</SchemaData></ExtendedData>
      <Point><coordinates>50.97622789,47.19583485</coordinates></Point>
  </Placemark>
</Folder>
</Document></kml>
