<?xml version="1.0" encoding="utf-8" ?>
<kml xmlns="http://www.opengis.net/kml/2.2">
<Document id="root_doc">
<Schema name="51b2d099" id="51b2d099">
	<SimpleField name="type" type="string"></SimpleField>
	<SimpleField name="view" type="string"></SimpleField>
	<SimpleField name="leveling_order" type="string"></SimpleField>
	<SimpleField name="leveling_height" type="string"></SimpleField>
	<SimpleField name="control_height" type="string"></SimpleField>
	<SimpleField name="benchmark_number" type="string"></SimpleField>
	<SimpleField name="control_location" type="string"></SimpleField>
	<SimpleField name="benchmark_type" type="string"></SimpleField>
	<SimpleField name="leveling_line_section" type="string"></SimpleField>
	<SimpleField name="location_description" type="string"></SimpleField>
	<SimpleField name="status" type="string"></SimpleField>
	<SimpleField name="guid" type="string"></SimpleField>
	<SimpleField name="kml" type="string"></SimpleField>
	<SimpleField name="kml_link" type="string"></SimpleField>
</Schema>
<Folder><name>51b2d099</name>
  <Placemark id="51b2d099.1">
	<name>274</name>
	<name>фунд. реп</name>
	<ExtendedData><SchemaData schemaUrl="#51b2d099">
		<SimpleData name="type">2</SimpleData>
		<SimpleData name="view">525,784</SimpleData>
		<SimpleData name="leveling_order">524,680</SimpleData>
		<SimpleData name="control_height">репер № 9546 в верхней плоскости монолита</SimpleData>
		<SimpleData name="benchmark_number">117 оп</SimpleData>
		<SimpleData name="control_location">Линия № 2: Жангиз -Тобе -Ак-Булак, II класс (I) Участок: грунт. реп. 4683- фунд. реп. 161</SimpleData>
		<SimpleData name="benchmark_type">Костас, зим., в 7.0 км к сев. -вост. от нее, в 4.0 км к юго -вост. от зим. Акший, в 0.2 км к вост. от р. Баскауга, у дороги</SimpleData>
		<SimpleData name="location_description">51b2d099-3dc2-4474-8567-e88b85e504ab</SimpleData>
		<SimpleData name="status">data/stations/51b2d099.kml</SimpleData>
		<SimpleData name="guid">&lt;a href='data/stations/51b2d099.kml' target='_blank'&gt;Download KML&lt;/a&gt;</SimpleData>
	</SchemaData></ExtendedData>
      <Point><coordinates>79.962558880195,49.0477119379374</coordinates></Point>
  </Placemark>
</Folder>
</Document></kml>
