<?xml version="1.0" encoding="utf-8" ?>
<kml xmlns="http://www.opengis.net/kml/2.2">
<Document id="root_doc">
<Schema name="51bbe7f3" id="51bbe7f3">
	<SimpleField name="type" type="string"></SimpleField>
	<SimpleField name="view" type="string"></SimpleField>
	<SimpleField name="leveling_order" type="string"></SimpleField>
	<SimpleField name="leveling_height" type="string"></SimpleField>
	<SimpleField name="control_height" type="string"></SimpleField>
	<SimpleField name="benchmark_number" type="string"></SimpleField>
	<SimpleField name="control_location" type="string"></SimpleField>
	<SimpleField name="benchmark_type" type="string"></SimpleField>
	<SimpleField name="leveling_line_section" type="string"></SimpleField>
	<SimpleField name="location_description" type="string"></SimpleField>
	<SimpleField name="status" type="string"></SimpleField>
	<SimpleField name="guid" type="string"></SimpleField>
	<SimpleField name="kml" type="string"></SimpleField>
	<SimpleField name="kml_link" type="string"></SimpleField>
</Schema>
<Folder><name>51bbe7f3</name>
  <Placemark id="51bbe7f3.1">
	<name>970</name>
	<name>грунтовый репер</name>
	<ExtendedData><SchemaData schemaUrl="#51bbe7f3">
		<SimpleData name="type">1</SimpleData>
		<SimpleData name="view">222.754</SimpleData>
		<SimpleData name="benchmark_number">160 оп, знак</SimpleData>
		<SimpleData name="control_location">Линия № 3: Торыустаган - Бирлик, 1 класс (2) Участок: фунд, реп, 9993 - грунт, реп, 5516</SimpleData>
		<SimpleData name="benchmark_type">Торыустаган, с,, в 17,5 км к юго-вост, от него, в 0,2 км к юго-зап, от км, стб, № 328, в 15 м к югу от шоссе с, Жуантобс - с, Уланбель, у подножия бугра</SimpleData>
		<SimpleData name="location_description">51bbe7f3-fbfb-4942-9419-21dad7eda3c8</SimpleData>
		<SimpleData name="status">data/stations/51bbe7f3.kml</SimpleData>
		<SimpleData name="guid">&lt;a href='data/stations/51bbe7f3.kml' target='_blank'&gt;Download KML&lt;/a&gt;</SimpleData>
	</SchemaData></ExtendedData>
      <Point><coordinates>69.8627370093117,44.7615151763963</coordinates></Point>
  </Placemark>
</Folder>
</Document></kml>
