<?xml version="1.0" encoding="utf-8" ?>
<kml xmlns="http://www.opengis.net/kml/2.2">
<Document id="root_doc">
<Schema name="51bd7ae5" id="51bd7ae5">
	<SimpleField name="title" type="string"></SimpleField>
	<SimpleField name="type" type="string"></SimpleField>
	<SimpleField name="ext_sign" type="string"></SimpleField>
	<SimpleField name="class_lvl" type="string"></SimpleField>
	<SimpleField name="height_lvl" type="string"></SimpleField>
	<SimpleField name="height_ctrl" type="string"></SimpleField>
	<SimpleField name="ctrl_place" type="string"></SimpleField>
	<SimpleField name="mark_num" type="string"></SimpleField>
	<SimpleField name="center_type" type="string"></SimpleField>
	<SimpleField name="lvl_line" type="string"></SimpleField>
	<SimpleField name="guid" type="string"></SimpleField>
</Schema>
<Folder><name>51bd7ae5</name>
  <Placemark id="51bd7ae5.1">
	<name>Закладка 1089</name>
	<ExtendedData><SchemaData schemaUrl="#51bd7ae5">
		<SimpleData name="title">Грунтовый </SimpleData>
		<SimpleData name="ctrl_place">160</SimpleData>
		<SimpleData name="center_type">Шапан,арт.к.,8,6 км к юго-вост от него, 4,8 км к сев-зап отарт.к. Акылашкобы 19 м к зап от полевойдороги,7 м к вост от Оп.знака</SimpleData>
		<SimpleData name="lvl_line">51bd7ae5-18bf-46de-b8d8-12964494b0d9</SimpleData>
	</SchemaData></ExtendedData>
      <Point><coordinates>68.4045733333333,44.5788233333333</coordinates></Point>
  </Placemark>
</Folder>
</Document></kml>
