<?xml version="1.0" encoding="utf-8" ?>
<kml xmlns="http://www.opengis.net/kml/2.2">
<Document id="root_doc">
<Schema name="51dca621" id="51dca621">
	<SimpleField name="type" type="string"></SimpleField>
	<SimpleField name="view" type="string"></SimpleField>
	<SimpleField name="leveling_order" type="string"></SimpleField>
	<SimpleField name="leveling_height" type="string"></SimpleField>
	<SimpleField name="control_height" type="string"></SimpleField>
	<SimpleField name="benchmark_number" type="string"></SimpleField>
	<SimpleField name="control_location" type="string"></SimpleField>
	<SimpleField name="benchmark_type" type="string"></SimpleField>
	<SimpleField name="leveling_line_section" type="string"></SimpleField>
	<SimpleField name="location_description" type="string"></SimpleField>
	<SimpleField name="status" type="string"></SimpleField>
	<SimpleField name="guid" type="string"></SimpleField>
	<SimpleField name="kml" type="string"></SimpleField>
	<SimpleField name="kml_link" type="string"></SimpleField>
</Schema>
<Folder><name>51dca621</name>
  <Placemark id="51dca621.1">
	<name>7529</name>
	<name>ск.реп.</name>
	<description>ск.реп.</description>
	<ExtendedData><SchemaData schemaUrl="#51dca621">
		<SimpleData name="type">II</SimpleData>
		<SimpleData name="view">413,054</SimpleData>
		<SimpleData name="benchmark_number">99оп.знак</SimpleData>
		<SimpleData name="control_location">Линия  № 2 :  Балхаш - Карасу, П  класс  (3)
Участок : грунт.реп. 29 - грунт. реп.6441
</SimpleData>
		<SimpleData name="benchmark_type">Восточно-Коунрадский,с.,в  5.1  км  к
юго-зап.от  него,в  0.1  км  к  югу  от  шос
се  с.Акгогай-гор.Балхаш,в  10  м  к  сев.
от  линии  связи</SimpleData>
		<SimpleData name="location_description">51dca621-6c71-4ec5-906c-a816df0538b2</SimpleData>
		<SimpleData name="status">data/stations/51dca621.kml</SimpleData>
		<SimpleData name="guid">&lt;a href='data/stations/51dca621.kml' target='_blank'&gt;Download KML&lt;/a&gt;</SimpleData>
	</SchemaData></ExtendedData>
      <Point><coordinates>75.0571832010479,46.9873879912389</coordinates></Point>
  </Placemark>
</Folder>
</Document></kml>
