<?xml version="1.0" encoding="utf-8" ?>
<kml xmlns="http://www.opengis.net/kml/2.2">
<Document id="root_doc">
<Schema name="5211625c" id="5211625c">
	<SimpleField name="type" type="string"></SimpleField>
	<SimpleField name="view" type="string"></SimpleField>
	<SimpleField name="leveling_order" type="string"></SimpleField>
	<SimpleField name="leveling_height" type="string"></SimpleField>
	<SimpleField name="control_height" type="string"></SimpleField>
	<SimpleField name="benchmark_number" type="string"></SimpleField>
	<SimpleField name="control_location" type="string"></SimpleField>
	<SimpleField name="benchmark_type" type="string"></SimpleField>
	<SimpleField name="leveling_line_section" type="string"></SimpleField>
	<SimpleField name="location_description" type="string"></SimpleField>
	<SimpleField name="status" type="string"></SimpleField>
	<SimpleField name="guid" type="string"></SimpleField>
	<SimpleField name="kml" type="string"></SimpleField>
	<SimpleField name="kml_link" type="string"></SimpleField>
</Schema>
<Folder><name>5211625c</name>
  <Placemark id="5211625c.1">
	<name>4360</name>
	<name>грунт. реп.</name>
	<ExtendedData><SchemaData schemaUrl="#5211625c">
		<SimpleData name="type">1</SimpleData>
		<SimpleData name="leveling_height">160 оп. знак</SimpleData>
		<SimpleData name="benchmark_number">Линия № 1: Алажиде – Оз. Жаланашколь, I класс 
Участок: грунт. реп. 7982 – грунт. реп. 5195
</SimpleData>
		<SimpleData name="control_location">Теректы, с., в 2.8 км к юго-вост. от него, в 32 м к сев.-вост. от км. стб. 12/174 шоссе с. Кабанбай – станц. Дружба, в 16 м к сев.-вост. от шоссе</SimpleData>
		<SimpleData name="benchmark_type">L-44-78-Г</SimpleData>
		<SimpleData name="location_description">5211625c-c318-41e5-b9c2-216a12b8fecc</SimpleData>
		<SimpleData name="status">data/stations/5211625c.kml</SimpleData>
		<SimpleData name="guid">&lt;a href='data/stations/5211625c.kml' target='_blank'&gt;Download KML&lt;/a&gt;</SimpleData>
	</SchemaData></ExtendedData>
      <Point><coordinates>80.7578613572925,45.8156241272005</coordinates></Point>
  </Placemark>
</Folder>
</Document></kml>
