<?xml version="1.0" encoding="utf-8" ?>
<kml xmlns="http://www.opengis.net/kml/2.2">
<Document id="root_doc">
<Schema name="52ba6263" id="52ba6263">
	<SimpleField name="title" type="string"></SimpleField>
	<SimpleField name="type" type="string"></SimpleField>
	<SimpleField name="ext_sign" type="string"></SimpleField>
	<SimpleField name="class_lvl" type="string"></SimpleField>
	<SimpleField name="height_lvl" type="string"></SimpleField>
	<SimpleField name="height_ctrl" type="string"></SimpleField>
	<SimpleField name="ctrl_place" type="string"></SimpleField>
	<SimpleField name="mark_num" type="string"></SimpleField>
	<SimpleField name="center_type" type="string"></SimpleField>
	<SimpleField name="lvl_line" type="string"></SimpleField>
	<SimpleField name="guid" type="string"></SimpleField>
</Schema>
<Folder><name>52ba6263</name>
  <Placemark id="52ba6263.1">
	<name>16085</name>
	<description>грунтовый репер</description>
	<ExtendedData><SchemaData schemaUrl="#52ba6263">
		<SimpleData name="type">2</SimpleData>
		<SimpleData name="ext_sign">195,754</SimpleData>
		<SimpleData name="class_lvl">194,608</SimpleData>
		<SimpleData name="height_lvl">контрольный репер в верхней плоскости монолита</SimpleData>
		<SimpleData name="ctrl_place">121</SimpleData>
		<SimpleData name="mark_num">Линия:Айбас-Кобенсай,II класс Участок:фунд. реп. 180-фунд. реп.3217</SimpleData>
		<SimpleData name="center_type">Аккудык, а., в 11,6 км к югу от него, в 2,7 км к юго-вост. от ур.Кенколь, в 135 м к сев.-вост. от колка леса, в 70 м к сев. от фунд. реп. 180, в 50 м к вост. от старой пол. дороги</SimpleData>
		<SimpleData name="lvl_line">52ba6263-417b-4fe3-95e5-418a8a2169fe</SimpleData>
	</SchemaData></ExtendedData>
      <Point><coordinates>72.36531205,53.02188676</coordinates></Point>
  </Placemark>
</Folder>
</Document></kml>
