<?xml version="1.0" encoding="utf-8" ?>
<kml xmlns="http://www.opengis.net/kml/2.2">
<Document id="root_doc">
<Schema name="52f05644" id="52f05644">
	<SimpleField name="title" type="string"></SimpleField>
	<SimpleField name="type" type="string"></SimpleField>
	<SimpleField name="ext_sign" type="string"></SimpleField>
	<SimpleField name="class_lvl" type="string"></SimpleField>
	<SimpleField name="height_lvl" type="string"></SimpleField>
	<SimpleField name="height_ctrl" type="string"></SimpleField>
	<SimpleField name="ctrl_place" type="string"></SimpleField>
	<SimpleField name="mark_num" type="string"></SimpleField>
	<SimpleField name="center_type" type="string"></SimpleField>
	<SimpleField name="lvl_line" type="string"></SimpleField>
	<SimpleField name="guid" type="string"></SimpleField>
</Schema>
<Folder><name>52f05644</name>
  <Placemark id="52f05644.1">
	<name>8984</name>
	<description>грунтовый репер</description>
	<ExtendedData><SchemaData schemaUrl="#52f05644">
		<SimpleData name="title">грунт. реп.</SimpleData>
		<SimpleData name="type">2</SimpleData>
		<SimpleData name="ext_sign">85.089</SimpleData>
		<SimpleData name="ctrl_place">160 оп. знак</SimpleData>
		<SimpleData name="mark_num">Линия № 3 : Аральск - Коккабак, II класс. Участок: грунт. реп. 9276 - фунд. реп. 2</SimpleData>
		<SimpleData name="center_type">Жуздак, кладб., в 11.7 км к юго-зап. от него, в 3.4 км к сев.-зап. от зимовки, в 12 м к вост. от полевой дороги</SimpleData>
		<SimpleData name="lvl_line">52f05644-f224-4759-9616-2f2c196f31bc</SimpleData>
	</SchemaData></ExtendedData>
      <Point><coordinates>63.502260920714,47.5276967039539</coordinates></Point>
  </Placemark>
</Folder>
</Document></kml>
