<?xml version="1.0" encoding="utf-8" ?>
<kml xmlns="http://www.opengis.net/kml/2.2">
<Document id="root_doc">
<Schema name="52f4fb82" id="52f4fb82">
	<SimpleField name="title" type="string"></SimpleField>
	<SimpleField name="type" type="string"></SimpleField>
	<SimpleField name="ext_sign" type="string"></SimpleField>
	<SimpleField name="class_lvl" type="string"></SimpleField>
	<SimpleField name="height_lvl" type="string"></SimpleField>
	<SimpleField name="height_ctrl" type="string"></SimpleField>
	<SimpleField name="ctrl_place" type="string"></SimpleField>
	<SimpleField name="mark_num" type="string"></SimpleField>
	<SimpleField name="center_type" type="string"></SimpleField>
	<SimpleField name="lvl_line" type="string"></SimpleField>
	<SimpleField name="guid" type="string"></SimpleField>
</Schema>
<Folder><name>52f4fb82</name>
  <Placemark id="52f4fb82.1">
	<name>8818</name>
	<ExtendedData><SchemaData schemaUrl="#52f4fb82">
		<SimpleData name="title">грунт.реп.</SimpleData>
		<SimpleData name="type">II</SimpleData>
		<SimpleData name="ext_sign">212.498</SimpleData>
		<SimpleData name="mark_num">Линия№2:Наурызм-Державинск, от фунд.реп.80 до фунд.реп.4778Участок:пир. 3 кл.Тубелес-фунд.реп.4778</SimpleData>
		<SimpleData name="center_type">Им.Панфилова,свх., в 2.5 км к югу.от него , в 0.4 км к сев-вост.от  ручья Аксу, в 13 м к зап.от полевой дороги полевой стан -свх.им.Панфилова</SimpleData>
		<SimpleData name="lvl_line">52f4fb82-6f4b-476a-992e-d8b8b4140e53</SimpleData>
	</SchemaData></ExtendedData>
      <Point><coordinates>65.1996236691982,51.4244974867187</coordinates></Point>
  </Placemark>
</Folder>
</Document></kml>
