<?xml version="1.0" encoding="utf-8" ?>
<kml xmlns="http://www.opengis.net/kml/2.2">
<Document id="root_doc">
<Schema name="533a7d61" id="533a7d61">
	<SimpleField name="title" type="string"></SimpleField>
	<SimpleField name="type" type="string"></SimpleField>
	<SimpleField name="ext_sign" type="string"></SimpleField>
	<SimpleField name="class_lvl" type="string"></SimpleField>
	<SimpleField name="height_lvl" type="string"></SimpleField>
	<SimpleField name="height_ctrl" type="string"></SimpleField>
	<SimpleField name="ctrl_place" type="string"></SimpleField>
	<SimpleField name="mark_num" type="string"></SimpleField>
	<SimpleField name="center_type" type="string"></SimpleField>
	<SimpleField name="lvl_line" type="string"></SimpleField>
	<SimpleField name="guid" type="string"></SimpleField>
</Schema>
<Folder><name>533a7d61</name>
  <Placemark id="533a7d61.1">
	<name>7234</name>
	<description>скальный репер</description>
	<ExtendedData><SchemaData schemaUrl="#533a7d61">
		<SimpleData name="type">1</SimpleData>
		<SimpleData name="ext_sign">806.268</SimpleData>
		<SimpleData name="ctrl_place">99</SimpleData>
		<SimpleData name="center_type">Карагайлы, с., в 8.3 км к сев. от него, в 250 м к юго-зап. от км.стб. 223/151, в 200 м к югу от шоссе, в 60 м к вост. от могилы.</SimpleData>
		<SimpleData name="lvl_line">533a7d61-0bad-42e6-8e83-df8514bf7935</SimpleData>
	</SchemaData></ExtendedData>
      <Point><coordinates>75.7497951667372,49.4378738022787</coordinates></Point>
  </Placemark>
</Folder>
</Document></kml>
