<?xml version="1.0" encoding="utf-8" ?>
<kml xmlns="http://www.opengis.net/kml/2.2">
<Document id="root_doc">
<Schema name="536b96c7" id="536b96c7">
	<SimpleField name="type" type="string"></SimpleField>
	<SimpleField name="view" type="string"></SimpleField>
	<SimpleField name="leveling_order" type="string"></SimpleField>
	<SimpleField name="leveling_height" type="string"></SimpleField>
	<SimpleField name="control_height" type="string"></SimpleField>
	<SimpleField name="benchmark_number" type="string"></SimpleField>
	<SimpleField name="control_location" type="string"></SimpleField>
	<SimpleField name="benchmark_type" type="string"></SimpleField>
	<SimpleField name="leveling_line_section" type="string"></SimpleField>
	<SimpleField name="location_description" type="string"></SimpleField>
	<SimpleField name="status" type="string"></SimpleField>
	<SimpleField name="guid" type="string"></SimpleField>
	<SimpleField name="kml" type="string"></SimpleField>
	<SimpleField name="kml_link" type="string"></SimpleField>
</Schema>
<Folder><name>536b96c7</name>
  <Placemark id="536b96c7.1">
	<name>659</name>
	<name>ск. реп.</name>
	<ExtendedData><SchemaData schemaUrl="#536b96c7">
		<SimpleData name="type">1</SimpleData>
		<SimpleData name="view">753.391</SimpleData>
		<SimpleData name="benchmark_number">99</SimpleData>
		<SimpleData name="control_location">Линия № 1: Аягуз-Жангиз-Тобе, I класс (1) Участок: марка 20827-грунт. реп. 4089</SimpleData>
		<SimpleData name="benchmark_type">Каракультас, станц., в 1.7 км к сев.-вост. от нее, на 6 пикете 247 км, в 0.2 км к юго-вост. от оси жел.-дор. полотна</SimpleData>
		<SimpleData name="location_description">536b96c7-ff26-4a6d-89cd-0bc648498c94</SimpleData>
		<SimpleData name="status">data/stations/536b96c7.kml</SimpleData>
		<SimpleData name="guid">&lt;a href='data/stations/536b96c7.kml' target='_blank'&gt;Download KML&lt;/a&gt;</SimpleData>
	</SchemaData></ExtendedData>
      <Point><coordinates>80.838030335146,48.6350130219852</coordinates></Point>
  </Placemark>
</Folder>
</Document></kml>
