<?xml version="1.0" encoding="utf-8" ?>
<kml xmlns="http://www.opengis.net/kml/2.2">
<Document id="root_doc">
<Schema name="54490674" id="54490674">
	<SimpleField name="type" type="string"></SimpleField>
	<SimpleField name="view" type="string"></SimpleField>
	<SimpleField name="leveling_order" type="string"></SimpleField>
	<SimpleField name="leveling_height" type="string"></SimpleField>
	<SimpleField name="control_height" type="string"></SimpleField>
	<SimpleField name="benchmark_number" type="string"></SimpleField>
	<SimpleField name="control_location" type="string"></SimpleField>
	<SimpleField name="benchmark_type" type="string"></SimpleField>
	<SimpleField name="leveling_line_section" type="string"></SimpleField>
	<SimpleField name="location_description" type="string"></SimpleField>
	<SimpleField name="status" type="string"></SimpleField>
	<SimpleField name="guid" type="string"></SimpleField>
	<SimpleField name="kml" type="string"></SimpleField>
	<SimpleField name="kml_link" type="string"></SimpleField>
</Schema>
<Folder><name>54490674</name>
  <Placemark id="54490674.1">
	<name>3944</name>
	<name>грунтовый репер</name>
	<ExtendedData><SchemaData schemaUrl="#54490674">
		<SimpleData name="type">1</SimpleData>
		<SimpleData name="view">255.66</SimpleData>
		<SimpleData name="benchmark_number">159</SimpleData>
		<SimpleData name="control_location">Линия № 1: Туйемойнак - Торыустаган, 1 класс (1) Участок: грунт, реп, 3215 - фунд, реп, 9993</SimpleData>
		<SimpleData name="benchmark_type">№ 532, к,, в 15,3 км к юго-вост, от него, в 12,7 км к сев,- зап, от кладб, Кисемис, в 10 м к югу от полевой дороги</SimpleData>
		<SimpleData name="location_description">54490674-d3d9-4c2a-adc1-94adca47c0c4</SimpleData>
		<SimpleData name="status">data/stations/54490674.kml</SimpleData>
		<SimpleData name="guid">&lt;a href='data/stations/54490674.kml' target='_blank'&gt;Download KML&lt;/a&gt;</SimpleData>
	</SchemaData></ExtendedData>
      <Point><coordinates>69.8181637732161,45.1058545305676</coordinates></Point>
  </Placemark>
</Folder>
</Document></kml>
