<?xml version="1.0" encoding="utf-8" ?>
<kml xmlns="http://www.opengis.net/kml/2.2">
<Document id="root_doc">
<Schema name="5520b209" id="5520b209">
	<SimpleField name="title" type="string"></SimpleField>
	<SimpleField name="type" type="string"></SimpleField>
	<SimpleField name="ext_sign" type="string"></SimpleField>
	<SimpleField name="class_lvl" type="string"></SimpleField>
	<SimpleField name="height_lvl" type="string"></SimpleField>
	<SimpleField name="height_ctrl" type="string"></SimpleField>
	<SimpleField name="ctrl_place" type="string"></SimpleField>
	<SimpleField name="mark_num" type="string"></SimpleField>
	<SimpleField name="center_type" type="string"></SimpleField>
	<SimpleField name="lvl_line" type="string"></SimpleField>
	<SimpleField name="guid" type="string"></SimpleField>
</Schema>
<Folder><name>5520b209</name>
  <Placemark id="5520b209.1">
	<name>1840</name>
	<description>грунтовый репер</description>
	<ExtendedData><SchemaData schemaUrl="#5520b209">
		<SimpleData name="height_ctrl">1840</SimpleData>
		<SimpleData name="ctrl_place">162оп</SimpleData>
		<SimpleData name="center_type">26 м к северу от железной дороги, 546 м к северо-западу от угла лесополосы, 3,4 км к югу от трассы Сурган-Аулиекол</SimpleData>
		<SimpleData name="lvl_line">5520b209-a805-4974-ae26-2c8dd39fb7df</SimpleData>
	</SchemaData></ExtendedData>
      <Point><coordinates>65.1370116666667,52.2603766666667</coordinates></Point>
  </Placemark>
</Folder>
</Document></kml>
