<?xml version="1.0" encoding="utf-8" ?>
<kml xmlns="http://www.opengis.net/kml/2.2">
<Document id="root_doc">
<Schema name="557ce665" id="557ce665">
	<SimpleField name="type" type="string"></SimpleField>
	<SimpleField name="view" type="string"></SimpleField>
	<SimpleField name="leveling_order" type="string"></SimpleField>
	<SimpleField name="leveling_height" type="string"></SimpleField>
	<SimpleField name="control_height" type="string"></SimpleField>
	<SimpleField name="benchmark_number" type="string"></SimpleField>
	<SimpleField name="control_location" type="string"></SimpleField>
	<SimpleField name="benchmark_type" type="string"></SimpleField>
	<SimpleField name="leveling_line_section" type="string"></SimpleField>
	<SimpleField name="location_description" type="string"></SimpleField>
	<SimpleField name="status" type="string"></SimpleField>
	<SimpleField name="guid" type="string"></SimpleField>
	<SimpleField name="kml" type="string"></SimpleField>
	<SimpleField name="kml_link" type="string"></SimpleField>
</Schema>
<Folder><name>557ce665</name>
  <Placemark id="557ce665.1">
	<name>4445</name>
	<description>грунт.реп</description>
	<ExtendedData><SchemaData schemaUrl="#557ce665">
		<SimpleData name="type">1</SimpleData>
		<SimpleData name="view">213.374</SimpleData>
		<SimpleData name="leveling_order">212.270</SimpleData>
		<SimpleData name="control_height">Контрольный репер №347 в верхней плоскости монолита</SimpleData>
		<SimpleData name="benchmark_number">121</SimpleData>
		<SimpleData name="control_location">Линия №1: Аральск-Шалкар, 1 класс (1). Участок: грунт.реп. 0137 -грует.реп. 2495</SimpleData>
		<SimpleData name="benchmark_type">Шенды, разъезд, в 2.2 км к сев.-зап.от него , на 8/9 пикете 2228, в 50м к зап.от семофора, в 5м к сев.от стб.ЛЭП </SimpleData>
		<SimpleData name="location_description">557ce665-99a3-43d7-85f4-2a144faa8afb</SimpleData>
		<SimpleData name="status">data/stations/557ce665.kml</SimpleData>
		<SimpleData name="guid">&lt;a href='data/stations/557ce665.kml' target='_blank'&gt;Download KML&lt;/a&gt;</SimpleData>
	</SchemaData></ExtendedData>
      <Point><coordinates>60.4401509622654,47.6029863807643</coordinates></Point>
  </Placemark>
</Folder>
</Document></kml>
