<?xml version="1.0" encoding="utf-8" ?>
<kml xmlns="http://www.opengis.net/kml/2.2">
<Document id="root_doc">
<Schema name="557e04da" id="557e04da">
	<SimpleField name="type" type="string"></SimpleField>
	<SimpleField name="view" type="string"></SimpleField>
	<SimpleField name="leveling_order" type="string"></SimpleField>
	<SimpleField name="leveling_height" type="string"></SimpleField>
	<SimpleField name="control_height" type="string"></SimpleField>
	<SimpleField name="benchmark_number" type="string"></SimpleField>
	<SimpleField name="control_location" type="string"></SimpleField>
	<SimpleField name="benchmark_type" type="string"></SimpleField>
	<SimpleField name="leveling_line_section" type="string"></SimpleField>
	<SimpleField name="location_description" type="string"></SimpleField>
	<SimpleField name="status" type="string"></SimpleField>
	<SimpleField name="guid" type="string"></SimpleField>
	<SimpleField name="kml" type="string"></SimpleField>
	<SimpleField name="kml_link" type="string"></SimpleField>
</Schema>
<Folder><name>557e04da</name>
  <Placemark id="557e04da.1">
	<name>1554</name>
	<name>грунтовый репер</name>
	<ExtendedData><SchemaData schemaUrl="#557e04da">
		<SimpleData name="type">II</SimpleData>
		<SimpleData name="view">580.835</SimpleData>
		<SimpleData name="benchmark_number">146</SimpleData>
		<SimpleData name="control_location">Линия №19: пир. 1 разр. СМТ-232 - пир. 4 кл. Ушоба, II класс (3)</SimpleData>
		<SimpleData name="benchmark_type">Победа, свх., в 0.7 км к юго-вост. от него, в 0.5 км к юго-зап. от кладбища</SimpleData>
		<SimpleData name="location_description">557e04da-498e-45fd-ad3d-934484e54a5e</SimpleData>
		<SimpleData name="status">data/stations/557e04da.kml</SimpleData>
		<SimpleData name="guid">&lt;a href='data/stations/557e04da.kml' target='_blank'&gt;Download KML&lt;/a&gt;</SimpleData>
	</SchemaData></ExtendedData>
      <Point><coordinates>73.2682243076004,49.8468140973403</coordinates></Point>
  </Placemark>
</Folder>
</Document></kml>
