<?xml version="1.0" encoding="utf-8" ?>
<kml xmlns="http://www.opengis.net/kml/2.2">
<Document id="root_doc">
<Schema name="564ea237" id="564ea237">
	<SimpleField name="type" type="string"></SimpleField>
	<SimpleField name="view" type="string"></SimpleField>
	<SimpleField name="leveling_order" type="string"></SimpleField>
	<SimpleField name="leveling_height" type="string"></SimpleField>
	<SimpleField name="control_height" type="string"></SimpleField>
	<SimpleField name="benchmark_number" type="string"></SimpleField>
	<SimpleField name="control_location" type="string"></SimpleField>
	<SimpleField name="benchmark_type" type="string"></SimpleField>
	<SimpleField name="leveling_line_section" type="string"></SimpleField>
	<SimpleField name="location_description" type="string"></SimpleField>
	<SimpleField name="status" type="string"></SimpleField>
	<SimpleField name="guid" type="string"></SimpleField>
	<SimpleField name="kml" type="string"></SimpleField>
	<SimpleField name="kml_link" type="string"></SimpleField>
</Schema>
<Folder><name>564ea237</name>
  <Placemark id="564ea237.1">
	<name>6011</name>
	<name>грунт.реп.</name>
	<description>грунт.реп.</description>
	<ExtendedData><SchemaData schemaUrl="#564ea237">
		<SimpleData name="type">II</SimpleData>
		<SimpleData name="view">345.995</SimpleData>
		<SimpleData name="benchmark_number">160 оп.знак</SimpleData>
		<SimpleData name="control_location">Линия №3: Акко.ль - урочище Куйган II класс Участок: грунт.реп.6011 - грунт.реп.512 </SimpleData>
		<SimpleData name="benchmark_type">Актамша,мог.,в 7.0 км к сев.-вост.от нее,в 3.2 км к сев.-вост.от пир. 2 кл.Актамша,в 10 м к зап.от полевой дороги</SimpleData>
		<SimpleData name="location_description">564ea237-e14d-4702-9181-fb61ffad2b26</SimpleData>
		<SimpleData name="status">data/stations/564ea237.kml</SimpleData>
		<SimpleData name="guid">&lt;a href='data/stations/564ea237.kml' target='_blank'&gt;Download KML&lt;/a&gt;</SimpleData>
	</SchemaData></ExtendedData>
      <Point><coordinates>75.9911321421183,46.4108145768008</coordinates></Point>
  </Placemark>
</Folder>
</Document></kml>
