<?xml version="1.0" encoding="utf-8" ?>
<kml xmlns="http://www.opengis.net/kml/2.2">
<Document id="root_doc">
<Schema name="56722840" id="56722840">
	<SimpleField name="type" type="string"></SimpleField>
	<SimpleField name="view" type="string"></SimpleField>
	<SimpleField name="leveling_order" type="string"></SimpleField>
	<SimpleField name="leveling_height" type="string"></SimpleField>
	<SimpleField name="control_height" type="string"></SimpleField>
	<SimpleField name="benchmark_number" type="string"></SimpleField>
	<SimpleField name="control_location" type="string"></SimpleField>
	<SimpleField name="benchmark_type" type="string"></SimpleField>
	<SimpleField name="leveling_line_section" type="string"></SimpleField>
	<SimpleField name="location_description" type="string"></SimpleField>
	<SimpleField name="status" type="string"></SimpleField>
	<SimpleField name="guid" type="string"></SimpleField>
	<SimpleField name="kml" type="string"></SimpleField>
	<SimpleField name="kml_link" type="string"></SimpleField>
</Schema>
<Folder><name>56722840</name>
  <Placemark id="56722840.1">
	<name>188</name>
	<name>ск.реп.</name>
	<ExtendedData><SchemaData schemaUrl="#56722840">
		<SimpleData name="type">2</SimpleData>
		<SimpleData name="view">1467,627</SimpleData>
		<SimpleData name="benchmark_number">99</SimpleData>
		<SimpleData name="control_location">Линия № 2: Карабута – Белая Школа, II класс (1)
Участок: ск.реп. 1684 – фунд.реп. 911
Ход от грунт.реп. 12 до ск.реп. 201, II класс (2)</SimpleData>
		<SimpleData name="benchmark_type">Кокбастау, с., в 14.8 км к юго-вост. от него, в 3.8 км к юго-вост. от зим. Кызылкора, в 10 м к вост. от развилки полевой дороги</SimpleData>
		<SimpleData name="location_description">56722840-4ac2-472d-b115-845543342f64</SimpleData>
		<SimpleData name="status">data/stations/56722840.kml</SimpleData>
		<SimpleData name="guid">&lt;a href='data/stations/56722840.kml' target='_blank'&gt;Download KML&lt;/a&gt;</SimpleData>
	</SchemaData></ExtendedData>
      <Point><coordinates>82.9248881556147,47.3409803226331</coordinates></Point>
  </Placemark>
</Folder>
</Document></kml>
