<?xml version="1.0" encoding="utf-8" ?>
<kml xmlns="http://www.opengis.net/kml/2.2">
<Document id="root_doc">
<Schema name="568738d3" id="568738d3">
	<SimpleField name="type" type="string"></SimpleField>
	<SimpleField name="view" type="string"></SimpleField>
	<SimpleField name="leveling_order" type="string"></SimpleField>
	<SimpleField name="leveling_height" type="string"></SimpleField>
	<SimpleField name="control_height" type="string"></SimpleField>
	<SimpleField name="benchmark_number" type="string"></SimpleField>
	<SimpleField name="control_location" type="string"></SimpleField>
	<SimpleField name="benchmark_type" type="string"></SimpleField>
	<SimpleField name="leveling_line_section" type="string"></SimpleField>
	<SimpleField name="location_description" type="string"></SimpleField>
	<SimpleField name="status" type="string"></SimpleField>
	<SimpleField name="guid" type="string"></SimpleField>
	<SimpleField name="kml" type="string"></SimpleField>
	<SimpleField name="kml_link" type="string"></SimpleField>
</Schema>
<Folder><name>568738d3</name>
  <Placemark id="568738d3.1">
	<name>150</name>
	<name>грунт.реп.</name>
	<ExtendedData><SchemaData schemaUrl="#568738d3">
		<SimpleData name="type">2</SimpleData>
		<SimpleData name="view">145,805</SimpleData>
		<SimpleData name="leveling_order">143,553</SimpleData>
		<SimpleData name="benchmark_number">131 оп</SimpleData>
		<SimpleData name="control_location">Линия№1: Тургай-Кызылуй, II класс. Участок: грунт.реп. 4830-грунт.реп. 9154</SimpleData>
		<SimpleData name="benchmark_type">Сарытам, метеостанция, в 2.5 км к югу от неё, в 0.6 км к юго-вост. от р.Улыжиланшик, в 50 м к зап. от дороги в с. Байконур</SimpleData>
		<SimpleData name="location_description">568738d3-e41e-412a-81c6-bbe73776c5e3</SimpleData>
		<SimpleData name="status">data/stations/568738d3.kml</SimpleData>
		<SimpleData name="guid">&lt;a href='data/stations/568738d3.kml' target='_blank'&gt;Download KML&lt;/a&gt;</SimpleData>
	</SchemaData></ExtendedData>
      <Point><coordinates>64.2279638564915,48.9584840756221</coordinates></Point>
  </Placemark>
</Folder>
</Document></kml>
