<?xml version="1.0" encoding="utf-8" ?>
<kml xmlns="http://www.opengis.net/kml/2.2">
<Document id="root_doc">
<Schema name="56a55421" id="56a55421">
	<SimpleField name="type" type="string"></SimpleField>
	<SimpleField name="view" type="string"></SimpleField>
	<SimpleField name="leveling_order" type="string"></SimpleField>
	<SimpleField name="leveling_height" type="string"></SimpleField>
	<SimpleField name="control_height" type="string"></SimpleField>
	<SimpleField name="benchmark_number" type="string"></SimpleField>
	<SimpleField name="control_location" type="string"></SimpleField>
	<SimpleField name="benchmark_type" type="string"></SimpleField>
	<SimpleField name="leveling_line_section" type="string"></SimpleField>
	<SimpleField name="location_description" type="string"></SimpleField>
	<SimpleField name="status" type="string"></SimpleField>
	<SimpleField name="guid" type="string"></SimpleField>
	<SimpleField name="kml" type="string"></SimpleField>
	<SimpleField name="kml_link" type="string"></SimpleField>
</Schema>
<Folder><name>56a55421</name>
  <Placemark id="56a55421.1">
	<name>4165</name>
	<description>грунт.реп.</description>
	<ExtendedData><SchemaData schemaUrl="#56a55421">
		<SimpleData name="type">2</SimpleData>
		<SimpleData name="view">205.684</SimpleData>
		<SimpleData name="leveling_order">203.278</SimpleData>
		<SimpleData name="benchmark_number">121</SimpleData>
		<SimpleData name="control_location">Линия № 4: Новоильиновка - Апановка, II класс                     Участок : грунт.реп.4041 - грунт.реп.4165</SimpleData>
		<SimpleData name="benchmark_type">Апановка,станц., в 1.5 км к зап.от неё, на 188 км , в 0.1 км к сев.от жел.-дор.полотна,против км стб.№ 187,188</SimpleData>
		<SimpleData name="location_description">56a55421-f3ba-4f50-be6e-e4d4d3440965</SimpleData>
		<SimpleData name="status">data/stations/56a55421.kml</SimpleData>
		<SimpleData name="guid">&lt;a href='data/stations/56a55421.kml' target='_blank'&gt;Download KML&lt;/a&gt;</SimpleData>
	</SchemaData></ExtendedData>
      <Point><coordinates>63.175721486645,52.5354310806001</coordinates></Point>
  </Placemark>
</Folder>
</Document></kml>
