<?xml version="1.0" encoding="utf-8" ?>
<kml xmlns="http://www.opengis.net/kml/2.2">
<Document id="root_doc">
<Schema name="56c1e100" id="56c1e100">
	<SimpleField name="title" type="string"></SimpleField>
	<SimpleField name="type" type="string"></SimpleField>
	<SimpleField name="ext_sign" type="string"></SimpleField>
	<SimpleField name="class_lvl" type="string"></SimpleField>
	<SimpleField name="height_lvl" type="string"></SimpleField>
	<SimpleField name="height_ctrl" type="string"></SimpleField>
	<SimpleField name="ctrl_place" type="string"></SimpleField>
	<SimpleField name="mark_num" type="string"></SimpleField>
	<SimpleField name="center_type" type="string"></SimpleField>
	<SimpleField name="lvl_line" type="string"></SimpleField>
	<SimpleField name="guid" type="string"></SimpleField>
</Schema>
<Folder><name>56c1e100</name>
  <Placemark id="56c1e100.1">
	<name>944</name>
	<ExtendedData><SchemaData schemaUrl="#56c1e100">
		<SimpleData name="title">гр. реп.</SimpleData>
		<SimpleData name="type">2</SimpleData>
		<SimpleData name="ext_sign">1,3</SimpleData>
		<SimpleData name="ctrl_place">121 оп.знак</SimpleData>
		<SimpleData name="mark_num">Линия: Керей - Калмыково</SimpleData>
		<SimpleData name="center_type">Керала, с., в 5,5 км к вост. от него, в 0,3 км к сев-вост. от клад. Сакен, в 0,1 км к сев. от грунтовой  дороги с. Копжасар - с. Тайпак</SimpleData>
		<SimpleData name="lvl_line">56c1e100-4283-42f8-be67-275ef76984d0</SimpleData>
	</SchemaData></ExtendedData>
      <Point><coordinates>51.2019529586281,49.1445402549465</coordinates></Point>
  </Placemark>
</Folder>
</Document></kml>
