<?xml version="1.0" encoding="utf-8" ?>
<kml xmlns="http://www.opengis.net/kml/2.2">
<Document id="root_doc">
<Schema name="5775de4a" id="5775de4a">
	<SimpleField name="type" type="string"></SimpleField>
	<SimpleField name="view" type="string"></SimpleField>
	<SimpleField name="leveling_order" type="string"></SimpleField>
	<SimpleField name="leveling_height" type="string"></SimpleField>
	<SimpleField name="control_height" type="string"></SimpleField>
	<SimpleField name="benchmark_number" type="string"></SimpleField>
	<SimpleField name="control_location" type="string"></SimpleField>
	<SimpleField name="benchmark_type" type="string"></SimpleField>
	<SimpleField name="leveling_line_section" type="string"></SimpleField>
	<SimpleField name="location_description" type="string"></SimpleField>
	<SimpleField name="status" type="string"></SimpleField>
	<SimpleField name="guid" type="string"></SimpleField>
	<SimpleField name="kml" type="string"></SimpleField>
	<SimpleField name="kml_link" type="string"></SimpleField>
</Schema>
<Folder><name>5775de4a</name>
  <Placemark id="5775de4a.1">
	<name>0828</name>
	<name>грунт. реп.</name>
	<ExtendedData><SchemaData schemaUrl="#5775de4a">
		<SimpleData name="type">2</SimpleData>
		<SimpleData name="view">64.398</SimpleData>
		<SimpleData name="benchmark_number">160 оп</SimpleData>
		<SimpleData name="control_location">Линия №4: Ащылысай - Майлыозек, 2 класс. Участок: фунд.реп. 3917 - грунт.реп. 7512</SimpleData>
		<SimpleData name="benchmark_type">Колдас, мог., в 3,2 км к сев.-зап.от нее, в 2,5 км к юго-вост.от арт.к. Сартымбет, в 2,1 км к юго-зап.от мог. Ушмазар </SimpleData>
		<SimpleData name="location_description">5775de4a-614e-4e1c-a27c-9a387764fa08</SimpleData>
		<SimpleData name="status">data/stations/5775de4a.kml</SimpleData>
		<SimpleData name="guid">&lt;a href='data/stations/5775de4a.kml' target='_blank'&gt;Download KML&lt;/a&gt;</SimpleData>
	</SchemaData></ExtendedData>
      <Point><coordinates>62.0222020409967,44.8679601450448</coordinates></Point>
  </Placemark>
</Folder>
</Document></kml>
