<?xml version="1.0" encoding="utf-8" ?>
<kml xmlns="http://www.opengis.net/kml/2.2">
<Document id="root_doc">
<Schema name="57b59632" id="57b59632">
	<SimpleField name="title" type="string"></SimpleField>
	<SimpleField name="type" type="string"></SimpleField>
	<SimpleField name="ext_sign" type="string"></SimpleField>
	<SimpleField name="class_lvl" type="string"></SimpleField>
	<SimpleField name="height_lvl" type="string"></SimpleField>
	<SimpleField name="height_ctrl" type="string"></SimpleField>
	<SimpleField name="ctrl_place" type="string"></SimpleField>
	<SimpleField name="mark_num" type="string"></SimpleField>
	<SimpleField name="center_type" type="string"></SimpleField>
	<SimpleField name="lvl_line" type="string"></SimpleField>
	<SimpleField name="guid" type="string"></SimpleField>
</Schema>
<Folder><name>57b59632</name>
  <Placemark id="57b59632.1">
	<name>0307</name>
	<description>грунтовый репер</description>
	<ExtendedData><SchemaData schemaUrl="#57b59632">
		<SimpleData name="type">1</SimpleData>
		<SimpleData name="ext_sign">426.753</SimpleData>
		<SimpleData name="ctrl_place">146 оп</SimpleData>
		<SimpleData name="center_type">Байконур, с.,в 20.0 км к вост.отнего, в 0.1 км к зп.от переезда через  бывую узкоколейку, в  15 м к сев.от полевой дороги, в 6  м к югу  от узкоколейки.</SimpleData>
		<SimpleData name="lvl_line">57b59632-b1da-46f2-bb3a-b3b3fd85622a</SimpleData>
	</SchemaData></ExtendedData>
      <Point><coordinates>66.3241396809867,47.822341371299</coordinates></Point>
  </Placemark>
</Folder>
</Document></kml>
