<?xml version="1.0" encoding="utf-8" ?>
<kml xmlns="http://www.opengis.net/kml/2.2">
<Document id="root_doc">
<Schema name="57be836b" id="57be836b">
	<SimpleField name="title" type="string"></SimpleField>
	<SimpleField name="type" type="string"></SimpleField>
	<SimpleField name="ext_sign" type="string"></SimpleField>
	<SimpleField name="class_lvl" type="string"></SimpleField>
	<SimpleField name="height_lvl" type="string"></SimpleField>
	<SimpleField name="height_ctrl" type="string"></SimpleField>
	<SimpleField name="ctrl_place" type="string"></SimpleField>
	<SimpleField name="mark_num" type="string"></SimpleField>
	<SimpleField name="center_type" type="string"></SimpleField>
	<SimpleField name="lvl_line" type="string"></SimpleField>
	<SimpleField name="guid" type="string"></SimpleField>
</Schema>
<Folder><name>57be836b</name>
  <Placemark id="57be836b.1">
	<name>871 (Семиярск узел)</name>
	<description>фундаментальный репер</description>
	<ExtendedData><SchemaData schemaUrl="#57be836b">
		<SimpleData name="type">1</SimpleData>
		<SimpleData name="ext_sign">145,961</SimpleData>
		<SimpleData name="class_lvl">145.421          144.611</SimpleData>
		<SimpleData name="height_lvl">репер в трубе              репер № 103 в верхней плоскости монолита</SimpleData>
		<SimpleData name="ctrl_place">141</SimpleData>
		<SimpleData name="mark_num">Линия № 1: Павлодар-Семиярск, I класс (1) Участок: сигн. 2 кл. Подпуск-фунд. реп. 871  </SimpleData>
		<SimpleData name="center_type">Семиярка, с., в 5.9 км к сев.-зап. от него, в 5.3 км к сев.-вост. от мог. Алтай, на брошенной пашне</SimpleData>
		<SimpleData name="lvl_line">57be836b-d9dd-4da9-b692-5199099a8316</SimpleData>
	</SchemaData></ExtendedData>
      <Point><coordinates>78.2910596419448,50.9490973257448</coordinates></Point>
  </Placemark>
</Folder>
</Document></kml>
