<?xml version="1.0" encoding="utf-8" ?>
<kml xmlns="http://www.opengis.net/kml/2.2">
<Document id="root_doc">
<Schema name="57c903a2" id="57c903a2">
	<SimpleField name="type" type="string"></SimpleField>
	<SimpleField name="view" type="string"></SimpleField>
	<SimpleField name="leveling_order" type="string"></SimpleField>
	<SimpleField name="leveling_height" type="string"></SimpleField>
	<SimpleField name="control_height" type="string"></SimpleField>
	<SimpleField name="benchmark_number" type="string"></SimpleField>
	<SimpleField name="control_location" type="string"></SimpleField>
	<SimpleField name="benchmark_type" type="string"></SimpleField>
	<SimpleField name="leveling_line_section" type="string"></SimpleField>
	<SimpleField name="location_description" type="string"></SimpleField>
	<SimpleField name="status" type="string"></SimpleField>
	<SimpleField name="guid" type="string"></SimpleField>
	<SimpleField name="kml" type="string"></SimpleField>
	<SimpleField name="kml_link" type="string"></SimpleField>
</Schema>
<Folder><name>57c903a2</name>
  <Placemark id="57c903a2.1">
	<name>111-а</name>
	<name>грунт.реп.</name>
	<ExtendedData><SchemaData schemaUrl="#57c903a2">
		<SimpleData name="type">II</SimpleData>
		<SimpleData name="view">376.245</SimpleData>
		<SimpleData name="benchmark_number">131 оп</SimpleData>
		<SimpleData name="control_location">Линия №2: Есиль-Атбасар, II класс (2) Участок: грунт.реп.4113 - грунт.реп.3995</SimpleData>
		<SimpleData name="benchmark_type">Жаксы,станц.,в 3.5 км к зап.от нее,на 493 км, в 29 м к сев.от жел.-дор.полотна,между тлгр.стб.№968 и 969</SimpleData>
		<SimpleData name="location_description">57c903a2-a08e-4763-be56-8ab46672e9ae</SimpleData>
		<SimpleData name="status">data/stations/57c903a2.kml</SimpleData>
		<SimpleData name="guid">&lt;a href='data/stations/57c903a2.kml' target='_blank'&gt;Download KML&lt;/a&gt;</SimpleData>
	</SchemaData></ExtendedData>
      <Point><coordinates>67.2727951079574,51.9051139262759</coordinates></Point>
  </Placemark>
</Folder>
</Document></kml>
