<?xml version="1.0" encoding="utf-8" ?>
<kml xmlns="http://www.opengis.net/kml/2.2">
<Document id="root_doc">
<Schema name="5806aa03" id="5806aa03">
	<SimpleField name="title" type="string"></SimpleField>
	<SimpleField name="type" type="string"></SimpleField>
	<SimpleField name="ext_sign" type="string"></SimpleField>
	<SimpleField name="class_lvl" type="string"></SimpleField>
	<SimpleField name="height_lvl" type="string"></SimpleField>
	<SimpleField name="height_ctrl" type="string"></SimpleField>
	<SimpleField name="ctrl_place" type="string"></SimpleField>
	<SimpleField name="mark_num" type="string"></SimpleField>
	<SimpleField name="center_type" type="string"></SimpleField>
	<SimpleField name="lvl_line" type="string"></SimpleField>
	<SimpleField name="guid" type="string"></SimpleField>
</Schema>
<Folder><name>5806aa03</name>
  <Placemark id="5806aa03.1">
	<name>Гр.реп 014</name>
	<ExtendedData><SchemaData schemaUrl="#5806aa03">
		<SimpleData name="lvl_line">5806aa03-c368-41f3-90ae-3d03a302647f</SimpleData>
	</SchemaData></ExtendedData>
      <Point><coordinates>59.6610616666667,47.8084833333333</coordinates></Point>
  </Placemark>
</Folder>
</Document></kml>
