<?xml version="1.0" encoding="utf-8" ?>
<kml xmlns="http://www.opengis.net/kml/2.2">
<Document id="root_doc">
<Schema name="584c4e8a" id="584c4e8a">
	<SimpleField name="type" type="string"></SimpleField>
	<SimpleField name="view" type="string"></SimpleField>
	<SimpleField name="leveling_order" type="string"></SimpleField>
	<SimpleField name="leveling_height" type="string"></SimpleField>
	<SimpleField name="control_height" type="string"></SimpleField>
	<SimpleField name="benchmark_number" type="string"></SimpleField>
	<SimpleField name="control_location" type="string"></SimpleField>
	<SimpleField name="benchmark_type" type="string"></SimpleField>
	<SimpleField name="leveling_line_section" type="string"></SimpleField>
	<SimpleField name="location_description" type="string"></SimpleField>
	<SimpleField name="status" type="string"></SimpleField>
	<SimpleField name="guid" type="string"></SimpleField>
	<SimpleField name="kml" type="string"></SimpleField>
	<SimpleField name="kml_link" type="string"></SimpleField>
</Schema>
<Folder><name>584c4e8a</name>
  <Placemark id="584c4e8a.1">
	<name>7347</name>
	<name>грунт. реп.</name>
	<ExtendedData><SchemaData schemaUrl="#584c4e8a">
		<SimpleData name="type">2</SimpleData>
		<SimpleData name="view">98.429</SimpleData>
		<SimpleData name="benchmark_number">160 оп. знак</SimpleData>
		<SimpleData name="control_location">Линия № 4 : Коккабак - Жосалы, II класс. Участок: фунд. реп. 2 - грунт. реп. 9888</SimpleData>
		<SimpleData name="benchmark_type">Атанша, с., в 6.8 км к зап. от него, в 6.5 км к юго-зап. от кладб. Жуздак, к зап. от полевой дороги</SimpleData>
		<SimpleData name="location_description">584c4e8a-dbdb-4d60-b957-5708fab6c85d</SimpleData>
		<SimpleData name="status">data/stations/584c4e8a.kml</SimpleData>
		<SimpleData name="guid">&lt;a href='data/stations/584c4e8a.kml' target='_blank'&gt;Download KML&lt;/a&gt;</SimpleData>
	</SchemaData></ExtendedData>
      <Point><coordinates>63.5926905285502,47.5335662086306</coordinates></Point>
  </Placemark>
</Folder>
</Document></kml>
