<?xml version="1.0" encoding="utf-8" ?>
<kml xmlns="http://www.opengis.net/kml/2.2">
<Document id="root_doc">
<Schema name="58775e5b" id="58775e5b">
	<SimpleField name="title" type="string"></SimpleField>
	<SimpleField name="type" type="string"></SimpleField>
	<SimpleField name="ext_sign" type="string"></SimpleField>
	<SimpleField name="class_lvl" type="string"></SimpleField>
	<SimpleField name="height_lvl" type="string"></SimpleField>
	<SimpleField name="height_ctrl" type="string"></SimpleField>
	<SimpleField name="ctrl_place" type="string"></SimpleField>
	<SimpleField name="mark_num" type="string"></SimpleField>
	<SimpleField name="center_type" type="string"></SimpleField>
	<SimpleField name="lvl_line" type="string"></SimpleField>
	<SimpleField name="guid" type="string"></SimpleField>
</Schema>
<Folder><name>58775e5b</name>
  <Placemark id="58775e5b.1">
	<name>1181</name>
	<ExtendedData><SchemaData schemaUrl="#58775e5b">
		<SimpleData name="title">грунтовый репер</SimpleData>
		<SimpleData name="type">2</SimpleData>
		<SimpleData name="ext_sign">528.771</SimpleData>
		<SimpleData name="ctrl_place">160 оп. знак</SimpleData>
		<SimpleData name="mark_num">Линия № 2: Аркарлы - Актас. 2 класс ( 2 ) Участок: фунд. реп. 23 - фунд. реп. 3018</SimpleData>
		<SimpleData name="center_type">Косбосага, к., в 7.5 км к юго-зап. от него, в 3.0 км к сев.- вост. от ур. Жаунды, в 12 м к вост, от грунт, дороги с. Шалгинский - с. Жайлауколь</SimpleData>
		<SimpleData name="lvl_line">58775e5b-8a4f-4ce8-a7de-21eec69b0570</SimpleData>
	</SchemaData></ExtendedData>
      <Point><coordinates>70.8600853743288,46.9749660311095</coordinates></Point>
  </Placemark>
</Folder>
</Document></kml>
