<?xml version="1.0" encoding="utf-8" ?>
<kml xmlns="http://www.opengis.net/kml/2.2">
<Document id="root_doc">
<Schema name="588ed58f" id="588ed58f">
	<SimpleField name="type" type="string"></SimpleField>
	<SimpleField name="view" type="string"></SimpleField>
	<SimpleField name="leveling_order" type="string"></SimpleField>
	<SimpleField name="leveling_height" type="string"></SimpleField>
	<SimpleField name="control_height" type="string"></SimpleField>
	<SimpleField name="benchmark_number" type="string"></SimpleField>
	<SimpleField name="control_location" type="string"></SimpleField>
	<SimpleField name="benchmark_type" type="string"></SimpleField>
	<SimpleField name="leveling_line_section" type="string"></SimpleField>
	<SimpleField name="location_description" type="string"></SimpleField>
	<SimpleField name="status" type="string"></SimpleField>
	<SimpleField name="guid" type="string"></SimpleField>
	<SimpleField name="kml" type="string"></SimpleField>
	<SimpleField name="kml_link" type="string"></SimpleField>
</Schema>
<Folder><name>588ed58f</name>
  <Placemark id="588ed58f.1">
	<name>441</name>
	<name>грунт.реп.</name>
	<ExtendedData><SchemaData schemaUrl="#588ed58f">
		<SimpleData name="type">II</SimpleData>
		<SimpleData name="view">135.792</SimpleData>
		<SimpleData name="control_height">фундамент-ной плите</SimpleData>
		<SimpleData name="benchmark_number">160</SimpleData>
		<SimpleData name="control_location">Линия № 2: Золторунное-Кобенсай, II класс. Участок: фунд.реп. 7Б-грунт.реп.57</SimpleData>
		<SimpleData name="benchmark_type">Алабота, с., в 3.0 км к сев.от улучш.грунт.дороги с. Шункырколь-с. Алабота, в 3 м к югу от стб.линия связи</SimpleData>
		<SimpleData name="location_description">588ed58f-478e-49e2-8960-3cb5f729c9c1</SimpleData>
		<SimpleData name="status">data/stations/588ed58f.kml</SimpleData>
		<SimpleData name="guid">&lt;a href='data/stations/588ed58f.kml' target='_blank'&gt;Download KML&lt;/a&gt;</SimpleData>
	</SchemaData></ExtendedData>
      <Point><coordinates>70.9505484759314,53.825365711183</coordinates></Point>
  </Placemark>
</Folder>
</Document></kml>
