<?xml version="1.0" encoding="utf-8" ?>
<kml xmlns="http://www.opengis.net/kml/2.2">
<Document id="root_doc">
<Schema name="58e9a1fd" id="58e9a1fd">
	<SimpleField name="type" type="string"></SimpleField>
	<SimpleField name="view" type="string"></SimpleField>
	<SimpleField name="leveling_order" type="string"></SimpleField>
	<SimpleField name="leveling_height" type="string"></SimpleField>
	<SimpleField name="control_height" type="string"></SimpleField>
	<SimpleField name="benchmark_number" type="string"></SimpleField>
	<SimpleField name="control_location" type="string"></SimpleField>
	<SimpleField name="benchmark_type" type="string"></SimpleField>
	<SimpleField name="leveling_line_section" type="string"></SimpleField>
	<SimpleField name="location_description" type="string"></SimpleField>
	<SimpleField name="status" type="string"></SimpleField>
	<SimpleField name="guid" type="string"></SimpleField>
	<SimpleField name="kml" type="string"></SimpleField>
	<SimpleField name="kml_link" type="string"></SimpleField>
</Schema>
<Folder><name>58e9a1fd</name>
  <Placemark id="58e9a1fd.1">
	<name>Карахуджир</name>
	<description>пирамида</description>
	<ExtendedData><SchemaData schemaUrl="#58e9a1fd">
		<SimpleData name="type">2</SimpleData>
		<SimpleData name="view">502,001</SimpleData>
		<SimpleData name="leveling_height">132</SimpleData>
		<SimpleData name="benchmark_number">3 оп</SimpleData>
		<SimpleData name="control_location">Линия №4; Таскарасу - Чилик, II класс (1) Участок: фунд. реп. 1407 - грунт. реп. 2438 </SimpleData>
		<SimpleData name="benchmark_type">Чарын, с., в 23.0 км к зап. от него, в 0.3 км к зап. от зим. Сарышаган</SimpleData>
		<SimpleData name="location_description">58e9a1fd-1ed6-4572-8766-509c8bc26bbf</SimpleData>
		<SimpleData name="status">data/stations/58e9a1fd.kml</SimpleData>
		<SimpleData name="guid">&lt;a href='data/stations/58e9a1fd.kml' target='_blank'&gt;Download KML&lt;/a&gt;</SimpleData>
	</SchemaData></ExtendedData>
      <Point><coordinates>79.0903382854078,43.7772827214339</coordinates></Point>
  </Placemark>
</Folder>
</Document></kml>
