<?xml version="1.0" encoding="utf-8" ?>
<kml xmlns="http://www.opengis.net/kml/2.2">
<Document id="root_doc">
<Schema name="59ac2f2e" id="59ac2f2e">
	<SimpleField name="title" type="string"></SimpleField>
	<SimpleField name="type" type="string"></SimpleField>
	<SimpleField name="ext_sign" type="string"></SimpleField>
	<SimpleField name="class_lvl" type="string"></SimpleField>
	<SimpleField name="height_lvl" type="string"></SimpleField>
	<SimpleField name="height_ctrl" type="string"></SimpleField>
	<SimpleField name="ctrl_place" type="string"></SimpleField>
	<SimpleField name="mark_num" type="string"></SimpleField>
	<SimpleField name="center_type" type="string"></SimpleField>
	<SimpleField name="lvl_line" type="string"></SimpleField>
	<SimpleField name="guid" type="string"></SimpleField>
</Schema>
<Folder><name>59ac2f2e</name>
  <Placemark id="59ac2f2e.1">
	<name>616</name>
	<description>грунтовый репер</description>
	<ExtendedData><SchemaData schemaUrl="#59ac2f2e">
		<SimpleData name="type">1</SimpleData>
		<SimpleData name="ext_sign">350,26</SimpleData>
		<SimpleData name="ctrl_place">160 оп,зн</SimpleData>
		<SimpleData name="mark_num">Линия № 1: Тюемойнак - Торетоган, I класс (1) Участок: грунт, реп, 2929 - грунт,реп, 1029</SimpleData>
		<SimpleData name="center_type">Сатыбалды, к,, в 9,7 км к юго-вост, от него, в 3,3 км к вост, от пир,       4 кл, Ирек, в 10 м к зап, от полевой дороги</SimpleData>
		<SimpleData name="lvl_line">59ac2f2e-4b9d-4e06-aad6-137dc0d32cbb</SimpleData>
	</SchemaData></ExtendedData>
      <Point><coordinates>69.3851751342824,46.5191074776582</coordinates></Point>
  </Placemark>
</Folder>
</Document></kml>
