<?xml version="1.0" encoding="utf-8" ?>
<kml xmlns="http://www.opengis.net/kml/2.2">
<Document id="root_doc">
<Schema name="59eb2aa8" id="59eb2aa8">
	<SimpleField name="title" type="string"></SimpleField>
	<SimpleField name="type" type="string"></SimpleField>
	<SimpleField name="ext_sign" type="string"></SimpleField>
	<SimpleField name="class_lvl" type="string"></SimpleField>
	<SimpleField name="height_lvl" type="string"></SimpleField>
	<SimpleField name="height_ctrl" type="string"></SimpleField>
	<SimpleField name="ctrl_place" type="string"></SimpleField>
	<SimpleField name="mark_num" type="string"></SimpleField>
	<SimpleField name="center_type" type="string"></SimpleField>
	<SimpleField name="lvl_line" type="string"></SimpleField>
	<SimpleField name="guid" type="string"></SimpleField>
</Schema>
<Folder><name>59eb2aa8</name>
  <Placemark id="59eb2aa8.1">
	<name>897</name>
	<description>грунтовый репер</description>
	<ExtendedData><SchemaData schemaUrl="#59eb2aa8">
		<SimpleData name="type">1</SimpleData>
		<SimpleData name="ext_sign">444.07</SimpleData>
		<SimpleData name="height_lvl">160 оп. знак</SimpleData>
		<SimpleData name="ctrl_place">12</SimpleData>
		<SimpleData name="mark_num">Линия № 5: Талдысай - Тюемойнак. І класс </SimpleData>
		<SimpleData name="center_type">Шубарколь. ур.. в 6.0 км к сев-зап. от него. в 4.5 км к сев-вост от пир. 3 кл. Шубарколь. в 3.1 км к юго-зап. от шоссе пгт Шубарколь - Кзыл-Джар</SimpleData>
		<SimpleData name="lvl_line">59eb2aa8-4487-440b-8cc2-8deee32c1b6f</SimpleData>
	</SchemaData></ExtendedData>
      <Point><coordinates>68.871298645369,48.9309739335792</coordinates></Point>
  </Placemark>
</Folder>
</Document></kml>
