<?xml version="1.0" encoding="utf-8" ?>
<kml xmlns="http://www.opengis.net/kml/2.2">
<Document id="root_doc">
<Schema name="59f45ad1" id="59f45ad1">
	<SimpleField name="type" type="string"></SimpleField>
	<SimpleField name="view" type="string"></SimpleField>
	<SimpleField name="leveling_order" type="string"></SimpleField>
	<SimpleField name="leveling_height" type="string"></SimpleField>
	<SimpleField name="control_height" type="string"></SimpleField>
	<SimpleField name="benchmark_number" type="string"></SimpleField>
	<SimpleField name="control_location" type="string"></SimpleField>
	<SimpleField name="benchmark_type" type="string"></SimpleField>
	<SimpleField name="leveling_line_section" type="string"></SimpleField>
	<SimpleField name="location_description" type="string"></SimpleField>
	<SimpleField name="status" type="string"></SimpleField>
	<SimpleField name="guid" type="string"></SimpleField>
	<SimpleField name="kml" type="string"></SimpleField>
	<SimpleField name="kml_link" type="string"></SimpleField>
</Schema>
<Folder><name>59f45ad1</name>
  <Placemark id="59f45ad1.1">
	<name>834</name>
	<name>ск. реп. </name>
	<ExtendedData><SchemaData schemaUrl="#59f45ad1">
		<SimpleData name="type">1</SimpleData>
		<SimpleData name="benchmark_number">99 оп</SimpleData>
		<SimpleData name="control_location">Линия № 3: Каратас –  Аягоз, I класс
Участок: ск.реп. 5533 – фунд.реп. 1027</SimpleData>
		<SimpleData name="benchmark_type">Темеклы, станц., в 4.5 км к юго-зап. от нее, на 10 пк 1049 км, в 0.2 км к зап. от жел.-дор. полотна, в 0.2 км к сев.-зап. от км. стб. 1049/1050</SimpleData>
		<SimpleData name="location_description">59f45ad1-ca4c-4b6e-b655-ad7161ed5822</SimpleData>
		<SimpleData name="status">data/stations/59f45ad1.kml</SimpleData>
		<SimpleData name="guid">&lt;a href='data/stations/59f45ad1.kml' target='_blank'&gt;Download KML&lt;/a&gt;</SimpleData>
	</SchemaData></ExtendedData>
      <Point><coordinates>80.099371246235,47.5145953856984</coordinates></Point>
  </Placemark>
</Folder>
</Document></kml>
