<?xml version="1.0" encoding="utf-8" ?>
<kml xmlns="http://www.opengis.net/kml/2.2">
<Document id="root_doc">
<Schema name="5a5d4f6b" id="5a5d4f6b">
	<SimpleField name="type" type="string"></SimpleField>
	<SimpleField name="view" type="string"></SimpleField>
	<SimpleField name="leveling_order" type="string"></SimpleField>
	<SimpleField name="leveling_height" type="string"></SimpleField>
	<SimpleField name="control_height" type="string"></SimpleField>
	<SimpleField name="benchmark_number" type="string"></SimpleField>
	<SimpleField name="control_location" type="string"></SimpleField>
	<SimpleField name="benchmark_type" type="string"></SimpleField>
	<SimpleField name="leveling_line_section" type="string"></SimpleField>
	<SimpleField name="location_description" type="string"></SimpleField>
	<SimpleField name="status" type="string"></SimpleField>
	<SimpleField name="guid" type="string"></SimpleField>
	<SimpleField name="kml" type="string"></SimpleField>
	<SimpleField name="kml_link" type="string"></SimpleField>
</Schema>
<Folder><name>5a5d4f6b</name>
  <Placemark id="5a5d4f6b.1">
	<name>7106</name>
	<name>грунт реп</name>
	<ExtendedData><SchemaData schemaUrl="#5a5d4f6b">
		<SimpleData name="type">2</SimpleData>
		<SimpleData name="view">350.952</SimpleData>
		<SimpleData name="benchmark_number">161 оп. Знак</SimpleData>
		<SimpleData name="control_location">Линия № 2: Таскескен – Сайкан, II класс. Участок: фунтд.реп. 1910 – грунт.реп. 7123</SimpleData>
		<SimpleData name="benchmark_type">Сасыкколь, оз., в 1.8 км к зап. от него, в 0.2 км к югу от ДЭУ, в 50 м к зап. от шоссе гор. Алматы – гор. Усть-Каменогорск</SimpleData>
		<SimpleData name="location_description">5a5d4f6b-7e2a-4a05-9123-19c5b2ab6ff1</SimpleData>
		<SimpleData name="status">data/stations/5a5d4f6b.kml</SimpleData>
		<SimpleData name="guid">&lt;a href='data/stations/5a5d4f6b.kml' target='_blank'&gt;Download KML&lt;/a&gt;</SimpleData>
	</SchemaData></ExtendedData>
      <Point><coordinates>80.5827013453884,46.6628389519588</coordinates></Point>
  </Placemark>
</Folder>
</Document></kml>
