<?xml version="1.0" encoding="utf-8" ?>
<kml xmlns="http://www.opengis.net/kml/2.2">
<Document id="root_doc">
<Schema name="5b0f5900" id="5b0f5900">
	<SimpleField name="title" type="string"></SimpleField>
	<SimpleField name="type" type="string"></SimpleField>
	<SimpleField name="ext_sign" type="string"></SimpleField>
	<SimpleField name="class_lvl" type="string"></SimpleField>
	<SimpleField name="height_lvl" type="string"></SimpleField>
	<SimpleField name="height_ctrl" type="string"></SimpleField>
	<SimpleField name="ctrl_place" type="string"></SimpleField>
	<SimpleField name="mark_num" type="string"></SimpleField>
	<SimpleField name="center_type" type="string"></SimpleField>
	<SimpleField name="lvl_line" type="string"></SimpleField>
	<SimpleField name="guid" type="string"></SimpleField>
</Schema>
<Folder><name>5b0f5900</name>
  <Placemark id="5b0f5900.1">
	<name>2165</name>
	<description>грунтовый репер</description>
	<ExtendedData><SchemaData schemaUrl="#5b0f5900">
		<SimpleData name="ctrl_place">160оп</SimpleData>
		<SimpleData name="center_type">Ыргыз, с., в 5,4 км к юго-зап. от него, в 505 м к юго-восток от дороги с.Ыргыз-г.Аральск, возле полевой дороги.</SimpleData>
		<SimpleData name="lvl_line">5b0f5900-4011-42f0-bb04-1905dfa2dcc6</SimpleData>
	</SchemaData></ExtendedData>
      <Point><coordinates>61.2037998441403,48.5867664211495</coordinates></Point>
  </Placemark>
</Folder>
</Document></kml>
