<?xml version="1.0" encoding="utf-8" ?>
<kml xmlns="http://www.opengis.net/kml/2.2">
<Document id="root_doc">
<Schema name="5b10770f" id="5b10770f">
	<SimpleField name="type" type="string"></SimpleField>
	<SimpleField name="view" type="string"></SimpleField>
	<SimpleField name="leveling_order" type="string"></SimpleField>
	<SimpleField name="leveling_height" type="string"></SimpleField>
	<SimpleField name="control_height" type="string"></SimpleField>
	<SimpleField name="benchmark_number" type="string"></SimpleField>
	<SimpleField name="control_location" type="string"></SimpleField>
	<SimpleField name="benchmark_type" type="string"></SimpleField>
	<SimpleField name="leveling_line_section" type="string"></SimpleField>
	<SimpleField name="location_description" type="string"></SimpleField>
	<SimpleField name="status" type="string"></SimpleField>
	<SimpleField name="guid" type="string"></SimpleField>
	<SimpleField name="kml" type="string"></SimpleField>
	<SimpleField name="kml_link" type="string"></SimpleField>
</Schema>
<Folder><name>5b10770f</name>
  <Placemark id="5b10770f.1">
	<name>679</name>
	<name>грунт.реп.</name>
	<description>грунт.реп.</description>
	<ExtendedData><SchemaData schemaUrl="#5b10770f">
		<SimpleData name="type">II</SimpleData>
		<SimpleData name="view">412.855</SimpleData>
		<SimpleData name="leveling_order">411.355*</SimpleData>
		<SimpleData name="control_height">в трубе</SimpleData>
		<SimpleData name="benchmark_number">А</SimpleData>
		<SimpleData name="control_location">Линия  №  I; Каратурангы  - Колшенгель II класс .Участок: пир.1.кл. Ортажол - фунд.реп.5785</SimpleData>
		<SimpleData name="benchmark_type">Каншенгель,с.,в  27.2 км  к  сев.от  него, в 0,1 км  к  сев.-зап.от к.№  7, в 32 м  к зап.от  дороги  с.Кокишбай-с.Каншенгель</SimpleData>
		<SimpleData name="location_description">5b10770f-befc-404c-b644-2a15e5830fd5</SimpleData>
		<SimpleData name="status">data/stations/5b10770f.kml</SimpleData>
		<SimpleData name="guid">&lt;a href='data/stations/5b10770f.kml' target='_blank'&gt;Download KML&lt;/a&gt;</SimpleData>
	</SchemaData></ExtendedData>
      <Point><coordinates>75.5676698197656,44.4395007701779</coordinates></Point>
  </Placemark>
</Folder>
</Document></kml>
