<?xml version="1.0" encoding="utf-8" ?>
<kml xmlns="http://www.opengis.net/kml/2.2">
<Document id="root_doc">
<Schema name="5c2e6efe" id="5c2e6efe">
	<SimpleField name="title" type="string"></SimpleField>
	<SimpleField name="type" type="string"></SimpleField>
	<SimpleField name="ext_sign" type="string"></SimpleField>
	<SimpleField name="class_lvl" type="string"></SimpleField>
	<SimpleField name="height_lvl" type="string"></SimpleField>
	<SimpleField name="height_ctrl" type="string"></SimpleField>
	<SimpleField name="ctrl_place" type="string"></SimpleField>
	<SimpleField name="mark_num" type="string"></SimpleField>
	<SimpleField name="center_type" type="string"></SimpleField>
	<SimpleField name="lvl_line" type="string"></SimpleField>
	<SimpleField name="guid" type="string"></SimpleField>
</Schema>
<Folder><name>5c2e6efe</name>
  <Placemark id="5c2e6efe.1">
	<name>6859</name>
	<description>грунт.реп.</description>
	<ExtendedData><SchemaData schemaUrl="#5c2e6efe">
		<SimpleData name="type">2</SimpleData>
		<SimpleData name="ext_sign">1.190</SimpleData>
		<SimpleData name="ctrl_place">160 оп</SimpleData>
		<SimpleData name="mark_num">Линия нивелирования II класса на объекте &quot;Баван-Зелёный, Актонук-Баван, Баван-Керей&quot; 06.03.1751</SimpleData>
		<SimpleData name="center_type">с. Куйрык в 6.5 км к сев.-вост. от него, в 1.7 км к сев.-зап. от поворотного столба ЛЭП и разв. Саралжин, в 27 м к зап. от полевой дороги</SimpleData>
		<SimpleData name="lvl_line">5c2e6efe-9e78-4d29-b980-63ef05c2bd5e</SimpleData>
	</SchemaData></ExtendedData>
      <Point><coordinates>49.9773051524307,49.3541729760752</coordinates></Point>
  </Placemark>
</Folder>
</Document></kml>
