<?xml version="1.0" encoding="utf-8" ?>
<kml xmlns="http://www.opengis.net/kml/2.2">
<Document id="root_doc">
<Schema name="5c95650f" id="5c95650f">
	<SimpleField name="title" type="string"></SimpleField>
	<SimpleField name="type" type="string"></SimpleField>
	<SimpleField name="ext_sign" type="string"></SimpleField>
	<SimpleField name="class_lvl" type="string"></SimpleField>
	<SimpleField name="height_lvl" type="string"></SimpleField>
	<SimpleField name="height_ctrl" type="string"></SimpleField>
	<SimpleField name="ctrl_place" type="string"></SimpleField>
	<SimpleField name="mark_num" type="string"></SimpleField>
	<SimpleField name="center_type" type="string"></SimpleField>
	<SimpleField name="lvl_line" type="string"></SimpleField>
	<SimpleField name="guid" type="string"></SimpleField>
</Schema>
<Folder><name>5c95650f</name>
  <Placemark id="5c95650f.1">
	<name>132</name>
	<description>фундаментальный репер</description>
	<ExtendedData><SchemaData schemaUrl="#5c95650f">
		<SimpleData name="type">2</SimpleData>
		<SimpleData name="ext_sign">688,721</SimpleData>
		<SimpleData name="class_lvl">688.221
687.056</SimpleData>
		<SimpleData name="height_lvl">Контрольный репер в трубе
Контрольный репер № 135 в верхней плоскости монолита </SimpleData>
		<SimpleData name="ctrl_place">141 оп. знак</SimpleData>
		<SimpleData name="mark_num">Линия № 2: Карабута – Белая Школа, II класс (1)
Участок: грунт.реп. 93 –  фунд.реп. 5491</SimpleData>
		<SimpleData name="center_type">Ойчилик, с., в 6.3 км к сев. от него, в 1.4 км к югу от зим. Туяк, в 25 м к зап. от грунт. дороги с. Аксуат – с. Ойчилик</SimpleData>
		<SimpleData name="lvl_line">5c95650f-3b54-4e39-8627-a1a03b91caa6</SimpleData>
	</SchemaData></ExtendedData>
      <Point><coordinates>83.0090828470635,47.6067127595588</coordinates></Point>
  </Placemark>
</Folder>
</Document></kml>
