<?xml version="1.0" encoding="utf-8" ?>
<kml xmlns="http://www.opengis.net/kml/2.2">
<Document id="root_doc">
<Schema name="5caa40c0" id="5caa40c0">
	<SimpleField name="type" type="string"></SimpleField>
	<SimpleField name="view" type="string"></SimpleField>
	<SimpleField name="leveling_order" type="string"></SimpleField>
	<SimpleField name="leveling_height" type="string"></SimpleField>
	<SimpleField name="control_height" type="string"></SimpleField>
	<SimpleField name="benchmark_number" type="string"></SimpleField>
	<SimpleField name="control_location" type="string"></SimpleField>
	<SimpleField name="benchmark_type" type="string"></SimpleField>
	<SimpleField name="leveling_line_section" type="string"></SimpleField>
	<SimpleField name="location_description" type="string"></SimpleField>
	<SimpleField name="status" type="string"></SimpleField>
	<SimpleField name="guid" type="string"></SimpleField>
	<SimpleField name="kml" type="string"></SimpleField>
	<SimpleField name="kml_link" type="string"></SimpleField>
</Schema>
<Folder><name>5caa40c0</name>
  <Placemark id="5caa40c0.1">
	<name>б/№ </name>
	<name>грунт.реп.</name>
	<ExtendedData><SchemaData schemaUrl="#5caa40c0">
		<SimpleData name="type">II</SimpleData>
		<SimpleData name="view">105.634</SimpleData>
		<SimpleData name="control_height">в верхней плоскости монолита</SimpleData>
		<SimpleData name="benchmark_number">160</SimpleData>
		<SimpleData name="control_location">Линия № 2: Золторунное-Кобенсай, II класс. Участок: фунд.реп. 7Б-грунт.реп.57</SimpleData>
		<SimpleData name="benchmark_type">Аккудук, с., в 12.4 км к сев.-вост.от него, в 1.4 км к юго-зап.от разв. Аккутек, в 15 м к югу от улучш.грунт.дороги с. Шункырколь-с. Аккутек, в 12 м к югу от стб.линии связи</SimpleData>
		<SimpleData name="location_description">5caa40c0-ca56-4fcc-b701-71928c2af0af</SimpleData>
		<SimpleData name="status">data/stations/5caa40c0.kml</SimpleData>
		<SimpleData name="guid">&lt;a href='data/stations/5caa40c0.kml' target='_blank'&gt;Download KML&lt;/a&gt;</SimpleData>
	</SchemaData></ExtendedData>
      <Point><coordinates>70.9891193683174,53.7097062377695</coordinates></Point>
  </Placemark>
</Folder>
</Document></kml>
