<?xml version="1.0" encoding="utf-8" ?>
<kml xmlns="http://www.opengis.net/kml/2.2">
<Document id="root_doc">
<Schema name="5cf2ecb2" id="5cf2ecb2">
	<SimpleField name="type" type="string"></SimpleField>
	<SimpleField name="view" type="string"></SimpleField>
	<SimpleField name="leveling_order" type="string"></SimpleField>
	<SimpleField name="leveling_height" type="string"></SimpleField>
	<SimpleField name="control_height" type="string"></SimpleField>
	<SimpleField name="benchmark_number" type="string"></SimpleField>
	<SimpleField name="control_location" type="string"></SimpleField>
	<SimpleField name="benchmark_type" type="string"></SimpleField>
	<SimpleField name="leveling_line_section" type="string"></SimpleField>
	<SimpleField name="location_description" type="string"></SimpleField>
	<SimpleField name="status" type="string"></SimpleField>
	<SimpleField name="guid" type="string"></SimpleField>
	<SimpleField name="kml" type="string"></SimpleField>
	<SimpleField name="kml_link" type="string"></SimpleField>
</Schema>
<Folder><name>5cf2ecb2</name>
  <Placemark id="5cf2ecb2.1">
	<name>728</name>
	<name>грунт. реп.</name>
	<ExtendedData><SchemaData schemaUrl="#5cf2ecb2">
		<SimpleData name="type">2</SimpleData>
		<SimpleData name="view">652.174</SimpleData>
		<SimpleData name="leveling_order">650.843</SimpleData>
		<SimpleData name="control_height">репер № 477 в фундаментной плите</SimpleData>
		<SimpleData name="benchmark_number">116</SimpleData>
		<SimpleData name="control_location">Линия№ 2: Эмбек - Буран, II класс (1) Участок: ск. реп. 410 - фунд. реп. 2290</SimpleData>
		<SimpleData name="benchmark_type">Алексеевка, с., в 3.6 км к сев.-вост. от него, в 20 м к сев. от дороги с. Алексеевка - с. Николаевка</SimpleData>
		<SimpleData name="location_description">5cf2ecb2-b4b6-474c-9039-b8d929903b17</SimpleData>
		<SimpleData name="status">data/stations/5cf2ecb2.kml</SimpleData>
		<SimpleData name="guid">&lt;a href='data/stations/5cf2ecb2.kml' target='_blank'&gt;Download KML&lt;/a&gt;</SimpleData>
	</SchemaData></ExtendedData>
      <Point><coordinates>85.7875443920933,48.4300436200637</coordinates></Point>
  </Placemark>
</Folder>
</Document></kml>
