<?xml version="1.0" encoding="utf-8" ?>
<kml xmlns="http://www.opengis.net/kml/2.2">
<Document id="root_doc">
<Schema name="5d277115" id="5d277115">
	<SimpleField name="title" type="string"></SimpleField>
	<SimpleField name="type" type="string"></SimpleField>
	<SimpleField name="ext_sign" type="string"></SimpleField>
	<SimpleField name="class_lvl" type="string"></SimpleField>
	<SimpleField name="height_lvl" type="string"></SimpleField>
	<SimpleField name="height_ctrl" type="string"></SimpleField>
	<SimpleField name="ctrl_place" type="string"></SimpleField>
	<SimpleField name="mark_num" type="string"></SimpleField>
	<SimpleField name="center_type" type="string"></SimpleField>
	<SimpleField name="lvl_line" type="string"></SimpleField>
	<SimpleField name="guid" type="string"></SimpleField>
</Schema>
<Folder><name>5d277115</name>
  <Placemark id="5d277115.1">
	<name>4137</name>
	<description>скальный репер</description>
	<ExtendedData><SchemaData schemaUrl="#5d277115">
		<SimpleData name="type">2</SimpleData>
		<SimpleData name="ext_sign">1364.551</SimpleData>
		<SimpleData name="ctrl_place">99</SimpleData>
		<SimpleData name="mark_num">Линия: Шыганши-Бугаз-Белая-Школа-Боран-Улькен Нарын, II класс (2)
Участок: фунд.реп. 5491 – грунт.реп. 1486</SimpleData>
		<SimpleData name="center_type">Шердыаяк, с., в 11.3 км к сев.-вост. от него, в 0.5 км к сев.-зап. от металлического поворотного стб. ЛЭП, в 2 м к зап от полевой дороги</SimpleData>
		<SimpleData name="lvl_line">5d277115-51d2-48aa-a6f5-161a80014af1</SimpleData>
	</SchemaData></ExtendedData>
      <Point><coordinates>84.1181952687093,48.9044547096688</coordinates></Point>
  </Placemark>
</Folder>
</Document></kml>
