<?xml version="1.0" encoding="utf-8" ?>
<kml xmlns="http://www.opengis.net/kml/2.2">
<Document id="root_doc">
<Schema name="5d6a7115" id="5d6a7115">
	<SimpleField name="type" type="string"></SimpleField>
	<SimpleField name="view" type="string"></SimpleField>
	<SimpleField name="leveling_order" type="string"></SimpleField>
	<SimpleField name="leveling_height" type="string"></SimpleField>
	<SimpleField name="control_height" type="string"></SimpleField>
	<SimpleField name="benchmark_number" type="string"></SimpleField>
	<SimpleField name="control_location" type="string"></SimpleField>
	<SimpleField name="benchmark_type" type="string"></SimpleField>
	<SimpleField name="leveling_line_section" type="string"></SimpleField>
	<SimpleField name="location_description" type="string"></SimpleField>
	<SimpleField name="status" type="string"></SimpleField>
	<SimpleField name="guid" type="string"></SimpleField>
	<SimpleField name="kml" type="string"></SimpleField>
	<SimpleField name="kml_link" type="string"></SimpleField>
</Schema>
<Folder><name>5d6a7115</name>
  <Placemark id="5d6a7115.1">
	<name>7559</name>
	<description>фунд.реп.</description>
	<ExtendedData><SchemaData schemaUrl="#5d6a7115">
		<SimpleData name="type">2</SimpleData>
		<SimpleData name="view">262,552</SimpleData>
		<SimpleData name="leveling_order">261.241</SimpleData>
		<SimpleData name="benchmark_number">154 оп</SimpleData>
		<SimpleData name="control_location">Линия №2: Новоильиновка-Актасты,II класс Участок: грунт.реп.6577-грунт.реп.181</SimpleData>
		<SimpleData name="benchmark_type">Копань, с.,в 1,8 км к югу от него,в 105 м к сев.-зап.от грунт.реп.6680,в 102 м к зап.от дороги с.Копань-с.Пушкино</SimpleData>
		<SimpleData name="location_description">5d6a7115-54e7-446b-bdd2-c3fabdf5a855</SimpleData>
		<SimpleData name="status">data/stations/5d6a7115.kml</SimpleData>
		<SimpleData name="guid">&lt;a href='data/stations/5d6a7115.kml' target='_blank'&gt;Download KML&lt;/a&gt;</SimpleData>
	</SchemaData></ExtendedData>
      <Point><coordinates>61.8384528567931,51.4324434152846</coordinates></Point>
  </Placemark>
</Folder>
</Document></kml>
