<?xml version="1.0" encoding="utf-8" ?>
<kml xmlns="http://www.opengis.net/kml/2.2">
<Document id="root_doc">
<Schema name="5d94bd78" id="5d94bd78">
	<SimpleField name="type" type="string"></SimpleField>
	<SimpleField name="view" type="string"></SimpleField>
	<SimpleField name="leveling_order" type="string"></SimpleField>
	<SimpleField name="leveling_height" type="string"></SimpleField>
	<SimpleField name="control_height" type="string"></SimpleField>
	<SimpleField name="benchmark_number" type="string"></SimpleField>
	<SimpleField name="control_location" type="string"></SimpleField>
	<SimpleField name="benchmark_type" type="string"></SimpleField>
	<SimpleField name="leveling_line_section" type="string"></SimpleField>
	<SimpleField name="location_description" type="string"></SimpleField>
	<SimpleField name="status" type="string"></SimpleField>
	<SimpleField name="guid" type="string"></SimpleField>
	<SimpleField name="kml" type="string"></SimpleField>
	<SimpleField name="kml_link" type="string"></SimpleField>
</Schema>
<Folder><name>5d94bd78</name>
  <Placemark id="5d94bd78.1">
	<name>3258</name>
	<name>скальный репер</name>
	<ExtendedData><SchemaData schemaUrl="#5d94bd78">
		<SimpleData name="type">II</SimpleData>
		<SimpleData name="view">222,359</SimpleData>
		<SimpleData name="benchmark_number">99оп</SimpleData>
		<SimpleData name="control_location">Линия №5: пир. 2 кл. Экибастуз - фунд. реп. 3073, II класс (2)</SimpleData>
		<SimpleData name="benchmark_type">Туз, оз., в 1,0 км к юго-зап. от него, в 0,5 км к вост. от полевой дороги, в 55 м к зап. от ЛЭП</SimpleData>
		<SimpleData name="location_description">5d94bd78-85c0-494e-8574-e4028ef50991</SimpleData>
		<SimpleData name="status">data/stations/5d94bd78.kml</SimpleData>
		<SimpleData name="guid">&lt;a href='data/stations/5d94bd78.kml' target='_blank'&gt;Download KML&lt;/a&gt;</SimpleData>
	</SchemaData></ExtendedData>
      <Point><coordinates>75.2854349796806,51.6622890044277</coordinates></Point>
  </Placemark>
</Folder>
</Document></kml>
