<?xml version="1.0" encoding="utf-8" ?>
<kml xmlns="http://www.opengis.net/kml/2.2">
<Document id="root_doc">
<Schema name="5dbe2156" id="5dbe2156">
	<SimpleField name="title" type="string"></SimpleField>
	<SimpleField name="type" type="string"></SimpleField>
	<SimpleField name="ext_sign" type="string"></SimpleField>
	<SimpleField name="class_lvl" type="string"></SimpleField>
	<SimpleField name="height_lvl" type="string"></SimpleField>
	<SimpleField name="height_ctrl" type="string"></SimpleField>
	<SimpleField name="ctrl_place" type="string"></SimpleField>
	<SimpleField name="mark_num" type="string"></SimpleField>
	<SimpleField name="center_type" type="string"></SimpleField>
	<SimpleField name="lvl_line" type="string"></SimpleField>
	<SimpleField name="guid" type="string"></SimpleField>
</Schema>
<Folder><name>5dbe2156</name>
  <Placemark id="5dbe2156.1">
	<name>843</name>
	<ExtendedData><SchemaData schemaUrl="#5dbe2156">
		<SimpleData name="title">грунт.реп.</SimpleData>
		<SimpleData name="type">II</SimpleData>
		<SimpleData name="ext_sign">6067</SimpleData>
		<SimpleData name="class_lvl">6027</SimpleData>
		<SimpleData name="ctrl_place">121</SimpleData>
		<SimpleData name="mark_num">Линия №3: Жмпиты, -Каленый   II класс.(1)Участок: грунт                  .реп.317-  грунт.реп.8</SimpleData>
		<SimpleData name="center_type">Байсала  ,зим., в 2,3 км к юго-зап.от нее, в 0,2 км к сев.-зап.от дороги с.Кырыккудык-с.Караултобе в 16 м к вос.  от полевой дороги</SimpleData>
		<SimpleData name="lvl_line">5dbe2156-184a-4ddd-a38a-b73916f42a0c</SimpleData>
	</SchemaData></ExtendedData>
      <Point><coordinates>51.6736909603424,49.7002057234572</coordinates></Point>
  </Placemark>
</Folder>
</Document></kml>
