<?xml version="1.0" encoding="utf-8" ?>
<kml xmlns="http://www.opengis.net/kml/2.2">
<Document id="root_doc">
<Schema name="5dd1b7f6" id="5dd1b7f6">
	<SimpleField name="type" type="string"></SimpleField>
	<SimpleField name="view" type="string"></SimpleField>
	<SimpleField name="leveling_order" type="string"></SimpleField>
	<SimpleField name="leveling_height" type="string"></SimpleField>
	<SimpleField name="control_height" type="string"></SimpleField>
	<SimpleField name="benchmark_number" type="string"></SimpleField>
	<SimpleField name="control_location" type="string"></SimpleField>
	<SimpleField name="benchmark_type" type="string"></SimpleField>
	<SimpleField name="leveling_line_section" type="string"></SimpleField>
	<SimpleField name="location_description" type="string"></SimpleField>
	<SimpleField name="status" type="string"></SimpleField>
	<SimpleField name="guid" type="string"></SimpleField>
	<SimpleField name="kml" type="string"></SimpleField>
	<SimpleField name="kml_link" type="string"></SimpleField>
</Schema>
<Folder><name>5dd1b7f6</name>
  <Placemark id="5dd1b7f6.1">
	<name>9442</name>
	<name>грунт. реп.</name>
	<ExtendedData><SchemaData schemaUrl="#5dd1b7f6">
		<SimpleData name="type">1</SimpleData>
		<SimpleData name="view">296,924</SimpleData>
		<SimpleData name="benchmark_number">160 оп</SimpleData>
		<SimpleData name="control_location">Линия № 1: Сары- Озек -Локоть, I класс (1) Участок: грунт. реп. 4038- грунт. реп. 7703</SimpleData>
		<SimpleData name="benchmark_type">Беккарьер, с., в 5,3 км к сев.-вост. от него, в 0.1 км к юго-вост. от км. стб. № 588/589, в 25 м к вост. от оси жел. -дор. полотна, в 17 м к сев. от крайнего дома</SimpleData>
		<SimpleData name="location_description">5dd1b7f6-5083-49aa-907a-ee68049f419e</SimpleData>
		<SimpleData name="status">data/stations/5dd1b7f6.kml</SimpleData>
		<SimpleData name="guid">&lt;a href='data/stations/5dd1b7f6.kml' target='_blank'&gt;Download KML&lt;/a&gt;</SimpleData>
	</SchemaData></ExtendedData>
      <Point><coordinates>80.7888636353998,49.9953697023262</coordinates></Point>
  </Placemark>
</Folder>
</Document></kml>
