<?xml version="1.0" encoding="utf-8" ?>
<kml xmlns="http://www.opengis.net/kml/2.2">
<Document id="root_doc">
<Schema name="5ddd1c25" id="5ddd1c25">
	<SimpleField name="type" type="string"></SimpleField>
	<SimpleField name="view" type="string"></SimpleField>
	<SimpleField name="leveling_order" type="string"></SimpleField>
	<SimpleField name="leveling_height" type="string"></SimpleField>
	<SimpleField name="control_height" type="string"></SimpleField>
	<SimpleField name="benchmark_number" type="string"></SimpleField>
	<SimpleField name="control_location" type="string"></SimpleField>
	<SimpleField name="benchmark_type" type="string"></SimpleField>
	<SimpleField name="leveling_line_section" type="string"></SimpleField>
	<SimpleField name="location_description" type="string"></SimpleField>
	<SimpleField name="status" type="string"></SimpleField>
	<SimpleField name="guid" type="string"></SimpleField>
	<SimpleField name="kml" type="string"></SimpleField>
	<SimpleField name="kml_link" type="string"></SimpleField>
</Schema>
<Folder><name>5ddd1c25</name>
  <Placemark id="5ddd1c25.1">
	<name>4359</name>
	<name>грунтовый репер</name>
	<ExtendedData><SchemaData schemaUrl="#5ddd1c25">
		<SimpleData name="type">2</SimpleData>
		<SimpleData name="view">211.231</SimpleData>
		<SimpleData name="leveling_height">209.850</SimpleData>
		<SimpleData name="benchmark_number">репер в верхней плоскости монолита</SimpleData>
		<SimpleData name="control_location">Линия №11: грунт. реп. 15286-грунт. реп.4354, III класс</SimpleData>
		<SimpleData name="benchmark_type">Узбеккудук, к.,в 3.0 км к юго.-вост. от него, в 0.7 км. сев. от к. Муллакенже, в 0.2 км к вост. от полевой дороги </SimpleData>
		<SimpleData name="location_description">5ddd1c25-5356-43d8-9922-02bb12e53a4f</SimpleData>
		<SimpleData name="status">data/stations/5ddd1c25.kml</SimpleData>
		<SimpleData name="guid">&lt;a href='data/stations/5ddd1c25.kml' target='_blank'&gt;Download KML&lt;/a&gt;</SimpleData>
	</SchemaData></ExtendedData>
      <Point><coordinates>66.1216884362731,41.9513198321167</coordinates></Point>
  </Placemark>
</Folder>
</Document></kml>
