<?xml version="1.0" encoding="utf-8" ?>
<kml xmlns="http://www.opengis.net/kml/2.2">
<Document id="root_doc">
<Schema name="5e3cbdc2" id="5e3cbdc2">
	<SimpleField name="type" type="string"></SimpleField>
	<SimpleField name="view" type="string"></SimpleField>
	<SimpleField name="leveling_order" type="string"></SimpleField>
	<SimpleField name="leveling_height" type="string"></SimpleField>
	<SimpleField name="control_height" type="string"></SimpleField>
	<SimpleField name="benchmark_number" type="string"></SimpleField>
	<SimpleField name="control_location" type="string"></SimpleField>
	<SimpleField name="benchmark_type" type="string"></SimpleField>
	<SimpleField name="leveling_line_section" type="string"></SimpleField>
	<SimpleField name="location_description" type="string"></SimpleField>
	<SimpleField name="status" type="string"></SimpleField>
	<SimpleField name="guid" type="string"></SimpleField>
	<SimpleField name="kml" type="string"></SimpleField>
	<SimpleField name="kml_link" type="string"></SimpleField>
</Schema>
<Folder><name>5e3cbdc2</name>
  <Placemark id="5e3cbdc2.1">
	<name>8192</name>
	<name>грунт. реп.</name>
	<ExtendedData><SchemaData schemaUrl="#5e3cbdc2">
		<SimpleData name="type">1</SimpleData>
		<SimpleData name="view">165,874</SimpleData>
		<SimpleData name="benchmark_number">160 оп</SimpleData>
		<SimpleData name="control_location">Линия №2: Семиярск-Семипалатинск, I класс (1) Участок: фунд.реп. 871-грунт. реп. 5391</SimpleData>
		<SimpleData name="benchmark_type">Грачи, отд. дв., в 13.0 км к юго-вост. от него, в 0.8 км к юго-вост. от кладбища, в 0.4 км к юго-зап. от развалин, в 5 м к юго-зап. от полевой дороги</SimpleData>
		<SimpleData name="location_description">5e3cbdc2-2e9e-4e34-a025-7365ff9b03b7</SimpleData>
		<SimpleData name="status">data/stations/5e3cbdc2.kml</SimpleData>
		<SimpleData name="guid">&lt;a href='data/stations/5e3cbdc2.kml' target='_blank'&gt;Download KML&lt;/a&gt;</SimpleData>
	</SchemaData></ExtendedData>
      <Point><coordinates>78.7853313277439,50.6744096641917</coordinates></Point>
  </Placemark>
</Folder>
</Document></kml>
