<?xml version="1.0" encoding="utf-8" ?>
<kml xmlns="http://www.opengis.net/kml/2.2">
<Document id="root_doc">
<Schema name="5e927e7f" id="5e927e7f">
	<SimpleField name="title" type="string"></SimpleField>
	<SimpleField name="type" type="string"></SimpleField>
	<SimpleField name="ext_sign" type="string"></SimpleField>
	<SimpleField name="class_lvl" type="string"></SimpleField>
	<SimpleField name="height_lvl" type="string"></SimpleField>
	<SimpleField name="height_ctrl" type="string"></SimpleField>
	<SimpleField name="ctrl_place" type="string"></SimpleField>
	<SimpleField name="mark_num" type="string"></SimpleField>
	<SimpleField name="center_type" type="string"></SimpleField>
	<SimpleField name="lvl_line" type="string"></SimpleField>
	<SimpleField name="guid" type="string"></SimpleField>
</Schema>
<Folder><name>5e927e7f</name>
  <Placemark id="5e927e7f.1">
	<name>б/№</name>
	<description>марка</description>
	<ExtendedData><SchemaData schemaUrl="#5e927e7f">
		<SimpleData name="type">1</SimpleData>
		<SimpleData name="ext_sign">173.330</SimpleData>
		<SimpleData name="class_lvl">169.929</SimpleData>
		<SimpleData name="mark_num">Линия№ 1; Аральск-Кандыагач.1 класс(2)Участок :грунт.реп.7581-грунт.реп.9604</SimpleData>
		<SimpleData name="center_type">Челкар,станц., здание вокзала</SimpleData>
		<SimpleData name="lvl_line">5e927e7f-f783-4776-a867-f48030a4c290</SimpleData>
	</SchemaData></ExtendedData>
      <Point><coordinates>59.6219173,47.83408201</coordinates></Point>
  </Placemark>
</Folder>
</Document></kml>
