<?xml version="1.0" encoding="utf-8" ?>
<kml xmlns="http://www.opengis.net/kml/2.2">
<Document id="root_doc">
<Schema name="5ed88542" id="5ed88542">
	<SimpleField name="type" type="string"></SimpleField>
	<SimpleField name="view" type="string"></SimpleField>
	<SimpleField name="leveling_order" type="string"></SimpleField>
	<SimpleField name="leveling_height" type="string"></SimpleField>
	<SimpleField name="control_height" type="string"></SimpleField>
	<SimpleField name="benchmark_number" type="string"></SimpleField>
	<SimpleField name="control_location" type="string"></SimpleField>
	<SimpleField name="benchmark_type" type="string"></SimpleField>
	<SimpleField name="leveling_line_section" type="string"></SimpleField>
	<SimpleField name="location_description" type="string"></SimpleField>
	<SimpleField name="status" type="string"></SimpleField>
	<SimpleField name="guid" type="string"></SimpleField>
	<SimpleField name="kml" type="string"></SimpleField>
	<SimpleField name="kml_link" type="string"></SimpleField>
</Schema>
<Folder><name>5ed88542</name>
  <Placemark id="5ed88542.1">
	<name>8128</name>
	<name>грунт. реп.</name>
	<ExtendedData><SchemaData schemaUrl="#5ed88542">
		<SimpleData name="type">2</SimpleData>
		<SimpleData name="view">165.742</SimpleData>
		<SimpleData name="leveling_order">164.733</SimpleData>
		<SimpleData name="benchmark_number">107</SimpleData>
		<SimpleData name="control_location">Линия №7: Тран-Отряд - Алабуга , II класс(5) Участок: грунт. реп. 2029- марка 2856</SimpleData>
		<SimpleData name="benchmark_type">Федоровка, с., в 4,3 км к юго-вост. от него, в 0,2 км к югу от березового леса, в 19 м к юго-зап от дороги с. Федоровка- с. Жанатлек</SimpleData>
		<SimpleData name="location_description">5ed88542-113e-4d23-96ac-f0a83f80ba6a</SimpleData>
		<SimpleData name="status">data/stations/5ed88542.kml</SimpleData>
		<SimpleData name="guid">&lt;a href='data/stations/5ed88542.kml' target='_blank'&gt;Download KML&lt;/a&gt;</SimpleData>
	</SchemaData></ExtendedData>
      <Point><coordinates>65.5302733238781,54.1964251160727</coordinates></Point>
  </Placemark>
</Folder>
</Document></kml>
