<?xml version="1.0" encoding="utf-8" ?>
<kml xmlns="http://www.opengis.net/kml/2.2">
<Document id="root_doc">
<Schema name="5f3036ea" id="5f3036ea">
	<SimpleField name="title" type="string"></SimpleField>
	<SimpleField name="type" type="string"></SimpleField>
	<SimpleField name="ext_sign" type="string"></SimpleField>
	<SimpleField name="class_lvl" type="string"></SimpleField>
	<SimpleField name="height_lvl" type="string"></SimpleField>
	<SimpleField name="height_ctrl" type="string"></SimpleField>
	<SimpleField name="ctrl_place" type="string"></SimpleField>
	<SimpleField name="mark_num" type="string"></SimpleField>
	<SimpleField name="center_type" type="string"></SimpleField>
	<SimpleField name="lvl_line" type="string"></SimpleField>
	<SimpleField name="guid" type="string"></SimpleField>
</Schema>
<Folder><name>5f3036ea</name>
  <Placemark id="5f3036ea.1">
	<name>2225 грунт.</name>
	<ExtendedData><SchemaData schemaUrl="#5f3036ea">
		<SimpleData name="lvl_line">5f3036ea-6ef6-4a0b-bcee-29c35ae07fdf</SimpleData>
	</SchemaData></ExtendedData>
      <Point><coordinates>63.1073516666667,44.871875</coordinates></Point>
  </Placemark>
</Folder>
</Document></kml>
