<?xml version="1.0" encoding="utf-8" ?>
<kml xmlns="http://www.opengis.net/kml/2.2">
<Document id="root_doc">
<Schema name="5fbc7406" id="5fbc7406">
	<SimpleField name="title" type="string"></SimpleField>
	<SimpleField name="type" type="string"></SimpleField>
	<SimpleField name="ext_sign" type="string"></SimpleField>
	<SimpleField name="class_lvl" type="string"></SimpleField>
	<SimpleField name="height_lvl" type="string"></SimpleField>
	<SimpleField name="height_ctrl" type="string"></SimpleField>
	<SimpleField name="ctrl_place" type="string"></SimpleField>
	<SimpleField name="mark_num" type="string"></SimpleField>
	<SimpleField name="center_type" type="string"></SimpleField>
	<SimpleField name="lvl_line" type="string"></SimpleField>
	<SimpleField name="guid" type="string"></SimpleField>
</Schema>
<Folder><name>5fbc7406</name>
  <Placemark id="5fbc7406.1">
	<name>9466</name>
	<description>грунтовый репер</description>
	<ExtendedData><SchemaData schemaUrl="#5fbc7406">
		<SimpleData name="type">2</SimpleData>
		<SimpleData name="ext_sign">743,233</SimpleData>
		<SimpleData name="ctrl_place">160оп.</SimpleData>
		<SimpleData name="mark_num">Линия № 4: Карасорский-Каркаралинск, II класс (3) Участок: грунтовый репер 9858 - фундаментальный репер 7349</SimpleData>
		<SimpleData name="center_type">Каркаралинск, гор., 14,8 км к сев.-вост. от него, в 2,3 км к югу от оз. Акколь, в 85 м к зап. от км. стб. 17/11 шоссе с. Акжал-гор. Каркаралинск</SimpleData>
		<SimpleData name="lvl_line">5fbc7406-8153-4f7d-b56a-072785aaa7d1</SimpleData>
	</SchemaData></ExtendedData>
      <Point><coordinates>75.5588808400091,49.5446522803134</coordinates></Point>
  </Placemark>
</Folder>
</Document></kml>
