<?xml version="1.0" encoding="utf-8" ?>
<kml xmlns="http://www.opengis.net/kml/2.2">
<Document id="root_doc">
<Schema name="5fcbcb5f" id="5fcbcb5f">
	<SimpleField name="title" type="string"></SimpleField>
	<SimpleField name="type" type="string"></SimpleField>
	<SimpleField name="ext_sign" type="string"></SimpleField>
	<SimpleField name="class_lvl" type="string"></SimpleField>
	<SimpleField name="height_lvl" type="string"></SimpleField>
	<SimpleField name="height_ctrl" type="string"></SimpleField>
	<SimpleField name="ctrl_place" type="string"></SimpleField>
	<SimpleField name="mark_num" type="string"></SimpleField>
	<SimpleField name="center_type" type="string"></SimpleField>
	<SimpleField name="lvl_line" type="string"></SimpleField>
	<SimpleField name="guid" type="string"></SimpleField>
</Schema>
<Folder><name>5fcbcb5f</name>
  <Placemark id="5fcbcb5f.1">
	<name>413</name>
	<ExtendedData><SchemaData schemaUrl="#5fcbcb5f">
		<SimpleData name="title">грунт.реп.</SimpleData>
		<SimpleData name="type">II</SimpleData>
		<SimpleData name="ext_sign">702.805</SimpleData>
		<SimpleData name="class_lvl">700.088*</SimpleData>
		<SimpleData name="height_lvl">в верхней плоскости монолита</SimpleData>
		<SimpleData name="ctrl_place">121 оп.знак</SimpleData>
		<SimpleData name="mark_num">Линия № 1:Аркарлы-Мойынты II класс
Участок: грунт.реп.121 - грунт.реп.415</SimpleData>
		<SimpleData name="center_type">Бельасар,зим.,в 7.3 км к юго-вост.от нее,в 5.3 км к сев.-зап.от мог.Ахмет и колодца,в 1.0 км к югу от мог.Шодыр</SimpleData>
		<SimpleData name="lvl_line">5fcbcb5f-f8e8-49b6-9510-11a18fd2f2d5</SimpleData>
	</SchemaData></ExtendedData>
      <Point><coordinates>72.8317058281338,47.2772339042498</coordinates></Point>
  </Placemark>
</Folder>
</Document></kml>
