<?xml version="1.0" encoding="UTF-8"?>
<kml xmlns="http://www.opengis.net/kml/2.2">
  <Document id="root_doc">
    <Schema id="60236100" name="60236100">
      <SimpleField name="title" type="string"/>
      <SimpleField name="type" type="string"/>
      <SimpleField name="ext_sign" type="string"/>
      <SimpleField name="class_lvl" type="string"/>
      <SimpleField name="height_lvl" type="string"/>
      <SimpleField name="height_ctrl" type="string"/>
      <SimpleField name="ctrl_place" type="string"/>
      <SimpleField name="mark_num" type="string"/>
      <SimpleField name="center_type" type="string"/>
      <SimpleField name="lvl_line" type="string"/>
      <SimpleField name="guid" type="string"/>
    </Schema>
    <Schema id="_60236100.schema">
      <SimpleField name="title" type="string"/>
      <SimpleField name="type" type="string"/>
      <SimpleField name="ext_sign" type="string"/>
      <SimpleField name="class_lvl" type="string"/>
      <SimpleField name="height_lvl" type="string"/>
      <SimpleField name="height_ctrl" type="string"/>
      <SimpleField name="ctrl_place" type="string"/>
      <SimpleField name="mark_num" type="string"/>
      <SimpleField name="center_type" type="string"/>
      <SimpleField name="lvl_line" type="string"/>
      <SimpleField name="guid" type="string"/>
    </Schema>
    <Document id="_60236100">
      <name>60236100</name>
      <Placemark id="_60236100.1">
        <description>Копабай, зим., в 5,2 км к юго-вост, от нее, в 15 м к зап. от грунт. дороги гор. Жезказган - с. Сузак</description>
        <ExtendedData>
          <SchemaData schemaUrl="#_60236100.schema">
            <SimpleData name="title">225</SimpleData>
            <SimpleData name="type">грунтовый репер</SimpleData>
            <SimpleData name="ext_sign">грунтовый репер</SimpleData>
            <SimpleData name="class_lvl">2</SimpleData>
            <SimpleData name="height_lvl">236,954</SimpleData>
            <SimpleData name="height_ctrl">235,959</SimpleData>
            <SimpleData name="ctrl_place">в трубе</SimpleData>
            <SimpleData name="center_type">118 оп.зн</SimpleData>
            <SimpleData name="lvl_line">Линия № 1: Древний Курган - Кендырлык (Айгарлык), II класс (3) Участок: грунт. реп. 8361 - фунд. реп. 25</SimpleData>
            <SimpleData name="guid">60236100-bee3-4c8b-a526-70a96f5c2b7c</SimpleData>
          </SchemaData>
        </ExtendedData>
        <Point>
          <coordinates>
            68.4255672173975,46.3715576579359,0
          </coordinates>
        </Point>
      </Placemark>
    </Document>
  </Document>
</kml>
