<?xml version="1.0" encoding="utf-8" ?>
<kml xmlns="http://www.opengis.net/kml/2.2">
<Document id="root_doc">
<Schema name="60256c5d" id="60256c5d">
	<SimpleField name="type" type="string"></SimpleField>
	<SimpleField name="view" type="string"></SimpleField>
	<SimpleField name="leveling_order" type="string"></SimpleField>
	<SimpleField name="leveling_height" type="string"></SimpleField>
	<SimpleField name="control_height" type="string"></SimpleField>
	<SimpleField name="benchmark_number" type="string"></SimpleField>
	<SimpleField name="control_location" type="string"></SimpleField>
	<SimpleField name="benchmark_type" type="string"></SimpleField>
	<SimpleField name="leveling_line_section" type="string"></SimpleField>
	<SimpleField name="location_description" type="string"></SimpleField>
	<SimpleField name="status" type="string"></SimpleField>
	<SimpleField name="guid" type="string"></SimpleField>
	<SimpleField name="kml" type="string"></SimpleField>
	<SimpleField name="kml_link" type="string"></SimpleField>
</Schema>
<Folder><name>60256c5d</name>
  <Placemark id="60256c5d.1">
	<name>XXIV</name>
	<name>грунт.реп.</name>
	<ExtendedData><SchemaData schemaUrl="#60256c5d">
		<SimpleData name="type">2</SimpleData>
		<SimpleData name="view">64.332</SimpleData>
		<SimpleData name="leveling_order">62.348</SimpleData>
		<SimpleData name="benchmark_number">120</SimpleData>
		<SimpleData name="control_location">Линия №2 Айтеке Би (Новоказалинск)-Ащылысай, II класс(4) Участок: фунд.реп. 9412-грунт.реп. 4945</SimpleData>
		<SimpleData name="benchmark_type">Баулыке, кладб., в 1,2 км  к юго-вост. от него, в 35 м к югу от фунд.реп. Б/№, в 20 м к вост. от грунт. дороги с.Абай-уч.Отгон</SimpleData>
		<SimpleData name="location_description">60256c5d-1fc9-40e5-878f-7084ebf30db7</SimpleData>
		<SimpleData name="status">data/stations/60256c5d.kml</SimpleData>
		<SimpleData name="guid">&lt;a href='data/stations/60256c5d.kml' target='_blank'&gt;Download KML&lt;/a&gt;</SimpleData>
	</SchemaData></ExtendedData>
      <Point><coordinates>62.0426455706544,45.5384808894593</coordinates></Point>
  </Placemark>
</Folder>
</Document></kml>
