<?xml version="1.0" encoding="utf-8" ?>
<kml xmlns="http://www.opengis.net/kml/2.2">
<Document id="root_doc">
<Schema name="6046d242" id="6046d242">
	<SimpleField name="type" type="string"></SimpleField>
	<SimpleField name="view" type="string"></SimpleField>
	<SimpleField name="leveling_order" type="string"></SimpleField>
	<SimpleField name="leveling_height" type="string"></SimpleField>
	<SimpleField name="control_height" type="string"></SimpleField>
	<SimpleField name="benchmark_number" type="string"></SimpleField>
	<SimpleField name="control_location" type="string"></SimpleField>
	<SimpleField name="benchmark_type" type="string"></SimpleField>
	<SimpleField name="leveling_line_section" type="string"></SimpleField>
	<SimpleField name="location_description" type="string"></SimpleField>
	<SimpleField name="status" type="string"></SimpleField>
	<SimpleField name="guid" type="string"></SimpleField>
	<SimpleField name="kml" type="string"></SimpleField>
	<SimpleField name="kml_link" type="string"></SimpleField>
</Schema>
<Folder><name>6046d242</name>
  <Placemark id="6046d242.1">
	<name>3752</name>
	<name>грунт. реп.</name>
	<ExtendedData><SchemaData schemaUrl="#6046d242">
		<SimpleData name="type">1</SimpleData>
		<SimpleData name="view">168,908</SimpleData>
		<SimpleData name="benchmark_number">160 оп</SimpleData>
		<SimpleData name="control_location">Линия №2: Семиярск-Семипалатинск, I класс (1) Участок: фунд.реп. 871-грунт. реп. 5391</SimpleData>
		<SimpleData name="benchmark_type">Грачи, отд. дв., в 3.8 км к юго-вост. от него, в 50 м к вост. от обрыва поймы р. Ертис, в 8 м к сев.-зап. от полевой дороги</SimpleData>
		<SimpleData name="location_description">6046d242-c4f1-4dca-8dea-2b87fcfe5d7f</SimpleData>
		<SimpleData name="status">data/stations/6046d242.kml</SimpleData>
		<SimpleData name="guid">&lt;a href='data/stations/6046d242.kml' target='_blank'&gt;Download KML&lt;/a&gt;</SimpleData>
	</SchemaData></ExtendedData>
      <Point><coordinates>78.6798259282253,50.7242429742567</coordinates></Point>
  </Placemark>
</Folder>
</Document></kml>
