<?xml version="1.0" encoding="utf-8" ?>
<kml xmlns="http://www.opengis.net/kml/2.2">
<Document id="root_doc">
<Schema name="6076ffc7" id="6076ffc7">
	<SimpleField name="title" type="string"></SimpleField>
	<SimpleField name="type" type="string"></SimpleField>
	<SimpleField name="ext_sign" type="string"></SimpleField>
	<SimpleField name="class_lvl" type="string"></SimpleField>
	<SimpleField name="height_lvl" type="string"></SimpleField>
	<SimpleField name="height_ctrl" type="string"></SimpleField>
	<SimpleField name="ctrl_place" type="string"></SimpleField>
	<SimpleField name="mark_num" type="string"></SimpleField>
	<SimpleField name="center_type" type="string"></SimpleField>
	<SimpleField name="lvl_line" type="string"></SimpleField>
	<SimpleField name="guid" type="string"></SimpleField>
</Schema>
<Folder><name>6076ffc7</name>
  <Placemark id="6076ffc7.1">
	<name>7623</name>
	<ExtendedData><SchemaData schemaUrl="#6076ffc7">
		<SimpleData name="title">грунт.реп.</SimpleData>
		<SimpleData name="type">2</SimpleData>
		<SimpleData name="ext_sign">417.890</SimpleData>
		<SimpleData name="ctrl_place">121 оп</SimpleData>
		<SimpleData name="mark_num">Линия №3: Жиделисай-Бала - Терсаккан, II класс (1) Участок: грунт.реп.5522 - фунд.реп.1805</SimpleData>
		<SimpleData name="center_type">Отд. №2 свх.Ковыльный, в 18.0 км к югу от него, в 2.0 км к юго-вост.от кладб.Кольжун, в 0.7 км к зап.от шоссе с.Ковыльное-с.Улытау</SimpleData>
		<SimpleData name="lvl_line">6076ffc7-aefb-4e1e-af0c-8e9d3b10b365</SimpleData>
	</SchemaData></ExtendedData>
      <Point><coordinates>67.0362416769627,49.6736375423309</coordinates></Point>
  </Placemark>
</Folder>
</Document></kml>
