<?xml version="1.0" encoding="utf-8" ?>
<kml xmlns="http://www.opengis.net/kml/2.2">
<Document id="root_doc">
<Schema name="611f0676" id="611f0676">
	<SimpleField name="type" type="string"></SimpleField>
	<SimpleField name="view" type="string"></SimpleField>
	<SimpleField name="leveling_order" type="string"></SimpleField>
	<SimpleField name="leveling_height" type="string"></SimpleField>
	<SimpleField name="control_height" type="string"></SimpleField>
	<SimpleField name="benchmark_number" type="string"></SimpleField>
	<SimpleField name="control_location" type="string"></SimpleField>
	<SimpleField name="benchmark_type" type="string"></SimpleField>
	<SimpleField name="leveling_line_section" type="string"></SimpleField>
	<SimpleField name="location_description" type="string"></SimpleField>
	<SimpleField name="status" type="string"></SimpleField>
	<SimpleField name="guid" type="string"></SimpleField>
	<SimpleField name="kml" type="string"></SimpleField>
	<SimpleField name="kml_link" type="string"></SimpleField>
</Schema>
<Folder><name>611f0676</name>
  <Placemark id="611f0676.1">
	<name>38</name>
	<name>грунтовый репер</name>
	<ExtendedData><SchemaData schemaUrl="#611f0676">
		<SimpleData name="type">2</SimpleData>
		<SimpleData name="view">526,923</SimpleData>
		<SimpleData name="leveling_height">525,840</SimpleData>
		<SimpleData name="benchmark_number">в верхней плоскости монолита</SimpleData>
		<SimpleData name="control_location">Ход от марки 5174 до грунт, реп. 26, 2 класс (7)</SimpleData>
		<SimpleData name="benchmark_type">Карсакбай, с., в 2.8 км к зап. от него, в 0.2 км к югу от р. Береке, в 45 м к югу от разобранного жел.-дор. полотна</SimpleData>
		<SimpleData name="location_description">611f0676-e2d4-4924-b52b-528a1255487f</SimpleData>
		<SimpleData name="status">data/stations/611f0676.kml</SimpleData>
		<SimpleData name="guid">&lt;a href='data/stations/611f0676.kml' target='_blank'&gt;Download KML&lt;/a&gt;</SimpleData>
	</SchemaData></ExtendedData>
      <Point><coordinates>66.6771425666693,47.8402889524992</coordinates></Point>
  </Placemark>
</Folder>
</Document></kml>
