<?xml version="1.0" encoding="utf-8" ?>
<kml xmlns="http://www.opengis.net/kml/2.2">
<Document id="root_doc">
<Schema name="6155bf2b" id="6155bf2b">
	<SimpleField name="title" type="string"></SimpleField>
	<SimpleField name="type" type="string"></SimpleField>
	<SimpleField name="ext_sign" type="string"></SimpleField>
	<SimpleField name="class_lvl" type="string"></SimpleField>
	<SimpleField name="height_lvl" type="string"></SimpleField>
	<SimpleField name="height_ctrl" type="string"></SimpleField>
	<SimpleField name="ctrl_place" type="string"></SimpleField>
	<SimpleField name="mark_num" type="string"></SimpleField>
	<SimpleField name="center_type" type="string"></SimpleField>
	<SimpleField name="lvl_line" type="string"></SimpleField>
	<SimpleField name="guid" type="string"></SimpleField>
</Schema>
<Folder><name>6155bf2b</name>
  <Placemark id="6155bf2b.1">
	<name>15582</name>
	<description>грунтовый репер</description>
	<ExtendedData><SchemaData schemaUrl="#6155bf2b">
		<SimpleData name="title">грунт. реп.</SimpleData>
		<SimpleData name="type">2</SimpleData>
		<SimpleData name="class_lvl">904,849</SimpleData>
		<SimpleData name="height_lvl">903,006</SimpleData>
		<SimpleData name="height_ctrl">репер №471 в верхней плоскости монолита</SimpleData>
		<SimpleData name="ctrl_place">121</SimpleData>
		<SimpleData name="mark_num">Линия №1: Бугаз - Аягуз, 2 класс (2) Участок: ск. реп. 8 - грунт. реп. 15903</SimpleData>
		<SimpleData name="center_type">Сарыбулак, с., в 14.2 км к юго-зап. от него, в 1.5 км к юго-вост. от кладбища, в 0.1 км к югу от . Егинбулак</SimpleData>
		<SimpleData name="lvl_line">6155bf2b-bbe8-467b-9464-ed3653f21855</SimpleData>
	</SchemaData></ExtendedData>
      <Point><coordinates>81.6382879477363,48.0776227387167</coordinates></Point>
  </Placemark>
</Folder>
</Document></kml>
