<?xml version="1.0" encoding="utf-8" ?>
<kml xmlns="http://www.opengis.net/kml/2.2">
<Document id="root_doc">
<Schema name="61652985" id="61652985">
	<SimpleField name="title" type="string"></SimpleField>
	<SimpleField name="type" type="string"></SimpleField>
	<SimpleField name="ext_sign" type="string"></SimpleField>
	<SimpleField name="class_lvl" type="string"></SimpleField>
	<SimpleField name="height_lvl" type="string"></SimpleField>
	<SimpleField name="height_ctrl" type="string"></SimpleField>
	<SimpleField name="ctrl_place" type="string"></SimpleField>
	<SimpleField name="mark_num" type="string"></SimpleField>
	<SimpleField name="center_type" type="string"></SimpleField>
	<SimpleField name="lvl_line" type="string"></SimpleField>
	<SimpleField name="guid" type="string"></SimpleField>
</Schema>
<Folder><name>61652985</name>
  <Placemark id="61652985.1">
	<name>5003</name>
	<description>фундаментальный репер</description>
	<ExtendedData><SchemaData schemaUrl="#61652985">
		<SimpleData name="type">1</SimpleData>
		<SimpleData name="ext_sign">332.306</SimpleData>
		<SimpleData name="height_lvl">161 оп.знак</SimpleData>
		<SimpleData name="ctrl_place">12</SimpleData>
		<SimpleData name="mark_num">Линия № 2: Терсаккан - Кзыл-Сенгир. І класс </SimpleData>
		<SimpleData name="center_type">Отарбай.с..в 1.3 км к сев.от него. в 0.4 км к вост.от р.Кон. в 10 м к зап.от дороги с.Истембай-с.Отарбай</SimpleData>
		<SimpleData name="lvl_line">61652985-8b60-462c-8752-13e85a8e1bde</SimpleData>
	</SchemaData></ExtendedData>
      <Point><coordinates>69.4906887878756,50.0051846235712</coordinates></Point>
  </Placemark>
</Folder>
</Document></kml>
