<?xml version="1.0" encoding="utf-8" ?>
<kml xmlns="http://www.opengis.net/kml/2.2">
<Document id="root_doc">
<Schema name="61eb304c" id="61eb304c">
	<SimpleField name="title" type="string"></SimpleField>
	<SimpleField name="type" type="string"></SimpleField>
	<SimpleField name="ext_sign" type="string"></SimpleField>
	<SimpleField name="class_lvl" type="string"></SimpleField>
	<SimpleField name="height_lvl" type="string"></SimpleField>
	<SimpleField name="height_ctrl" type="string"></SimpleField>
	<SimpleField name="ctrl_place" type="string"></SimpleField>
	<SimpleField name="mark_num" type="string"></SimpleField>
	<SimpleField name="center_type" type="string"></SimpleField>
	<SimpleField name="lvl_line" type="string"></SimpleField>
	<SimpleField name="guid" type="string"></SimpleField>
</Schema>
<Folder><name>61eb304c</name>
  <Placemark id="61eb304c.1">
	<name>1799</name>
	<description>грунтовый репер</description>
	<ExtendedData><SchemaData schemaUrl="#61eb304c">
		<SimpleData name="type">2</SimpleData>
		<SimpleData name="ext_sign">554,782</SimpleData>
		<SimpleData name="ctrl_place">160оп</SimpleData>
		<SimpleData name="mark_num">Линия №1: Карасорский-Каркаралинск, II класс (1) Участок: грунт.реп. 50 - грунт.реп.0224</SimpleData>
		<SimpleData name="center_type">Маяжон, с., в 9,9 км к юго-вост. от него, в 0,1 км к сев.-зап. от линии связи, в 30 м к зап. от дороги с. Баянаул – гор. Каркаралинск</SimpleData>
		<SimpleData name="lvl_line">61eb304c-b29a-4b14-a84b-08ca056ebfa2</SimpleData>
	</SchemaData></ExtendedData>
      <Point><coordinates>75.6688320165993,50.5069593677392</coordinates></Point>
  </Placemark>
</Folder>
</Document></kml>
