<?xml version="1.0" encoding="utf-8" ?>
<kml xmlns="http://www.opengis.net/kml/2.2">
<Document id="root_doc">
<Schema name="621f0792" id="621f0792">
	<SimpleField name="title" type="string"></SimpleField>
	<SimpleField name="type" type="string"></SimpleField>
	<SimpleField name="ext_sign" type="string"></SimpleField>
	<SimpleField name="class_lvl" type="string"></SimpleField>
	<SimpleField name="height_lvl" type="string"></SimpleField>
	<SimpleField name="height_ctrl" type="string"></SimpleField>
	<SimpleField name="ctrl_place" type="string"></SimpleField>
	<SimpleField name="mark_num" type="string"></SimpleField>
	<SimpleField name="center_type" type="string"></SimpleField>
	<SimpleField name="lvl_line" type="string"></SimpleField>
	<SimpleField name="guid" type="string"></SimpleField>
</Schema>
<Folder><name>621f0792</name>
  <Placemark id="621f0792.1">
	<name>Закладка 39</name>
	<ExtendedData><SchemaData schemaUrl="#621f0792">
		<SimpleData name="center_type">Требует закладки </SimpleData>
		<SimpleData name="lvl_line">621f0792-e5be-4a06-9c6b-326d0330be57</SimpleData>
	</SchemaData></ExtendedData>
      <Point><coordinates>63.2055183333333,44.8397633333333</coordinates></Point>
  </Placemark>
</Folder>
</Document></kml>
