<?xml version="1.0" encoding="utf-8" ?>
<kml xmlns="http://www.opengis.net/kml/2.2">
<Document id="root_doc">
<Schema name="6276b6c8" id="6276b6c8">
	<SimpleField name="title" type="string"></SimpleField>
	<SimpleField name="type" type="string"></SimpleField>
	<SimpleField name="ext_sign" type="string"></SimpleField>
	<SimpleField name="class_lvl" type="string"></SimpleField>
	<SimpleField name="height_lvl" type="string"></SimpleField>
	<SimpleField name="height_ctrl" type="string"></SimpleField>
	<SimpleField name="ctrl_place" type="string"></SimpleField>
	<SimpleField name="mark_num" type="string"></SimpleField>
	<SimpleField name="center_type" type="string"></SimpleField>
	<SimpleField name="lvl_line" type="string"></SimpleField>
	<SimpleField name="guid" type="string"></SimpleField>
</Schema>
<Folder><name>6276b6c8</name>
  <Placemark id="6276b6c8.1">
	<name>3511</name>
	<description>грунтовый репер</description>
	<ExtendedData><SchemaData schemaUrl="#6276b6c8">
		<SimpleData name="type">1</SimpleData>
		<SimpleData name="ext_sign">420.709</SimpleData>
		<SimpleData name="ctrl_place">160</SimpleData>
		<SimpleData name="center_type">Шептыкуль, станц., в 4.3 км к сев.-зап. от нее, на 7 пк 543 км, в 51 м к востоку от токоведущего стб. ж.д.№160, в 25 м к вост. от ж.д. полотна, в 15 м к зап. от грунт. дороги станц. Шептыкуль-станц.Бабатай.</SimpleData>
		<SimpleData name="lvl_line">6276b6c8-8149-4975-887e-7c917ea5dd47</SimpleData>
	</SchemaData></ExtendedData>
      <Point><coordinates>72.0011340698097,50.9349201133165</coordinates></Point>
  </Placemark>
</Folder>
</Document></kml>
