<?xml version="1.0" encoding="utf-8" ?>
<kml xmlns="http://www.opengis.net/kml/2.2">
<Document id="root_doc">
<Schema name="62a5f31e" id="62a5f31e">
	<SimpleField name="type" type="string"></SimpleField>
	<SimpleField name="view" type="string"></SimpleField>
	<SimpleField name="leveling_order" type="string"></SimpleField>
	<SimpleField name="leveling_height" type="string"></SimpleField>
	<SimpleField name="control_height" type="string"></SimpleField>
	<SimpleField name="benchmark_number" type="string"></SimpleField>
	<SimpleField name="control_location" type="string"></SimpleField>
	<SimpleField name="benchmark_type" type="string"></SimpleField>
	<SimpleField name="leveling_line_section" type="string"></SimpleField>
	<SimpleField name="location_description" type="string"></SimpleField>
	<SimpleField name="status" type="string"></SimpleField>
	<SimpleField name="guid" type="string"></SimpleField>
	<SimpleField name="kml" type="string"></SimpleField>
	<SimpleField name="kml_link" type="string"></SimpleField>
</Schema>
<Folder><name>62a5f31e</name>
  <Placemark id="62a5f31e.1">
	<name>44257</name>
	<description>марка</description>
	<ExtendedData><SchemaData schemaUrl="#62a5f31e">
		<SimpleData name="type">1</SimpleData>
		<SimpleData name="view">716.312</SimpleData>
		<SimpleData name="control_location">Линия № 1:Жарык-Моинты I класс                            Участок: грунт.реп. 6770-грунт.реп. 6236</SimpleData>
		<SimpleData name="benchmark_type">Киик, станц., в 6,0км к сев. от нее, на 7ПК 1014км, водопропускная труба</SimpleData>
		<SimpleData name="location_description">62a5f31e-9704-4a70-80b3-2f425600c4e6</SimpleData>
		<SimpleData name="status">data/stations/62a5f31e.kml</SimpleData>
		<SimpleData name="guid">&lt;a href='data/stations/62a5f31e.kml' target='_blank'&gt;Download KML&lt;/a&gt;</SimpleData>
	</SchemaData></ExtendedData>
      <Point><coordinates>72.899977245264,47.5564264755056</coordinates></Point>
  </Placemark>
</Folder>
</Document></kml>
