<?xml version="1.0" encoding="utf-8" ?>
<kml xmlns="http://www.opengis.net/kml/2.2">
<Document id="root_doc">
<Schema name="63029598" id="63029598">
	<SimpleField name="title" type="string"></SimpleField>
	<SimpleField name="type" type="string"></SimpleField>
	<SimpleField name="ext_sign" type="string"></SimpleField>
	<SimpleField name="class_lvl" type="string"></SimpleField>
	<SimpleField name="height_lvl" type="string"></SimpleField>
	<SimpleField name="height_ctrl" type="string"></SimpleField>
	<SimpleField name="ctrl_place" type="string"></SimpleField>
	<SimpleField name="mark_num" type="string"></SimpleField>
	<SimpleField name="center_type" type="string"></SimpleField>
	<SimpleField name="lvl_line" type="string"></SimpleField>
	<SimpleField name="guid" type="string"></SimpleField>
</Schema>
<Folder><name>63029598</name>
  <Placemark id="63029598.1">
	<name>7537</name>
	<description>грунт.реп.</description>
	<ExtendedData><SchemaData schemaUrl="#63029598">
		<SimpleData name="title">грунт.реп.</SimpleData>
		<SimpleData name="type">II</SimpleData>
		<SimpleData name="ext_sign">351.712</SimpleData>
		<SimpleData name="ctrl_place">160 оп.знак</SimpleData>
		<SimpleData name="mark_num">Линия № 3:Урочище Куйган-Уштобе, II класс                            Участок: фунд.реп. 5749-грунт.реп. 702</SimpleData>
		<SimpleData name="center_type">Канбактыколь, оз., в 2.1 км к юго-вост. от него, в 1.5 км к зап. от зимовки,  в 25 м к юго-зап. от развилки полевой дороги</SimpleData>
		<SimpleData name="lvl_line">63029598-6ef1-4411-bceb-2256afe34092</SimpleData>
	</SchemaData></ExtendedData>
      <Point><coordinates>77.2357338153132,46.3313739652112</coordinates></Point>
  </Placemark>
</Folder>
</Document></kml>
