<?xml version="1.0" encoding="utf-8" ?>
<kml xmlns="http://www.opengis.net/kml/2.2">
<Document id="root_doc">
<Schema name="6346e81a" id="6346e81a">
	<SimpleField name="type" type="string"></SimpleField>
	<SimpleField name="view" type="string"></SimpleField>
	<SimpleField name="leveling_order" type="string"></SimpleField>
	<SimpleField name="leveling_height" type="string"></SimpleField>
	<SimpleField name="control_height" type="string"></SimpleField>
	<SimpleField name="benchmark_number" type="string"></SimpleField>
	<SimpleField name="control_location" type="string"></SimpleField>
	<SimpleField name="benchmark_type" type="string"></SimpleField>
	<SimpleField name="leveling_line_section" type="string"></SimpleField>
	<SimpleField name="location_description" type="string"></SimpleField>
	<SimpleField name="status" type="string"></SimpleField>
	<SimpleField name="guid" type="string"></SimpleField>
	<SimpleField name="kml" type="string"></SimpleField>
	<SimpleField name="kml_link" type="string"></SimpleField>
</Schema>
<Folder><name>6346e81a</name>
  <Placemark id="6346e81a.1">
	<name>6974</name>
	<name>грунтовый репер</name>
	<ExtendedData><SchemaData schemaUrl="#6346e81a">
		<SimpleData name="type">2</SimpleData>
		<SimpleData name="view">139,244</SimpleData>
		<SimpleData name="control_location">Линия № 4: Кызылорда - Сарысу, 2 класс (2, 3) Участок: грунт. реп. 4907 - фунд. реп. 815</SimpleData>
		<SimpleData name="benchmark_type">Жындытобе, к., в 6.8 км к вост. от него, в 0.6 км к зап. от плотины, в створе плотины</SimpleData>
		<SimpleData name="location_description">6346e81a-58cf-4ca9-ad5e-59de6f26dbd2</SimpleData>
		<SimpleData name="status">data/stations/6346e81a.kml</SimpleData>
		<SimpleData name="guid">&lt;a href='data/stations/6346e81a.kml' target='_blank'&gt;Download KML&lt;/a&gt;</SimpleData>
	</SchemaData></ExtendedData>
      <Point><coordinates>67.167839968599,45.3559918165016</coordinates></Point>
  </Placemark>
</Folder>
</Document></kml>
