<?xml version="1.0" encoding="utf-8" ?>
<kml xmlns="http://www.opengis.net/kml/2.2">
<Document id="root_doc">
<Schema name="63fbedae" id="63fbedae">
	<SimpleField name="type" type="string"></SimpleField>
	<SimpleField name="view" type="string"></SimpleField>
	<SimpleField name="leveling_order" type="string"></SimpleField>
	<SimpleField name="leveling_height" type="string"></SimpleField>
	<SimpleField name="control_height" type="string"></SimpleField>
	<SimpleField name="benchmark_number" type="string"></SimpleField>
	<SimpleField name="control_location" type="string"></SimpleField>
	<SimpleField name="benchmark_type" type="string"></SimpleField>
	<SimpleField name="leveling_line_section" type="string"></SimpleField>
	<SimpleField name="location_description" type="string"></SimpleField>
	<SimpleField name="status" type="string"></SimpleField>
	<SimpleField name="guid" type="string"></SimpleField>
	<SimpleField name="kml" type="string"></SimpleField>
	<SimpleField name="kml_link" type="string"></SimpleField>
</Schema>
<Folder><name>63fbedae</name>
  <Placemark id="63fbedae.1">
	<name>4773</name>
	<name>грунт. реп.</name>
	<ExtendedData><SchemaData schemaUrl="#63fbedae">
		<SimpleData name="type">1</SimpleData>
		<SimpleData name="view">525.945</SimpleData>
		<SimpleData name="benchmark_number">160</SimpleData>
		<SimpleData name="control_location">Линия № 1: Оз. Жаланашколь - Аягоз, I класс 
Участок: грунт.реп. 4536 – грунт.реп. 4176
</SimpleData>
		<SimpleData name="benchmark_type">Тасарык, с., в 0.2 км к югу от него, в 0.2 км к юго-вост. от км. стб. 53/137 шоссе с. Таскескен – с. Бахты, в 29 м к юго-зап. от шоссе, в 4 м к сев.-зап. от пов. стб. ЛЭП 
№ 35/72
</SimpleData>
		<SimpleData name="location_description">63fbedae-6456-4857-8ab7-04185f9ea3a9</SimpleData>
		<SimpleData name="status">data/stations/63fbedae.kml</SimpleData>
		<SimpleData name="guid">&lt;a href='data/stations/63fbedae.kml' target='_blank'&gt;Download KML&lt;/a&gt;</SimpleData>
	</SchemaData></ExtendedData>
      <Point><coordinates>81.2976754127289,47.0965355398927</coordinates></Point>
  </Placemark>
</Folder>
</Document></kml>
