<?xml version="1.0" encoding="utf-8" ?>
<kml xmlns="http://www.opengis.net/kml/2.2">
<Document id="root_doc">
<Schema name="6436eb68" id="6436eb68">
	<SimpleField name="title" type="string"></SimpleField>
	<SimpleField name="type" type="string"></SimpleField>
	<SimpleField name="ext_sign" type="string"></SimpleField>
	<SimpleField name="class_lvl" type="string"></SimpleField>
	<SimpleField name="height_lvl" type="string"></SimpleField>
	<SimpleField name="height_ctrl" type="string"></SimpleField>
	<SimpleField name="ctrl_place" type="string"></SimpleField>
	<SimpleField name="mark_num" type="string"></SimpleField>
	<SimpleField name="center_type" type="string"></SimpleField>
	<SimpleField name="lvl_line" type="string"></SimpleField>
	<SimpleField name="guid" type="string"></SimpleField>
</Schema>
<Folder><name>6436eb68</name>
  <Placemark id="6436eb68.1">
	<name>367</name>
	<description>грунтовый репер</description>
	<ExtendedData><SchemaData schemaUrl="#6436eb68">
		<SimpleData name="type">1</SimpleData>
		<SimpleData name="ext_sign">269.777</SimpleData>
		<SimpleData name="height_lvl">121 оп. знак </SimpleData>
		<SimpleData name="ctrl_place">12</SimpleData>
		<SimpleData name="mark_num">Линия № 1: Сергеевка-Терсаккан. І класс</SimpleData>
		<SimpleData name="center_type">Сергеевка. с.. 1.8 км к юго-вост от него. в 1.0 км к зап. от свх. Самарский. в 0.3 км.к югу от свх. Атбасарский. в 20 м. к югу от дор.. идущей с фермы в село </SimpleData>
		<SimpleData name="lvl_line">6436eb68-75a1-442b-b0db-f631373825b5</SimpleData>
	</SchemaData></ExtendedData>
      <Point><coordinates>68.2262203904033,51.63886156069</coordinates></Point>
  </Placemark>
</Folder>
</Document></kml>
