<?xml version="1.0" encoding="UTF-8"?>
<kml xmlns="http://www.opengis.net/kml/2.2">
  <Document id="root_doc">
    <Schema id="662d5bd3" name="662d5bd3">
      <SimpleField name="title" type="string"/>
      <SimpleField name="type" type="string"/>
      <SimpleField name="ext_sign" type="string"/>
      <SimpleField name="class_lvl" type="string"/>
      <SimpleField name="height_lvl" type="string"/>
      <SimpleField name="height_ctrl" type="string"/>
      <SimpleField name="ctrl_place" type="string"/>
      <SimpleField name="mark_num" type="string"/>
      <SimpleField name="center_type" type="string"/>
      <SimpleField name="lvl_line" type="string"/>
      <SimpleField name="guid" type="string"/>
    </Schema>
    <Schema id="_662d5bd3.schema">
      <SimpleField name="title" type="string"/>
      <SimpleField name="type" type="string"/>
      <SimpleField name="ext_sign" type="string"/>
      <SimpleField name="class_lvl" type="string"/>
      <SimpleField name="height_lvl" type="string"/>
      <SimpleField name="height_ctrl" type="string"/>
      <SimpleField name="ctrl_place" type="string"/>
      <SimpleField name="mark_num" type="string"/>
      <SimpleField name="center_type" type="string"/>
      <SimpleField name="lvl_line" type="string"/>
      <SimpleField name="guid" type="string"/>
    </Schema>
    <Document id="_662d5bd3">
      <name>662d5bd3</name>
      <Placemark id="_662d5bd3.1">
        <ExtendedData>
          <SchemaData schemaUrl="#_662d5bd3.schema">
            <SimpleData name="title">1К10</SimpleData>
            <SimpleData name="type">Грунтовый репер</SimpleData>
            <SimpleData name="guid">662d5bd3-e667-4685-b10f-87b9c40a1c30</SimpleData>
          </SchemaData>
        </ExtendedData>
        <Point>
          <coordinates>
            55.8150100923682,46.9225456392678,0
          </coordinates>
        </Point>
      </Placemark>
    </Document>
  </Document>
</kml>
