<?xml version="1.0" encoding="utf-8" ?>
<kml xmlns="http://www.opengis.net/kml/2.2">
<Document id="root_doc">
<Schema name="664e5b10" id="664e5b10">
	<SimpleField name="type" type="string"></SimpleField>
	<SimpleField name="view" type="string"></SimpleField>
	<SimpleField name="leveling_order" type="string"></SimpleField>
	<SimpleField name="leveling_height" type="string"></SimpleField>
	<SimpleField name="control_height" type="string"></SimpleField>
	<SimpleField name="benchmark_number" type="string"></SimpleField>
	<SimpleField name="control_location" type="string"></SimpleField>
	<SimpleField name="benchmark_type" type="string"></SimpleField>
	<SimpleField name="leveling_line_section" type="string"></SimpleField>
	<SimpleField name="location_description" type="string"></SimpleField>
	<SimpleField name="status" type="string"></SimpleField>
	<SimpleField name="guid" type="string"></SimpleField>
	<SimpleField name="kml" type="string"></SimpleField>
	<SimpleField name="kml_link" type="string"></SimpleField>
</Schema>
<Folder><name>664e5b10</name>
  <Placemark id="664e5b10.1">
	<name>53</name>
	<name>грунтовый репер</name>
	<ExtendedData><SchemaData schemaUrl="#664e5b10">
		<SimpleData name="type">2</SimpleData>
		<SimpleData name="view">153,910</SimpleData>
		<SimpleData name="control_location">Линия № 2: Шиели - Мергенбай, 2 класс (3) Участок: марка б/№ - грунт, реп. 50</SimpleData>
		<SimpleData name="benchmark_type">Бидайколь, с., в 5.2 км к югу от него, в 0.3 км к юго-вост, от км. стб. 27/8 шоссе с. Шиели - с. Буланбайбауы, в 35 м к сев.-вост. от шоссе, в 18 м к сев.-вост. от линии связи</SimpleData>
		<SimpleData name="location_description">664e5b10-4b63-40b1-8a26-27835ff42a17</SimpleData>
		<SimpleData name="status">data/stations/664e5b10.kml</SimpleData>
		<SimpleData name="guid">&lt;a href='data/stations/664e5b10.kml' target='_blank'&gt;Download KML&lt;/a&gt;</SimpleData>
	</SchemaData></ExtendedData>
      <Point><coordinates>66.7628981510892,44.0889473666605</coordinates></Point>
  </Placemark>
</Folder>
</Document></kml>
