<?xml version="1.0" encoding="utf-8" ?>
<kml xmlns="http://www.opengis.net/kml/2.2">
<Document id="root_doc">
<Schema name="66524a56" id="66524a56">
	<SimpleField name="title" type="string"></SimpleField>
	<SimpleField name="type" type="string"></SimpleField>
	<SimpleField name="ext_sign" type="string"></SimpleField>
	<SimpleField name="class_lvl" type="string"></SimpleField>
	<SimpleField name="height_lvl" type="string"></SimpleField>
	<SimpleField name="height_ctrl" type="string"></SimpleField>
	<SimpleField name="ctrl_place" type="string"></SimpleField>
	<SimpleField name="mark_num" type="string"></SimpleField>
	<SimpleField name="center_type" type="string"></SimpleField>
	<SimpleField name="lvl_line" type="string"></SimpleField>
	<SimpleField name="guid" type="string"></SimpleField>
</Schema>
<Folder><name>66524a56</name>
  <Placemark id="66524a56.1">
	<name>1623</name>
	<ExtendedData><SchemaData schemaUrl="#66524a56">
		<SimpleData name="title">гр. реп.</SimpleData>
		<SimpleData name="type">2</SimpleData>
		<SimpleData name="ext_sign">3,427</SimpleData>
		<SimpleData name="ctrl_place">160 оп. знак</SimpleData>
		<SimpleData name="mark_num">Линия:  Русская Таловка - Керей</SimpleData>
		<SimpleData name="center_type">Ушкемпир, с., в 18,2 км к юго-вост. от него, в 2,1 км к зап. от с.  кладб. Келиншекмола, в 30 м к югу от грунтовой дороги с. Тайпак - с. Ушкемпир</SimpleData>
		<SimpleData name="lvl_line">66524a56-186e-4e9a-b1e6-208890875826</SimpleData>
	</SchemaData></ExtendedData>
      <Point><coordinates>50.9423640328307,49.1859921056096</coordinates></Point>
  </Placemark>
</Folder>
</Document></kml>
