<?xml version="1.0" encoding="utf-8" ?>
<kml xmlns="http://www.opengis.net/kml/2.2">
<Document id="root_doc">
<Schema name="66600ddc" id="66600ddc">
	<SimpleField name="type" type="string"></SimpleField>
	<SimpleField name="view" type="string"></SimpleField>
	<SimpleField name="leveling_order" type="string"></SimpleField>
	<SimpleField name="leveling_height" type="string"></SimpleField>
	<SimpleField name="control_height" type="string"></SimpleField>
	<SimpleField name="benchmark_number" type="string"></SimpleField>
	<SimpleField name="control_location" type="string"></SimpleField>
	<SimpleField name="benchmark_type" type="string"></SimpleField>
	<SimpleField name="leveling_line_section" type="string"></SimpleField>
	<SimpleField name="location_description" type="string"></SimpleField>
	<SimpleField name="status" type="string"></SimpleField>
	<SimpleField name="guid" type="string"></SimpleField>
	<SimpleField name="kml" type="string"></SimpleField>
	<SimpleField name="kml_link" type="string"></SimpleField>
</Schema>
<Folder><name>66600ddc</name>
  <Placemark id="66600ddc.1">
	<name>1186</name>
	<name>фундаментальный репер</name>
	<ExtendedData><SchemaData schemaUrl="#66600ddc">
		<SimpleData name="type">2</SimpleData>
		<SimpleData name="view">110.589</SimpleData>
		<SimpleData name="leveling_order">108.896</SimpleData>
		<SimpleData name="control_height">Контрольный репер №3876в верхней плоскости монолита</SimpleData>
		<SimpleData name="benchmark_type">Ферма №2 свх. Потанинский, в 0,4 км к юго-зап.от нее, в 60 м к юго-зап.от ЛЭП, в 40 м к юго-зап.от дороги с. Седьмой аул - гор. Ермак</SimpleData>
		<SimpleData name="location_description">66600ddc-39e5-46d9-accc-6d5a9873943f</SimpleData>
		<SimpleData name="status">data/stations/66600ddc.kml</SimpleData>
		<SimpleData name="guid">&lt;a href='data/stations/66600ddc.kml' target='_blank'&gt;Download KML&lt;/a&gt;</SimpleData>
	</SchemaData></ExtendedData>
      <Point><coordinates>76.828615447183,52.1898890899898</coordinates></Point>
  </Placemark>
</Folder>
</Document></kml>
