<?xml version="1.0" encoding="utf-8" ?>
<kml xmlns="http://www.opengis.net/kml/2.2">
<Document id="root_doc">
<Schema name="668bb4bb" id="668bb4bb">
	<SimpleField name="type" type="string"></SimpleField>
	<SimpleField name="view" type="string"></SimpleField>
	<SimpleField name="leveling_order" type="string"></SimpleField>
	<SimpleField name="leveling_height" type="string"></SimpleField>
	<SimpleField name="control_height" type="string"></SimpleField>
	<SimpleField name="benchmark_number" type="string"></SimpleField>
	<SimpleField name="control_location" type="string"></SimpleField>
	<SimpleField name="benchmark_type" type="string"></SimpleField>
	<SimpleField name="leveling_line_section" type="string"></SimpleField>
	<SimpleField name="location_description" type="string"></SimpleField>
	<SimpleField name="status" type="string"></SimpleField>
	<SimpleField name="guid" type="string"></SimpleField>
	<SimpleField name="kml" type="string"></SimpleField>
	<SimpleField name="kml_link" type="string"></SimpleField>
</Schema>
<Folder><name>668bb4bb</name>
  <Placemark id="668bb4bb.1">
	<name>36</name>
	<name>фунд.реп.</name>
	<ExtendedData><SchemaData schemaUrl="#668bb4bb">
		<SimpleData name="type">2</SimpleData>
		<SimpleData name="view">504,688</SimpleData>
		<SimpleData name="leveling_order">504,163 ;        503,433</SimpleData>
		<SimpleData name="control_height">в трубе ;           в верхней плоскости монолита</SimpleData>
		<SimpleData name="benchmark_number">141</SimpleData>
		<SimpleData name="control_location">Линия №4 :     Защита - Георгиевка, II класс (2)     Участок :  грунт.реп. 104 - марка 260</SimpleData>
		<SimpleData name="benchmark_type">Шийли, с., в 0,4 км к югу от него, в 0,2 км к зап. от дороги гор. Усть-Каменогорск - с.Георгиевка, в 15 м к сев.-вост. от дороги с. Филипповка- с.Казаншункур</SimpleData>
		<SimpleData name="location_description">668bb4bb-98e6-4359-88a0-6424de911daa</SimpleData>
		<SimpleData name="status">data/stations/668bb4bb.kml</SimpleData>
		<SimpleData name="guid">&lt;a href='data/stations/668bb4bb.kml' target='_blank'&gt;Download KML&lt;/a&gt;</SimpleData>
	</SchemaData></ExtendedData>
      <Point><coordinates>81.8535716797236,49.5536573903308</coordinates></Point>
  </Placemark>
</Folder>
</Document></kml>
