<?xml version="1.0" encoding="utf-8" ?>
<kml xmlns="http://www.opengis.net/kml/2.2">
<Document id="root_doc">
<Schema name="6727e4ec" id="6727e4ec">
	<SimpleField name="type" type="string"></SimpleField>
	<SimpleField name="view" type="string"></SimpleField>
	<SimpleField name="leveling_order" type="string"></SimpleField>
	<SimpleField name="leveling_height" type="string"></SimpleField>
	<SimpleField name="control_height" type="string"></SimpleField>
	<SimpleField name="benchmark_number" type="string"></SimpleField>
	<SimpleField name="control_location" type="string"></SimpleField>
	<SimpleField name="benchmark_type" type="string"></SimpleField>
	<SimpleField name="leveling_line_section" type="string"></SimpleField>
	<SimpleField name="location_description" type="string"></SimpleField>
	<SimpleField name="status" type="string"></SimpleField>
	<SimpleField name="guid" type="string"></SimpleField>
	<SimpleField name="kml" type="string"></SimpleField>
	<SimpleField name="kml_link" type="string"></SimpleField>
</Schema>
<Folder><name>6727e4ec</name>
  <Placemark id="6727e4ec.1">
	<name>1481</name>
	<name>грунт. реп.</name>
	<ExtendedData><SchemaData schemaUrl="#6727e4ec">
		<SimpleData name="type">2</SimpleData>
		<SimpleData name="view">221.172</SimpleData>
		<SimpleData name="benchmark_number">146</SimpleData>
		<SimpleData name="control_location">Линия 3: Троицк-Кустанай, II класс(1) Участок: марка 247-грунт.реп.1492</SimpleData>
		<SimpleData name="benchmark_type">Каерак, станц., в 5,0 км к юго-вост. от нее, 134-й км, в 50 м к югу от пк.3/4, в 39 м к югу от ЛЭП, в 19 м к юго-зап. от ближайшего рельса</SimpleData>
		<SimpleData name="location_description">6727e4ec-ba12-44ff-84a2-33b35b87a0c3</SimpleData>
		<SimpleData name="status">data/stations/6727e4ec.kml</SimpleData>
		<SimpleData name="guid">&lt;a href='data/stations/6727e4ec.kml' target='_blank'&gt;Download KML&lt;/a&gt;</SimpleData>
	</SchemaData></ExtendedData>
      <Point><coordinates>61.7569542715811,53.9668047130828</coordinates></Point>
  </Placemark>
</Folder>
</Document></kml>
