<?xml version="1.0" encoding="utf-8" ?>
<kml xmlns="http://www.opengis.net/kml/2.2">
<Document id="root_doc">
<Schema name="674be2c4" id="674be2c4">
	<SimpleField name="type" type="string"></SimpleField>
	<SimpleField name="view" type="string"></SimpleField>
	<SimpleField name="leveling_order" type="string"></SimpleField>
	<SimpleField name="leveling_height" type="string"></SimpleField>
	<SimpleField name="control_height" type="string"></SimpleField>
	<SimpleField name="benchmark_number" type="string"></SimpleField>
	<SimpleField name="control_location" type="string"></SimpleField>
	<SimpleField name="benchmark_type" type="string"></SimpleField>
	<SimpleField name="leveling_line_section" type="string"></SimpleField>
	<SimpleField name="location_description" type="string"></SimpleField>
	<SimpleField name="status" type="string"></SimpleField>
	<SimpleField name="guid" type="string"></SimpleField>
	<SimpleField name="kml" type="string"></SimpleField>
	<SimpleField name="kml_link" type="string"></SimpleField>
</Schema>
<Folder><name>674be2c4</name>
  <Placemark id="674be2c4.1">
	<name>11208</name>
	<name>грунт.реп.</name>
	<ExtendedData><SchemaData schemaUrl="#674be2c4">
		<SimpleData name="type">2</SimpleData>
		<SimpleData name="view">547.793</SimpleData>
		<SimpleData name="leveling_order">546,695*</SimpleData>
		<SimpleData name="leveling_height">300</SimpleData>
		<SimpleData name="control_height">Контрольный репер в верхней плоскости монолита</SimpleData>
		<SimpleData name="benchmark_number">121</SimpleData>
		<SimpleData name="control_location">Линия № 9: грунт.реп. 975 - пирамида. 3 кл. Репер 1031,  ІІ класс (5)            </SimpleData>
		<SimpleData name="benchmark_type">Бриг.2-я свх.Горный Овцевод, в 4,0  км к вост.от нее, в 0,4  км к сев.от дороги с.Чилик - с.Чарын, в 0,2 км к сев. От линии связи  </SimpleData>
		<SimpleData name="location_description">674be2c4-222e-4efd-a77f-f95500ac8ba8</SimpleData>
		<SimpleData name="status">data/stations/674be2c4.kml</SimpleData>
		<SimpleData name="guid">&lt;a href='data/stations/674be2c4.kml' target='_blank'&gt;Download KML&lt;/a&gt;</SimpleData>
	</SchemaData></ExtendedData>
      <Point><coordinates>78.5657954552676,43.6638071587311</coordinates></Point>
  </Placemark>
</Folder>
</Document></kml>
