<?xml version="1.0" encoding="utf-8" ?>
<kml xmlns="http://www.opengis.net/kml/2.2">
<Document id="root_doc">
<Schema name="67efe823" id="67efe823">
	<SimpleField name="type" type="string"></SimpleField>
	<SimpleField name="view" type="string"></SimpleField>
	<SimpleField name="leveling_order" type="string"></SimpleField>
	<SimpleField name="leveling_height" type="string"></SimpleField>
	<SimpleField name="control_height" type="string"></SimpleField>
	<SimpleField name="benchmark_number" type="string"></SimpleField>
	<SimpleField name="control_location" type="string"></SimpleField>
	<SimpleField name="benchmark_type" type="string"></SimpleField>
	<SimpleField name="leveling_line_section" type="string"></SimpleField>
	<SimpleField name="location_description" type="string"></SimpleField>
	<SimpleField name="status" type="string"></SimpleField>
	<SimpleField name="guid" type="string"></SimpleField>
	<SimpleField name="kml" type="string"></SimpleField>
	<SimpleField name="kml_link" type="string"></SimpleField>
</Schema>
<Folder><name>67efe823</name>
  <Placemark id="67efe823.1">
	<name>4177</name>
	<description>грунт. Реп.</description>
	<ExtendedData><SchemaData schemaUrl="#67efe823">
		<SimpleData name="type">2</SimpleData>
		<SimpleData name="view">114.394</SimpleData>
		<SimpleData name="control_location">Линия №219: Звериноголовское  - Семиозерное, II класс участок: Фунд. Реп. 12-296  - грунт. Реп. 4515</SimpleData>
		<SimpleData name="benchmark_type">Убаган, с., в 1.0 км к зап. От нее, в 0.5 км к вост. От разъезда № 72 в 49 м к сев. От км. Стб. №275/276</SimpleData>
		<SimpleData name="location_description">67efe823-c428-444d-9842-1e1531f96b5f</SimpleData>
		<SimpleData name="status">data/stations/67efe823.kml</SimpleData>
		<SimpleData name="guid">&lt;a href='data/stations/67efe823.kml' target='_blank'&gt;Download KML&lt;/a&gt;</SimpleData>
	</SchemaData></ExtendedData>
      <Point><coordinates>64.406447688694,52.4472205589165</coordinates></Point>
  </Placemark>
</Folder>
</Document></kml>
