<?xml version="1.0" encoding="UTF-8"?>
<kml xmlns="http://www.opengis.net/kml/2.2">
  <Document id="root_doc">
    <Schema id="68733d7e" name="68733d7e">
      <SimpleField name="title" type="string"/>
      <SimpleField name="type" type="string"/>
      <SimpleField name="ext_sign" type="string"/>
      <SimpleField name="class_lvl" type="string"/>
      <SimpleField name="height_lvl" type="string"/>
      <SimpleField name="height_ctrl" type="string"/>
      <SimpleField name="ctrl_place" type="string"/>
      <SimpleField name="mark_num" type="string"/>
      <SimpleField name="center_type" type="string"/>
      <SimpleField name="lvl_line" type="string"/>
      <SimpleField name="guid" type="string"/>
    </Schema>
    <Schema id="_68733d7e.schema">
      <SimpleField name="title" type="string"/>
      <SimpleField name="type" type="string"/>
      <SimpleField name="ext_sign" type="string"/>
      <SimpleField name="class_lvl" type="string"/>
      <SimpleField name="height_lvl" type="string"/>
      <SimpleField name="height_ctrl" type="string"/>
      <SimpleField name="ctrl_place" type="string"/>
      <SimpleField name="mark_num" type="string"/>
      <SimpleField name="center_type" type="string"/>
      <SimpleField name="lvl_line" type="string"/>
      <SimpleField name="guid" type="string"/>
    </Schema>
    <Document id="_68733d7e">
      <name>68733d7e</name>
      <Placemark id="_68733d7e.1">
        <ExtendedData>
          <SchemaData schemaUrl="#_68733d7e.schema">
            <SimpleData name="title">26</SimpleData>
            <SimpleData name="type">пирамида</SimpleData>
            <SimpleData name="class_lvl">2</SimpleData>
            <SimpleData name="height_lvl">208,834</SimpleData>
            <SimpleData name="center_type">2</SimpleData>
            <SimpleData name="lvl_line">Линия № 1: Развалины Пикета № 8 - Сарысу. II класс (1) Участок: грунт, реп. 4494 - фунд.реп. 815</SimpleData>
            <SimpleData name="guid">68733d7e-fb9e-4358-ad9b-127ddf168aa5</SimpleData>
          </SchemaData>
        </ExtendedData>
        <Point>
          <coordinates>
            67.0414344048268,45.9951677697034,0
          </coordinates>
        </Point>
      </Placemark>
    </Document>
  </Document>
</kml>
