<?xml version="1.0" encoding="utf-8" ?>
<kml xmlns="http://www.opengis.net/kml/2.2">
<Document id="root_doc">
<Schema name="68b302c4" id="68b302c4">
	<SimpleField name="type" type="string"></SimpleField>
	<SimpleField name="view" type="string"></SimpleField>
	<SimpleField name="leveling_order" type="string"></SimpleField>
	<SimpleField name="leveling_height" type="string"></SimpleField>
	<SimpleField name="control_height" type="string"></SimpleField>
	<SimpleField name="benchmark_number" type="string"></SimpleField>
	<SimpleField name="control_location" type="string"></SimpleField>
	<SimpleField name="benchmark_type" type="string"></SimpleField>
	<SimpleField name="leveling_line_section" type="string"></SimpleField>
	<SimpleField name="location_description" type="string"></SimpleField>
	<SimpleField name="status" type="string"></SimpleField>
	<SimpleField name="guid" type="string"></SimpleField>
	<SimpleField name="kml" type="string"></SimpleField>
	<SimpleField name="kml_link" type="string"></SimpleField>
</Schema>
<Folder><name>68b302c4</name>
  <Placemark id="68b302c4.1">
	<name>0440</name>
	<name>стен.реп.</name>
	<ExtendedData><SchemaData schemaUrl="#68b302c4">
		<SimpleData name="type">II</SimpleData>
		<SimpleData name="control_location">Линия №3: Макинск - Байулесты, II класс Участок: фунд.реп. 480 - грунт.реп. 3185</SimpleData>
		<SimpleData name="benchmark_type">Макинск, гор., в 1.1 км к сев.-вост.от него, сев.-вост. Сторона моста на шоссе гор. Макинск - гор. Степняк </SimpleData>
		<SimpleData name="location_description">68b302c4-719f-4c13-bebb-8bad3cc8dadf</SimpleData>
		<SimpleData name="status">data/stations/68b302c4.kml</SimpleData>
		<SimpleData name="guid">&lt;a href='data/stations/68b302c4.kml' target='_blank'&gt;Download KML&lt;/a&gt;</SimpleData>
	</SchemaData></ExtendedData>
      <Point><coordinates>70.4274451215997,52.6614629593075</coordinates></Point>
  </Placemark>
</Folder>
</Document></kml>
