<?xml version="1.0" encoding="utf-8" ?>
<kml xmlns="http://www.opengis.net/kml/2.2">
<Document id="root_doc">
<Schema name="693b9616" id="693b9616">
	<SimpleField name="type" type="string"></SimpleField>
	<SimpleField name="view" type="string"></SimpleField>
	<SimpleField name="leveling_order" type="string"></SimpleField>
	<SimpleField name="leveling_height" type="string"></SimpleField>
	<SimpleField name="control_height" type="string"></SimpleField>
	<SimpleField name="benchmark_number" type="string"></SimpleField>
	<SimpleField name="control_location" type="string"></SimpleField>
	<SimpleField name="benchmark_type" type="string"></SimpleField>
	<SimpleField name="leveling_line_section" type="string"></SimpleField>
	<SimpleField name="location_description" type="string"></SimpleField>
	<SimpleField name="status" type="string"></SimpleField>
	<SimpleField name="guid" type="string"></SimpleField>
	<SimpleField name="kml" type="string"></SimpleField>
	<SimpleField name="kml_link" type="string"></SimpleField>
</Schema>
<Folder><name>693b9616</name>
  <Placemark id="693b9616.1">
	<name>1026</name>
	<name>грунт. реп.</name>
	<ExtendedData><SchemaData schemaUrl="#693b9616">
		<SimpleData name="type">2</SimpleData>
		<SimpleData name="view">66,211</SimpleData>
		<SimpleData name="benchmark_number">160 оп. знак.</SimpleData>
		<SimpleData name="control_location">Ход от грунт.реп. VII до грунт.реп. XV, 2 класс. Участок: грунт.реп. VII - пир. 2 кл. Каратас</SimpleData>
		<SimpleData name="benchmark_type">Кызылкум, с., в 6.8км к зап.от него, в 0.2км к зап.от мог.Шаграй, в 40м к юго-зап.от пол.дороги</SimpleData>
		<SimpleData name="location_description">693b9616-55bb-4f38-a10e-572de7ba8b22</SimpleData>
		<SimpleData name="status">data/stations/693b9616.kml</SimpleData>
		<SimpleData name="guid">&lt;a href='data/stations/693b9616.kml' target='_blank'&gt;Download KML&lt;/a&gt;</SimpleData>
	</SchemaData></ExtendedData>
      <Point><coordinates>61.3313426574412,44.5436781795977</coordinates></Point>
  </Placemark>
</Folder>
</Document></kml>
