<?xml version="1.0" encoding="utf-8" ?>
<kml xmlns="http://www.opengis.net/kml/2.2">
<Document id="root_doc">
<Schema name="695a3fe7" id="695a3fe7">
	<SimpleField name="type" type="string"></SimpleField>
	<SimpleField name="view" type="string"></SimpleField>
	<SimpleField name="leveling_order" type="string"></SimpleField>
	<SimpleField name="leveling_height" type="string"></SimpleField>
	<SimpleField name="control_height" type="string"></SimpleField>
	<SimpleField name="benchmark_number" type="string"></SimpleField>
	<SimpleField name="control_location" type="string"></SimpleField>
	<SimpleField name="benchmark_type" type="string"></SimpleField>
	<SimpleField name="leveling_line_section" type="string"></SimpleField>
	<SimpleField name="location_description" type="string"></SimpleField>
	<SimpleField name="status" type="string"></SimpleField>
	<SimpleField name="guid" type="string"></SimpleField>
	<SimpleField name="kml" type="string"></SimpleField>
	<SimpleField name="kml_link" type="string"></SimpleField>
</Schema>
<Folder><name>695a3fe7</name>
  <Placemark id="695a3fe7.1">
	<name>7</name>
	<name>грунт.реп.</name>
	<description>грунт.реп.</description>
	<ExtendedData><SchemaData schemaUrl="#695a3fe7">
		<SimpleData name="type">II</SimpleData>
		<SimpleData name="view">411,854</SimpleData>
		<SimpleData name="benchmark_number">160 оп.знак</SimpleData>
		<SimpleData name="control_location">Линия № 2: Мойынты- Балхаш, II класс
Участок: марка 44247 - фунд.реп.0653</SimpleData>
		<SimpleData name="benchmark_type">Сарыкум,станц. ,в 5.9 км к юго-вост.от неё,в 2.0 км к сев.-зап.от каз. 1141
км,в 0.1 км к сев.от 6 ПК 1139 км,в
40 м к сев.от полевой дороги</SimpleData>
		<SimpleData name="location_description">695a3fe7-432f-4e47-9c32-ffa4bdb880f7</SimpleData>
		<SimpleData name="status">data/stations/695a3fe7.kml</SimpleData>
		<SimpleData name="guid">&lt;a href='data/stations/695a3fe7.kml' target='_blank'&gt;Download KML&lt;/a&gt;</SimpleData>
	</SchemaData></ExtendedData>
      <Point><coordinates>74.2019699714722,46.9513386697521</coordinates></Point>
  </Placemark>
</Folder>
</Document></kml>
