<?xml version="1.0" encoding="utf-8" ?>
<kml xmlns="http://www.opengis.net/kml/2.2">
<Document id="root_doc">
<Schema name="69822a9e" id="69822a9e">
	<SimpleField name="type" type="string"></SimpleField>
	<SimpleField name="view" type="string"></SimpleField>
	<SimpleField name="leveling_order" type="string"></SimpleField>
	<SimpleField name="leveling_height" type="string"></SimpleField>
	<SimpleField name="control_height" type="string"></SimpleField>
	<SimpleField name="benchmark_number" type="string"></SimpleField>
	<SimpleField name="control_location" type="string"></SimpleField>
	<SimpleField name="benchmark_type" type="string"></SimpleField>
	<SimpleField name="leveling_line_section" type="string"></SimpleField>
	<SimpleField name="location_description" type="string"></SimpleField>
	<SimpleField name="status" type="string"></SimpleField>
	<SimpleField name="guid" type="string"></SimpleField>
	<SimpleField name="kml" type="string"></SimpleField>
	<SimpleField name="kml_link" type="string"></SimpleField>
</Schema>
<Folder><name>69822a9e</name>
  <Placemark id="69822a9e.1">
	<name>2986</name>
	<name>грунтовый репер </name>
	<ExtendedData><SchemaData schemaUrl="#69822a9e">
		<SimpleData name="type">II</SimpleData>
		<SimpleData name="view">824,220</SimpleData>
		<SimpleData name="benchmark_number">160оп</SimpleData>
		<SimpleData name="control_location">Линия №2: Актогай - Акчатау, II класс (1)  Участок: фунд.реп. 4072 - грунт. реп. 6736</SimpleData>
		<SimpleData name="benchmark_type">Актогай, с., в 1,5 км к юго-зап. от него, в 0,6 км к сев.-зап. от г. Шатырша, в 85 м к югу от ОЛЭП</SimpleData>
		<SimpleData name="location_description">69822a9e-39f0-4bde-8310-4f6b04622486</SimpleData>
		<SimpleData name="status">data/stations/69822a9e.kml</SimpleData>
		<SimpleData name="guid">&lt;a href='data/stations/69822a9e.kml' target='_blank'&gt;Download KML&lt;/a&gt;</SimpleData>
	</SchemaData></ExtendedData>
      <Point><coordinates>74.972365050791,48.305941987109</coordinates></Point>
  </Placemark>
</Folder>
</Document></kml>
