<?xml version="1.0" encoding="utf-8" ?>
<kml xmlns="http://www.opengis.net/kml/2.2">
<Document id="root_doc">
<Schema name="69ca5a3f" id="69ca5a3f">
	<SimpleField name="type" type="string"></SimpleField>
	<SimpleField name="view" type="string"></SimpleField>
	<SimpleField name="leveling_order" type="string"></SimpleField>
	<SimpleField name="leveling_height" type="string"></SimpleField>
	<SimpleField name="control_height" type="string"></SimpleField>
	<SimpleField name="benchmark_number" type="string"></SimpleField>
	<SimpleField name="control_location" type="string"></SimpleField>
	<SimpleField name="benchmark_type" type="string"></SimpleField>
	<SimpleField name="leveling_line_section" type="string"></SimpleField>
	<SimpleField name="location_description" type="string"></SimpleField>
	<SimpleField name="status" type="string"></SimpleField>
	<SimpleField name="guid" type="string"></SimpleField>
	<SimpleField name="kml" type="string"></SimpleField>
	<SimpleField name="kml_link" type="string"></SimpleField>
</Schema>
<Folder><name>69ca5a3f</name>
  <Placemark id="69ca5a3f.1">
	<name>5491</name>
	<description>ск.реп.</description>
	<ExtendedData><SchemaData schemaUrl="#69ca5a3f">
		<SimpleData name="type">1</SimpleData>
		<SimpleData name="view">354.012</SimpleData>
		<SimpleData name="benchmark_number">99</SimpleData>
		<SimpleData name="control_location">Линия №1:Сарышаган - Бурубайтал, I класс 
Участок: марка 2212 - ск.реп,0607</SimpleData>
		<SimpleData name="benchmark_type">Мынарал,станц.,в 8.2 км к югу от нее, 
на 10 ПК 1293 км,в 45 м к вост.от
жел.- дор.полотна</SimpleData>
		<SimpleData name="location_description">69ca5a3f-069c-4ca6-822e-23834b464f81</SimpleData>
		<SimpleData name="status">data/stations/69ca5a3f.kml</SimpleData>
		<SimpleData name="guid">&lt;a href='data/stations/69ca5a3f.kml' target='_blank'&gt;Download KML&lt;/a&gt;</SimpleData>
	</SchemaData></ExtendedData>
      <Point><coordinates>73.6868719540778,45.3784795573867</coordinates></Point>
  </Placemark>
</Folder>
</Document></kml>
