<?xml version="1.0" encoding="utf-8" ?>
<kml xmlns="http://www.opengis.net/kml/2.2">
<Document id="root_doc">
<Schema name="6a83048b" id="6a83048b">
	<SimpleField name="type" type="string"></SimpleField>
	<SimpleField name="view" type="string"></SimpleField>
	<SimpleField name="leveling_order" type="string"></SimpleField>
	<SimpleField name="leveling_height" type="string"></SimpleField>
	<SimpleField name="control_height" type="string"></SimpleField>
	<SimpleField name="benchmark_number" type="string"></SimpleField>
	<SimpleField name="control_location" type="string"></SimpleField>
	<SimpleField name="benchmark_type" type="string"></SimpleField>
	<SimpleField name="leveling_line_section" type="string"></SimpleField>
	<SimpleField name="location_description" type="string"></SimpleField>
	<SimpleField name="status" type="string"></SimpleField>
	<SimpleField name="guid" type="string"></SimpleField>
	<SimpleField name="kml" type="string"></SimpleField>
	<SimpleField name="kml_link" type="string"></SimpleField>
</Schema>
<Folder><name>6a83048b</name>
  <Placemark id="6a83048b.1">
	<name>12628</name>
	<name>грунтовый репер</name>
	<ExtendedData><SchemaData schemaUrl="#6a83048b">
		<SimpleData name="type">2</SimpleData>
		<SimpleData name="view">104</SimpleData>
		<SimpleData name="benchmark_number">121</SimpleData>
		<SimpleData name="control_location">Линия: Урлютюп-Шипицыно, II класс (2). Участок: гр. рп. 12628-марка 697</SimpleData>
		<SimpleData name="benchmark_type">Алаколь,с., в 8 км к сев.-вост. От него, в 21 м вправо от дороги с.Алаколь-с.Екишек, в 1.2 км к сев.-вост.от развилка этой дороги в с.Новокрасное, в 1 км к востоку от разв. с.Азембай</SimpleData>
		<SimpleData name="location_description">6a83048b-6054-4f91-ab56-d02e1b9d2b3f</SimpleData>
		<SimpleData name="status">data/stations/6a83048b.kml</SimpleData>
		<SimpleData name="guid">&lt;a href='data/stations/6a83048b.kml' target='_blank'&gt;Download KML&lt;/a&gt;</SimpleData>
	</SchemaData></ExtendedData>
      <Point><coordinates>75.9925706031306,54.0896397980143</coordinates></Point>
  </Placemark>
</Folder>
</Document></kml>
