<?xml version="1.0" encoding="utf-8" ?>
<kml xmlns="http://www.opengis.net/kml/2.2">
<Document id="root_doc">
<Schema name="6a893eb8" id="6a893eb8">
	<SimpleField name="title" type="string"></SimpleField>
	<SimpleField name="type" type="string"></SimpleField>
	<SimpleField name="ext_sign" type="string"></SimpleField>
	<SimpleField name="class_lvl" type="string"></SimpleField>
	<SimpleField name="height_lvl" type="string"></SimpleField>
	<SimpleField name="height_ctrl" type="string"></SimpleField>
	<SimpleField name="ctrl_place" type="string"></SimpleField>
	<SimpleField name="mark_num" type="string"></SimpleField>
	<SimpleField name="center_type" type="string"></SimpleField>
	<SimpleField name="lvl_line" type="string"></SimpleField>
	<SimpleField name="guid" type="string"></SimpleField>
</Schema>
<Folder><name>6a893eb8</name>
  <Placemark id="6a893eb8.1">
	<name>1446</name>
	<description>грунтовый репер</description>
	<ExtendedData><SchemaData schemaUrl="#6a893eb8">
		<SimpleData name="type">1</SimpleData>
		<SimpleData name="ext_sign">180.415</SimpleData>
		<SimpleData name="ctrl_place">160 оп</SimpleData>
		<SimpleData name="center_type">Горняк, с., в 10.7 км к юго-зап. от него, в 3.8 км к юго-зап. от п.тр. Овражный, в 67 м к зап. от крутого поворота р.Карынсалды, в 12 м к юго-зап. от промоины, в 3 м к юго-зап. от пол.дороги.</SimpleData>
		<SimpleData name="lvl_line">6a893eb8-4b4a-466e-9b97-6e986cf613d2</SimpleData>
	</SchemaData></ExtendedData>
      <Point><coordinates>65.8228393233994,50.6410859788505</coordinates></Point>
  </Placemark>
</Folder>
</Document></kml>
