<?xml version="1.0" encoding="utf-8" ?>
<kml xmlns="http://www.opengis.net/kml/2.2">
<Document id="root_doc">
<Schema name="6a9a870f" id="6a9a870f">
	<SimpleField name="type" type="string"></SimpleField>
	<SimpleField name="view" type="string"></SimpleField>
	<SimpleField name="leveling_order" type="string"></SimpleField>
	<SimpleField name="leveling_height" type="string"></SimpleField>
	<SimpleField name="control_height" type="string"></SimpleField>
	<SimpleField name="benchmark_number" type="string"></SimpleField>
	<SimpleField name="control_location" type="string"></SimpleField>
	<SimpleField name="benchmark_type" type="string"></SimpleField>
	<SimpleField name="leveling_line_section" type="string"></SimpleField>
	<SimpleField name="location_description" type="string"></SimpleField>
	<SimpleField name="status" type="string"></SimpleField>
	<SimpleField name="guid" type="string"></SimpleField>
	<SimpleField name="kml" type="string"></SimpleField>
	<SimpleField name="kml_link" type="string"></SimpleField>
</Schema>
<Folder><name>6a9a870f</name>
  <Placemark id="6a9a870f.1">
	<name>16166</name>
	<name>грунт.реп.</name>
	<description>грунт.реп.</description>
	<ExtendedData><SchemaData schemaUrl="#6a9a870f">
		<SimpleData name="type">II</SimpleData>
		<SimpleData name="view">425.679</SimpleData>
		<SimpleData name="leveling_order">424.139*</SimpleData>
		<SimpleData name="control_height">в  верхней
плоскости  монолита</SimpleData>
		<SimpleData name="benchmark_number">121 оп.знак</SimpleData>
		<SimpleData name="control_location">Линия  №  2;  Акозек-Сарыкамыс. II  класс  
Участок;  грунт.peп. 16166  фунд.реп. 122</SimpleData>
		<SimpleData name="benchmark_type">Тагын-Кара,станц. ,в  6,4  км  к  сев.-зап.от 
нее,в  3.5  км  к  юго-зал.от  сухого  колод
ца,в  2  м  к  зап.от  полевой  дороги</SimpleData>
		<SimpleData name="location_description">6a9a870f-a27a-4734-bc5a-758e3e63c5e1</SimpleData>
		<SimpleData name="status">data/stations/6a9a870f.kml</SimpleData>
		<SimpleData name="guid">&lt;a href='data/stations/6a9a870f.kml' target='_blank'&gt;Download KML&lt;/a&gt;</SimpleData>
	</SchemaData></ExtendedData>
      <Point><coordinates>77.0218679777423,46.7956129611665</coordinates></Point>
  </Placemark>
</Folder>
</Document></kml>
