<?xml version="1.0" encoding="utf-8" ?>
<kml xmlns="http://www.opengis.net/kml/2.2">
<Document id="root_doc">
<Schema name="6acd1f0f" id="6acd1f0f">
	<SimpleField name="type" type="string"></SimpleField>
	<SimpleField name="view" type="string"></SimpleField>
	<SimpleField name="leveling_order" type="string"></SimpleField>
	<SimpleField name="leveling_height" type="string"></SimpleField>
	<SimpleField name="control_height" type="string"></SimpleField>
	<SimpleField name="benchmark_number" type="string"></SimpleField>
	<SimpleField name="control_location" type="string"></SimpleField>
	<SimpleField name="benchmark_type" type="string"></SimpleField>
	<SimpleField name="leveling_line_section" type="string"></SimpleField>
	<SimpleField name="location_description" type="string"></SimpleField>
	<SimpleField name="status" type="string"></SimpleField>
	<SimpleField name="guid" type="string"></SimpleField>
	<SimpleField name="kml" type="string"></SimpleField>
	<SimpleField name="kml_link" type="string"></SimpleField>
</Schema>
<Folder><name>6acd1f0f</name>
  <Placemark id="6acd1f0f.1">
	<name>944</name>
	<name>грунт. реп.</name>
	<ExtendedData><SchemaData schemaUrl="#6acd1f0f">
		<SimpleData name="type">2</SimpleData>
		<SimpleData name="view">161.000</SimpleData>
		<SimpleData name="benchmark_number">160 оп. знак</SimpleData>
		<SimpleData name="control_location">Линия №3: Жынгылдыкак - Кызылуй, II класс. Участок: фунд. реп. 1835 - грунт. реп. 944</SimpleData>
		<SimpleData name="benchmark_type">Ушкарасу, зим., в 2.2 км к юго-вост. от неё, в 1.8 км к юго-зап. от оз. Ушкарасу, в 30 м к югу от грунт. дороги с. Косбармак - с. Кызылуй</SimpleData>
		<SimpleData name="location_description">6acd1f0f-72d9-4869-a87d-54052591e6a4</SimpleData>
		<SimpleData name="status">data/stations/6acd1f0f.kml</SimpleData>
		<SimpleData name="guid">&lt;a href='data/stations/6acd1f0f.kml' target='_blank'&gt;Download KML&lt;/a&gt;</SimpleData>
	</SchemaData></ExtendedData>
      <Point><coordinates>64.9127590076285,48.0199862513333</coordinates></Point>
  </Placemark>
</Folder>
</Document></kml>
