<?xml version="1.0" encoding="utf-8" ?>
<kml xmlns="http://www.opengis.net/kml/2.2">
<Document id="root_doc">
<Schema name="6c3097a8" id="6c3097a8">
	<SimpleField name="type" type="string"></SimpleField>
	<SimpleField name="view" type="string"></SimpleField>
	<SimpleField name="leveling_order" type="string"></SimpleField>
	<SimpleField name="leveling_height" type="string"></SimpleField>
	<SimpleField name="control_height" type="string"></SimpleField>
	<SimpleField name="benchmark_number" type="string"></SimpleField>
	<SimpleField name="control_location" type="string"></SimpleField>
	<SimpleField name="benchmark_type" type="string"></SimpleField>
	<SimpleField name="leveling_line_section" type="string"></SimpleField>
	<SimpleField name="location_description" type="string"></SimpleField>
	<SimpleField name="status" type="string"></SimpleField>
	<SimpleField name="guid" type="string"></SimpleField>
	<SimpleField name="kml" type="string"></SimpleField>
	<SimpleField name="kml_link" type="string"></SimpleField>
</Schema>
<Folder><name>6c3097a8</name>
  <Placemark id="6c3097a8.1">
	<name>633</name>
	<name>грунт.реп.</name>
	<ExtendedData><SchemaData schemaUrl="#6c3097a8">
		<SimpleData name="type">2</SimpleData>
		<SimpleData name="view">238,435</SimpleData>
		<SimpleData name="leveling_order">237,298</SimpleData>
		<SimpleData name="benchmark_number">121 оп</SimpleData>
		<SimpleData name="control_location">Линия №4: Карабутак-Жанатурмыс, II класс. Участок: грунт. реп. 6333-фунд. реп. 5070</SimpleData>
		<SimpleData name="benchmark_type">Акколь, с., в 11.6 км к сев. -вост. от него, в 1,0 км к юго-зап. от оз. Узынколь, в 35 м к сев. от пересечения дороги с. Акколь - с. Сарат с полевой дорогой</SimpleData>
		<SimpleData name="location_description">6c3097a8-6f24-436c-bd3e-83fa98fac4e5</SimpleData>
		<SimpleData name="status">data/stations/6c3097a8.kml</SimpleData>
		<SimpleData name="guid">&lt;a href='data/stations/6c3097a8.kml' target='_blank'&gt;Download KML&lt;/a&gt;</SimpleData>
	</SchemaData></ExtendedData>
      <Point><coordinates>60.7093052873364,49.9853827951817</coordinates></Point>
  </Placemark>
</Folder>
</Document></kml>
