<?xml version="1.0" encoding="utf-8" ?>
<kml xmlns="http://www.opengis.net/kml/2.2">
<Document id="root_doc">
<Schema name="6c8d4a9d" id="6c8d4a9d">
	<SimpleField name="title" type="string"></SimpleField>
	<SimpleField name="type" type="string"></SimpleField>
	<SimpleField name="ext_sign" type="string"></SimpleField>
	<SimpleField name="class_lvl" type="string"></SimpleField>
	<SimpleField name="height_lvl" type="string"></SimpleField>
	<SimpleField name="height_ctrl" type="string"></SimpleField>
	<SimpleField name="ctrl_place" type="string"></SimpleField>
	<SimpleField name="mark_num" type="string"></SimpleField>
	<SimpleField name="center_type" type="string"></SimpleField>
	<SimpleField name="lvl_line" type="string"></SimpleField>
	<SimpleField name="guid" type="string"></SimpleField>
</Schema>
<Folder><name>6c8d4a9d</name>
  <Placemark id="6c8d4a9d.1">
	<name>б/№</name>
	<description>грунтовый репер</description>
	<ExtendedData><SchemaData schemaUrl="#6c8d4a9d">
		<SimpleData name="type">2</SimpleData>
		<SimpleData name="ext_sign">446,197</SimpleData>
		<SimpleData name="class_lvl">444,437</SimpleData>
		<SimpleData name="height_lvl">Контрольный репер в верхней плоскости монолита</SimpleData>
		<SimpleData name="ctrl_place">121оп</SimpleData>
		<SimpleData name="mark_num">Линия №1: Сарыкияк - Степное, II класс (1)  Участок: грунт.реп.2 - грунт.реп. 10974</SimpleData>
		<SimpleData name="center_type">Кызылколь, оз., в 11,6 км к сев.-вост. от него, в 4,3 кмк вост.от полевого стана, в 0,1 км к сев. от грунтовой дороги с.Бескауга-с.Узынбулак</SimpleData>
		<SimpleData name="lvl_line">6c8d4a9d-222b-46a7-87dd-5f56b375432c</SimpleData>
	</SchemaData></ExtendedData>
      <Point><coordinates>74.4805298622977,50.9731282852897</coordinates></Point>
  </Placemark>
</Folder>
</Document></kml>
