<?xml version="1.0" encoding="UTF-8"?>
<kml xmlns="http://www.opengis.net/kml/2.2">
  <Document id="root_doc">
    <Schema id="6cbee31b" name="6cbee31b">
      <SimpleField name="title" type="string"/>
      <SimpleField name="type" type="string"/>
      <SimpleField name="ext_sign" type="string"/>
      <SimpleField name="class_lvl" type="string"/>
      <SimpleField name="height_lvl" type="string"/>
      <SimpleField name="height_ctrl" type="string"/>
      <SimpleField name="ctrl_place" type="string"/>
      <SimpleField name="mark_num" type="string"/>
      <SimpleField name="center_type" type="string"/>
      <SimpleField name="lvl_line" type="string"/>
      <SimpleField name="guid" type="string"/>
    </Schema>
    <Schema id="_6cbee31b.schema">
      <SimpleField name="title" type="string"/>
      <SimpleField name="type" type="string"/>
      <SimpleField name="ext_sign" type="string"/>
      <SimpleField name="class_lvl" type="string"/>
      <SimpleField name="height_lvl" type="string"/>
      <SimpleField name="height_ctrl" type="string"/>
      <SimpleField name="ctrl_place" type="string"/>
      <SimpleField name="mark_num" type="string"/>
      <SimpleField name="center_type" type="string"/>
      <SimpleField name="lvl_line" type="string"/>
      <SimpleField name="guid" type="string"/>
    </Schema>
    <Document id="_6cbee31b">
      <name>6cbee31b</name>
      <Placemark id="_6cbee31b.1">
        <description>Пески Бас-Оймаут,кладб,.в 3,8 км к юго-зап.от него,в 95м к юго-вост.от дороги к.Муратчаегинд-пески Бас-Оймаут</description>
        <ExtendedData>
          <SchemaData schemaUrl="#_6cbee31b.schema">
            <SimpleData name="title">1547</SimpleData>
            <SimpleData name="type">грунтовый репер</SimpleData>
            <SimpleData name="class_lvl">2</SimpleData>
            <SimpleData name="height_lvl">81,839</SimpleData>
            <SimpleData name="center_type">160оп</SimpleData>
            <SimpleData name="lvl_line">Линия № 241: Гурьев-Кошкарата. II класс (12)
Участок: грунт. реп. 5201 - грунт. реп. 6512</SimpleData>
            <SimpleData name="guid">6cbee31b-3601-49a5-ac06-7cf4388c4153</SimpleData>
          </SchemaData>
        </ExtendedData>
        <Point>
          <coordinates>
            56.5393405138067,47.0717627838875,0
          </coordinates>
        </Point>
      </Placemark>
    </Document>
  </Document>
</kml>
