<?xml version="1.0" encoding="utf-8" ?>
<kml xmlns="http://www.opengis.net/kml/2.2">
<Document id="root_doc">
<Schema name="6d70deb5" id="6d70deb5">
	<SimpleField name="title" type="string"></SimpleField>
	<SimpleField name="type" type="string"></SimpleField>
	<SimpleField name="ext_sign" type="string"></SimpleField>
	<SimpleField name="class_lvl" type="string"></SimpleField>
	<SimpleField name="height_lvl" type="string"></SimpleField>
	<SimpleField name="height_ctrl" type="string"></SimpleField>
	<SimpleField name="ctrl_place" type="string"></SimpleField>
	<SimpleField name="mark_num" type="string"></SimpleField>
	<SimpleField name="center_type" type="string"></SimpleField>
	<SimpleField name="lvl_line" type="string"></SimpleField>
	<SimpleField name="guid" type="string"></SimpleField>
</Schema>
<Folder><name>6d70deb5</name>
  <Placemark id="6d70deb5.1">
	<name>484</name>
	<description>Грунтовый репер </description>
	<ExtendedData><SchemaData schemaUrl="#6d70deb5">
		<SimpleData name="title">Zn2</SimpleData>
		<SimpleData name="lvl_line">6d70deb5-791f-473c-8fa7-5821165d393e</SimpleData>
	</SchemaData></ExtendedData>
      <Point><coordinates>49.0631129498968,46.6523519865832</coordinates></Point>
  </Placemark>
</Folder>
</Document></kml>
