<?xml version="1.0" encoding="utf-8" ?>
<kml xmlns="http://www.opengis.net/kml/2.2">
<Document id="root_doc">
<Schema name="6dbd9158" id="6dbd9158">
	<SimpleField name="title" type="string"></SimpleField>
	<SimpleField name="type" type="string"></SimpleField>
	<SimpleField name="ext_sign" type="string"></SimpleField>
	<SimpleField name="class_lvl" type="string"></SimpleField>
	<SimpleField name="height_lvl" type="string"></SimpleField>
	<SimpleField name="height_ctrl" type="string"></SimpleField>
	<SimpleField name="ctrl_place" type="string"></SimpleField>
	<SimpleField name="mark_num" type="string"></SimpleField>
	<SimpleField name="center_type" type="string"></SimpleField>
	<SimpleField name="lvl_line" type="string"></SimpleField>
	<SimpleField name="guid" type="string"></SimpleField>
</Schema>
<Folder><name>6dbd9158</name>
  <Placemark id="6dbd9158.1">
	<name>491</name>
	<description>грунтовый репер</description>
	<ExtendedData><SchemaData schemaUrl="#6dbd9158">
		<SimpleData name="type">2</SimpleData>
		<SimpleData name="ext_sign">179.134</SimpleData>
		<SimpleData name="class_lvl">177,134</SimpleData>
		<SimpleData name="height_lvl">Контрольный репер в фундаментной плите</SimpleData>
		<SimpleData name="ctrl_place">116 оп</SimpleData>
		<SimpleData name="mark_num">Линия № 4: Караул-Кельды-Ново-Алексеевка, II класс Участок: грунт.реп.491-фунд.реп.23299</SimpleData>
		<SimpleData name="center_type">Каракудук, с., в 0.4 км к югу от него, в 0.5 км к зап. от ручья Батпакты, в 10 м к зап. От дороги с. Каракудук-с. Алгазы</SimpleData>
		<SimpleData name="lvl_line">6dbd9158-5cb5-4b9d-b6fc-6eebc70648f4</SimpleData>
	</SchemaData></ExtendedData>
      <Point><coordinates>55.9588523741851,49.9708895551305</coordinates></Point>
  </Placemark>
</Folder>
</Document></kml>
