<?xml version="1.0" encoding="utf-8" ?>
<kml xmlns="http://www.opengis.net/kml/2.2">
<Document id="root_doc">
<Schema name="6de37268" id="6de37268">
	<SimpleField name="title" type="string"></SimpleField>
	<SimpleField name="type" type="string"></SimpleField>
	<SimpleField name="ext_sign" type="string"></SimpleField>
	<SimpleField name="class_lvl" type="string"></SimpleField>
	<SimpleField name="height_lvl" type="string"></SimpleField>
	<SimpleField name="height_ctrl" type="string"></SimpleField>
	<SimpleField name="ctrl_place" type="string"></SimpleField>
	<SimpleField name="mark_num" type="string"></SimpleField>
	<SimpleField name="center_type" type="string"></SimpleField>
	<SimpleField name="lvl_line" type="string"></SimpleField>
	<SimpleField name="guid" type="string"></SimpleField>
</Schema>
<Folder><name>6de37268</name>
  <Placemark id="6de37268.1">
	<name>3748</name>
	<description>фундаментальный репер</description>
	<ExtendedData><SchemaData schemaUrl="#6de37268">
		<SimpleData name="title">фунд.реп</SimpleData>
		<SimpleData name="type">2</SimpleData>
		<SimpleData name="ext_sign">185.099</SimpleData>
		<SimpleData name="class_lvl">184.505</SimpleData>
		<SimpleData name="height_lvl">Контрольный репер в фундаментной плите</SimpleData>
		<SimpleData name="ctrl_place">161 оп. знак</SimpleData>
		<SimpleData name="mark_num">Линия №1: Коккабак - Жосалы. 2 класс. Участок: грунт. реп. 4537 - грунт. реп. 5805</SimpleData>
		<SimpleData name="center_type">Бектибай. к.. в 10.4 км к югу от него. в 4.1 км к сев.-зап.от мог. Калбагай. в 0.2 км к зап.от полевой дороги</SimpleData>
		<SimpleData name="lvl_line">6de37268-4d9e-4f1b-8869-3dbc936bcaea</SimpleData>
	</SchemaData></ExtendedData>
      <Point><coordinates>63.9700933450092,46.3121127983811</coordinates></Point>
  </Placemark>
</Folder>
</Document></kml>
