<?xml version="1.0" encoding="utf-8" ?>
<kml xmlns="http://www.opengis.net/kml/2.2">
<Document id="root_doc">
<Schema name="6e506a4a" id="6e506a4a">
	<SimpleField name="title" type="string"></SimpleField>
	<SimpleField name="type" type="string"></SimpleField>
	<SimpleField name="ext_sign" type="string"></SimpleField>
	<SimpleField name="class_lvl" type="string"></SimpleField>
	<SimpleField name="height_lvl" type="string"></SimpleField>
	<SimpleField name="height_ctrl" type="string"></SimpleField>
	<SimpleField name="ctrl_place" type="string"></SimpleField>
	<SimpleField name="mark_num" type="string"></SimpleField>
	<SimpleField name="center_type" type="string"></SimpleField>
	<SimpleField name="lvl_line" type="string"></SimpleField>
	<SimpleField name="guid" type="string"></SimpleField>
</Schema>
<Folder><name>6e506a4a</name>
  <Placemark id="6e506a4a.1">
	<name>1322</name>
	<description>грунтовый репер</description>
	<ExtendedData><SchemaData schemaUrl="#6e506a4a">
		<SimpleData name="type">1</SimpleData>
		<SimpleData name="ext_sign">128.072</SimpleData>
		<SimpleData name="ctrl_place">160 оп. знак</SimpleData>
		<SimpleData name="mark_num">Линия № 4: Кызылорда - Арыс, I класс. Ход от марки б/№ до грунт.реп. 695 Участок: грунт.реп. 1323 - грунт.реп. 1275 (1375)</SimpleData>
		<SimpleData name="center_type">Алман, кладб., в 2.4 км к юго-вост.от него, в 1.4 км к сев.-вост.от кладбища, в 53м к югу от полевой дороги</SimpleData>
		<SimpleData name="lvl_line">6e506a4a-4094-4062-a771-442d81a1b7c1</SimpleData>
	</SchemaData></ExtendedData>
      <Point><coordinates>65.833594090609,44.8702741919978</coordinates></Point>
  </Placemark>
</Folder>
</Document></kml>
