<?xml version="1.0" encoding="utf-8" ?>
<kml xmlns="http://www.opengis.net/kml/2.2">
<Document id="root_doc">
<Schema name="6ee133d3" id="6ee133d3">
	<SimpleField name="title" type="string"></SimpleField>
	<SimpleField name="type" type="string"></SimpleField>
	<SimpleField name="ext_sign" type="string"></SimpleField>
	<SimpleField name="class_lvl" type="string"></SimpleField>
	<SimpleField name="height_lvl" type="string"></SimpleField>
	<SimpleField name="height_ctrl" type="string"></SimpleField>
	<SimpleField name="ctrl_place" type="string"></SimpleField>
	<SimpleField name="mark_num" type="string"></SimpleField>
	<SimpleField name="center_type" type="string"></SimpleField>
	<SimpleField name="lvl_line" type="string"></SimpleField>
	<SimpleField name="guid" type="string"></SimpleField>
</Schema>
<Folder><name>6ee133d3</name>
  <Placemark id="6ee133d3.1">
	<name>Жаркум</name>
	<description>пирамида</description>
	<ExtendedData><SchemaData schemaUrl="#6ee133d3">
		<SimpleData name="type">2</SimpleData>
		<SimpleData name="ext_sign">382.17</SimpleData>
		<SimpleData name="ctrl_place">2 оп</SimpleData>
		<SimpleData name="mark_num">Линия № 1: Актогай – Сайкан, II класс 
Участок: грунт.реп. 0125 – фунд.реп. 9446</SimpleData>
		<SimpleData name="center_type">Сарыкум, станц., в 10.3 км к юго-вост. от нее, в 0.6 км к юго-зап. от жел. дор., на вершине холма</SimpleData>
		<SimpleData name="lvl_line">6ee133d3-a7e7-41ec-8575-8fd56394e6c2</SimpleData>
	</SchemaData></ExtendedData>
      <Point><coordinates>80.3076068141408,46.6237051342146</coordinates></Point>
  </Placemark>
</Folder>
</Document></kml>
