<?xml version="1.0" encoding="utf-8" ?>
<kml xmlns="http://www.opengis.net/kml/2.2">
<Document id="root_doc">
<Schema name="6f2b804c" id="6f2b804c">
	<SimpleField name="title" type="string"></SimpleField>
	<SimpleField name="type" type="string"></SimpleField>
	<SimpleField name="ext_sign" type="string"></SimpleField>
	<SimpleField name="class_lvl" type="string"></SimpleField>
	<SimpleField name="height_lvl" type="string"></SimpleField>
	<SimpleField name="height_ctrl" type="string"></SimpleField>
	<SimpleField name="ctrl_place" type="string"></SimpleField>
	<SimpleField name="mark_num" type="string"></SimpleField>
	<SimpleField name="center_type" type="string"></SimpleField>
	<SimpleField name="lvl_line" type="string"></SimpleField>
	<SimpleField name="guid" type="string"></SimpleField>
</Schema>
<Folder><name>6f2b804c</name>
  <Placemark id="6f2b804c.1">
	<name>Закладка</name>
	<description>Грунтовый репер </description>
	<ExtendedData><SchemaData schemaUrl="#6f2b804c">
		<SimpleData name="height_ctrl">7565</SimpleData>
		<SimpleData name="lvl_line">6f2b804c-811c-42bd-b754-1e98e2e9137b</SimpleData>
	</SchemaData></ExtendedData>
      <Point><coordinates>83.6600016666667,48.7700866666667</coordinates></Point>
  </Placemark>
</Folder>
</Document></kml>
