<?xml version="1.0" encoding="utf-8" ?>
<kml xmlns="http://www.opengis.net/kml/2.2">
<Document id="root_doc">
<Schema name="6f4387f4" id="6f4387f4">
	<SimpleField name="type" type="string"></SimpleField>
	<SimpleField name="view" type="string"></SimpleField>
	<SimpleField name="leveling_order" type="string"></SimpleField>
	<SimpleField name="leveling_height" type="string"></SimpleField>
	<SimpleField name="control_height" type="string"></SimpleField>
	<SimpleField name="benchmark_number" type="string"></SimpleField>
	<SimpleField name="control_location" type="string"></SimpleField>
	<SimpleField name="benchmark_type" type="string"></SimpleField>
	<SimpleField name="leveling_line_section" type="string"></SimpleField>
	<SimpleField name="location_description" type="string"></SimpleField>
	<SimpleField name="status" type="string"></SimpleField>
	<SimpleField name="guid" type="string"></SimpleField>
	<SimpleField name="kml" type="string"></SimpleField>
	<SimpleField name="kml_link" type="string"></SimpleField>
</Schema>
<Folder><name>6f4387f4</name>
  <Placemark id="6f4387f4.1">
	<name>4127</name>
	<name>грунтовый репер</name>
	<ExtendedData><SchemaData schemaUrl="#6f4387f4">
		<SimpleData name="type">1</SimpleData>
		<SimpleData name="view">430.304</SimpleData>
		<SimpleData name="benchmark_number">160 оп, знак</SimpleData>
		<SimpleData name="control_location">Линия № 1: Карсакбай - Тюемойнак, 1 класс (1) Участок: грунт, реп, 6483 - стен, реп, 921</SimpleData>
		<SimpleData name="benchmark_type">Жезды, разв,, в 5,5 км к сев,-вост, от них, в 0,2 км к сев,- зап, от пов, стб, ЛЭП, в 82 м к сев, от строящегося  шоссе</SimpleData>
		<SimpleData name="location_description">6f4387f4-314f-48fd-aa2c-f945cfb3d465</SimpleData>
		<SimpleData name="status">data/stations/6f4387f4.kml</SimpleData>
		<SimpleData name="guid">&lt;a href='data/stations/6f4387f4.kml' target='_blank'&gt;Download KML&lt;/a&gt;</SimpleData>
	</SchemaData></ExtendedData>
      <Point><coordinates>67.299506070653,47.8411845363176</coordinates></Point>
  </Placemark>
</Folder>
</Document></kml>
