<?xml version="1.0" encoding="UTF-8"?>
<kml xmlns="http://www.opengis.net/kml/2.2">
  <Document id="root_doc">
    <Schema id="70aef1c4" name="70aef1c4">
      <SimpleField name="title" type="string"/>
      <SimpleField name="type" type="string"/>
      <SimpleField name="ext_sign" type="string"/>
      <SimpleField name="class_lvl" type="string"/>
      <SimpleField name="height_lvl" type="string"/>
      <SimpleField name="height_ctrl" type="string"/>
      <SimpleField name="ctrl_place" type="string"/>
      <SimpleField name="mark_num" type="string"/>
      <SimpleField name="center_type" type="string"/>
      <SimpleField name="lvl_line" type="string"/>
      <SimpleField name="guid" type="string"/>
    </Schema>
    <Schema id="_70aef1c4.schema">
      <SimpleField name="title" type="string"/>
      <SimpleField name="type" type="string"/>
      <SimpleField name="ext_sign" type="string"/>
      <SimpleField name="class_lvl" type="string"/>
      <SimpleField name="height_lvl" type="string"/>
      <SimpleField name="height_ctrl" type="string"/>
      <SimpleField name="ctrl_place" type="string"/>
      <SimpleField name="mark_num" type="string"/>
      <SimpleField name="center_type" type="string"/>
      <SimpleField name="lvl_line" type="string"/>
      <SimpleField name="guid" type="string"/>
    </Schema>
    <Document id="_70aef1c4">
      <name>70aef1c4</name>
      <Placemark id="_70aef1c4.1">
        <description>Раз. 189 км, в 60 м к сев от жел дор., в 82 м к сев от вдкч</description>
        <ExtendedData>
          <SchemaData schemaUrl="#_70aef1c4.schema">
            <SimpleData name="title">б/№</SimpleData>
            <SimpleData name="type">грунтовый репер</SimpleData>
            <SimpleData name="class_lvl">2</SimpleData>
            <SimpleData name="height_lvl">407.227</SimpleData>
            <SimpleData name="center_type">118</SimpleData>
            <SimpleData name="lvl_line">Линия № 2: р. Кон - Разъезд 189 км, ІІ класс (3) Участок: грунт.реп. 2791 - фунд.реп. 499</SimpleData>
            <SimpleData name="guid">70aef1c4-599c-4f3a-80f6-426c55b8eb20</SimpleData>
          </SchemaData>
        </ExtendedData>
        <Point>
          <coordinates>
            70.4376037516016,48.5427623906815,0
          </coordinates>
        </Point>
      </Placemark>
    </Document>
  </Document>
</kml>
