<?xml version="1.0" encoding="utf-8" ?>
<kml xmlns="http://www.opengis.net/kml/2.2">
<Document id="root_doc">
<Schema name="7116c039" id="7116c039">
	<SimpleField name="title" type="string"></SimpleField>
	<SimpleField name="type" type="string"></SimpleField>
	<SimpleField name="ext_sign" type="string"></SimpleField>
	<SimpleField name="class_lvl" type="string"></SimpleField>
	<SimpleField name="height_lvl" type="string"></SimpleField>
	<SimpleField name="height_ctrl" type="string"></SimpleField>
	<SimpleField name="ctrl_place" type="string"></SimpleField>
	<SimpleField name="mark_num" type="string"></SimpleField>
	<SimpleField name="center_type" type="string"></SimpleField>
	<SimpleField name="lvl_line" type="string"></SimpleField>
	<SimpleField name="guid" type="string"></SimpleField>
</Schema>
<Folder><name>7116c039</name>
  <Placemark id="7116c039.1">
	<name>Шойтас</name>
	<description>пир. п.п.</description>
	<ExtendedData><SchemaData schemaUrl="#7116c039">
		<SimpleData name="type">1</SimpleData>
		<SimpleData name="ext_sign">544.855</SimpleData>
		<SimpleData name="height_ctrl">497</SimpleData>
		<SimpleData name="ctrl_place">3</SimpleData>
		<SimpleData name="mark_num">Линия  № 1: Сарыозек – Каракол (Пржевальск), I класс
Участок: грунт. реп.  520 – грунт.реп. 155</SimpleData>
		<SimpleData name="center_type">Коктал, с., в 8.0 км к юго-зап. от него, в 80 м к югу от км. стб. 300/60, в 60 м к юго-вост. от шоссе с. Коктал – с. Шонжы</SimpleData>
		<SimpleData name="lvl_line">7116c039-fde6-4ce4-af82-c8439dcfc132</SimpleData>
	</SchemaData></ExtendedData>
      <Point><coordinates>79.741277367351,44.0708325020801</coordinates></Point>
  </Placemark>
</Folder>
</Document></kml>
