<?xml version="1.0" encoding="utf-8" ?>
<kml xmlns="http://www.opengis.net/kml/2.2">
<Document id="root_doc">
<Schema name="7160d7bc" id="7160d7bc">
	<SimpleField name="title" type="string"></SimpleField>
	<SimpleField name="type" type="string"></SimpleField>
	<SimpleField name="ext_sign" type="string"></SimpleField>
	<SimpleField name="class_lvl" type="string"></SimpleField>
	<SimpleField name="height_lvl" type="string"></SimpleField>
	<SimpleField name="height_ctrl" type="string"></SimpleField>
	<SimpleField name="ctrl_place" type="string"></SimpleField>
	<SimpleField name="mark_num" type="string"></SimpleField>
	<SimpleField name="center_type" type="string"></SimpleField>
	<SimpleField name="lvl_line" type="string"></SimpleField>
	<SimpleField name="guid" type="string"></SimpleField>
</Schema>
<Folder><name>7160d7bc</name>
  <Placemark id="7160d7bc.1">
	<name>Закладка 1115</name>
	<ExtendedData><SchemaData schemaUrl="#7160d7bc">
		<SimpleData name="center_type">Сейлбек,с.,06 км вост от него, 0,5 км юго-зап. от мечети Каракожа,60 м к югу от асфальтной дороги идущий в мечеть Каракожа</SimpleData>
		<SimpleData name="lvl_line">7160d7bc-892d-4d97-b82e-02d7f360eedd</SimpleData>
	</SchemaData></ExtendedData>
      <Point><coordinates>70.9980566666667,43.8443783333333</coordinates></Point>
  </Placemark>
</Folder>
</Document></kml>
