<?xml version="1.0" encoding="utf-8" ?>
<kml xmlns="http://www.opengis.net/kml/2.2">
<Document id="root_doc">
<Schema name="7181a36e" id="7181a36e">
	<SimpleField name="title" type="string"></SimpleField>
	<SimpleField name="type" type="string"></SimpleField>
	<SimpleField name="ext_sign" type="string"></SimpleField>
	<SimpleField name="class_lvl" type="string"></SimpleField>
	<SimpleField name="height_lvl" type="string"></SimpleField>
	<SimpleField name="height_ctrl" type="string"></SimpleField>
	<SimpleField name="ctrl_place" type="string"></SimpleField>
	<SimpleField name="mark_num" type="string"></SimpleField>
	<SimpleField name="center_type" type="string"></SimpleField>
	<SimpleField name="lvl_line" type="string"></SimpleField>
	<SimpleField name="guid" type="string"></SimpleField>
</Schema>
<Folder><name>7181a36e</name>
  <Placemark id="7181a36e.1">
	<name>R053</name>
	<description>Грун.реп</description>
	<ExtendedData><SchemaData schemaUrl="#7181a36e">
		<SimpleData name="height_ctrl">R053</SimpleData>
		<SimpleData name="ctrl_place">162</SimpleData>
		<SimpleData name="lvl_line">7181a36e-3f89-45b6-a225-80817145b80f</SimpleData>
	</SchemaData></ExtendedData>
      <Point><coordinates>54.5647400376461,43.5205612022704</coordinates></Point>
  </Placemark>
</Folder>
</Document></kml>
