<?xml version="1.0" encoding="utf-8" ?>
<kml xmlns="http://www.opengis.net/kml/2.2">
<Document id="root_doc">
<Schema name="718525a8" id="718525a8">
	<SimpleField name="title" type="string"></SimpleField>
	<SimpleField name="type" type="string"></SimpleField>
	<SimpleField name="ext_sign" type="string"></SimpleField>
	<SimpleField name="class_lvl" type="string"></SimpleField>
	<SimpleField name="height_lvl" type="string"></SimpleField>
	<SimpleField name="height_ctrl" type="string"></SimpleField>
	<SimpleField name="ctrl_place" type="string"></SimpleField>
	<SimpleField name="mark_num" type="string"></SimpleField>
	<SimpleField name="center_type" type="string"></SimpleField>
	<SimpleField name="lvl_line" type="string"></SimpleField>
	<SimpleField name="guid" type="string"></SimpleField>
</Schema>
<Folder><name>718525a8</name>
  <Placemark id="718525a8.1">
	<name>1286</name>
	<description>скальный репер</description>
	<ExtendedData><SchemaData schemaUrl="#718525a8">
		<SimpleData name="type">2</SimpleData>
		<SimpleData name="ext_sign">1150.284</SimpleData>
		<SimpleData name="ctrl_place">99</SimpleData>
		<SimpleData name="mark_num">Линия: Шыганши-Бугаз-Белая-Школа-Боран-Улькен Нарын, II класс (2)
Участок: фунд.реп. 5491 – грунт.реп. 1486</SimpleData>
		<SimpleData name="center_type">Шердыаяк, с., в 4.6 км к вост. от него, в 50 м к зап. от трехножного пов.стб. ЛЭП, в 16 м к югу от полевой дороги, в 5 м к сев.-зап. от стб. ЛЭП №71/75</SimpleData>
		<SimpleData name="lvl_line">718525a8-8dca-4fff-80cf-a85592a947c7</SimpleData>
	</SchemaData></ExtendedData>
      <Point><coordinates>84.0820378075409,48.8286259080685</coordinates></Point>
  </Placemark>
</Folder>
</Document></kml>
