<?xml version="1.0" encoding="utf-8" ?>
<kml xmlns="http://www.opengis.net/kml/2.2">
<Document id="root_doc">
<Schema name="71897efb" id="71897efb">
	<SimpleField name="title" type="string"></SimpleField>
	<SimpleField name="type" type="string"></SimpleField>
	<SimpleField name="ext_sign" type="string"></SimpleField>
	<SimpleField name="class_lvl" type="string"></SimpleField>
	<SimpleField name="height_lvl" type="string"></SimpleField>
	<SimpleField name="height_ctrl" type="string"></SimpleField>
	<SimpleField name="ctrl_place" type="string"></SimpleField>
	<SimpleField name="mark_num" type="string"></SimpleField>
	<SimpleField name="center_type" type="string"></SimpleField>
	<SimpleField name="lvl_line" type="string"></SimpleField>
	<SimpleField name="guid" type="string"></SimpleField>
</Schema>
<Folder><name>71897efb</name>
  <Placemark id="71897efb.1">
	<name>9613</name>
	<ExtendedData><SchemaData schemaUrl="#71897efb">
		<SimpleData name="title">скальный репер</SimpleData>
		<SimpleData name="type">II</SimpleData>
		<SimpleData name="ext_sign">802,842</SimpleData>
		<SimpleData name="ctrl_place">99оп</SimpleData>
		<SimpleData name="mark_num">Линия №2: Актогай - Акчатау, II класс (1)  Участок: фунд.реп. 4072 - грунт. реп. 6736</SimpleData>
		<SimpleData name="center_type">Нуркен, с., в 10 км к сев.-вост. от него, в 0,3 км к сев. от ЛЭП, против стб. №374, в 30 м к сев. от дороги с. Актогай - с. Акчатау</SimpleData>
		<SimpleData name="lvl_line">71897efb-ee03-4f19-ab79-574952797ca1</SimpleData>
	</SchemaData></ExtendedData>
      <Point><coordinates>74.6780174312114,48.1607348971567</coordinates></Point>
  </Placemark>
</Folder>
</Document></kml>
