<?xml version="1.0" encoding="utf-8" ?>
<kml xmlns="http://www.opengis.net/kml/2.2">
<Document id="root_doc">
<Schema name="71a2a5fa" id="71a2a5fa">
	<SimpleField name="title" type="string"></SimpleField>
	<SimpleField name="type" type="string"></SimpleField>
	<SimpleField name="ext_sign" type="string"></SimpleField>
	<SimpleField name="class_lvl" type="string"></SimpleField>
	<SimpleField name="height_lvl" type="string"></SimpleField>
	<SimpleField name="height_ctrl" type="string"></SimpleField>
	<SimpleField name="ctrl_place" type="string"></SimpleField>
	<SimpleField name="mark_num" type="string"></SimpleField>
	<SimpleField name="center_type" type="string"></SimpleField>
	<SimpleField name="lvl_line" type="string"></SimpleField>
	<SimpleField name="guid" type="string"></SimpleField>
</Schema>
<Folder><name>71a2a5fa</name>
  <Placemark id="71a2a5fa.1">
	<name>Закладка 6009</name>
	<description>Грунтовый репер</description>
	<ExtendedData><SchemaData schemaUrl="#71a2a5fa">
		<SimpleData name="title">Грунтовый репер</SimpleData>
		<SimpleData name="type">II</SimpleData>
		<SimpleData name="height_ctrl">6009</SimpleData>
		<SimpleData name="ctrl_place">149</SimpleData>
		<SimpleData name="mark_num">121</SimpleData>
		<SimpleData name="center_type">Аксу-Аюлы,р.ц.,в 8.8км к сев-зап.от него, в 0.5км к югу от с.Кайракты , в 160м к сев-востоку трасса Аксу Аюлы-ст. Южный , 88м к сев-востоку полевая дорога , в сев-вос 30' ЛЭП №147</SimpleData>
		<SimpleData name="lvl_line">71a2a5fa-74cc-4914-aaad-4fb26f439cee</SimpleData>
	</SchemaData></ExtendedData>
      <Point><coordinates>73.60317949,48.83753818</coordinates></Point>
  </Placemark>
</Folder>
</Document></kml>
