<?xml version="1.0" encoding="utf-8" ?>
<kml xmlns="http://www.opengis.net/kml/2.2">
<Document id="root_doc">
<Schema name="71a895e3" id="71a895e3">
	<SimpleField name="title" type="string"></SimpleField>
	<SimpleField name="type" type="string"></SimpleField>
	<SimpleField name="ext_sign" type="string"></SimpleField>
	<SimpleField name="class_lvl" type="string"></SimpleField>
	<SimpleField name="height_lvl" type="string"></SimpleField>
	<SimpleField name="height_ctrl" type="string"></SimpleField>
	<SimpleField name="ctrl_place" type="string"></SimpleField>
	<SimpleField name="mark_num" type="string"></SimpleField>
	<SimpleField name="center_type" type="string"></SimpleField>
	<SimpleField name="lvl_line" type="string"></SimpleField>
	<SimpleField name="guid" type="string"></SimpleField>
</Schema>
<Folder><name>71a895e3</name>
  <Placemark id="71a895e3.1">
	<name>9497</name>
	<ExtendedData><SchemaData schemaUrl="#71a895e3">
		<SimpleData name="title">грунтовый репер</SimpleData>
		<SimpleData name="type">2</SimpleData>
		<SimpleData name="ext_sign">459,604</SimpleData>
		<SimpleData name="ctrl_place">160 оп. знак</SimpleData>
		<SimpleData name="mark_num">Линия № 2: Созак -               Туркистан, II класс (2) Участок: фунд. реп. 6972 - грунт. реп. 8059</SimpleData>
		<SimpleData name="center_type">Созак, с., в 14.5 км к юго-зап. от него,                      в 1.2 км к сев.-зап. от сух. р. Суйиндиксай,                в 22 м к сев.-зап. от грунт. дороги с. Созак - пер. Бажы</SimpleData>
		<SimpleData name="lvl_line">71a895e3-dff4-4244-802a-0535075cf2b0</SimpleData>
	</SchemaData></ExtendedData>
      <Point><coordinates>68.2980764138161,44.0728039861004</coordinates></Point>
  </Placemark>
</Folder>
</Document></kml>
