<?xml version="1.0" encoding="utf-8" ?>
<kml xmlns="http://www.opengis.net/kml/2.2">
<Document id="root_doc">
<Schema name="71d1cdbf" id="71d1cdbf">
	<SimpleField name="type" type="string"></SimpleField>
	<SimpleField name="view" type="string"></SimpleField>
	<SimpleField name="leveling_order" type="string"></SimpleField>
	<SimpleField name="leveling_height" type="string"></SimpleField>
	<SimpleField name="control_height" type="string"></SimpleField>
	<SimpleField name="benchmark_number" type="string"></SimpleField>
	<SimpleField name="control_location" type="string"></SimpleField>
	<SimpleField name="benchmark_type" type="string"></SimpleField>
	<SimpleField name="leveling_line_section" type="string"></SimpleField>
	<SimpleField name="location_description" type="string"></SimpleField>
	<SimpleField name="status" type="string"></SimpleField>
	<SimpleField name="guid" type="string"></SimpleField>
	<SimpleField name="kml" type="string"></SimpleField>
	<SimpleField name="kml_link" type="string"></SimpleField>
</Schema>
<Folder><name>71d1cdbf</name>
  <Placemark id="71d1cdbf.1">
	<name>6762</name>
	<name>грунтовый репер</name>
	<ExtendedData><SchemaData schemaUrl="#71d1cdbf">
		<SimpleData name="type">II</SimpleData>
		<SimpleData name="view">520.959</SimpleData>
		<SimpleData name="benchmark_number">146</SimpleData>
		<SimpleData name="control_location">Линия №27: пир. 4 кл. Связующий - марка 6, II класс (3)</SimpleData>
		<SimpleData name="benchmark_type">Бол.Михайловка, с., в 2.3 км к югу от него, в юго-вост. части южных отвалов</SimpleData>
		<SimpleData name="location_description">71d1cdbf-77cd-4bda-887d-9502d23beaa5</SimpleData>
		<SimpleData name="status">data/stations/71d1cdbf.kml</SimpleData>
		<SimpleData name="guid">&lt;a href='data/stations/71d1cdbf.kml' target='_blank'&gt;Download KML&lt;/a&gt;</SimpleData>
	</SchemaData></ExtendedData>
      <Point><coordinates>73.0603216553148,49.7257281150427</coordinates></Point>
  </Placemark>
</Folder>
</Document></kml>
