<?xml version="1.0" encoding="utf-8" ?>
<kml xmlns="http://www.opengis.net/kml/2.2">
<Document id="root_doc">
<Schema name="73521085" id="73521085">
	<SimpleField name="title" type="string"></SimpleField>
	<SimpleField name="type" type="string"></SimpleField>
	<SimpleField name="ext_sign" type="string"></SimpleField>
	<SimpleField name="class_lvl" type="string"></SimpleField>
	<SimpleField name="height_lvl" type="string"></SimpleField>
	<SimpleField name="height_ctrl" type="string"></SimpleField>
	<SimpleField name="ctrl_place" type="string"></SimpleField>
	<SimpleField name="mark_num" type="string"></SimpleField>
	<SimpleField name="center_type" type="string"></SimpleField>
	<SimpleField name="lvl_line" type="string"></SimpleField>
	<SimpleField name="guid" type="string"></SimpleField>
</Schema>
<Folder><name>73521085</name>
  <Placemark id="73521085.1">
	<name>4156</name>
	<ExtendedData><SchemaData schemaUrl="#73521085">
		<SimpleData name="title">грунтовый репер</SimpleData>
		<SimpleData name="type">2</SimpleData>
		<SimpleData name="ext_sign">400,14</SimpleData>
		<SimpleData name="ctrl_place">160 оп. знак</SimpleData>
		<SimpleData name="mark_num">Линия № 1: фунд. реп. 9617 - Актас, 2 класс (1) Участок: грунт, реп. 215 - грунт, реп. 0024</SimpleData>
		<SimpleData name="center_type">Кокиирим, к., в 25.8 км к юго-вост, от него, в 16.0 км к сев.-вост. от к. Ширик, в 10 м к югу от грунт, дороги зим. Бетпакдала - с. Мынарал</SimpleData>
		<SimpleData name="lvl_line">73521085-716e-4201-baa4-68873fb82c3b</SimpleData>
	</SchemaData></ExtendedData>
      <Point><coordinates>70.9516844429666,45.8465170927395</coordinates></Point>
  </Placemark>
</Folder>
</Document></kml>
