<?xml version="1.0" encoding="utf-8" ?>
<kml xmlns="http://www.opengis.net/kml/2.2">
<Document id="root_doc">
<Schema name="7411e2a0" id="7411e2a0">
	<SimpleField name="type" type="string"></SimpleField>
	<SimpleField name="view" type="string"></SimpleField>
	<SimpleField name="leveling_order" type="string"></SimpleField>
	<SimpleField name="leveling_height" type="string"></SimpleField>
	<SimpleField name="control_height" type="string"></SimpleField>
	<SimpleField name="benchmark_number" type="string"></SimpleField>
	<SimpleField name="control_location" type="string"></SimpleField>
	<SimpleField name="benchmark_type" type="string"></SimpleField>
	<SimpleField name="leveling_line_section" type="string"></SimpleField>
	<SimpleField name="location_description" type="string"></SimpleField>
	<SimpleField name="status" type="string"></SimpleField>
	<SimpleField name="guid" type="string"></SimpleField>
	<SimpleField name="kml" type="string"></SimpleField>
	<SimpleField name="kml_link" type="string"></SimpleField>
</Schema>
<Folder><name>7411e2a0</name>
  <Placemark id="7411e2a0.1">
	<name>5137</name>
	<name>грунтовый репер</name>
	<ExtendedData><SchemaData schemaUrl="#7411e2a0">
		<SimpleData name="type">II</SimpleData>
		<SimpleData name="view">785,442</SimpleData>
		<SimpleData name="benchmark_number">160оп</SimpleData>
		<SimpleData name="control_location">Линия № 1: Спасск -Акчатау, II класс (1) Участок: грунт.реп.5961 -фунд.реп.0870</SimpleData>
		<SimpleData name="benchmark_type">Батыстау, с., в 4,0 км к сев.-зап.от него, в 0,5 км к сев.от мог.Раис, в 0,2 км к зап.от шоссе Караганда-Балхаш, напротив км.стб. №179</SimpleData>
		<SimpleData name="location_description">7411e2a0-6831-47a9-a69a-45e7996f7111</SimpleData>
		<SimpleData name="status">data/stations/7411e2a0.kml</SimpleData>
		<SimpleData name="guid">&lt;a href='data/stations/7411e2a0.kml' target='_blank'&gt;Download KML&lt;/a&gt;</SimpleData>
	</SchemaData></ExtendedData>
      <Point><coordinates>73.7454252961738,48.3701489460011</coordinates></Point>
  </Placemark>
</Folder>
</Document></kml>
