<?xml version="1.0" encoding="utf-8" ?>
<kml xmlns="http://www.opengis.net/kml/2.2">
<Document id="root_doc">
<Schema name="74221139" id="74221139">
	<SimpleField name="type" type="string"></SimpleField>
	<SimpleField name="view" type="string"></SimpleField>
	<SimpleField name="leveling_order" type="string"></SimpleField>
	<SimpleField name="leveling_height" type="string"></SimpleField>
	<SimpleField name="control_height" type="string"></SimpleField>
	<SimpleField name="benchmark_number" type="string"></SimpleField>
	<SimpleField name="control_location" type="string"></SimpleField>
	<SimpleField name="benchmark_type" type="string"></SimpleField>
	<SimpleField name="leveling_line_section" type="string"></SimpleField>
	<SimpleField name="location_description" type="string"></SimpleField>
	<SimpleField name="status" type="string"></SimpleField>
	<SimpleField name="guid" type="string"></SimpleField>
	<SimpleField name="kml" type="string"></SimpleField>
	<SimpleField name="kml_link" type="string"></SimpleField>
</Schema>
<Folder><name>74221139</name>
  <Placemark id="74221139.1">
	<name>16549</name>
	<name>грунт. реп.</name>
	<ExtendedData><SchemaData schemaUrl="#74221139">
		<SimpleData name="type">2</SimpleData>
		<SimpleData name="view">795,887   </SimpleData>
		<SimpleData name="leveling_order">794,317   </SimpleData>
		<SimpleData name="control_height">репер №527 в верхней плоскости монолита</SimpleData>
		<SimpleData name="benchmark_number">121</SimpleData>
		<SimpleData name="control_location">Линия №1: Бугаз - Аягуз, 2 класс (2) Участок: ск. реп. 8 - грунт. реп. 15903</SimpleData>
		<SimpleData name="benchmark_type">Омербай, зим., в 15.5 км к сев.-зап. от неё, в 3.5 км к сев. от мог. Солтобай, в 0.1 км к сев. от р. Эспе</SimpleData>
		<SimpleData name="location_description">74221139-8298-41dc-8f9d-41cc1d0869a2</SimpleData>
		<SimpleData name="status">data/stations/74221139.kml</SimpleData>
		<SimpleData name="guid">&lt;a href='data/stations/74221139.kml' target='_blank'&gt;Download KML&lt;/a&gt;</SimpleData>
	</SchemaData></ExtendedData>
      <Point><coordinates>81.1406765448765,48.1755021591775</coordinates></Point>
  </Placemark>
</Folder>
</Document></kml>
