<?xml version="1.0" encoding="utf-8" ?>
<kml xmlns="http://www.opengis.net/kml/2.2">
<Document id="root_doc">
<Schema name="74a07adc" id="74a07adc">
	<SimpleField name="title" type="string"></SimpleField>
	<SimpleField name="type" type="string"></SimpleField>
	<SimpleField name="ext_sign" type="string"></SimpleField>
	<SimpleField name="class_lvl" type="string"></SimpleField>
	<SimpleField name="height_lvl" type="string"></SimpleField>
	<SimpleField name="height_ctrl" type="string"></SimpleField>
	<SimpleField name="ctrl_place" type="string"></SimpleField>
	<SimpleField name="mark_num" type="string"></SimpleField>
	<SimpleField name="center_type" type="string"></SimpleField>
	<SimpleField name="lvl_line" type="string"></SimpleField>
	<SimpleField name="guid" type="string"></SimpleField>
</Schema>
<Folder><name>74a07adc</name>
  <Placemark id="74a07adc.1">
	<name>3</name>
	<ExtendedData><SchemaData schemaUrl="#74a07adc">
		<SimpleData name="height_ctrl">2519</SimpleData>
		<SimpleData name="lvl_line">74a07adc-5df8-45d7-95f7-17facffbeb10</SimpleData>
	</SchemaData></ExtendedData>
      <Point><coordinates>54.0635283333333,47.0550416666667</coordinates></Point>
  </Placemark>
</Folder>
</Document></kml>
