<?xml version="1.0" encoding="utf-8" ?>
<kml xmlns="http://www.opengis.net/kml/2.2">
<Document id="root_doc">
<Schema name="74be3a25" id="74be3a25">
	<SimpleField name="type" type="string"></SimpleField>
	<SimpleField name="view" type="string"></SimpleField>
	<SimpleField name="leveling_order" type="string"></SimpleField>
	<SimpleField name="leveling_height" type="string"></SimpleField>
	<SimpleField name="control_height" type="string"></SimpleField>
	<SimpleField name="benchmark_number" type="string"></SimpleField>
	<SimpleField name="control_location" type="string"></SimpleField>
	<SimpleField name="benchmark_type" type="string"></SimpleField>
	<SimpleField name="leveling_line_section" type="string"></SimpleField>
	<SimpleField name="location_description" type="string"></SimpleField>
	<SimpleField name="status" type="string"></SimpleField>
	<SimpleField name="guid" type="string"></SimpleField>
	<SimpleField name="kml" type="string"></SimpleField>
	<SimpleField name="kml_link" type="string"></SimpleField>
</Schema>
<Folder><name>74be3a25</name>
  <Placemark id="74be3a25.1">
	<name>376</name>
	<description>грунт. реп.</description>
	<ExtendedData><SchemaData schemaUrl="#74be3a25">
		<SimpleData name="type">1</SimpleData>
		<SimpleData name="view">192.961</SimpleData>
		<SimpleData name="benchmark_number">160оп</SimpleData>
		<SimpleData name="control_location">Линиия №1: Целиноград - Кулунда, I класс (1). Участок: грунт. реп. 9029 - грунт. реп. 7725</SimpleData>
		<SimpleData name="benchmark_type">Породная I, станция, в 0,5 км к зап.от нее, в 0,9 км к сев.-зап. от жел.-дор. моста, в 0,1 км к югу от шоссе ГРЭС-1=гор.Экибастуз</SimpleData>
		<SimpleData name="location_description">74be3a25-e744-473a-b133-19e30474f33d</SimpleData>
		<SimpleData name="status">data/stations/74be3a25.kml</SimpleData>
		<SimpleData name="guid">&lt;a href='data/stations/74be3a25.kml' target='_blank'&gt;Download KML&lt;/a&gt;</SimpleData>
	</SchemaData></ExtendedData>
      <Point><coordinates>75.3475677645666,51.7626952906805</coordinates></Point>
  </Placemark>
</Folder>
</Document></kml>
