<?xml version="1.0" encoding="utf-8" ?>
<kml xmlns="http://www.opengis.net/kml/2.2">
<Document id="root_doc">
<Schema name="74d904e3" id="74d904e3">
	<SimpleField name="title" type="string"></SimpleField>
	<SimpleField name="type" type="string"></SimpleField>
	<SimpleField name="ext_sign" type="string"></SimpleField>
	<SimpleField name="class_lvl" type="string"></SimpleField>
	<SimpleField name="height_lvl" type="string"></SimpleField>
	<SimpleField name="height_ctrl" type="string"></SimpleField>
	<SimpleField name="ctrl_place" type="string"></SimpleField>
	<SimpleField name="mark_num" type="string"></SimpleField>
	<SimpleField name="center_type" type="string"></SimpleField>
	<SimpleField name="lvl_line" type="string"></SimpleField>
	<SimpleField name="guid" type="string"></SimpleField>
</Schema>
<Folder><name>74d904e3</name>
  <Placemark id="74d904e3.1">
	<name>1023</name>
	<description>грунтовый репер</description>
	<ExtendedData><SchemaData schemaUrl="#74d904e3">
		<SimpleData name="type">1</SimpleData>
		<SimpleData name="ext_sign">368,538</SimpleData>
		<SimpleData name="ctrl_place">160 оп,зн</SimpleData>
		<SimpleData name="mark_num">Линия № 1: Тюемойнак - Торетоган, I класс (1) Участок: грунт, реп, 2929 - грунт,реп, 1029</SimpleData>
		<SimpleData name="center_type">Сатыбалды, к,, в 6,3 км к юго-вост, от него, в 0,9 км к сев,-зап, от такыра, в 48 м к югу от развилки полевой дороги</SimpleData>
		<SimpleData name="lvl_line">74d904e3-3111-42b9-894e-285a7dd7faaf</SimpleData>
	</SchemaData></ExtendedData>
      <Point><coordinates>69.3880709074453,46.5432968311243</coordinates></Point>
  </Placemark>
</Folder>
</Document></kml>
