<?xml version="1.0" encoding="utf-8" ?>
<kml xmlns="http://www.opengis.net/kml/2.2">
<Document id="root_doc">
<Schema name="74f11b68" id="74f11b68">
	<SimpleField name="type" type="string"></SimpleField>
	<SimpleField name="view" type="string"></SimpleField>
	<SimpleField name="leveling_order" type="string"></SimpleField>
	<SimpleField name="leveling_height" type="string"></SimpleField>
	<SimpleField name="control_height" type="string"></SimpleField>
	<SimpleField name="benchmark_number" type="string"></SimpleField>
	<SimpleField name="control_location" type="string"></SimpleField>
	<SimpleField name="benchmark_type" type="string"></SimpleField>
	<SimpleField name="leveling_line_section" type="string"></SimpleField>
	<SimpleField name="location_description" type="string"></SimpleField>
	<SimpleField name="status" type="string"></SimpleField>
	<SimpleField name="guid" type="string"></SimpleField>
	<SimpleField name="kml" type="string"></SimpleField>
	<SimpleField name="kml_link" type="string"></SimpleField>
</Schema>
<Folder><name>74f11b68</name>
  <Placemark id="74f11b68.1">
	<name>0459</name>
	<name>фунд. реп.</name>
	<ExtendedData><SchemaData schemaUrl="#74f11b68">
		<SimpleData name="type">II</SimpleData>
		<SimpleData name="view">322,810</SimpleData>
		<SimpleData name="leveling_order">321,229</SimpleData>
		<SimpleData name="control_height">Контрольный репер № 0439 в фундаментной плите</SimpleData>
		<SimpleData name="benchmark_number">161оп</SimpleData>
		<SimpleData name="control_location">Линия № 6: Коржунколь-Степное, II класс (2)    Участок: ск. реп. 1-грунт. реп. 1231</SimpleData>
		<SimpleData name="benchmark_type">Коржынколь, станц., в 0,5 км к юго-зап. от нее, в 0,4 км к зап. от жел. дор. полотна, в 0,2 км к сев. от скал</SimpleData>
		<SimpleData name="location_description">74f11b68-17ae-4019-81df-a60552c00ddd</SimpleData>
		<SimpleData name="status">data/stations/74f11b68.kml</SimpleData>
		<SimpleData name="guid">&lt;a href='data/stations/74f11b68.kml' target='_blank'&gt;Download KML&lt;/a&gt;</SimpleData>
	</SchemaData></ExtendedData>
      <Point><coordinates>73.4050234038664,51.5831999442098</coordinates></Point>
  </Placemark>
</Folder>
</Document></kml>
