<?xml version="1.0" encoding="utf-8" ?>
<kml xmlns="http://www.opengis.net/kml/2.2">
<Document id="root_doc">
<Schema name="74fcd452" id="74fcd452">
	<SimpleField name="type" type="string"></SimpleField>
	<SimpleField name="view" type="string"></SimpleField>
	<SimpleField name="leveling_order" type="string"></SimpleField>
	<SimpleField name="leveling_height" type="string"></SimpleField>
	<SimpleField name="control_height" type="string"></SimpleField>
	<SimpleField name="benchmark_number" type="string"></SimpleField>
	<SimpleField name="control_location" type="string"></SimpleField>
	<SimpleField name="benchmark_type" type="string"></SimpleField>
	<SimpleField name="leveling_line_section" type="string"></SimpleField>
	<SimpleField name="location_description" type="string"></SimpleField>
	<SimpleField name="status" type="string"></SimpleField>
	<SimpleField name="guid" type="string"></SimpleField>
	<SimpleField name="kml" type="string"></SimpleField>
	<SimpleField name="kml_link" type="string"></SimpleField>
</Schema>
<Folder><name>74fcd452</name>
  <Placemark id="74fcd452.1">
	<name>2169</name>
	<name>грунт,реп,</name>
	<ExtendedData><SchemaData schemaUrl="#74fcd452">
		<SimpleData name="type">I</SimpleData>
		<SimpleData name="view">273.751</SimpleData>
		<SimpleData name="benchmark_number">160 оп</SimpleData>
		<SimpleData name="control_location">Линия №1:Целиноград - Амангельды, I класс (I) участок: грунт,реп,2386 - грунт,реп,2217</SimpleData>
		<SimpleData name="benchmark_type">Валиханова,с,,в 14,2 км к зап,от него,в 0,3 км к юго-зап,от полевого стана,в 0,1 км к югу от пруда </SimpleData>
		<SimpleData name="location_description">74fcd452-a9bb-4162-b3fb-5dfcd863be0f</SimpleData>
		<SimpleData name="status">data/stations/74fcd452.kml</SimpleData>
		<SimpleData name="guid">&lt;a href='data/stations/74fcd452.kml' target='_blank'&gt;Download KML&lt;/a&gt;</SimpleData>
	</SchemaData></ExtendedData>
      <Point><coordinates>66.252789973432,50.9196407831174</coordinates></Point>
  </Placemark>
</Folder>
</Document></kml>
