<?xml version="1.0" encoding="utf-8" ?>
<kml xmlns="http://www.opengis.net/kml/2.2">
<Document id="root_doc">
<Schema name="7505a5b3" id="7505a5b3">
	<SimpleField name="type" type="string"></SimpleField>
	<SimpleField name="view" type="string"></SimpleField>
	<SimpleField name="leveling_order" type="string"></SimpleField>
	<SimpleField name="leveling_height" type="string"></SimpleField>
	<SimpleField name="control_height" type="string"></SimpleField>
	<SimpleField name="benchmark_number" type="string"></SimpleField>
	<SimpleField name="control_location" type="string"></SimpleField>
	<SimpleField name="benchmark_type" type="string"></SimpleField>
	<SimpleField name="leveling_line_section" type="string"></SimpleField>
	<SimpleField name="location_description" type="string"></SimpleField>
	<SimpleField name="status" type="string"></SimpleField>
	<SimpleField name="guid" type="string"></SimpleField>
	<SimpleField name="kml" type="string"></SimpleField>
	<SimpleField name="kml_link" type="string"></SimpleField>
</Schema>
<Folder><name>7505a5b3</name>
  <Placemark id="7505a5b3.1">
	<name>5156</name>
	<name>грунт. реп. </name>
	<ExtendedData><SchemaData schemaUrl="#7505a5b3">
		<SimpleData name="type">1</SimpleData>
		<SimpleData name="view">416.244</SimpleData>
		<SimpleData name="benchmark_number">160 оп. знак</SimpleData>
		<SimpleData name="control_location">Линия № 2: оз. Жаланашколь-Аягоз, I класс (1), Участок: фунд. реп. 707-грунт. реп. 3737</SimpleData>
		<SimpleData name="benchmark_type">Узынбулак, зим., в 2.4 км к юго-вост. от нее, в 80 м к сев.-вост. от км. стб. 108/28 шоссе с. Маканши-станнц. Жаланашколь, в 63 м к вост. от шоссе, в 50 м к югу от стб. ЛЭП </SimpleData>
		<SimpleData name="location_description">7505a5b3-e710-4e0b-97a9-9ce31073af2a</SimpleData>
		<SimpleData name="status">data/stations/7505a5b3.kml</SimpleData>
		<SimpleData name="guid">&lt;a href='data/stations/7505a5b3.kml' target='_blank'&gt;Download KML&lt;/a&gt;</SimpleData>
	</SchemaData></ExtendedData>
      <Point><coordinates>82.1947373589849,45.8180676295802</coordinates></Point>
  </Placemark>
</Folder>
</Document></kml>
