<?xml version="1.0" encoding="utf-8" ?>
<kml xmlns="http://www.opengis.net/kml/2.2">
<Document id="root_doc">
<Schema name="756baee7" id="756baee7">
	<SimpleField name="type" type="string"></SimpleField>
	<SimpleField name="view" type="string"></SimpleField>
	<SimpleField name="leveling_order" type="string"></SimpleField>
	<SimpleField name="leveling_height" type="string"></SimpleField>
	<SimpleField name="control_height" type="string"></SimpleField>
	<SimpleField name="benchmark_number" type="string"></SimpleField>
	<SimpleField name="control_location" type="string"></SimpleField>
	<SimpleField name="benchmark_type" type="string"></SimpleField>
	<SimpleField name="leveling_line_section" type="string"></SimpleField>
	<SimpleField name="location_description" type="string"></SimpleField>
	<SimpleField name="status" type="string"></SimpleField>
	<SimpleField name="guid" type="string"></SimpleField>
	<SimpleField name="kml" type="string"></SimpleField>
	<SimpleField name="kml_link" type="string"></SimpleField>
</Schema>
<Folder><name>756baee7</name>
  <Placemark id="756baee7.1">
	<name>91759</name>
	<description>грунт. реп.</description>
	<ExtendedData><SchemaData schemaUrl="#756baee7">
		<SimpleData name="type">1</SimpleData>
		<SimpleData name="view">653.223</SimpleData>
		<SimpleData name="leveling_order">651,523</SimpleData>
		<SimpleData name="control_height">Контрольный репер № 1327 в верхней плоскости монолита</SimpleData>
		<SimpleData name="benchmark_number">121 оп</SimpleData>
		<SimpleData name="control_location">Участок: ск.реп.20341-фунд.реп.89</SimpleData>
		<SimpleData name="benchmark_type">Дарья, станц., в 9.5 км к юго-зап. от нее, на 10 ПК 834 км, в 69 м к воет, от ж.д. полотна</SimpleData>
		<SimpleData name="leveling_line_section">не найден по тех. отчёту</SimpleData>
		<SimpleData name="location_description">756baee7-33b6-4f3f-a23f-9ced38a8cacd</SimpleData>
		<SimpleData name="status">data/stations/756baee7.kml</SimpleData>
		<SimpleData name="guid">&lt;a href='data/stations/756baee7.kml' target='_blank'&gt;Download KML&lt;/a&gt;</SimpleData>
	</SchemaData></ExtendedData>
      <Point><coordinates>72.8623432289249,49.0190323370559</coordinates></Point>
  </Placemark>
</Folder>
</Document></kml>
