<?xml version="1.0" encoding="utf-8" ?>
<kml xmlns="http://www.opengis.net/kml/2.2">
<Document id="root_doc">
<Schema name="757358f0" id="757358f0">
	<SimpleField name="type" type="string"></SimpleField>
	<SimpleField name="view" type="string"></SimpleField>
	<SimpleField name="leveling_order" type="string"></SimpleField>
	<SimpleField name="leveling_height" type="string"></SimpleField>
	<SimpleField name="control_height" type="string"></SimpleField>
	<SimpleField name="benchmark_number" type="string"></SimpleField>
	<SimpleField name="control_location" type="string"></SimpleField>
	<SimpleField name="benchmark_type" type="string"></SimpleField>
	<SimpleField name="leveling_line_section" type="string"></SimpleField>
	<SimpleField name="location_description" type="string"></SimpleField>
	<SimpleField name="status" type="string"></SimpleField>
	<SimpleField name="guid" type="string"></SimpleField>
	<SimpleField name="kml" type="string"></SimpleField>
	<SimpleField name="kml_link" type="string"></SimpleField>
</Schema>
<Folder><name>757358f0</name>
  <Placemark id="757358f0.1">
	<name>7719</name>
	<name>грунтовый репер</name>
	<ExtendedData><SchemaData schemaUrl="#757358f0">
		<SimpleData name="type">II</SimpleData>
		<SimpleData name="view">128,323</SimpleData>
		<SimpleData name="benchmark_number">160оп</SimpleData>
		<SimpleData name="control_location">Линия №2: Семиярск - Павлодар, II класс (1) Участок: грунт. реп. 2660 - грунт. реп. 8101</SimpleData>
		<SimpleData name="benchmark_type">Черное, с., в 0,4 км к сев.-вост. от него, в 0,2 км к юго-зап. от заправочной станц., в 70 м к зап. от угла ограды электроподстанции</SimpleData>
		<SimpleData name="leveling_line_section">утрачен</SimpleData>
		<SimpleData name="location_description">757358f0-8ff7-4e0d-8e45-c63e35c634ab</SimpleData>
		<SimpleData name="status">data/stations/757358f0.kml</SimpleData>
		<SimpleData name="guid">&lt;a href='data/stations/757358f0.kml' target='_blank'&gt;Download KML&lt;/a&gt;</SimpleData>
	</SchemaData></ExtendedData>
      <Point><coordinates>77.5422906291385,51.7262906583346</coordinates></Point>
  </Placemark>
</Folder>
</Document></kml>
