<?xml version="1.0" encoding="utf-8" ?>
<kml xmlns="http://www.opengis.net/kml/2.2">
<Document id="root_doc">
<Schema name="7615f86e" id="7615f86e">
	<SimpleField name="title" type="string"></SimpleField>
	<SimpleField name="type" type="string"></SimpleField>
	<SimpleField name="ext_sign" type="string"></SimpleField>
	<SimpleField name="class_lvl" type="string"></SimpleField>
	<SimpleField name="height_lvl" type="string"></SimpleField>
	<SimpleField name="height_ctrl" type="string"></SimpleField>
	<SimpleField name="ctrl_place" type="string"></SimpleField>
	<SimpleField name="mark_num" type="string"></SimpleField>
	<SimpleField name="center_type" type="string"></SimpleField>
	<SimpleField name="lvl_line" type="string"></SimpleField>
	<SimpleField name="guid" type="string"></SimpleField>
</Schema>
<Folder><name>7615f86e</name>
  <Placemark id="7615f86e.1">
	<name>116</name>
	<ExtendedData><SchemaData schemaUrl="#7615f86e">
		<SimpleData name="title">грунт.реп.</SimpleData>
		<SimpleData name="type">2</SimpleData>
		<SimpleData name="ext_sign">262.61</SimpleData>
		<SimpleData name="class_lvl">261.235</SimpleData>
		<SimpleData name="height_lvl">Контрольный репер в фундаментной плите</SimpleData>
		<SimpleData name="ctrl_place">116</SimpleData>
		<SimpleData name="mark_num">Линия №1: Сагиз-Бегимбет, II класс  Участок: грунт.реп.8-пир.2кл.Кызылеспе-Кумкудук Нов.</SimpleData>
		<SimpleData name="center_type">Ащиколь, оз., в 5.7км к юго-вост от него, в 2.6 км к сев.-вост от могилы, в 0.3 км к сев-зап от полевой дороги</SimpleData>
		<SimpleData name="lvl_line">7615f86e-056d-4eb8-9637-4f92fe908f87</SimpleData>
	</SchemaData></ExtendedData>
      <Point><coordinates>57.3729416714527,47.8510059718415</coordinates></Point>
  </Placemark>
</Folder>
</Document></kml>
