<?xml version="1.0" encoding="utf-8" ?>
<kml xmlns="http://www.opengis.net/kml/2.2">
<Document id="root_doc">
<Schema name="7618ab49" id="7618ab49">
	<SimpleField name="title" type="string"></SimpleField>
	<SimpleField name="type" type="string"></SimpleField>
	<SimpleField name="ext_sign" type="string"></SimpleField>
	<SimpleField name="class_lvl" type="string"></SimpleField>
	<SimpleField name="height_lvl" type="string"></SimpleField>
	<SimpleField name="height_ctrl" type="string"></SimpleField>
	<SimpleField name="ctrl_place" type="string"></SimpleField>
	<SimpleField name="mark_num" type="string"></SimpleField>
	<SimpleField name="center_type" type="string"></SimpleField>
	<SimpleField name="lvl_line" type="string"></SimpleField>
	<SimpleField name="guid" type="string"></SimpleField>
</Schema>
<Folder><name>7618ab49</name>
  <Placemark id="7618ab49.1">
	<name>2942</name>
	<description>грунтовый репер</description>
	<ExtendedData><SchemaData schemaUrl="#7618ab49">
		<SimpleData name="type">1</SimpleData>
		<SimpleData name="ext_sign">31,043 </SimpleData>
		<SimpleData name="ctrl_place">160</SimpleData>
		<SimpleData name="mark_num">Линия: Сызрань- Верхний Баскунчак, I класс       Участок: грунт.реп. 3893 – фунд.реп. 7</SimpleData>
		<SimpleData name="center_type">Шонгай, ст., в 3,6 км к югу от нее, на 3/4 пикете 1253 км, в 80 м к сев.-вост. от семафора, в 40 м к вост. от железнодорожного полотна.</SimpleData>
		<SimpleData name="lvl_line">7618ab49-d70e-48b4-a832-31d04ffa0d01</SimpleData>
	</SchemaData></ExtendedData>
      <Point><coordinates>46.7562931871126,48.5109636001273</coordinates></Point>
  </Placemark>
</Folder>
</Document></kml>
