<?xml version="1.0" encoding="utf-8" ?>
<kml xmlns="http://www.opengis.net/kml/2.2">
<Document id="root_doc">
<Schema name="7627401b" id="7627401b">
	<SimpleField name="title" type="string"></SimpleField>
	<SimpleField name="type" type="string"></SimpleField>
	<SimpleField name="ext_sign" type="string"></SimpleField>
	<SimpleField name="class_lvl" type="string"></SimpleField>
	<SimpleField name="height_lvl" type="string"></SimpleField>
	<SimpleField name="height_ctrl" type="string"></SimpleField>
	<SimpleField name="ctrl_place" type="string"></SimpleField>
	<SimpleField name="mark_num" type="string"></SimpleField>
	<SimpleField name="center_type" type="string"></SimpleField>
	<SimpleField name="lvl_line" type="string"></SimpleField>
	<SimpleField name="guid" type="string"></SimpleField>
</Schema>
<Folder><name>7627401b</name>
  <Placemark id="7627401b.1">
	<name>8125</name>
	<description>грунтовый репер</description>
	<ExtendedData><SchemaData schemaUrl="#7627401b">
		<SimpleData name="type">1</SimpleData>
		<SimpleData name="ext_sign">84.300</SimpleData>
		<SimpleData name="ctrl_place">160 оп</SimpleData>
		<SimpleData name="mark_num">Линия №185 : Аральск - Семиозерное , I класс . Участок : грунт. Реп. 2189-грунт. Реп. 32</SimpleData>
		<SimpleData name="center_type">Иргиз, с., в 44.6 км к югу от него, в 3.6 км к юго-зап. от оз. Кокколь, в 11 м к зап. от дороги гор. Аральск-с. Иргиз</SimpleData>
		<SimpleData name="lvl_line">7627401b-1147-4345-9f8c-7cf107d6c5da</SimpleData>
	</SchemaData></ExtendedData>
      <Point><coordinates>61.2589447006259,48.2566967836284</coordinates></Point>
  </Placemark>
</Folder>
</Document></kml>
