<?xml version="1.0" encoding="utf-8" ?>
<kml xmlns="http://www.opengis.net/kml/2.2">
<Document id="root_doc">
<Schema name="7685cf9f" id="7685cf9f">
	<SimpleField name="type" type="string"></SimpleField>
	<SimpleField name="view" type="string"></SimpleField>
	<SimpleField name="leveling_order" type="string"></SimpleField>
	<SimpleField name="leveling_height" type="string"></SimpleField>
	<SimpleField name="control_height" type="string"></SimpleField>
	<SimpleField name="benchmark_number" type="string"></SimpleField>
	<SimpleField name="control_location" type="string"></SimpleField>
	<SimpleField name="benchmark_type" type="string"></SimpleField>
	<SimpleField name="leveling_line_section" type="string"></SimpleField>
	<SimpleField name="location_description" type="string"></SimpleField>
	<SimpleField name="status" type="string"></SimpleField>
	<SimpleField name="guid" type="string"></SimpleField>
	<SimpleField name="kml" type="string"></SimpleField>
	<SimpleField name="kml_link" type="string"></SimpleField>
</Schema>
<Folder><name>7685cf9f</name>
  <Placemark id="7685cf9f.1">
	<name>12</name>
	<name>грунт.реп.</name>
	<ExtendedData><SchemaData schemaUrl="#7685cf9f">
		<SimpleData name="type">2</SimpleData>
		<SimpleData name="view">477.193</SimpleData>
		<SimpleData name="leveling_order">476.057</SimpleData>
		<SimpleData name="control_height">в верхней плоскости монолита</SimpleData>
		<SimpleData name="benchmark_number">121</SimpleData>
		<SimpleData name="control_location">Линия № 1 :       Каракас - Буран,              II класс(2);  Участок : грунт.реп. 1 - грунт.реп. 15</SimpleData>
		<SimpleData name="benchmark_type">Акший, с., в 4,5 км к юго-вост. от него, в 3,0 км к юго-вост. от мог. Жубас, в 6 м к сев. от полевой дороги                             мог. Жубас - с. Такыр</SimpleData>
		<SimpleData name="leveling_line_section">урачен в сводном каталоге       М-45-XXXI (Калгуты)</SimpleData>
		<SimpleData name="location_description">7685cf9f-7f64-4073-872f-999b89b535be</SimpleData>
		<SimpleData name="status">data/stations/7685cf9f.kml</SimpleData>
		<SimpleData name="guid">&lt;a href='data/stations/7685cf9f.kml' target='_blank'&gt;Download KML&lt;/a&gt;</SimpleData>
	</SchemaData></ExtendedData>
      <Point><coordinates>84.3920223432729,48.3151171129549</coordinates></Point>
  </Placemark>
</Folder>
</Document></kml>
