<?xml version="1.0" encoding="utf-8" ?>
<kml xmlns="http://www.opengis.net/kml/2.2">
<Document id="root_doc">
<Schema name="76b5946c" id="76b5946c">
	<SimpleField name="title" type="string"></SimpleField>
	<SimpleField name="type" type="string"></SimpleField>
	<SimpleField name="ext_sign" type="string"></SimpleField>
	<SimpleField name="class_lvl" type="string"></SimpleField>
	<SimpleField name="height_lvl" type="string"></SimpleField>
	<SimpleField name="height_ctrl" type="string"></SimpleField>
	<SimpleField name="ctrl_place" type="string"></SimpleField>
	<SimpleField name="mark_num" type="string"></SimpleField>
	<SimpleField name="center_type" type="string"></SimpleField>
	<SimpleField name="lvl_line" type="string"></SimpleField>
	<SimpleField name="guid" type="string"></SimpleField>
</Schema>
<Folder><name>76b5946c</name>
  <Placemark id="76b5946c.1">
	<name>6103</name>
	<description>Фундаментальный </description>
	<ExtendedData><SchemaData schemaUrl="#76b5946c">
		<SimpleData name="height_ctrl">6103</SimpleData>
		<SimpleData name="lvl_line">76b5946c-6e3a-4a41-a188-a79697556a69</SimpleData>
	</SchemaData></ExtendedData>
      <Point><coordinates>73.9817166666667,45.0263066666667</coordinates></Point>
  </Placemark>
</Folder>
</Document></kml>
