<?xml version="1.0" encoding="utf-8" ?>
<kml xmlns="http://www.opengis.net/kml/2.2">
<Document id="root_doc">
<Schema name="76df6435" id="76df6435">
	<SimpleField name="type" type="string"></SimpleField>
	<SimpleField name="view" type="string"></SimpleField>
	<SimpleField name="leveling_order" type="string"></SimpleField>
	<SimpleField name="leveling_height" type="string"></SimpleField>
	<SimpleField name="control_height" type="string"></SimpleField>
	<SimpleField name="benchmark_number" type="string"></SimpleField>
	<SimpleField name="control_location" type="string"></SimpleField>
	<SimpleField name="benchmark_type" type="string"></SimpleField>
	<SimpleField name="leveling_line_section" type="string"></SimpleField>
	<SimpleField name="location_description" type="string"></SimpleField>
	<SimpleField name="status" type="string"></SimpleField>
	<SimpleField name="guid" type="string"></SimpleField>
	<SimpleField name="kml" type="string"></SimpleField>
	<SimpleField name="kml_link" type="string"></SimpleField>
</Schema>
<Folder><name>76df6435</name>
  <Placemark id="76df6435.1">
	<name>22</name>
	<description>грунт. реп.</description>
	<ExtendedData><SchemaData schemaUrl="#76df6435">
		<SimpleData name="type">2</SimpleData>
		<SimpleData name="view">127.626</SimpleData>
		<SimpleData name="leveling_order">126,079</SimpleData>
		<SimpleData name="benchmark_number">131 оп</SimpleData>
		<SimpleData name="control_location">Линия № 7: Тургай - Кызылуй, II класс  Участок: марка 20890 - грунт.реп. 318</SimpleData>
		<SimpleData name="benchmark_type">Тургай, с.,  в 24.0 км к юго-вост. от него,  в 9.6 км к сев. от оз. Алаколь, в 30 м к юго-зап.  дороги с. Тургай - с. Збан </SimpleData>
		<SimpleData name="location_description">76df6435-f24a-40a7-8627-538c16157da1</SimpleData>
		<SimpleData name="status">data/stations/76df6435.kml</SimpleData>
		<SimpleData name="guid">&lt;a href='data/stations/76df6435.kml' target='_blank'&gt;Download KML&lt;/a&gt;</SimpleData>
	</SchemaData></ExtendedData>
      <Point><coordinates>63.6912686829915,49.4485048675806</coordinates></Point>
  </Placemark>
</Folder>
</Document></kml>
