<?xml version="1.0" encoding="utf-8" ?>
<kml xmlns="http://www.opengis.net/kml/2.2">
<Document id="root_doc">
<Schema name="76e5642e" id="76e5642e">
	<SimpleField name="type" type="string"></SimpleField>
	<SimpleField name="view" type="string"></SimpleField>
	<SimpleField name="leveling_order" type="string"></SimpleField>
	<SimpleField name="leveling_height" type="string"></SimpleField>
	<SimpleField name="control_height" type="string"></SimpleField>
	<SimpleField name="benchmark_number" type="string"></SimpleField>
	<SimpleField name="control_location" type="string"></SimpleField>
	<SimpleField name="benchmark_type" type="string"></SimpleField>
	<SimpleField name="leveling_line_section" type="string"></SimpleField>
	<SimpleField name="location_description" type="string"></SimpleField>
	<SimpleField name="status" type="string"></SimpleField>
	<SimpleField name="guid" type="string"></SimpleField>
	<SimpleField name="kml" type="string"></SimpleField>
	<SimpleField name="kml_link" type="string"></SimpleField>
</Schema>
<Folder><name>76e5642e</name>
  <Placemark id="76e5642e.1">
	<name>130</name>
	<name>грунт. реп.</name>
	<ExtendedData><SchemaData schemaUrl="#76e5642e">
		<SimpleData name="type">2</SimpleData>
		<SimpleData name="view">593,401</SimpleData>
		<SimpleData name="leveling_order">592,063</SimpleData>
		<SimpleData name="control_height">репер № 692 в фундамент ной плите</SimpleData>
		<SimpleData name="benchmark_number">116</SimpleData>
		<SimpleData name="control_location">Линия №2: Жангиз- Тобе- Ак- Булак, II класс (2) Участок: грунт. реп. 511- фунд.реп. 274</SimpleData>
		<SimpleData name="benchmark_type">Бельтерек, с., в 7,0 км к юго- зап. от него, в 0,3км к сев. от полевой дороги, в 50м к вост. от русла</SimpleData>
		<SimpleData name="location_description">76e5642e-d771-428b-819d-792645c1d213</SimpleData>
		<SimpleData name="status">data/stations/76e5642e.kml</SimpleData>
		<SimpleData name="guid">&lt;a href='data/stations/76e5642e.kml' target='_blank'&gt;Download KML&lt;/a&gt;</SimpleData>
	</SchemaData></ExtendedData>
      <Point><coordinates>80.6275864425161,49.2046347407105</coordinates></Point>
  </Placemark>
</Folder>
</Document></kml>
