<?xml version="1.0" encoding="utf-8" ?>
<kml xmlns="http://www.opengis.net/kml/2.2">
<Document id="root_doc">
<Schema name="77668e0c" id="77668e0c">
	<SimpleField name="type" type="string"></SimpleField>
	<SimpleField name="view" type="string"></SimpleField>
	<SimpleField name="leveling_order" type="string"></SimpleField>
	<SimpleField name="leveling_height" type="string"></SimpleField>
	<SimpleField name="control_height" type="string"></SimpleField>
	<SimpleField name="benchmark_number" type="string"></SimpleField>
	<SimpleField name="control_location" type="string"></SimpleField>
	<SimpleField name="benchmark_type" type="string"></SimpleField>
	<SimpleField name="leveling_line_section" type="string"></SimpleField>
	<SimpleField name="location_description" type="string"></SimpleField>
	<SimpleField name="status" type="string"></SimpleField>
	<SimpleField name="guid" type="string"></SimpleField>
	<SimpleField name="kml" type="string"></SimpleField>
	<SimpleField name="kml_link" type="string"></SimpleField>
</Schema>
<Folder><name>77668e0c</name>
  <Placemark id="77668e0c.1">
	<name>3654</name>
	<name>грунт. реп.</name>
	<ExtendedData><SchemaData schemaUrl="#77668e0c">
		<SimpleData name="type">2</SimpleData>
		<SimpleData name="view">223.602</SimpleData>
		<SimpleData name="benchmark_number">121 оп</SimpleData>
		<SimpleData name="control_location">Линия №4: Амангельды - Байконур, II класс. Участок: фунд. реп. 3827 - грунт. реп. 1765</SimpleData>
		<SimpleData name="benchmark_type">Дулыгалинская Мечеть, с., в 12.6 км к сев.-зап. от него, в 1.1 км к зап. от р. Терисбутак, в 35 м к зап. от дороги с. Рахмет - с. Байконур</SimpleData>
		<SimpleData name="location_description">77668e0c-315e-4ffd-a327-83a008443236</SimpleData>
		<SimpleData name="status">data/stations/77668e0c.kml</SimpleData>
		<SimpleData name="guid">&lt;a href='data/stations/77668e0c.kml' target='_blank'&gt;Download KML&lt;/a&gt;</SimpleData>
	</SchemaData></ExtendedData>
      <Point><coordinates>65.5938021443833,48.6192760359926</coordinates></Point>
  </Placemark>
</Folder>
</Document></kml>
