<?xml version="1.0" encoding="utf-8" ?>
<kml xmlns="http://www.opengis.net/kml/2.2">
<Document id="root_doc">
<Schema name="77832b25" id="77832b25">
	<SimpleField name="type" type="string"></SimpleField>
	<SimpleField name="view" type="string"></SimpleField>
	<SimpleField name="leveling_order" type="string"></SimpleField>
	<SimpleField name="leveling_height" type="string"></SimpleField>
	<SimpleField name="control_height" type="string"></SimpleField>
	<SimpleField name="benchmark_number" type="string"></SimpleField>
	<SimpleField name="control_location" type="string"></SimpleField>
	<SimpleField name="benchmark_type" type="string"></SimpleField>
	<SimpleField name="leveling_line_section" type="string"></SimpleField>
	<SimpleField name="location_description" type="string"></SimpleField>
	<SimpleField name="status" type="string"></SimpleField>
	<SimpleField name="guid" type="string"></SimpleField>
	<SimpleField name="kml" type="string"></SimpleField>
	<SimpleField name="kml_link" type="string"></SimpleField>
</Schema>
<Folder><name>77832b25</name>
  <Placemark id="77832b25.1">
	<name>4365</name>
	<description>грунт. реп.</description>
	<ExtendedData><SchemaData schemaUrl="#77832b25">
		<SimpleData name="type">1</SimpleData>
		<SimpleData name="view">105.111</SimpleData>
		<SimpleData name="benchmark_number">160 оп</SimpleData>
		<SimpleData name="control_location">линия №1: Аральск - Семиозерное, I класс Участок: грунт.реп. 114 - грунт.реп. 11</SimpleData>
		<SimpleData name="benchmark_type">Тауш, с., в 8.5 км к юго-зап. от него, в 0.2 км к юго-вост. от южного конца оз. Татыр, в 96 м к юго-вост. от дороги с. Тургай-с. Наурзум, в 13 м к вост. от стб. ЛЭП № 145</SimpleData>
		<SimpleData name="location_description">77832b25-f4b0-4813-a01f-da742a690535</SimpleData>
		<SimpleData name="status">data/stations/77832b25.kml</SimpleData>
		<SimpleData name="guid">&lt;a href='data/stations/77832b25.kml' target='_blank'&gt;Download KML&lt;/a&gt;</SimpleData>
	</SchemaData></ExtendedData>
      <Point><coordinates>63.8681585591608,49.9364268984098</coordinates></Point>
  </Placemark>
</Folder>
</Document></kml>
