<?xml version="1.0" encoding="utf-8" ?>
<kml xmlns="http://www.opengis.net/kml/2.2">
<Document id="root_doc">
<Schema name="77b9561c" id="77b9561c">
	<SimpleField name="title" type="string"></SimpleField>
	<SimpleField name="type" type="string"></SimpleField>
	<SimpleField name="ext_sign" type="string"></SimpleField>
	<SimpleField name="class_lvl" type="string"></SimpleField>
	<SimpleField name="height_lvl" type="string"></SimpleField>
	<SimpleField name="height_ctrl" type="string"></SimpleField>
	<SimpleField name="ctrl_place" type="string"></SimpleField>
	<SimpleField name="mark_num" type="string"></SimpleField>
	<SimpleField name="center_type" type="string"></SimpleField>
	<SimpleField name="lvl_line" type="string"></SimpleField>
	<SimpleField name="guid" type="string"></SimpleField>
</Schema>
<Folder><name>77b9561c</name>
  <Placemark id="77b9561c.1">
	<name>2069</name>
	<ExtendedData><SchemaData schemaUrl="#77b9561c">
		<SimpleData name="title">Грунт.реп.</SimpleData>
		<SimpleData name="height_ctrl">2069</SimpleData>
		<SimpleData name="center_type">Кзыл-Куга, с., в 99 км к сев.-вост.от него, в 2.6 км к сев-зап.от ОТФ, в 15 м к вост.от дороги с. Каратобе-с.Кзыл-Куга</SimpleData>
		<SimpleData name="lvl_line">77b9561c-f7f2-4afb-8bf6-03e60d6b8b9b</SimpleData>
	</SchemaData></ExtendedData>
      <Point><coordinates>53.05470565,48.55011856</coordinates></Point>
  </Placemark>
</Folder>
</Document></kml>
