<?xml version="1.0" encoding="utf-8" ?>
<kml xmlns="http://www.opengis.net/kml/2.2">
<Document id="root_doc">
<Schema name="7898ddbd" id="7898ddbd">
	<SimpleField name="type" type="string"></SimpleField>
	<SimpleField name="view" type="string"></SimpleField>
	<SimpleField name="leveling_order" type="string"></SimpleField>
	<SimpleField name="leveling_height" type="string"></SimpleField>
	<SimpleField name="control_height" type="string"></SimpleField>
	<SimpleField name="benchmark_number" type="string"></SimpleField>
	<SimpleField name="control_location" type="string"></SimpleField>
	<SimpleField name="benchmark_type" type="string"></SimpleField>
	<SimpleField name="leveling_line_section" type="string"></SimpleField>
	<SimpleField name="location_description" type="string"></SimpleField>
	<SimpleField name="status" type="string"></SimpleField>
	<SimpleField name="guid" type="string"></SimpleField>
	<SimpleField name="kml" type="string"></SimpleField>
	<SimpleField name="kml_link" type="string"></SimpleField>
</Schema>
<Folder><name>7898ddbd</name>
  <Placemark id="7898ddbd.1">
	<name>2815(2816)</name>
	<name>ск.реп.</name>
	<description>ск.реп.</description>
	<ExtendedData><SchemaData schemaUrl="#7898ddbd">
		<SimpleData name="type">II</SimpleData>
		<SimpleData name="view">431,641</SimpleData>
		<SimpleData name="benchmark_number">99</SimpleData>
		<SimpleData name="control_location">Линия № 4: Балхаш - Карасу. II класс
Участок: фунд.реп.0653 - грунт.реп. 8</SimpleData>
		<SimpleData name="benchmark_type">Балхаш,гор.,в 6.0 км к сев.от него,в
4.0 км к югу от с.Коунрадский,у шоссе
с.Коунрадский -гор.Балхаш</SimpleData>
		<SimpleData name="location_description">7898ddbd-7353-4b26-b0cb-2798a23bb729</SimpleData>
		<SimpleData name="status">data/stations/7898ddbd.kml</SimpleData>
		<SimpleData name="guid">&lt;a href='data/stations/7898ddbd.kml' target='_blank'&gt;Download KML&lt;/a&gt;</SimpleData>
	</SchemaData></ExtendedData>
      <Point><coordinates>74.9796531808321,46.919935665906</coordinates></Point>
  </Placemark>
</Folder>
</Document></kml>
