<?xml version="1.0" encoding="utf-8" ?>
<kml xmlns="http://www.opengis.net/kml/2.2">
<Document id="root_doc">
<Schema name="78c258a7" id="78c258a7">
	<SimpleField name="title" type="string"></SimpleField>
	<SimpleField name="type" type="string"></SimpleField>
	<SimpleField name="ext_sign" type="string"></SimpleField>
	<SimpleField name="class_lvl" type="string"></SimpleField>
	<SimpleField name="height_lvl" type="string"></SimpleField>
	<SimpleField name="height_ctrl" type="string"></SimpleField>
	<SimpleField name="ctrl_place" type="string"></SimpleField>
	<SimpleField name="mark_num" type="string"></SimpleField>
	<SimpleField name="center_type" type="string"></SimpleField>
	<SimpleField name="lvl_line" type="string"></SimpleField>
	<SimpleField name="guid" type="string"></SimpleField>
</Schema>
<Folder><name>78c258a7</name>
  <Placemark id="78c258a7.1">
	<name>Тащикудыкмола.пир</name>
	<ExtendedData><SchemaData schemaUrl="#78c258a7">
		<SimpleData name="title">3кл</SimpleData>
		<SimpleData name="type">II</SimpleData>
		<SimpleData name="ext_sign">11071</SimpleData>
		<SimpleData name="class_lvl">10122</SimpleData>
		<SimpleData name="height_lvl">Контрольный репер в верхней плоскости монолита</SimpleData>
		<SimpleData name="ctrl_place">1</SimpleData>
		<SimpleData name="mark_num">Линия №3: Жмпиты, -Каленый   II класс.(1)Участок: грунт                  .реп.317-  грунт.реп.8</SimpleData>
		<SimpleData name="center_type">с.Кырыккудык,с., в 7,1 км к cев.-вост от него, в 0,6 км к юго-вост.от перекрестка полевых дорог.в 0,2км к югу от полевой дороги .</SimpleData>
		<SimpleData name="lvl_line">78c258a7-cbb5-44ef-8f95-0a8f76ba98d1</SimpleData>
	</SchemaData></ExtendedData>
      <Point><coordinates>51.9507055558915,49.9014600502072</coordinates></Point>
  </Placemark>
</Folder>
</Document></kml>
