<?xml version="1.0" encoding="UTF-8"?>
<kml xmlns="http://www.opengis.net/kml/2.2">
  <Document id="root_doc">
    <Schema id="791fcd35" name="791fcd35">
      <SimpleField name="title" type="string"/>
      <SimpleField name="type" type="string"/>
      <SimpleField name="ext_sign" type="string"/>
      <SimpleField name="class_lvl" type="string"/>
      <SimpleField name="height_lvl" type="string"/>
      <SimpleField name="height_ctrl" type="string"/>
      <SimpleField name="ctrl_place" type="string"/>
      <SimpleField name="mark_num" type="string"/>
      <SimpleField name="center_type" type="string"/>
      <SimpleField name="lvl_line" type="string"/>
      <SimpleField name="guid" type="string"/>
    </Schema>
    <Schema id="_791fcd35.schema">
      <SimpleField name="title" type="string"/>
      <SimpleField name="type" type="string"/>
      <SimpleField name="ext_sign" type="string"/>
      <SimpleField name="class_lvl" type="string"/>
      <SimpleField name="height_lvl" type="string"/>
      <SimpleField name="height_ctrl" type="string"/>
      <SimpleField name="ctrl_place" type="string"/>
      <SimpleField name="mark_num" type="string"/>
      <SimpleField name="center_type" type="string"/>
      <SimpleField name="lvl_line" type="string"/>
      <SimpleField name="guid" type="string"/>
    </Schema>
    <Document id="_791fcd35">
      <name>791fcd35</name>
      <Placemark id="_791fcd35.1">
        <ExtendedData>
          <SchemaData schemaUrl="#_791fcd35.schema">
            <SimpleData name="title">Гряда</SimpleData>
            <SimpleData name="type">пирамида</SimpleData>
            <SimpleData name="ext_sign">пир.</SimpleData>
            <SimpleData name="class_lvl">1</SimpleData>
            <SimpleData name="height_lvl">103,972</SimpleData>
            <SimpleData name="center_type">146</SimpleData>
            <SimpleData name="lvl_line">ЛинияБейнеу-Актау (Шевченко), 1 класс</SimpleData>
            <SimpleData name="guid">791fcd35-be87-4cf2-b5f2-b09c985188a0</SimpleData>
          </SchemaData>
        </ExtendedData>
        <Point>
          <coordinates>
            54.7170780852592,44.915073710955,0
          </coordinates>
        </Point>
      </Placemark>
    </Document>
  </Document>
</kml>
