<?xml version="1.0" encoding="utf-8" ?>
<kml xmlns="http://www.opengis.net/kml/2.2">
<Document id="root_doc">
<Schema name="792fd313" id="792fd313">
	<SimpleField name="title" type="string"></SimpleField>
	<SimpleField name="type" type="string"></SimpleField>
	<SimpleField name="ext_sign" type="string"></SimpleField>
	<SimpleField name="class_lvl" type="string"></SimpleField>
	<SimpleField name="height_lvl" type="string"></SimpleField>
	<SimpleField name="height_ctrl" type="string"></SimpleField>
	<SimpleField name="ctrl_place" type="string"></SimpleField>
	<SimpleField name="mark_num" type="string"></SimpleField>
	<SimpleField name="center_type" type="string"></SimpleField>
	<SimpleField name="lvl_line" type="string"></SimpleField>
	<SimpleField name="guid" type="string"></SimpleField>
</Schema>
<Folder><name>792fd313</name>
  <Placemark id="792fd313.1">
	<name>469 Конт.р</name>
	<description>фундаментальный репер</description>
	<ExtendedData><SchemaData schemaUrl="#792fd313">
		<SimpleData name="title">1Конт.р</SimpleData>
		<SimpleData name="lvl_line">792fd313-0035-4e75-9c31-35ff187ffcea</SimpleData>
	</SchemaData></ExtendedData>
      <Point><coordinates>52.9997366666667,47.5144366666667</coordinates></Point>
  </Placemark>
</Folder>
</Document></kml>
