<?xml version="1.0" encoding="utf-8" ?>
<kml xmlns="http://www.opengis.net/kml/2.2">
<Document id="root_doc">
<Schema name="79e19709" id="79e19709">
	<SimpleField name="type" type="string"></SimpleField>
	<SimpleField name="view" type="string"></SimpleField>
	<SimpleField name="leveling_order" type="string"></SimpleField>
	<SimpleField name="leveling_height" type="string"></SimpleField>
	<SimpleField name="control_height" type="string"></SimpleField>
	<SimpleField name="benchmark_number" type="string"></SimpleField>
	<SimpleField name="control_location" type="string"></SimpleField>
	<SimpleField name="benchmark_type" type="string"></SimpleField>
	<SimpleField name="leveling_line_section" type="string"></SimpleField>
	<SimpleField name="location_description" type="string"></SimpleField>
	<SimpleField name="status" type="string"></SimpleField>
	<SimpleField name="guid" type="string"></SimpleField>
	<SimpleField name="kml" type="string"></SimpleField>
	<SimpleField name="kml_link" type="string"></SimpleField>
</Schema>
<Folder><name>79e19709</name>
  <Placemark id="79e19709.1">
	<name>740</name>
	<name>грунт,реп,</name>
	<ExtendedData><SchemaData schemaUrl="#79e19709">
		<SimpleData name="type">I</SimpleData>
		<SimpleData name="view">172.187</SimpleData>
		<SimpleData name="benchmark_number">160 оп,знак</SimpleData>
		<SimpleData name="control_location">Линия №1: Костанай - Петропавловска, I класс, Участок: грунт,реп, 0712 - грунт,реп, 0731</SimpleData>
		<SimpleData name="benchmark_type">Куприяновка, с,, сев,-зап,окраина его, в 0,5 м от км,стб, №238/723, у улучшеной грунт,дороги с, Новоишимское - гор, Сергеевка</SimpleData>
		<SimpleData name="location_description">79e19709-b050-46ca-8fe8-236ae643daf9</SimpleData>
		<SimpleData name="status">data/stations/79e19709.kml</SimpleData>
		<SimpleData name="guid">&lt;a href='data/stations/79e19709.kml' target='_blank'&gt;Download KML&lt;/a&gt;</SimpleData>
	</SchemaData></ExtendedData>
      <Point><coordinates>66.9617209605045,53.3561435517579</coordinates></Point>
  </Placemark>
</Folder>
</Document></kml>
