<?xml version="1.0" encoding="utf-8" ?>
<kml xmlns="http://www.opengis.net/kml/2.2">
<Document id="root_doc">
<Schema name="79f2af63" id="79f2af63">
	<SimpleField name="type" type="string"></SimpleField>
	<SimpleField name="view" type="string"></SimpleField>
	<SimpleField name="leveling_order" type="string"></SimpleField>
	<SimpleField name="leveling_height" type="string"></SimpleField>
	<SimpleField name="control_height" type="string"></SimpleField>
	<SimpleField name="benchmark_number" type="string"></SimpleField>
	<SimpleField name="control_location" type="string"></SimpleField>
	<SimpleField name="benchmark_type" type="string"></SimpleField>
	<SimpleField name="leveling_line_section" type="string"></SimpleField>
	<SimpleField name="location_description" type="string"></SimpleField>
	<SimpleField name="status" type="string"></SimpleField>
	<SimpleField name="guid" type="string"></SimpleField>
	<SimpleField name="kml" type="string"></SimpleField>
	<SimpleField name="kml_link" type="string"></SimpleField>
</Schema>
<Folder><name>79f2af63</name>
  <Placemark id="79f2af63.1">
	<name>7794</name>
	<name>грунт.реп.</name>
	<ExtendedData><SchemaData schemaUrl="#79f2af63">
		<SimpleData name="type">II</SimpleData>
		<SimpleData name="view">396.846</SimpleData>
		<SimpleData name="leveling_order">354.847</SimpleData>
		<SimpleData name="benchmark_number">146 оп</SimpleData>
		<SimpleData name="control_location">Линия №1: Тасты=Бала-Терсаккан, II класс (I) Участок: грунт.реп.0735-грунт.реп.1484</SimpleData>
		<SimpleData name="benchmark_type">Отд.№2 свх.Ковыльный,в 9.0 км к сев.-зап.от него,в 3.2 км к сев.от оз.Шошкалы,в 0.3 км к вост.от полевой дороги</SimpleData>
		<SimpleData name="location_description">79f2af63-9413-455c-84f5-9c8396f610fb</SimpleData>
		<SimpleData name="status">data/stations/79f2af63.kml</SimpleData>
		<SimpleData name="guid">&lt;a href='data/stations/79f2af63.kml' target='_blank'&gt;Download KML&lt;/a&gt;</SimpleData>
	</SchemaData></ExtendedData>
      <Point><coordinates>66.9606207672631,49.8831179497176</coordinates></Point>
  </Placemark>
</Folder>
</Document></kml>
