<?xml version="1.0" encoding="utf-8" ?>
<kml xmlns="http://www.opengis.net/kml/2.2">
<Document id="root_doc">
<Schema name="7a228596" id="7a228596">
	<SimpleField name="type" type="string"></SimpleField>
	<SimpleField name="view" type="string"></SimpleField>
	<SimpleField name="leveling_order" type="string"></SimpleField>
	<SimpleField name="leveling_height" type="string"></SimpleField>
	<SimpleField name="control_height" type="string"></SimpleField>
	<SimpleField name="benchmark_number" type="string"></SimpleField>
	<SimpleField name="control_location" type="string"></SimpleField>
	<SimpleField name="benchmark_type" type="string"></SimpleField>
	<SimpleField name="leveling_line_section" type="string"></SimpleField>
	<SimpleField name="location_description" type="string"></SimpleField>
	<SimpleField name="status" type="string"></SimpleField>
	<SimpleField name="guid" type="string"></SimpleField>
	<SimpleField name="kml" type="string"></SimpleField>
	<SimpleField name="kml_link" type="string"></SimpleField>
</Schema>
<Folder><name>7a228596</name>
  <Placemark id="7a228596.1">
	<name>9944</name>
	<description>грунт.реп</description>
	<ExtendedData><SchemaData schemaUrl="#7a228596">
		<SimpleData name="type">1</SimpleData>
		<SimpleData name="view">255.436</SimpleData>
		<SimpleData name="benchmark_number">160</SimpleData>
		<SimpleData name="control_location">Линия №1: Аральск-Шалкар, 1 класс (1). Участок: грунт.реп. 0137 -грует.реп. 2495</SimpleData>
		<SimpleData name="benchmark_type">Тосбулак, разъезд, в 4.3 км к сев.-вост.от него , на 10 пикете 2218 км жел.-дор., в 0.2 км к зап.от А-образного стб.линии связи, в 63 м кк сев.-зап. От км.стб. 2218/2219, в 19 м к югу от линии связи </SimpleData>
		<SimpleData name="leveling_line_section">не найден</SimpleData>
		<SimpleData name="location_description">7a228596-2b6b-4ce8-9876-570e13b7223b</SimpleData>
		<SimpleData name="status">data/stations/7a228596.kml</SimpleData>
		<SimpleData name="guid">&lt;a href='data/stations/7a228596.kml' target='_blank'&gt;Download KML&lt;/a&gt;</SimpleData>
	</SchemaData></ExtendedData>
      <Point><coordinates>60.3641693490505,47.6622153721894</coordinates></Point>
  </Placemark>
</Folder>
</Document></kml>
