<?xml version="1.0" encoding="utf-8" ?>
<kml xmlns="http://www.opengis.net/kml/2.2">
<Document id="root_doc">
<Schema name="7ac088d5" id="7ac088d5">
	<SimpleField name="title" type="string"></SimpleField>
	<SimpleField name="type" type="string"></SimpleField>
	<SimpleField name="ext_sign" type="string"></SimpleField>
	<SimpleField name="class_lvl" type="string"></SimpleField>
	<SimpleField name="height_lvl" type="string"></SimpleField>
	<SimpleField name="height_ctrl" type="string"></SimpleField>
	<SimpleField name="ctrl_place" type="string"></SimpleField>
	<SimpleField name="mark_num" type="string"></SimpleField>
	<SimpleField name="center_type" type="string"></SimpleField>
	<SimpleField name="lvl_line" type="string"></SimpleField>
	<SimpleField name="guid" type="string"></SimpleField>
</Schema>
<Folder><name>7ac088d5</name>
  <Placemark id="7ac088d5.1">
	<name>1756</name>
	<description>грунт.реп.</description>
	<ExtendedData><SchemaData schemaUrl="#7ac088d5">
		<SimpleData name="type">2</SimpleData>
		<SimpleData name="ext_sign">-3.928</SimpleData>
		<SimpleData name="class_lvl">-4.985</SimpleData>
		<SimpleData name="height_lvl">Контрольная марка 1929 в верхней плоскости монолита</SimpleData>
		<SimpleData name="ctrl_place">121 оп</SimpleData>
		<SimpleData name="mark_num">Линия нивелирования II класса на объекте &quot;Баван-Зелёный, Актонук-Баван, Баван-Керей&quot; 06.03.1751</SimpleData>
		<SimpleData name="center_type">с. Мухорский в 4,1 км к вост. от него, в 3,3 км к сев.-зап. от зим. Коныркудук, в 11 м к югу от  полевой дороги</SimpleData>
		<SimpleData name="lvl_line">7ac088d5-0397-47d4-83ce-911fb6f3d7a4</SimpleData>
	</SchemaData></ExtendedData>
      <Point><coordinates>50.0954265649101,48.9918842791271</coordinates></Point>
  </Placemark>
</Folder>
</Document></kml>
