<?xml version="1.0" encoding="utf-8" ?>
<kml xmlns="http://www.opengis.net/kml/2.2">
<Document id="root_doc">
<Schema name="7ac92915" id="7ac92915">
	<SimpleField name="type" type="string"></SimpleField>
	<SimpleField name="view" type="string"></SimpleField>
	<SimpleField name="leveling_order" type="string"></SimpleField>
	<SimpleField name="leveling_height" type="string"></SimpleField>
	<SimpleField name="control_height" type="string"></SimpleField>
	<SimpleField name="benchmark_number" type="string"></SimpleField>
	<SimpleField name="control_location" type="string"></SimpleField>
	<SimpleField name="benchmark_type" type="string"></SimpleField>
	<SimpleField name="leveling_line_section" type="string"></SimpleField>
	<SimpleField name="location_description" type="string"></SimpleField>
	<SimpleField name="status" type="string"></SimpleField>
	<SimpleField name="guid" type="string"></SimpleField>
	<SimpleField name="kml" type="string"></SimpleField>
	<SimpleField name="kml_link" type="string"></SimpleField>
</Schema>
<Folder><name>7ac92915</name>
  <Placemark id="7ac92915.1">
	<name>682</name>
	<name>грунтовый репер</name>
	<ExtendedData><SchemaData schemaUrl="#7ac92915">
		<SimpleData name="type">1</SimpleData>
		<SimpleData name="view">1137,155</SimpleData>
		<SimpleData name="benchmark_number">146 оп</SimpleData>
		<SimpleData name="control_location">Линия №1; Сары-Озек - Пржевальск, 1 класс(2) Участок: грунт. реп. 155- грунт.реп. 682</SimpleData>
		<SimpleData name="benchmark_type">Чунджа, с., в 34.0 км к юго-зап. от него, в 15 м к юго-вост. от км.стб. 86/13, в 7 м к вост. от дороги с.Чунджа- с. Кеген</SimpleData>
		<SimpleData name="location_description">7ac92915-4d44-40e8-a431-c4904defff95</SimpleData>
		<SimpleData name="status">data/stations/7ac92915.kml</SimpleData>
		<SimpleData name="guid">&lt;a href='data/stations/7ac92915.kml' target='_blank'&gt;Download KML&lt;/a&gt;</SimpleData>
	</SchemaData></ExtendedData>
      <Point><coordinates>79.1946495896055,43.3226545959566</coordinates></Point>
  </Placemark>
</Folder>
</Document></kml>
