<?xml version="1.0" encoding="utf-8" ?>
<kml xmlns="http://www.opengis.net/kml/2.2">
<Document id="root_doc">
<Schema name="7b45dbd5" id="7b45dbd5">
	<SimpleField name="title" type="string"></SimpleField>
	<SimpleField name="type" type="string"></SimpleField>
	<SimpleField name="ext_sign" type="string"></SimpleField>
	<SimpleField name="class_lvl" type="string"></SimpleField>
	<SimpleField name="height_lvl" type="string"></SimpleField>
	<SimpleField name="height_ctrl" type="string"></SimpleField>
	<SimpleField name="ctrl_place" type="string"></SimpleField>
	<SimpleField name="mark_num" type="string"></SimpleField>
	<SimpleField name="center_type" type="string"></SimpleField>
	<SimpleField name="lvl_line" type="string"></SimpleField>
	<SimpleField name="guid" type="string"></SimpleField>
</Schema>
<Folder><name>7b45dbd5</name>
  <Placemark id="7b45dbd5.1">
	<name>3969</name>
	<description>грунтовый репер</description>
	<ExtendedData><SchemaData schemaUrl="#7b45dbd5">
		<SimpleData name="title">грунтовый репер</SimpleData>
		<SimpleData name="type">2</SimpleData>
		<SimpleData name="ext_sign">94.367</SimpleData>
		<SimpleData name="ctrl_place">121</SimpleData>
		<SimpleData name="mark_num">Линия №2: Чапаевский-Карасук, II класс (I) Участок:  грунт. реп. 3969-грунт. реп. 3085</SimpleData>
		<SimpleData name="center_type">Жалаулы,оз., в 7.0 км к юго-вост. от него, в 4.2 км к сев.-зап. от фермы №2 свх.Новотроицкий, в 35 м к сев. от дороги ферма №2 свх. Новотроицкий-свх. Чапаевский</SimpleData>
		<SimpleData name="lvl_line">7b45dbd5-f166-434e-b660-251a5e4e6067</SimpleData>
	</SchemaData></ExtendedData>
      <Point><coordinates>74.2895655250321,52.7645275214654</coordinates></Point>
  </Placemark>
</Folder>
</Document></kml>
