<?xml version="1.0" encoding="utf-8" ?>
<kml xmlns="http://www.opengis.net/kml/2.2">
<Document id="root_doc">
<Schema name="7b9f3f92" id="7b9f3f92">
	<SimpleField name="type" type="string"></SimpleField>
	<SimpleField name="view" type="string"></SimpleField>
	<SimpleField name="leveling_order" type="string"></SimpleField>
	<SimpleField name="leveling_height" type="string"></SimpleField>
	<SimpleField name="control_height" type="string"></SimpleField>
	<SimpleField name="benchmark_number" type="string"></SimpleField>
	<SimpleField name="control_location" type="string"></SimpleField>
	<SimpleField name="benchmark_type" type="string"></SimpleField>
	<SimpleField name="leveling_line_section" type="string"></SimpleField>
	<SimpleField name="location_description" type="string"></SimpleField>
	<SimpleField name="status" type="string"></SimpleField>
	<SimpleField name="guid" type="string"></SimpleField>
	<SimpleField name="kml" type="string"></SimpleField>
	<SimpleField name="kml_link" type="string"></SimpleField>
</Schema>
<Folder><name>7b9f3f92</name>
  <Placemark id="7b9f3f92.1">
	<name>6523</name>
	<name>грунт,реп,</name>
	<ExtendedData><SchemaData schemaUrl="#7b9f3f92">
		<SimpleData name="type">I</SimpleData>
		<SimpleData name="view">493.325</SimpleData>
		<SimpleData name="leveling_order">492,159</SimpleData>
		<SimpleData name="control_height">Контрольный репер № 5382 в фундаментальной плите</SimpleData>
		<SimpleData name="benchmark_number">117 оп</SimpleData>
		<SimpleData name="control_location">Линия №1: Тюемойнак-Жарык, I класс (1) Участок: грунт,реп,5895 - грунт,реп,5272  </SimpleData>
		<SimpleData name="benchmark_type">Атасу,с,,в 3,7 км к вост,от него,на 4 пикете 87 км жел,дор,,в 51 м к юго-зап,от жел,-дор, Полотна </SimpleData>
		<SimpleData name="leveling_line_section">утрачен </SimpleData>
		<SimpleData name="location_description">7b9f3f92-c84e-4364-94a0-d19e714f4579</SimpleData>
		<SimpleData name="status">data/stations/7b9f3f92.kml</SimpleData>
		<SimpleData name="guid">&lt;a href='data/stations/7b9f3f92.kml' target='_blank'&gt;Download KML&lt;/a&gt;</SimpleData>
	</SchemaData></ExtendedData>
      <Point><coordinates>71.7189425885017,48.6869790629879</coordinates></Point>
  </Placemark>
</Folder>
</Document></kml>
