<?xml version="1.0" encoding="utf-8" ?>
<kml xmlns="http://www.opengis.net/kml/2.2">
<Document id="root_doc">
<Schema name="7c3a9ff0" id="7c3a9ff0">
	<SimpleField name="title" type="string"></SimpleField>
	<SimpleField name="type" type="string"></SimpleField>
	<SimpleField name="ext_sign" type="string"></SimpleField>
	<SimpleField name="class_lvl" type="string"></SimpleField>
	<SimpleField name="height_lvl" type="string"></SimpleField>
	<SimpleField name="height_ctrl" type="string"></SimpleField>
	<SimpleField name="ctrl_place" type="string"></SimpleField>
	<SimpleField name="mark_num" type="string"></SimpleField>
	<SimpleField name="center_type" type="string"></SimpleField>
	<SimpleField name="lvl_line" type="string"></SimpleField>
	<SimpleField name="guid" type="string"></SimpleField>
</Schema>
<Folder><name>7c3a9ff0</name>
  <Placemark id="7c3a9ff0.1">
	<name>31</name>
	<description>грунтовый репер</description>
	<ExtendedData><SchemaData schemaUrl="#7c3a9ff0">
		<SimpleData name="type">1</SimpleData>
		<SimpleData name="ext_sign">443.389</SimpleData>
		<SimpleData name="height_lvl">нет данных (рельс)</SimpleData>
		<SimpleData name="ctrl_place">12</SimpleData>
		<SimpleData name="mark_num">Линия № 4: р. Кон - Талдысай. І класс </SimpleData>
		<SimpleData name="center_type">Кудайберды. г.. в 3.0 км к юго-вост. от нее. в 200 м к сев. от р. Жаксыкон. в 62 м к сев. от дор.. в 30 м к юго-зап. от мог.</SimpleData>
		<SimpleData name="lvl_line">7c3a9ff0-67f6-466e-9930-2aac67ab17b1</SimpleData>
	</SchemaData></ExtendedData>
      <Point><coordinates>68.7264994545884,49.345476024832</coordinates></Point>
  </Placemark>
</Folder>
</Document></kml>
