<?xml version="1.0" encoding="utf-8" ?>
<kml xmlns="http://www.opengis.net/kml/2.2">
<Document id="root_doc">
<Schema name="7c7c5ffe" id="7c7c5ffe">
	<SimpleField name="title" type="string"></SimpleField>
	<SimpleField name="type" type="string"></SimpleField>
	<SimpleField name="ext_sign" type="string"></SimpleField>
	<SimpleField name="class_lvl" type="string"></SimpleField>
	<SimpleField name="height_lvl" type="string"></SimpleField>
	<SimpleField name="height_ctrl" type="string"></SimpleField>
	<SimpleField name="ctrl_place" type="string"></SimpleField>
	<SimpleField name="mark_num" type="string"></SimpleField>
	<SimpleField name="center_type" type="string"></SimpleField>
	<SimpleField name="lvl_line" type="string"></SimpleField>
	<SimpleField name="guid" type="string"></SimpleField>
</Schema>
<Folder><name>7c7c5ffe</name>
  <Placemark id="7c7c5ffe.1">
	<name>Б/№</name>
	<description>грунтовый репер</description>
	<ExtendedData><SchemaData schemaUrl="#7c7c5ffe">
		<SimpleData name="type">2</SimpleData>
		<SimpleData name="ext_sign">419.972</SimpleData>
		<SimpleData name="mark_num">Линия: Шыганши-Бугаз-Белая-Школа-Боран-Улькен Нарын, II класс (2)
Участок: фунд.реп. 5491 – грунт.реп. 1486</SimpleData>
		<SimpleData name="center_type">Биржан, с., юго-зап. окрайна его, в 0.2 км к югу от развилки дороги с.Акарал-с.Биржан, в 17 м к вост. от шоссе в с.Биржан, в 12 м к юго-зап. от пов. стб. ЛЭП №41, в 1.5 м к сев. от стб. линии связи</SimpleData>
		<SimpleData name="lvl_line">7c7c5ffe-4456-43ae-9527-5a4424e7b839</SimpleData>
	</SchemaData></ExtendedData>
      <Point><coordinates>84.9355394017722,47.7212665253904</coordinates></Point>
  </Placemark>
</Folder>
</Document></kml>
