<?xml version="1.0" encoding="utf-8" ?>
<kml xmlns="http://www.opengis.net/kml/2.2">
<Document id="root_doc">
<Schema name="7c8b684e" id="7c8b684e">
	<SimpleField name="type" type="string"></SimpleField>
	<SimpleField name="view" type="string"></SimpleField>
	<SimpleField name="leveling_order" type="string"></SimpleField>
	<SimpleField name="leveling_height" type="string"></SimpleField>
	<SimpleField name="control_height" type="string"></SimpleField>
	<SimpleField name="benchmark_number" type="string"></SimpleField>
	<SimpleField name="control_location" type="string"></SimpleField>
	<SimpleField name="benchmark_type" type="string"></SimpleField>
	<SimpleField name="leveling_line_section" type="string"></SimpleField>
	<SimpleField name="location_description" type="string"></SimpleField>
	<SimpleField name="status" type="string"></SimpleField>
	<SimpleField name="guid" type="string"></SimpleField>
	<SimpleField name="kml" type="string"></SimpleField>
	<SimpleField name="kml_link" type="string"></SimpleField>
</Schema>
<Folder><name>7c8b684e</name>
  <Placemark id="7c8b684e.1">
	<name>б/N</name>
	<name>грунт.реп.</name>
	<ExtendedData><SchemaData schemaUrl="#7c8b684e">
		<SimpleData name="type">2</SimpleData>
		<SimpleData name="view">1140.411</SimpleData>
		<SimpleData name="control_location">Линия № 5: Чилик - Кольбастау,  П класс (1,2)  Участок; фунд.реп 2208 - ск.реп. 0376</SimpleData>
		<SimpleData name="benchmark_type">Кокпек,пикет.в 1,5 км к юго - вост.от него, в 0,9 км к
юго-'зап.от мог..Жайшеббек, в 0.5 км к зап. от дороги с. Чилик - с.Жаланаш</SimpleData>
		<SimpleData name="leveling_line_section">уничтожен</SimpleData>
		<SimpleData name="location_description">7c8b684e-667e-4d33-9deb-09def8b68ad1</SimpleData>
		<SimpleData name="status">data/stations/7c8b684e.kml</SimpleData>
		<SimpleData name="guid">&lt;a href='data/stations/7c8b684e.kml' target='_blank'&gt;Download KML&lt;/a&gt;</SimpleData>
	</SchemaData></ExtendedData>
      <Point><coordinates>78.6898195886637,43.4359743227076</coordinates></Point>
  </Placemark>
</Folder>
</Document></kml>
