<?xml version="1.0" encoding="UTF-8"?>
<kml xmlns="http://www.opengis.net/kml/2.2">
  <Document id="root_doc">
    <Schema id="7d63cf9c" name="7d63cf9c">
      <SimpleField name="title" type="string"/>
      <SimpleField name="type" type="string"/>
      <SimpleField name="ext_sign" type="string"/>
      <SimpleField name="class_lvl" type="string"/>
      <SimpleField name="height_lvl" type="string"/>
      <SimpleField name="height_ctrl" type="string"/>
      <SimpleField name="ctrl_place" type="string"/>
      <SimpleField name="mark_num" type="string"/>
      <SimpleField name="center_type" type="string"/>
      <SimpleField name="lvl_line" type="string"/>
      <SimpleField name="guid" type="string"/>
    </Schema>
    <Schema id="_7d63cf9c.schema">
      <SimpleField name="title" type="string"/>
      <SimpleField name="type" type="string"/>
      <SimpleField name="ext_sign" type="string"/>
      <SimpleField name="class_lvl" type="string"/>
      <SimpleField name="height_lvl" type="string"/>
      <SimpleField name="height_ctrl" type="string"/>
      <SimpleField name="ctrl_place" type="string"/>
      <SimpleField name="mark_num" type="string"/>
      <SimpleField name="center_type" type="string"/>
      <SimpleField name="lvl_line" type="string"/>
      <SimpleField name="guid" type="string"/>
    </Schema>
    <Document id="_7d63cf9c">
      <name>7d63cf9c</name>
      <Placemark id="_7d63cf9c.1">
        <description>Кендырлымола,кладб.,в 17,2 км к сев-зап.от него,в 2,4 км к югу от дороги с.Донгузтау-гор.Челкар,в 0,9 км к сев-вост.от такыра</description>
        <ExtendedData>
          <SchemaData schemaUrl="#_7d63cf9c.schema">
            <SimpleData name="title">9895</SimpleData>
            <SimpleData name="type">грунтовый репер</SimpleData>
            <SimpleData name="class_lvl">2</SimpleData>
            <SimpleData name="height_lvl">183,863</SimpleData>
            <SimpleData name="center_type">160оп</SimpleData>
            <SimpleData name="lvl_line">Линия № 9: Гурьев-Кошкарата, II класс (3)
Участок: ск.реп.8592-фунд.реп.597</SimpleData>
            <SimpleData name="guid">7d63cf9c-3702-429c-b999-59c7a36be783</SimpleData>
          </SchemaData>
        </ExtendedData>
        <Point>
          <coordinates>
            58.2389624937074,46.7826349480177,0
          </coordinates>
        </Point>
      </Placemark>
    </Document>
  </Document>
</kml>
