<?xml version="1.0" encoding="utf-8" ?>
<kml xmlns="http://www.opengis.net/kml/2.2">
<Document id="root_doc">
<Schema name="7d7de1a6" id="7d7de1a6">
	<SimpleField name="type" type="string"></SimpleField>
	<SimpleField name="view" type="string"></SimpleField>
	<SimpleField name="leveling_order" type="string"></SimpleField>
	<SimpleField name="leveling_height" type="string"></SimpleField>
	<SimpleField name="control_height" type="string"></SimpleField>
	<SimpleField name="benchmark_number" type="string"></SimpleField>
	<SimpleField name="control_location" type="string"></SimpleField>
	<SimpleField name="benchmark_type" type="string"></SimpleField>
	<SimpleField name="leveling_line_section" type="string"></SimpleField>
	<SimpleField name="location_description" type="string"></SimpleField>
	<SimpleField name="status" type="string"></SimpleField>
	<SimpleField name="guid" type="string"></SimpleField>
	<SimpleField name="kml" type="string"></SimpleField>
	<SimpleField name="kml_link" type="string"></SimpleField>
</Schema>
<Folder><name>7d7de1a6</name>
  <Placemark id="7d7de1a6.1">
	<name>6692</name>
	<name>грунт. реп.</name>
	<ExtendedData><SchemaData schemaUrl="#7d7de1a6">
		<SimpleData name="type">1</SimpleData>
		<SimpleData name="view">1251.071</SimpleData>
		<SimpleData name="benchmark_number">160 оп. знак</SimpleData>
		<SimpleData name="control_location">Линия  № 1: Сарыозек – Каракол (Пржевальск), I класс
Участок: грунт. реп.  520 – грунт.реп. 155</SimpleData>
		<SimpleData name="benchmark_type">Аягоз, гор., юго-зап. окраина его, на правом берегу р. Аягоз, в 63 м к сев.-вост. от моста, в 54 м к вост. от шоссе гор. Алматы – гор. Усть-Каменогорск </SimpleData>
		<SimpleData name="location_description">7d7de1a6-c9ba-4ff4-9c0d-c2dbe54ca9c3</SimpleData>
		<SimpleData name="status">data/stations/7d7de1a6.kml</SimpleData>
		<SimpleData name="guid">&lt;a href='data/stations/7d7de1a6.kml' target='_blank'&gt;Download KML&lt;/a&gt;</SimpleData>
	</SchemaData></ExtendedData>
      <Point><coordinates>79.5258876801268,44.2868868975576</coordinates></Point>
  </Placemark>
</Folder>
</Document></kml>
