<?xml version="1.0" encoding="utf-8" ?>
<kml xmlns="http://www.opengis.net/kml/2.2">
<Document id="root_doc">
<Schema name="7de9c6f0" id="7de9c6f0">
	<SimpleField name="title" type="string"></SimpleField>
	<SimpleField name="type" type="string"></SimpleField>
	<SimpleField name="ext_sign" type="string"></SimpleField>
	<SimpleField name="class_lvl" type="string"></SimpleField>
	<SimpleField name="height_lvl" type="string"></SimpleField>
	<SimpleField name="height_ctrl" type="string"></SimpleField>
	<SimpleField name="ctrl_place" type="string"></SimpleField>
	<SimpleField name="mark_num" type="string"></SimpleField>
	<SimpleField name="center_type" type="string"></SimpleField>
	<SimpleField name="lvl_line" type="string"></SimpleField>
	<SimpleField name="guid" type="string"></SimpleField>
</Schema>
<Folder><name>7de9c6f0</name>
  <Placemark id="7de9c6f0.1">
	<name>2231 грунт.</name>
	<ExtendedData><SchemaData schemaUrl="#7de9c6f0">
		<SimpleData name="lvl_line">7de9c6f0-eb72-418e-8ce3-3cb4ee7f0e6d</SimpleData>
	</SchemaData></ExtendedData>
      <Point><coordinates>64.0116275805556,44.7425530555556</coordinates></Point>
  </Placemark>
</Folder>
</Document></kml>
