<?xml version="1.0" encoding="utf-8" ?>
<kml xmlns="http://www.opengis.net/kml/2.2">
<Document id="root_doc">
<Schema name="7e145869" id="7e145869">
	<SimpleField name="type" type="string"></SimpleField>
	<SimpleField name="view" type="string"></SimpleField>
	<SimpleField name="leveling_order" type="string"></SimpleField>
	<SimpleField name="leveling_height" type="string"></SimpleField>
	<SimpleField name="control_height" type="string"></SimpleField>
	<SimpleField name="benchmark_number" type="string"></SimpleField>
	<SimpleField name="control_location" type="string"></SimpleField>
	<SimpleField name="benchmark_type" type="string"></SimpleField>
	<SimpleField name="leveling_line_section" type="string"></SimpleField>
	<SimpleField name="location_description" type="string"></SimpleField>
	<SimpleField name="status" type="string"></SimpleField>
	<SimpleField name="guid" type="string"></SimpleField>
	<SimpleField name="kml" type="string"></SimpleField>
	<SimpleField name="kml_link" type="string"></SimpleField>
</Schema>
<Folder><name>7e145869</name>
  <Placemark id="7e145869.1">
	<name>138</name>
	<description>грунт.репер</description>
	<ExtendedData><SchemaData schemaUrl="#7e145869">
		<SimpleData name="type">2</SimpleData>
		<SimpleData name="view">252.042</SimpleData>
		<SimpleData name="leveling_order">250,429</SimpleData>
		<SimpleData name="benchmark_number">121</SimpleData>
		<SimpleData name="control_location">Линия № 1:Карабутак-Жанатурмыс, II класс(I) Участок :грунт.реп.138-грунт.реп.347</SimpleData>
		<SimpleData name="benchmark_type">Талдыколь,оз.,в 115 м к югу  от юго-вост.окраины его,в 0,1км к югу от дороги 3-е отд.свх.им.Клочкого-оз.Кулыколь,в 22 м к сев.-вост.от дороги оз.Кулыколь-в степь </SimpleData>
		<SimpleData name="location_description">7e145869-e96f-4627-a392-35e51e2204f4</SimpleData>
		<SimpleData name="status">data/stations/7e145869.kml</SimpleData>
		<SimpleData name="guid">&lt;a href='data/stations/7e145869.kml' target='_blank'&gt;Download KML&lt;/a&gt;</SimpleData>
	</SchemaData></ExtendedData>
      <Point><coordinates>61.9716497189158,51.3923406685144</coordinates></Point>
  </Placemark>
</Folder>
</Document></kml>
