<?xml version="1.0" encoding="utf-8" ?>
<kml xmlns="http://www.opengis.net/kml/2.2">
<Document id="root_doc">
<Schema name="7e1d0291" id="7e1d0291">
	<SimpleField name="type" type="string"></SimpleField>
	<SimpleField name="view" type="string"></SimpleField>
	<SimpleField name="leveling_order" type="string"></SimpleField>
	<SimpleField name="leveling_height" type="string"></SimpleField>
	<SimpleField name="control_height" type="string"></SimpleField>
	<SimpleField name="benchmark_number" type="string"></SimpleField>
	<SimpleField name="control_location" type="string"></SimpleField>
	<SimpleField name="benchmark_type" type="string"></SimpleField>
	<SimpleField name="leveling_line_section" type="string"></SimpleField>
	<SimpleField name="location_description" type="string"></SimpleField>
	<SimpleField name="status" type="string"></SimpleField>
	<SimpleField name="guid" type="string"></SimpleField>
	<SimpleField name="kml" type="string"></SimpleField>
	<SimpleField name="kml_link" type="string"></SimpleField>
</Schema>
<Folder><name>7e1d0291</name>
  <Placemark id="7e1d0291.1">
	<name>ГА 4</name>
	<name>грунт.реп.</name>
	<ExtendedData><SchemaData schemaUrl="#7e1d0291">
		<SimpleData name="type">II</SimpleData>
		<SimpleData name="view">113.452</SimpleData>
		<SimpleData name="benchmark_number">160</SimpleData>
		<SimpleData name="control_location">Линия № 1: Золоторунное - Кобенсай, II класс, Участок: грунт.реп. 957 - грунт.реп. 1Г</SimpleData>
		<SimpleData name="benchmark_type">Дауит, станц., в 4.9 км к зап. от нее, 10 пикет 137 - й км жел.дор. гор. Кокшетау - гор. Иртыш, в 25 м к югу от жел.дор. полотна, в 2 м к югу от стб. Связи</SimpleData>
		<SimpleData name="location_description">7e1d0291-8461-49cf-9a90-622097a05741</SimpleData>
		<SimpleData name="status">data/stations/7e1d0291.kml</SimpleData>
		<SimpleData name="guid">&lt;a href='data/stations/7e1d0291.kml' target='_blank'&gt;Download KML&lt;/a&gt;</SimpleData>
	</SchemaData></ExtendedData>
      <Point><coordinates>71.3930363562873,53.6069435219449</coordinates></Point>
  </Placemark>
</Folder>
</Document></kml>
