<?xml version="1.0" encoding="utf-8" ?>
<kml xmlns="http://www.opengis.net/kml/2.2">
<Document id="root_doc">
<Schema name="7e490579" id="7e490579">
	<SimpleField name="title" type="string"></SimpleField>
	<SimpleField name="type" type="string"></SimpleField>
	<SimpleField name="ext_sign" type="string"></SimpleField>
	<SimpleField name="class_lvl" type="string"></SimpleField>
	<SimpleField name="height_lvl" type="string"></SimpleField>
	<SimpleField name="height_ctrl" type="string"></SimpleField>
	<SimpleField name="ctrl_place" type="string"></SimpleField>
	<SimpleField name="mark_num" type="string"></SimpleField>
	<SimpleField name="center_type" type="string"></SimpleField>
	<SimpleField name="lvl_line" type="string"></SimpleField>
	<SimpleField name="guid" type="string"></SimpleField>
</Schema>
<Folder><name>7e490579</name>
  <Placemark id="7e490579.1">
	<name>1587</name>
	<description>стенной репер</description>
	<ExtendedData><SchemaData schemaUrl="#7e490579">
		<SimpleData name="type">1</SimpleData>
		<SimpleData name="ext_sign">437.875</SimpleData>
		<SimpleData name="center_type">Анар. станция., водоемное здание.</SimpleData>
		<SimpleData name="lvl_line">7e490579-0a32-41b3-8457-f951c5a567b3</SimpleData>
	</SchemaData></ExtendedData>
      <Point><coordinates>72.4007226028993,50.6570796996158</coordinates></Point>
  </Placemark>
</Folder>
</Document></kml>
