<?xml version="1.0" encoding="utf-8" ?>
<kml xmlns="http://www.opengis.net/kml/2.2">
<Document id="root_doc">
<Schema name="7e7b484f" id="7e7b484f">
	<SimpleField name="type" type="string"></SimpleField>
	<SimpleField name="view" type="string"></SimpleField>
	<SimpleField name="leveling_order" type="string"></SimpleField>
	<SimpleField name="leveling_height" type="string"></SimpleField>
	<SimpleField name="control_height" type="string"></SimpleField>
	<SimpleField name="benchmark_number" type="string"></SimpleField>
	<SimpleField name="control_location" type="string"></SimpleField>
	<SimpleField name="benchmark_type" type="string"></SimpleField>
	<SimpleField name="leveling_line_section" type="string"></SimpleField>
	<SimpleField name="location_description" type="string"></SimpleField>
	<SimpleField name="status" type="string"></SimpleField>
	<SimpleField name="guid" type="string"></SimpleField>
	<SimpleField name="kml" type="string"></SimpleField>
	<SimpleField name="kml_link" type="string"></SimpleField>
</Schema>
<Folder><name>7e7b484f</name>
  <Placemark id="7e7b484f.1">
	<name>20705</name>
	<name>ск,марка</name>
	<ExtendedData><SchemaData schemaUrl="#7e7b484f">
		<SimpleData name="type">1</SimpleData>
		<SimpleData name="view">892.692</SimpleData>
		<SimpleData name="control_location">Линия: Арысь-Новосибирск, I  класс, Участок: марка б/№ Куркуреу-Су-ск, Марка 20705</SimpleData>
		<SimpleData name="benchmark_type">Куркуреу-Су,ст,, в 4,4 км к сев,-вост,от нее, на 2 пикете 1599 км, в 5,3 м кк юго-вост,от жел,-дор,полотна, в скале</SimpleData>
		<SimpleData name="leveling_line_section">за границей</SimpleData>
		<SimpleData name="location_description">7e7b484f-a7de-4a57-8343-37883c77c8f8</SimpleData>
		<SimpleData name="status">data/stations/7e7b484f.kml</SimpleData>
		<SimpleData name="guid">&lt;a href='data/stations/7e7b484f.kml' target='_blank'&gt;Download KML&lt;/a&gt;</SimpleData>
	</SchemaData></ExtendedData>
      <Point><coordinates>71.1449044267237,42.6686383852424</coordinates></Point>
  </Placemark>
</Folder>
</Document></kml>
