<?xml version="1.0" encoding="utf-8" ?>
<kml xmlns="http://www.opengis.net/kml/2.2">
<Document id="root_doc">
<Schema name="7f0bab48" id="7f0bab48">
	<SimpleField name="type" type="string"></SimpleField>
	<SimpleField name="view" type="string"></SimpleField>
	<SimpleField name="leveling_order" type="string"></SimpleField>
	<SimpleField name="leveling_height" type="string"></SimpleField>
	<SimpleField name="control_height" type="string"></SimpleField>
	<SimpleField name="benchmark_number" type="string"></SimpleField>
	<SimpleField name="control_location" type="string"></SimpleField>
	<SimpleField name="benchmark_type" type="string"></SimpleField>
	<SimpleField name="leveling_line_section" type="string"></SimpleField>
	<SimpleField name="location_description" type="string"></SimpleField>
	<SimpleField name="status" type="string"></SimpleField>
	<SimpleField name="guid" type="string"></SimpleField>
	<SimpleField name="kml" type="string"></SimpleField>
	<SimpleField name="kml_link" type="string"></SimpleField>
</Schema>
<Folder><name>7f0bab48</name>
  <Placemark id="7f0bab48.1">
	<name>3430</name>
	<name>грунт. реп. </name>
	<ExtendedData><SchemaData schemaUrl="#7f0bab48">
		<SimpleData name="type">2</SimpleData>
		<SimpleData name="leveling_height">160 оп. знак</SimpleData>
		<SimpleData name="benchmark_number">Линия № 2: Кабанбай - Сарканд, II класс 
Участок: грунт. реп. 620 – фунд. реп. 3030</SimpleData>
		<SimpleData name="control_location">Сарканд, гор., в 1.6 км к сев.-вост. от него, в 0.3 км к вост. от км. стб. 3/33 шоссе гор. Алматы – гор. Усть-Каменогорск, в 35 м к юго-вост. от моста через канал, в 21 м к югу от шоссе</SimpleData>
		<SimpleData name="benchmark_type">L-44-88-Г</SimpleData>
		<SimpleData name="location_description">7f0bab48-46b7-4d05-b4a8-8ea30b31fa92</SimpleData>
		<SimpleData name="status">data/stations/7f0bab48.kml</SimpleData>
		<SimpleData name="guid">&lt;a href='data/stations/7f0bab48.kml' target='_blank'&gt;Download KML&lt;/a&gt;</SimpleData>
	</SchemaData></ExtendedData>
      <Point><coordinates>79.958461403622,45.4101254143508</coordinates></Point>
  </Placemark>
</Folder>
</Document></kml>
