<?xml version="1.0" encoding="UTF-8"?>
<kml xmlns="http://www.opengis.net/kml/2.2">
  <Document id="root_doc">
    <Schema id="7f5631a9" name="7f5631a9">
      <SimpleField name="title" type="string"/>
      <SimpleField name="type" type="string"/>
      <SimpleField name="ext_sign" type="string"/>
      <SimpleField name="class_lvl" type="string"/>
      <SimpleField name="height_lvl" type="string"/>
      <SimpleField name="height_ctrl" type="string"/>
      <SimpleField name="ctrl_place" type="string"/>
      <SimpleField name="mark_num" type="string"/>
      <SimpleField name="center_type" type="string"/>
      <SimpleField name="lvl_line" type="string"/>
      <SimpleField name="guid" type="string"/>
    </Schema>
    <Schema id="_7f5631a9.schema">
      <SimpleField name="title" type="string"/>
      <SimpleField name="type" type="string"/>
      <SimpleField name="ext_sign" type="string"/>
      <SimpleField name="class_lvl" type="string"/>
      <SimpleField name="height_lvl" type="string"/>
      <SimpleField name="height_ctrl" type="string"/>
      <SimpleField name="ctrl_place" type="string"/>
      <SimpleField name="mark_num" type="string"/>
      <SimpleField name="center_type" type="string"/>
      <SimpleField name="lvl_line" type="string"/>
      <SimpleField name="guid" type="string"/>
    </Schema>
    <Document id="_7f5631a9">
      <name>7f5631a9</name>
      <Placemark id="_7f5631a9.1">
        <ExtendedData>
          <SchemaData schemaUrl="#_7f5631a9.schema">
            <SimpleData name="title">А15</SimpleData>
            <SimpleData name="type">Грунтовый </SimpleData>
            <SimpleData name="guid">7f5631a9-6cb8-4001-87e5-129ab395878b</SimpleData>
          </SchemaData>
        </ExtendedData>
        <Point>
          <coordinates>
            51.3312504536952,43.605227763997,0
          </coordinates>
        </Point>
      </Placemark>
    </Document>
  </Document>
</kml>
