<?xml version="1.0" encoding="utf-8" ?>
<kml xmlns="http://www.opengis.net/kml/2.2">
<Document id="root_doc">
<Schema name="7f5dc6fe" id="7f5dc6fe">
	<SimpleField name="type" type="string"></SimpleField>
	<SimpleField name="view" type="string"></SimpleField>
	<SimpleField name="leveling_order" type="string"></SimpleField>
	<SimpleField name="leveling_height" type="string"></SimpleField>
	<SimpleField name="control_height" type="string"></SimpleField>
	<SimpleField name="benchmark_number" type="string"></SimpleField>
	<SimpleField name="control_location" type="string"></SimpleField>
	<SimpleField name="benchmark_type" type="string"></SimpleField>
	<SimpleField name="leveling_line_section" type="string"></SimpleField>
	<SimpleField name="location_description" type="string"></SimpleField>
	<SimpleField name="status" type="string"></SimpleField>
	<SimpleField name="guid" type="string"></SimpleField>
	<SimpleField name="kml" type="string"></SimpleField>
	<SimpleField name="kml_link" type="string"></SimpleField>
</Schema>
<Folder><name>7f5dc6fe</name>
  <Placemark id="7f5dc6fe.1">
	<name>2594</name>
	<name>грунт. реп.</name>
	<ExtendedData><SchemaData schemaUrl="#7f5dc6fe">
		<SimpleData name="type">2</SimpleData>
		<SimpleData name="view">544,830</SimpleData>
		<SimpleData name="benchmark_number">146оп</SimpleData>
		<SimpleData name="control_location">Линия №49: Семипалатинск - Каркаралинск, 2 класс (6)   Участок: грунт. реп 8824 - грунт. реп. 2762</SimpleData>
		<SimpleData name="benchmark_type">Самай, с., в 8.5 км к сев.-вост. от него, в 4.5 км к югу от зимовки, в 31 м к сев.-зап. от дороги с. Саржал - с. Самай</SimpleData>
		<SimpleData name="location_description">7f5dc6fe-9444-4008-8db9-802ed83052b2</SimpleData>
		<SimpleData name="status">data/stations/7f5dc6fe.kml</SimpleData>
		<SimpleData name="guid">&lt;a href='data/stations/7f5dc6fe.kml' target='_blank'&gt;Download KML&lt;/a&gt;</SimpleData>
	</SchemaData></ExtendedData>
      <Point><coordinates>78.3553348094378,49.4285474623059</coordinates></Point>
  </Placemark>
</Folder>
</Document></kml>
