<?xml version="1.0" encoding="utf-8" ?>
<kml xmlns="http://www.opengis.net/kml/2.2">
<Document id="root_doc">
<Schema name="802b92ef" id="802b92ef">
	<SimpleField name="title" type="string"></SimpleField>
	<SimpleField name="type" type="string"></SimpleField>
	<SimpleField name="ext_sign" type="string"></SimpleField>
	<SimpleField name="class_lvl" type="string"></SimpleField>
	<SimpleField name="height_lvl" type="string"></SimpleField>
	<SimpleField name="height_ctrl" type="string"></SimpleField>
	<SimpleField name="ctrl_place" type="string"></SimpleField>
	<SimpleField name="mark_num" type="string"></SimpleField>
	<SimpleField name="center_type" type="string"></SimpleField>
	<SimpleField name="lvl_line" type="string"></SimpleField>
	<SimpleField name="guid" type="string"></SimpleField>
</Schema>
<Folder><name>802b92ef</name>
  <Placemark id="802b92ef.1">
	<name>2099</name>
	<description>грунтовый репер</description>
	<ExtendedData><SchemaData schemaUrl="#802b92ef">
		<SimpleData name="type">1</SimpleData>
		<SimpleData name="ext_sign">302,795</SimpleData>
		<SimpleData name="class_lvl">301,503*</SimpleData>
		<SimpleData name="height_lvl">в верхней плоскости монолита</SimpleData>
		<SimpleData name="ctrl_place">121 оп.знак</SimpleData>
		<SimpleData name="mark_num">Линия № 1:Торетоган-Берлик, I класс                            Участок: гр.реп. 1446-гр.реп. 2653</SimpleData>
		<SimpleData name="center_type">Карабугет,с., в 4,8 км к зап. от него, в 1,3 км к сев. от шоссе с.Уланбелъ-с.Фурмановка,в 0,2 км к вост. от полевой дороги</SimpleData>
		<SimpleData name="lvl_line">802b92ef-078a-413f-abf4-ec88d00ed8f9</SimpleData>
	</SchemaData></ExtendedData>
      <Point><coordinates>72.2023580265059,44.5629860128093</coordinates></Point>
  </Placemark>
</Folder>
</Document></kml>
