<?xml version="1.0" encoding="utf-8" ?>
<kml xmlns="http://www.opengis.net/kml/2.2">
<Document id="root_doc">
<Schema name="803de6bd" id="803de6bd">
	<SimpleField name="type" type="string"></SimpleField>
	<SimpleField name="view" type="string"></SimpleField>
	<SimpleField name="leveling_order" type="string"></SimpleField>
	<SimpleField name="leveling_height" type="string"></SimpleField>
	<SimpleField name="control_height" type="string"></SimpleField>
	<SimpleField name="benchmark_number" type="string"></SimpleField>
	<SimpleField name="control_location" type="string"></SimpleField>
	<SimpleField name="benchmark_type" type="string"></SimpleField>
	<SimpleField name="leveling_line_section" type="string"></SimpleField>
	<SimpleField name="location_description" type="string"></SimpleField>
	<SimpleField name="status" type="string"></SimpleField>
	<SimpleField name="guid" type="string"></SimpleField>
	<SimpleField name="kml" type="string"></SimpleField>
	<SimpleField name="kml_link" type="string"></SimpleField>
</Schema>
<Folder><name>803de6bd</name>
  <Placemark id="803de6bd.1">
	<name>8056</name>
	<description>грунт.реп.</description>
	<ExtendedData><SchemaData schemaUrl="#803de6bd">
		<SimpleData name="type">1</SimpleData>
		<SimpleData name="view">73.266</SimpleData>
		<SimpleData name="benchmark_number">160оп.</SimpleData>
		<SimpleData name="control_location">Линия №1 Аральск-Шалкар, I класс . Участок: фунд. Реп. 5059-грунт. Реп. 9012</SimpleData>
		<SimpleData name="benchmark_type">Тербенбес, раз., в 4.6 км к юго-вост. от него, в 32 м к юго-зап. от жел.дор.,         в    29 м.  к       юго-зап. от км.стб.2333/2334,в 27 м  к вост.от стб. ЛЭП №19</SimpleData>
		<SimpleData name="location_description">803de6bd-35e5-498a-be24-594301a9f7cc</SimpleData>
		<SimpleData name="status">data/stations/803de6bd.kml</SimpleData>
		<SimpleData name="guid">&lt;a href='data/stations/803de6bd.kml' target='_blank'&gt;Download KML&lt;/a&gt;</SimpleData>
	</SchemaData></ExtendedData>
      <Point><coordinates>61.2965101920541,47.0122343343674</coordinates></Point>
  </Placemark>
</Folder>
</Document></kml>
