<?xml version="1.0" encoding="utf-8" ?>
<kml xmlns="http://www.opengis.net/kml/2.2">
<Document id="root_doc">
<Schema name="80f208af" id="80f208af">
	<SimpleField name="title" type="string"></SimpleField>
	<SimpleField name="type" type="string"></SimpleField>
	<SimpleField name="ext_sign" type="string"></SimpleField>
	<SimpleField name="class_lvl" type="string"></SimpleField>
	<SimpleField name="height_lvl" type="string"></SimpleField>
	<SimpleField name="height_ctrl" type="string"></SimpleField>
	<SimpleField name="ctrl_place" type="string"></SimpleField>
	<SimpleField name="mark_num" type="string"></SimpleField>
	<SimpleField name="center_type" type="string"></SimpleField>
	<SimpleField name="lvl_line" type="string"></SimpleField>
	<SimpleField name="guid" type="string"></SimpleField>
</Schema>
<Folder><name>80f208af</name>
  <Placemark id="80f208af.1">
	<name>576</name>
	<description>грунтовый репер</description>
	<ExtendedData><SchemaData schemaUrl="#80f208af">
		<SimpleData name="title">z68a</SimpleData>
		<SimpleData name="type"></SimpleData>
		<SimpleData name="ext_sign"></SimpleData>
		<SimpleData name="class_lvl"></SimpleData>
		<SimpleData name="height_lvl"></SimpleData>
		<SimpleData name="height_ctrl"></SimpleData>
		<SimpleData name="ctrl_place"></SimpleData>
		<SimpleData name="mark_num"></SimpleData>
		<SimpleData name="center_type"></SimpleData>
		<SimpleData name="lvl_line">80f208af-ee4c-4aa9-878f-67a76c13577f</SimpleData>
	</SchemaData></ExtendedData>
      <Point><coordinates>47.060357543041,49.1603310861005</coordinates></Point>
  </Placemark>
</Folder>
</Document></kml>
