<?xml version="1.0" encoding="UTF-8"?>
<kml xmlns="http://www.opengis.net/kml/2.2">
  <Document id="root_doc">
    <Schema id="8103f38c" name="8103f38c">
      <SimpleField name="title" type="string"/>
      <SimpleField name="type" type="string"/>
      <SimpleField name="ext_sign" type="string"/>
      <SimpleField name="class_lvl" type="string"/>
      <SimpleField name="height_lvl" type="string"/>
      <SimpleField name="height_ctrl" type="string"/>
      <SimpleField name="ctrl_place" type="string"/>
      <SimpleField name="mark_num" type="string"/>
      <SimpleField name="center_type" type="string"/>
      <SimpleField name="lvl_line" type="string"/>
      <SimpleField name="guid" type="string"/>
    </Schema>
    <Schema id="_8103f38c.schema">
      <SimpleField name="title" type="string"/>
      <SimpleField name="type" type="string"/>
      <SimpleField name="ext_sign" type="string"/>
      <SimpleField name="class_lvl" type="string"/>
      <SimpleField name="height_lvl" type="string"/>
      <SimpleField name="height_ctrl" type="string"/>
      <SimpleField name="ctrl_place" type="string"/>
      <SimpleField name="mark_num" type="string"/>
      <SimpleField name="center_type" type="string"/>
      <SimpleField name="lvl_line" type="string"/>
      <SimpleField name="guid" type="string"/>
    </Schema>
    <Document id="_8103f38c">
      <name>8103f38c</name>
      <Placemark id="_8103f38c.1">
        <description>Бесапан, кладб., в 8.8 км к сев.-зап. от него, в 3.8 км к вост, от нефтепровода, к сев. от полевой дороги</description>
        <ExtendedData>
          <SchemaData schemaUrl="#_8103f38c.schema">
            <SimpleData name="title">1512</SimpleData>
            <SimpleData name="type">грунтовый репер</SimpleData>
            <SimpleData name="ext_sign">грунтовый репер</SimpleData>
            <SimpleData name="class_lvl">2</SimpleData>
            <SimpleData name="height_lvl">348,631</SimpleData>
            <SimpleData name="height_ctrl">347,602</SimpleData>
            <SimpleData name="ctrl_place">в фундаментной плите</SimpleData>
            <SimpleData name="mark_num">1645</SimpleData>
            <SimpleData name="center_type">116 оп. знак</SimpleData>
            <SimpleData name="lvl_line">Линия № 2: Древний Курган - Сасыккудык, 2 класс (3) Участок: фунд. реп. 1377-грунт, реп. 1748</SimpleData>
            <SimpleData name="guid">8103f38c-4cb6-4b8d-bd1f-e9f0b23fe3e3</SimpleData>
          </SchemaData>
        </ExtendedData>
        <Point>
          <coordinates>
            68.4698098713461,47.3803660326413,0
          </coordinates>
        </Point>
      </Placemark>
    </Document>
  </Document>
</kml>
