<?xml version="1.0" encoding="utf-8" ?>
<kml xmlns="http://www.opengis.net/kml/2.2">
<Document id="root_doc">
<Schema name="812cb421" id="812cb421">
	<SimpleField name="title" type="string"></SimpleField>
	<SimpleField name="type" type="string"></SimpleField>
	<SimpleField name="ext_sign" type="string"></SimpleField>
	<SimpleField name="class_lvl" type="string"></SimpleField>
	<SimpleField name="height_lvl" type="string"></SimpleField>
	<SimpleField name="height_ctrl" type="string"></SimpleField>
	<SimpleField name="ctrl_place" type="string"></SimpleField>
	<SimpleField name="mark_num" type="string"></SimpleField>
	<SimpleField name="center_type" type="string"></SimpleField>
	<SimpleField name="lvl_line" type="string"></SimpleField>
	<SimpleField name="guid" type="string"></SimpleField>
</Schema>
<Folder><name>812cb421</name>
  <Placemark id="812cb421.1">
	<name>404</name>
	<ExtendedData><SchemaData schemaUrl="#812cb421">
		<SimpleData name="title">грунт.реп.</SimpleData>
		<SimpleData name="type">II</SimpleData>
		<SimpleData name="ext_sign">657.822</SimpleData>
		<SimpleData name="class_lvl">655.249*</SimpleData>
		<SimpleData name="height_lvl">в верхней плоскости монолита</SimpleData>
		<SimpleData name="ctrl_place">121оп.знак</SimpleData>
		<SimpleData name="mark_num">Линия № 1:Аркарлы-Мойынты II класс
Участок: грунт.реп.121 - грунт.реп.415</SimpleData>
		<SimpleData name="center_type">Бельасар,зим.,в 16.0 км к юго-вост.от нее,в 1.2 км к юго-вост.от мог.Кылышбай и колодца,у ручья</SimpleData>
		<SimpleData name="lvl_line">812cb421-7b00-4f12-a0d1-fe5064fddc71</SimpleData>
	</SchemaData></ExtendedData>
      <Point><coordinates>72.943492,47.235873</coordinates></Point>
  </Placemark>
</Folder>
</Document></kml>
