<?xml version="1.0" encoding="utf-8" ?>
<kml xmlns="http://www.opengis.net/kml/2.2">
<Document id="root_doc">
<Schema name="81307710" id="81307710">
	<SimpleField name="title" type="string"></SimpleField>
	<SimpleField name="type" type="string"></SimpleField>
	<SimpleField name="ext_sign" type="string"></SimpleField>
	<SimpleField name="class_lvl" type="string"></SimpleField>
	<SimpleField name="height_lvl" type="string"></SimpleField>
	<SimpleField name="height_ctrl" type="string"></SimpleField>
	<SimpleField name="ctrl_place" type="string"></SimpleField>
	<SimpleField name="mark_num" type="string"></SimpleField>
	<SimpleField name="center_type" type="string"></SimpleField>
	<SimpleField name="lvl_line" type="string"></SimpleField>
	<SimpleField name="guid" type="string"></SimpleField>
</Schema>
<Folder><name>81307710</name>
  <Placemark id="81307710.1">
	<name>2910</name>
	<description>грунтовый репер</description>
	<ExtendedData><SchemaData schemaUrl="#81307710">
		<SimpleData name="type">1</SimpleData>
		<SimpleData name="ext_sign">315.501</SimpleData>
		<SimpleData name="ctrl_place">160 оп.знак</SimpleData>
		<SimpleData name="mark_num">Линия № 1:Торетоган-Берлик, I класс                            Участок: гр.реп. 1446-гр.реп. 2653</SimpleData>
		<SimpleData name="center_type">Кумузек,с. , в 0.2км к югу от него, в 0.2 км к юго-зап. От электростанции, в 22м к юго-зап. от жел.-бет. Стб. 800/73 ЛЭП</SimpleData>
		<SimpleData name="lvl_line">81307710-9bfc-48bf-a882-11db9b9a6ca4</SimpleData>
	</SchemaData></ExtendedData>
      <Point><coordinates>72.3792031697722,44.4457521164157</coordinates></Point>
  </Placemark>
</Folder>
</Document></kml>
