<?xml version="1.0" encoding="utf-8" ?>
<kml xmlns="http://www.opengis.net/kml/2.2">
<Document id="root_doc">
<Schema name="81573b78" id="81573b78">
	<SimpleField name="type" type="string"></SimpleField>
	<SimpleField name="view" type="string"></SimpleField>
	<SimpleField name="leveling_order" type="string"></SimpleField>
	<SimpleField name="leveling_height" type="string"></SimpleField>
	<SimpleField name="control_height" type="string"></SimpleField>
	<SimpleField name="benchmark_number" type="string"></SimpleField>
	<SimpleField name="control_location" type="string"></SimpleField>
	<SimpleField name="benchmark_type" type="string"></SimpleField>
	<SimpleField name="leveling_line_section" type="string"></SimpleField>
	<SimpleField name="location_description" type="string"></SimpleField>
	<SimpleField name="status" type="string"></SimpleField>
	<SimpleField name="guid" type="string"></SimpleField>
	<SimpleField name="kml" type="string"></SimpleField>
	<SimpleField name="kml_link" type="string"></SimpleField>
</Schema>
<Folder><name>81573b78</name>
  <Placemark id="81573b78.1">
	<name>798</name>
	<name>скальный репер</name>
	<ExtendedData><SchemaData schemaUrl="#81573b78">
		<SimpleData name="type">II</SimpleData>
		<SimpleData name="view">459,633</SimpleData>
		<SimpleData name="benchmark_number">99</SimpleData>
		<SimpleData name="control_location">Линия № 2: Сарыкияк-Степное, II класс (2)   Участок: грунт. реп. 903-грунт. реп. 2687</SimpleData>
		<SimpleData name="benchmark_type">Жаксы-Кандыадыр, с., в 1.8 км к сев. от него, в 62 м к вост, от км. стб. 2/10, в трубе, верх кордонного камня</SimpleData>
		<SimpleData name="location_description">81573b78-ae75-4824-934a-973581eb2024</SimpleData>
		<SimpleData name="status">data/stations/81573b78.kml</SimpleData>
		<SimpleData name="guid">&lt;a href='data/stations/81573b78.kml' target='_blank'&gt;Download KML&lt;/a&gt;</SimpleData>
	</SchemaData></ExtendedData>
      <Point><coordinates>73.7823766111697,50.6960970932398</coordinates></Point>
  </Placemark>
</Folder>
</Document></kml>
