<?xml version="1.0" encoding="utf-8" ?>
<kml xmlns="http://www.opengis.net/kml/2.2">
<Document id="root_doc">
<Schema name="81bb5c41" id="81bb5c41">
	<SimpleField name="type" type="string"></SimpleField>
	<SimpleField name="view" type="string"></SimpleField>
	<SimpleField name="leveling_order" type="string"></SimpleField>
	<SimpleField name="leveling_height" type="string"></SimpleField>
	<SimpleField name="control_height" type="string"></SimpleField>
	<SimpleField name="benchmark_number" type="string"></SimpleField>
	<SimpleField name="control_location" type="string"></SimpleField>
	<SimpleField name="benchmark_type" type="string"></SimpleField>
	<SimpleField name="leveling_line_section" type="string"></SimpleField>
	<SimpleField name="location_description" type="string"></SimpleField>
	<SimpleField name="status" type="string"></SimpleField>
	<SimpleField name="guid" type="string"></SimpleField>
	<SimpleField name="kml" type="string"></SimpleField>
	<SimpleField name="kml_link" type="string"></SimpleField>
</Schema>
<Folder><name>81bb5c41</name>
  <Placemark id="81bb5c41.1">
	<name>34</name>
	<name>грунт. реп. </name>
	<ExtendedData><SchemaData schemaUrl="#81bb5c41">
		<SimpleData name="type">1</SimpleData>
		<SimpleData name="view">348.742</SimpleData>
		<SimpleData name="benchmark_number">138</SimpleData>
		<SimpleData name="control_location">Линия № 1: Сарышаган – Каратас, I класс 
Участок: грунт.реп. 2137 – фунд.реп. 3000

</SimpleData>
		<SimpleData name="benchmark_type">Акбалык, станц., в 2.8 км к сев.-вост. от нее, в 87 м к сев.-зап. от км. стб. 1176/1177, в 83 м к сев.-зап. от жел.дор.</SimpleData>
		<SimpleData name="location_description">81bb5c41-1070-4164-8187-55ac8b60a616</SimpleData>
		<SimpleData name="status">data/stations/81bb5c41.kml</SimpleData>
		<SimpleData name="guid">&lt;a href='data/stations/81bb5c41.kml' target='_blank'&gt;Download KML&lt;/a&gt;</SimpleData>
	</SchemaData></ExtendedData>
      <Point><coordinates>79.2354430200388,46.589286795266</coordinates></Point>
  </Placemark>
</Folder>
</Document></kml>
