<?xml version="1.0" encoding="utf-8" ?>
<kml xmlns="http://www.opengis.net/kml/2.2">
<Document id="root_doc">
<Schema name="81bf607b" id="81bf607b">
	<SimpleField name="title" type="string"></SimpleField>
	<SimpleField name="type" type="string"></SimpleField>
	<SimpleField name="ext_sign" type="string"></SimpleField>
	<SimpleField name="class_lvl" type="string"></SimpleField>
	<SimpleField name="height_lvl" type="string"></SimpleField>
	<SimpleField name="height_ctrl" type="string"></SimpleField>
	<SimpleField name="ctrl_place" type="string"></SimpleField>
	<SimpleField name="mark_num" type="string"></SimpleField>
	<SimpleField name="center_type" type="string"></SimpleField>
	<SimpleField name="lvl_line" type="string"></SimpleField>
	<SimpleField name="guid" type="string"></SimpleField>
</Schema>
<Folder><name>81bf607b</name>
  <Placemark id="81bf607b.1">
	<name>б/№</name>
	<description>грунтовый репер</description>
	<ExtendedData><SchemaData schemaUrl="#81bf607b">
		<SimpleData name="type">1</SimpleData>
		<SimpleData name="ext_sign">134,223</SimpleData>
		<SimpleData name="ctrl_place">160 оп. знак</SimpleData>
		<SimpleData name="mark_num">Линия № 1: Кызылорда - Торыустаган. 1 класс (11
Участок: грунт, реп. 6294 - грунт, реп. 774</SimpleData>
		<SimpleData name="center_type">Жангызжар, разв., в 24.4 км к сев.-вост. от них, в 1.8 км к сев.-зап. от вдхр., в 0.2 км к югу от такьфа, в 15 м к
сев. от полевой дороги </SimpleData>
		<SimpleData name="lvl_line">81bf607b-1b89-4120-a076-6297086ce704</SimpleData>
	</SchemaData></ExtendedData>
      <Point><coordinates>66.3157467206781,44.885631193581</coordinates></Point>
  </Placemark>
</Folder>
</Document></kml>
