<?xml version="1.0" encoding="utf-8" ?>
<kml xmlns="http://www.opengis.net/kml/2.2">
<Document id="root_doc">
<Schema name="820e0de3" id="820e0de3">
	<SimpleField name="type" type="string"></SimpleField>
	<SimpleField name="view" type="string"></SimpleField>
	<SimpleField name="leveling_order" type="string"></SimpleField>
	<SimpleField name="leveling_height" type="string"></SimpleField>
	<SimpleField name="control_height" type="string"></SimpleField>
	<SimpleField name="benchmark_number" type="string"></SimpleField>
	<SimpleField name="control_location" type="string"></SimpleField>
	<SimpleField name="benchmark_type" type="string"></SimpleField>
	<SimpleField name="leveling_line_section" type="string"></SimpleField>
	<SimpleField name="location_description" type="string"></SimpleField>
	<SimpleField name="status" type="string"></SimpleField>
	<SimpleField name="guid" type="string"></SimpleField>
	<SimpleField name="kml" type="string"></SimpleField>
	<SimpleField name="kml_link" type="string"></SimpleField>
</Schema>
<Folder><name>820e0de3</name>
  <Placemark id="820e0de3.1">
	<name>9425</name>
	<name>грунтовый репер</name>
	<ExtendedData><SchemaData schemaUrl="#820e0de3">
		<SimpleData name="type">II</SimpleData>
		<SimpleData name="view">697,163</SimpleData>
		<SimpleData name="benchmark_number">160 оп</SimpleData>
		<SimpleData name="control_location">Линия №1: Коянды-Каркаралинск, II класс (I). Участок: грунт.реп.3423-грунт.реп.9313</SimpleData>
		<SimpleData name="benchmark_type">Егиндыбулак, с., в 4,2 км к югу от него, в 0,3 км к сев.от моста, в 26 м к зап.от шоссе с.Егиндыбулак-гор.Каркаралинск</SimpleData>
		<SimpleData name="leveling_line_section">не найден</SimpleData>
		<SimpleData name="location_description">820e0de3-efa3-4a2b-95b1-5fcdaec42755</SimpleData>
		<SimpleData name="status">data/stations/820e0de3.kml</SimpleData>
		<SimpleData name="guid">&lt;a href='data/stations/820e0de3.kml' target='_blank'&gt;Download KML&lt;/a&gt;</SimpleData>
	</SchemaData></ExtendedData>
      <Point><coordinates>76.3769765755537,49.7418921847643</coordinates></Point>
  </Placemark>
</Folder>
</Document></kml>
