<?xml version="1.0" encoding="utf-8" ?>
<kml xmlns="http://www.opengis.net/kml/2.2">
<Document id="root_doc">
<Schema name="8279b4b6" id="8279b4b6">
	<SimpleField name="title" type="string"></SimpleField>
	<SimpleField name="type" type="string"></SimpleField>
	<SimpleField name="ext_sign" type="string"></SimpleField>
	<SimpleField name="class_lvl" type="string"></SimpleField>
	<SimpleField name="height_lvl" type="string"></SimpleField>
	<SimpleField name="height_ctrl" type="string"></SimpleField>
	<SimpleField name="ctrl_place" type="string"></SimpleField>
	<SimpleField name="mark_num" type="string"></SimpleField>
	<SimpleField name="center_type" type="string"></SimpleField>
	<SimpleField name="lvl_line" type="string"></SimpleField>
	<SimpleField name="guid" type="string"></SimpleField>
</Schema>
<Folder><name>8279b4b6</name>
  <Placemark id="8279b4b6.1">
	<name>1856</name>
	<description>фундаментальный репер</description>
	<ExtendedData><SchemaData schemaUrl="#8279b4b6">
		<SimpleData name="type">2</SimpleData>
		<SimpleData name="ext_sign">199,268</SimpleData>
		<SimpleData name="ctrl_place">161 оп</SimpleData>
		<SimpleData name="mark_num">Линия № 4: Семиярск-Коянды, II класс (3) Участок: грунт. реп. 1861-фунд. реп. 871</SimpleData>
		<SimpleData name="center_type">Каракудык, лет., в 0.5 км к юго-зап. от него, в 75 м к сев.-зап. от грунт. реп. 2198, в 15 м к сев.-зап. от полевой дороги</SimpleData>
		<SimpleData name="lvl_line">8279b4b6-22bb-41c3-acec-266bcd10e1a9</SimpleData>
	</SchemaData></ExtendedData>
      <Point><coordinates>78.1116685739261,50.7230460153017</coordinates></Point>
  </Placemark>
</Folder>
</Document></kml>
