<?xml version="1.0" encoding="utf-8" ?>
<kml xmlns="http://www.opengis.net/kml/2.2">
<Document id="root_doc">
<Schema name="8281f2ed" id="8281f2ed">
	<SimpleField name="type" type="string"></SimpleField>
	<SimpleField name="view" type="string"></SimpleField>
	<SimpleField name="leveling_order" type="string"></SimpleField>
	<SimpleField name="leveling_height" type="string"></SimpleField>
	<SimpleField name="control_height" type="string"></SimpleField>
	<SimpleField name="benchmark_number" type="string"></SimpleField>
	<SimpleField name="control_location" type="string"></SimpleField>
	<SimpleField name="benchmark_type" type="string"></SimpleField>
	<SimpleField name="leveling_line_section" type="string"></SimpleField>
	<SimpleField name="location_description" type="string"></SimpleField>
	<SimpleField name="status" type="string"></SimpleField>
	<SimpleField name="guid" type="string"></SimpleField>
	<SimpleField name="kml" type="string"></SimpleField>
	<SimpleField name="kml_link" type="string"></SimpleField>
</Schema>
<Folder><name>8281f2ed</name>
  <Placemark id="8281f2ed.1">
	<name>5888</name>
	<name>грунтовый репер</name>
	<ExtendedData><SchemaData schemaUrl="#8281f2ed">
		<SimpleData name="type">2</SimpleData>
		<SimpleData name="view">460,037</SimpleData>
		<SimpleData name="control_location">Линия № 3: фунд. реп. 2723 -Аркарлы. II класс (2) Участок: фунд. реп. 2723 -грунт. реп. 9571 </SimpleData>
		<SimpleData name="benchmark_type">Шалкия, с., в 1.9 км к вост. от него, в 0.3 км к юго-вост. от развилки полевой дороги, в 20 м к югу от полевой дороги </SimpleData>
		<SimpleData name="location_description">8281f2ed-91cf-4fbc-92f9-b2bcd14e4954</SimpleData>
		<SimpleData name="status">data/stations/8281f2ed.kml</SimpleData>
		<SimpleData name="guid">&lt;a href='data/stations/8281f2ed.kml' target='_blank'&gt;Download KML&lt;/a&gt;</SimpleData>
	</SchemaData></ExtendedData>
      <Point><coordinates>70.6927724696265,47.3346524659028</coordinates></Point>
  </Placemark>
</Folder>
</Document></kml>
