<?xml version="1.0" encoding="utf-8" ?>
<kml xmlns="http://www.opengis.net/kml/2.2">
<Document id="root_doc">
<Schema name="82834e9c" id="82834e9c">
	<SimpleField name="title" type="string"></SimpleField>
	<SimpleField name="type" type="string"></SimpleField>
	<SimpleField name="ext_sign" type="string"></SimpleField>
	<SimpleField name="class_lvl" type="string"></SimpleField>
	<SimpleField name="height_lvl" type="string"></SimpleField>
	<SimpleField name="height_ctrl" type="string"></SimpleField>
	<SimpleField name="ctrl_place" type="string"></SimpleField>
	<SimpleField name="mark_num" type="string"></SimpleField>
	<SimpleField name="center_type" type="string"></SimpleField>
	<SimpleField name="lvl_line" type="string"></SimpleField>
	<SimpleField name="guid" type="string"></SimpleField>
</Schema>
<Folder><name>82834e9c</name>
  <Placemark id="82834e9c.1">
	<name>0010</name>
	<description>грунтовый репер</description>
	<ExtendedData><SchemaData schemaUrl="#82834e9c">
		<SimpleData name="title">z33</SimpleData>
		<SimpleData name="lvl_line">82834e9c-5cf8-40d9-aaee-2c5abd58c1b8</SimpleData>
	</SchemaData></ExtendedData>
      <Point><coordinates>47.9495570254977,47.8396280635929</coordinates></Point>
  </Placemark>
</Folder>
</Document></kml>
