<?xml version="1.0" encoding="utf-8" ?>
<kml xmlns="http://www.opengis.net/kml/2.2">
<Document id="root_doc">
<Schema name="832d5ed7" id="832d5ed7">
	<SimpleField name="type" type="string"></SimpleField>
	<SimpleField name="view" type="string"></SimpleField>
	<SimpleField name="leveling_order" type="string"></SimpleField>
	<SimpleField name="leveling_height" type="string"></SimpleField>
	<SimpleField name="control_height" type="string"></SimpleField>
	<SimpleField name="benchmark_number" type="string"></SimpleField>
	<SimpleField name="control_location" type="string"></SimpleField>
	<SimpleField name="benchmark_type" type="string"></SimpleField>
	<SimpleField name="leveling_line_section" type="string"></SimpleField>
	<SimpleField name="location_description" type="string"></SimpleField>
	<SimpleField name="status" type="string"></SimpleField>
	<SimpleField name="guid" type="string"></SimpleField>
	<SimpleField name="kml" type="string"></SimpleField>
	<SimpleField name="kml_link" type="string"></SimpleField>
</Schema>
<Folder><name>832d5ed7</name>
  <Placemark id="832d5ed7.1">
	<name>751</name>
	<name>грунт,реп,</name>
	<ExtendedData><SchemaData schemaUrl="#832d5ed7">
		<SimpleData name="type">I</SimpleData>
		<SimpleData name="view">131.022</SimpleData>
		<SimpleData name="benchmark_number">160 оп,знак</SimpleData>
		<SimpleData name="control_location">Линия № 1: Костанай - Петропавловск, I класс
Участок; грунт, реп, X - грунт, реп, 4113</SimpleData>
		<SimpleData name="benchmark_type">Николаевка, с,, в 0,8 км к сев,-зап, от него, в 0,6 км к
юго-вост, от полевой дороги, в 0,3 км к юго-зап, от
грунт, дороги с, Меней - с, Николаевка</SimpleData>
		<SimpleData name="location_description">832d5ed7-53df-4667-8030-bba117488f95</SimpleData>
		<SimpleData name="status">data/stations/832d5ed7.kml</SimpleData>
		<SimpleData name="guid">&lt;a href='data/stations/832d5ed7.kml' target='_blank'&gt;Download KML&lt;/a&gt;</SimpleData>
	</SchemaData></ExtendedData>
      <Point><coordinates>67.7658612025673,54.1952804015268</coordinates></Point>
  </Placemark>
</Folder>
</Document></kml>
