<?xml version="1.0" encoding="utf-8" ?>
<kml xmlns="http://www.opengis.net/kml/2.2">
<Document id="root_doc">
<Schema name="8351368b" id="8351368b">
	<SimpleField name="title" type="string"></SimpleField>
	<SimpleField name="type" type="string"></SimpleField>
	<SimpleField name="ext_sign" type="string"></SimpleField>
	<SimpleField name="class_lvl" type="string"></SimpleField>
	<SimpleField name="height_lvl" type="string"></SimpleField>
	<SimpleField name="height_ctrl" type="string"></SimpleField>
	<SimpleField name="ctrl_place" type="string"></SimpleField>
	<SimpleField name="mark_num" type="string"></SimpleField>
	<SimpleField name="center_type" type="string"></SimpleField>
	<SimpleField name="lvl_line" type="string"></SimpleField>
	<SimpleField name="guid" type="string"></SimpleField>
</Schema>
<Folder><name>8351368b</name>
  <Placemark id="8351368b.1">
	<name>3957</name>
	<description>Грунтовый репер </description>
	<ExtendedData><SchemaData schemaUrl="#8351368b">
		<SimpleData name="type">2</SimpleData>
		<SimpleData name="ctrl_place">160 оп</SimpleData>
		<SimpleData name="center_type">Каракалпак с., в 0.5 км юго вост от него, в 0.2 км к юго-вост. От дороги с асфальтным покрытием,  в 0.1 км к юго - вост. От столба ЛЭП 220 кв. номер 94  , 0.1 км к юго-зап. От болота, в 50 м к северу от железной дороги г. АСТАНА- с. Тобол, на восточной окраине лесополосы.</SimpleData>
		<SimpleData name="lvl_line">8351368b-5f85-4c10-be44-999df87e4f70</SimpleData>
	</SchemaData></ExtendedData>
      <Point><coordinates>63.708385,52.4592016666667</coordinates></Point>
  </Placemark>
</Folder>
</Document></kml>
