<?xml version="1.0" encoding="utf-8" ?>
<kml xmlns="http://www.opengis.net/kml/2.2">
<Document id="root_doc">
<Schema name="83a947d1" id="83a947d1">
	<SimpleField name="title" type="string"></SimpleField>
	<SimpleField name="type" type="string"></SimpleField>
	<SimpleField name="ext_sign" type="string"></SimpleField>
	<SimpleField name="class_lvl" type="string"></SimpleField>
	<SimpleField name="height_lvl" type="string"></SimpleField>
	<SimpleField name="height_ctrl" type="string"></SimpleField>
	<SimpleField name="ctrl_place" type="string"></SimpleField>
	<SimpleField name="mark_num" type="string"></SimpleField>
	<SimpleField name="center_type" type="string"></SimpleField>
	<SimpleField name="lvl_line" type="string"></SimpleField>
	<SimpleField name="guid" type="string"></SimpleField>
</Schema>
<Folder><name>83a947d1</name>
  <Placemark id="83a947d1.1">
	<name>3239</name>
	<description>грунтовый репер</description>
	<ExtendedData><SchemaData schemaUrl="#83a947d1">
		<SimpleData name="type">1</SimpleData>
		<SimpleData name="ext_sign">671.953</SimpleData>
		<SimpleData name="ctrl_place">Д</SimpleData>
		<SimpleData name="center_type">Сарыбулак, зим., в 0.4 км к востоку от нее, в 0.5 км к юго-вост. от кладбища, в 0.1 км к востоку от дороги с.Баршатас-с.Айгыз.</SimpleData>
		<SimpleData name="lvl_line">83a947d1-ffbf-4592-ac19-858f9819f09a</SimpleData>
	</SchemaData></ExtendedData>
      <Point><coordinates>78.9448392267757,47.9665598882879</coordinates></Point>
  </Placemark>
</Folder>
</Document></kml>
