<?xml version="1.0" encoding="utf-8" ?>
<kml xmlns="http://www.opengis.net/kml/2.2">
<Document id="root_doc">
<Schema name="83c49b1c" id="83c49b1c">
	<SimpleField name="type" type="string"></SimpleField>
	<SimpleField name="view" type="string"></SimpleField>
	<SimpleField name="leveling_order" type="string"></SimpleField>
	<SimpleField name="leveling_height" type="string"></SimpleField>
	<SimpleField name="control_height" type="string"></SimpleField>
	<SimpleField name="benchmark_number" type="string"></SimpleField>
	<SimpleField name="control_location" type="string"></SimpleField>
	<SimpleField name="benchmark_type" type="string"></SimpleField>
	<SimpleField name="leveling_line_section" type="string"></SimpleField>
	<SimpleField name="location_description" type="string"></SimpleField>
	<SimpleField name="status" type="string"></SimpleField>
	<SimpleField name="guid" type="string"></SimpleField>
	<SimpleField name="kml" type="string"></SimpleField>
	<SimpleField name="kml_link" type="string"></SimpleField>
</Schema>
<Folder><name>83c49b1c</name>
  <Placemark id="83c49b1c.1">
	<name>8303</name>
	<description>грунт. реп.</description>
	<ExtendedData><SchemaData schemaUrl="#83c49b1c">
		<SimpleData name="type">1</SimpleData>
		<SimpleData name="view">123.207</SimpleData>
		<SimpleData name="benchmark_number">160 оп</SimpleData>
		<SimpleData name="control_location">Линия № 3: Кумкала - Кызылорда, I класс. Участок: грунт.реп. 8282 - фунд.реп. 3047</SimpleData>
		<SimpleData name="benchmark_type">Акжарма, с., в 6.8 км к сев.-зап.от него, в 0.2 км к сев.-зап.от кладбища, в 35 м к югу от км. стб. №33, в 25 м к югу от шоссе с. Шаган - с. Тасбогет</SimpleData>
		<SimpleData name="location_description">83c49b1c-9e4b-4f8d-8579-594c63934eed</SimpleData>
		<SimpleData name="status">data/stations/83c49b1c.kml</SimpleData>
		<SimpleData name="guid">&lt;a href='data/stations/83c49b1c.kml' target='_blank'&gt;Download KML&lt;/a&gt;</SimpleData>
	</SchemaData></ExtendedData>
      <Point><coordinates>65.2734061073648,44.8792063318121</coordinates></Point>
  </Placemark>
</Folder>
</Document></kml>
