<?xml version="1.0" encoding="utf-8" ?>
<kml xmlns="http://www.opengis.net/kml/2.2">
<Document id="root_doc">
<Schema name="83cb553c" id="83cb553c">
	<SimpleField name="type" type="string"></SimpleField>
	<SimpleField name="view" type="string"></SimpleField>
	<SimpleField name="leveling_order" type="string"></SimpleField>
	<SimpleField name="leveling_height" type="string"></SimpleField>
	<SimpleField name="control_height" type="string"></SimpleField>
	<SimpleField name="benchmark_number" type="string"></SimpleField>
	<SimpleField name="control_location" type="string"></SimpleField>
	<SimpleField name="benchmark_type" type="string"></SimpleField>
	<SimpleField name="leveling_line_section" type="string"></SimpleField>
	<SimpleField name="location_description" type="string"></SimpleField>
	<SimpleField name="status" type="string"></SimpleField>
	<SimpleField name="guid" type="string"></SimpleField>
	<SimpleField name="kml" type="string"></SimpleField>
	<SimpleField name="kml_link" type="string"></SimpleField>
</Schema>
<Folder><name>83cb553c</name>
  <Placemark id="83cb553c.1">
	<name>6978</name>
	<name>грунт.реп.</name>
	<ExtendedData><SchemaData schemaUrl="#83cb553c">
		<SimpleData name="type">2</SimpleData>
		<SimpleData name="view">331,185</SimpleData>
		<SimpleData name="benchmark_number">146 оп</SimpleData>
		<SimpleData name="control_location">Линия № 93 :    Семипалатинск - Каркаралинск, 2 класс (13)  Участок: грунт.реп. 5213 - грунт.реп. 7487</SimpleData>
		<SimpleData name="benchmark_type">Знаменка, с., в 21,0 км к сев.-вост. от него, в 10,9 км к сев.-вост. от с.Щерба-ковка, в 0,1 км к сев.-зап. от дороги с.Знаменка - гор. Семипалатинск, у км стб. 232/38</SimpleData>
		<SimpleData name="location_description">83cb553c-64b4-4ae7-9472-0925c8cb2b20</SimpleData>
		<SimpleData name="status">data/stations/83cb553c.kml</SimpleData>
		<SimpleData name="guid">&lt;a href='data/stations/83cb553c.kml' target='_blank'&gt;Download KML&lt;/a&gt;</SimpleData>
	</SchemaData></ExtendedData>
      <Point><coordinates>79.815824152288,50.2043936874358</coordinates></Point>
  </Placemark>
</Folder>
</Document></kml>
