<?xml version="1.0" encoding="utf-8" ?>
<kml xmlns="http://www.opengis.net/kml/2.2">
<Document id="root_doc">
<Schema name="846923d0" id="846923d0">
	<SimpleField name="type" type="string"></SimpleField>
	<SimpleField name="view" type="string"></SimpleField>
	<SimpleField name="leveling_order" type="string"></SimpleField>
	<SimpleField name="leveling_height" type="string"></SimpleField>
	<SimpleField name="control_height" type="string"></SimpleField>
	<SimpleField name="benchmark_number" type="string"></SimpleField>
	<SimpleField name="control_location" type="string"></SimpleField>
	<SimpleField name="benchmark_type" type="string"></SimpleField>
	<SimpleField name="leveling_line_section" type="string"></SimpleField>
	<SimpleField name="location_description" type="string"></SimpleField>
	<SimpleField name="status" type="string"></SimpleField>
	<SimpleField name="guid" type="string"></SimpleField>
	<SimpleField name="kml" type="string"></SimpleField>
	<SimpleField name="kml_link" type="string"></SimpleField>
</Schema>
<Folder><name>846923d0</name>
  <Placemark id="846923d0.1">
	<name>7305</name>
	<name>ск.реп.</name>
	<ExtendedData><SchemaData schemaUrl="#846923d0">
		<SimpleData name="type">2</SimpleData>
		<SimpleData name="view">2416.376</SimpleData>
		<SimpleData name="benchmark_number">99</SimpleData>
		<SimpleData name="control_location">Участок: ск. реп. 7768-фунд. реп. 7959</SimpleData>
		<SimpleData name="benchmark_type">Курметы, с., в 11.2 км к сев.-зап. от него, в 2.7 км к юго-зап. от мог. Султан, в 0.2 км к вост. от пересыхающегося русла </SimpleData>
		<SimpleData name="location_description">846923d0-63d6-4dcc-9907-7690f8f8cc4b</SimpleData>
		<SimpleData name="status">data/stations/846923d0.kml</SimpleData>
		<SimpleData name="guid">&lt;a href='data/stations/846923d0.kml' target='_blank'&gt;Download KML&lt;/a&gt;</SimpleData>
	</SchemaData></ExtendedData>
      <Point><coordinates>78.1682710282218,43.0714207568157</coordinates></Point>
  </Placemark>
</Folder>
</Document></kml>
