<?xml version="1.0" encoding="utf-8" ?>
<kml xmlns="http://www.opengis.net/kml/2.2">
<Document id="root_doc">
<Schema name="84b3d7af" id="84b3d7af">
	<SimpleField name="type" type="string"></SimpleField>
	<SimpleField name="view" type="string"></SimpleField>
	<SimpleField name="leveling_order" type="string"></SimpleField>
	<SimpleField name="leveling_height" type="string"></SimpleField>
	<SimpleField name="control_height" type="string"></SimpleField>
	<SimpleField name="benchmark_number" type="string"></SimpleField>
	<SimpleField name="control_location" type="string"></SimpleField>
	<SimpleField name="benchmark_type" type="string"></SimpleField>
	<SimpleField name="leveling_line_section" type="string"></SimpleField>
	<SimpleField name="location_description" type="string"></SimpleField>
	<SimpleField name="status" type="string"></SimpleField>
	<SimpleField name="guid" type="string"></SimpleField>
	<SimpleField name="kml" type="string"></SimpleField>
	<SimpleField name="kml_link" type="string"></SimpleField>
</Schema>
<Folder><name>84b3d7af</name>
  <Placemark id="84b3d7af.1">
	<name>4314</name>
	<name>стен.реп</name>
	<ExtendedData><SchemaData schemaUrl="#84b3d7af">
		<SimpleData name="type">ІІ</SimpleData>
		<SimpleData name="view">344.652</SimpleData>
		<SimpleData name="control_location">Линия № 2: Есиль-Атбасар, ІІ класс (2) Ход от грунт.реп.3995 - грунт.реп.7618, ІІ класс (5)</SimpleData>
		<SimpleData name="benchmark_type">№ 86, раз., в 7.0 км к зап от него, 558 км жел дор, жел дор мост</SimpleData>
		<SimpleData name="leveling_line_section">уничтожен</SimpleData>
		<SimpleData name="location_description">84b3d7af-cf90-4937-a2ff-fe338ebe7385</SimpleData>
		<SimpleData name="status">data/stations/84b3d7af.kml</SimpleData>
		<SimpleData name="guid">&lt;a href='data/stations/84b3d7af.kml' target='_blank'&gt;Download KML&lt;/a&gt;</SimpleData>
	</SchemaData></ExtendedData>
      <Point><coordinates>68.0934104969408,51.7816889400772</coordinates></Point>
  </Placemark>
</Folder>
</Document></kml>
