<?xml version="1.0" encoding="utf-8" ?>
<kml xmlns="http://www.opengis.net/kml/2.2">
<Document id="root_doc">
<Schema name="856a3e4a" id="856a3e4a">
	<SimpleField name="type" type="string"></SimpleField>
	<SimpleField name="view" type="string"></SimpleField>
	<SimpleField name="leveling_order" type="string"></SimpleField>
	<SimpleField name="leveling_height" type="string"></SimpleField>
	<SimpleField name="control_height" type="string"></SimpleField>
	<SimpleField name="benchmark_number" type="string"></SimpleField>
	<SimpleField name="control_location" type="string"></SimpleField>
	<SimpleField name="benchmark_type" type="string"></SimpleField>
	<SimpleField name="leveling_line_section" type="string"></SimpleField>
	<SimpleField name="location_description" type="string"></SimpleField>
	<SimpleField name="status" type="string"></SimpleField>
	<SimpleField name="guid" type="string"></SimpleField>
	<SimpleField name="kml" type="string"></SimpleField>
	<SimpleField name="kml_link" type="string"></SimpleField>
</Schema>
<Folder><name>856a3e4a</name>
  <Placemark id="856a3e4a.1">
	<name>18</name>
	<name>грунт.реп.</name>
	<description>грунт.реп.</description>
	<ExtendedData><SchemaData schemaUrl="#856a3e4a">
		<SimpleData name="type">II</SimpleData>
		<SimpleData name="view">509.989</SimpleData>
		<SimpleData name="leveling_order">508.919*</SimpleData>
		<SimpleData name="control_height">В верхней плоскости монолита </SimpleData>
		<SimpleData name="benchmark_number">121оп.знак</SimpleData>
		<SimpleData name="control_location">Линия №3: Бурубайтал - Актас, II класс Участок: грунт.реп.5738 - грунт.реп.316</SimpleData>
		<SimpleData name="benchmark_type">Науша,род. ,в  29.8  км  к  вост.от  него,в 7.0  км  к  сев.-вост.от  г.Богоба,в  0.9  км
к  сев.от  дороги  станц.Чиганак-род.Нау-
ша </SimpleData>
		<SimpleData name="location_description">856a3e4a-bd79-425c-8fc6-764c04d2a0a5</SimpleData>
		<SimpleData name="status">data/stations/856a3e4a.kml</SimpleData>
		<SimpleData name="guid">&lt;a href='data/stations/856a3e4a.kml' target='_blank'&gt;Download KML&lt;/a&gt;</SimpleData>
	</SchemaData></ExtendedData>
      <Point><coordinates>73.4817850576612,44.8819382028444</coordinates></Point>
  </Placemark>
</Folder>
</Document></kml>
