<?xml version="1.0" encoding="utf-8" ?>
<kml xmlns="http://www.opengis.net/kml/2.2">
<Document id="root_doc">
<Schema name="858c5849" id="858c5849">
	<SimpleField name="type" type="string"></SimpleField>
	<SimpleField name="view" type="string"></SimpleField>
	<SimpleField name="leveling_order" type="string"></SimpleField>
	<SimpleField name="leveling_height" type="string"></SimpleField>
	<SimpleField name="control_height" type="string"></SimpleField>
	<SimpleField name="benchmark_number" type="string"></SimpleField>
	<SimpleField name="control_location" type="string"></SimpleField>
	<SimpleField name="benchmark_type" type="string"></SimpleField>
	<SimpleField name="leveling_line_section" type="string"></SimpleField>
	<SimpleField name="location_description" type="string"></SimpleField>
	<SimpleField name="status" type="string"></SimpleField>
	<SimpleField name="guid" type="string"></SimpleField>
	<SimpleField name="kml" type="string"></SimpleField>
	<SimpleField name="kml_link" type="string"></SimpleField>
</Schema>
<Folder><name>858c5849</name>
  <Placemark id="858c5849.1">
	<name>76</name>
	<name>грунтовый репер</name>
	<ExtendedData><SchemaData schemaUrl="#858c5849">
		<SimpleData name="type">II</SimpleData>
		<SimpleData name="view">284,616</SimpleData>
		<SimpleData name="benchmark_number">160оп</SimpleData>
		<SimpleData name="control_location">Линия №6:Семиярское-Карасорский, II класс (1) Участок: грунт реп.462 -грунт.реп. 807</SimpleData>
		<SimpleData name="benchmark_type">Скаккора, с., в 11.5 км к юго-зап. от него, в 2.8 км к сев. от зим.Колебай, в 1.5 км к вост, от ЛЭП, в 50 м к юго-вост. от пересечения двух пол.дорог.</SimpleData>
		<SimpleData name="location_description">858c5849-f372-42aa-8b9c-2a67df49272d</SimpleData>
		<SimpleData name="status">data/stations/858c5849.kml</SimpleData>
		<SimpleData name="guid">&lt;a href='data/stations/858c5849.kml' target='_blank'&gt;Download KML&lt;/a&gt;</SimpleData>
	</SchemaData></ExtendedData>
      <Point><coordinates>76.2522907016809,50.8185658868753</coordinates></Point>
  </Placemark>
</Folder>
</Document></kml>
