<?xml version="1.0" encoding="utf-8" ?>
<kml xmlns="http://www.opengis.net/kml/2.2">
<Document id="root_doc">
<Schema name="85ace2f6" id="85ace2f6">
	<SimpleField name="title" type="string"></SimpleField>
	<SimpleField name="type" type="string"></SimpleField>
	<SimpleField name="ext_sign" type="string"></SimpleField>
	<SimpleField name="class_lvl" type="string"></SimpleField>
	<SimpleField name="height_lvl" type="string"></SimpleField>
	<SimpleField name="height_ctrl" type="string"></SimpleField>
	<SimpleField name="ctrl_place" type="string"></SimpleField>
	<SimpleField name="mark_num" type="string"></SimpleField>
	<SimpleField name="center_type" type="string"></SimpleField>
	<SimpleField name="lvl_line" type="string"></SimpleField>
	<SimpleField name="guid" type="string"></SimpleField>
</Schema>
<Folder><name>85ace2f6</name>
  <Placemark id="85ace2f6.1">
	<name>Саркумак 1</name>
	<description>пирамида</description>
	<ExtendedData><SchemaData schemaUrl="#85ace2f6">
		<SimpleData name="type">2</SimpleData>
		<SimpleData name="ext_sign">61.451</SimpleData>
		<SimpleData name="ctrl_place">1</SimpleData>
		<SimpleData name="lvl_line">85ace2f6-d4b7-4d8c-aab7-fa8481744b9c</SimpleData>
	</SchemaData></ExtendedData>
      <Point><coordinates>55.0266043692398,48.1988463237346</coordinates></Point>
  </Placemark>
</Folder>
</Document></kml>
