<?xml version="1.0" encoding="utf-8" ?>
<kml xmlns="http://www.opengis.net/kml/2.2">
<Document id="root_doc">
<Schema name="85c02cf5" id="85c02cf5">
	<SimpleField name="title" type="string"></SimpleField>
	<SimpleField name="type" type="string"></SimpleField>
	<SimpleField name="ext_sign" type="string"></SimpleField>
	<SimpleField name="class_lvl" type="string"></SimpleField>
	<SimpleField name="height_lvl" type="string"></SimpleField>
	<SimpleField name="height_ctrl" type="string"></SimpleField>
	<SimpleField name="ctrl_place" type="string"></SimpleField>
	<SimpleField name="mark_num" type="string"></SimpleField>
	<SimpleField name="center_type" type="string"></SimpleField>
	<SimpleField name="lvl_line" type="string"></SimpleField>
	<SimpleField name="guid" type="string"></SimpleField>
</Schema>
<Folder><name>85c02cf5</name>
  <Placemark id="85c02cf5.1">
	<name>6148</name>
	<description>грунтовый репер</description>
	<ExtendedData><SchemaData schemaUrl="#85c02cf5">
		<SimpleData name="title">грунт.реп</SimpleData>
		<SimpleData name="type">ІІ</SimpleData>
		<SimpleData name="ext_sign">353.346</SimpleData>
		<SimpleData name="ctrl_place">146 оп.знак</SimpleData>
		<SimpleData name="mark_num">Линия № 1 Астана (Целиноград) - Жумай, ІІ класс (1)  Участок: пир. 3 кл. Жаланаш - грунт.реп. 0018</SimpleData>
		<SimpleData name="center_type">Караегин, с., в 6.7 км к юго-зап.от него, в 70 м к сев от пов стб ЛЭП, в 40 м к сев-вост.от км стб 91/37, в 30 м к сев от дороги с. Оразак - с Коргалжын</SimpleData>
		<SimpleData name="lvl_line">85c02cf5-e167-4624-96cc-0e29b835089c</SimpleData>
	</SchemaData></ExtendedData>
      <Point><coordinates>70.288197743697,50.8273464562911</coordinates></Point>
  </Placemark>
</Folder>
</Document></kml>
