<?xml version="1.0" encoding="utf-8" ?>
<kml xmlns="http://www.opengis.net/kml/2.2">
<Document id="root_doc">
<Schema name="85fadcc0" id="85fadcc0">
	<SimpleField name="title" type="string"></SimpleField>
	<SimpleField name="type" type="string"></SimpleField>
	<SimpleField name="ext_sign" type="string"></SimpleField>
	<SimpleField name="class_lvl" type="string"></SimpleField>
	<SimpleField name="height_lvl" type="string"></SimpleField>
	<SimpleField name="height_ctrl" type="string"></SimpleField>
	<SimpleField name="ctrl_place" type="string"></SimpleField>
	<SimpleField name="mark_num" type="string"></SimpleField>
	<SimpleField name="center_type" type="string"></SimpleField>
	<SimpleField name="lvl_line" type="string"></SimpleField>
	<SimpleField name="guid" type="string"></SimpleField>
</Schema>
<Folder><name>85fadcc0</name>
  <Placemark id="85fadcc0.1">
	<name>537</name>
	<description>грунтовый репер</description>
	<ExtendedData><SchemaData schemaUrl="#85fadcc0">
		<SimpleData name="type">2</SimpleData>
		<SimpleData name="ext_sign">502.874</SimpleData>
		<SimpleData name="ctrl_place">160 оп</SimpleData>
		<SimpleData name="mark_num">Линия №2: Ивановка - Жана-Арка, II класс (4) Участок: грунт.реп.4029 - фунд.реп.501</SimpleData>
		<SimpleData name="center_type">Коскопа,с.,в 14.9 км к юго-вост.от него,в 1.9 км к югу от развалин,в 15 м к вост.от дороги с.Акмешит-с.Алгабас</SimpleData>
		<SimpleData name="lvl_line">85fadcc0-4b16-4329-9ada-78e55d9fef7e</SimpleData>
	</SchemaData></ExtendedData>
      <Point><coordinates>71.6259991605805,49.162556277518</coordinates></Point>
  </Placemark>
</Folder>
</Document></kml>
