<?xml version="1.0" encoding="utf-8" ?>
<kml xmlns="http://www.opengis.net/kml/2.2">
<Document id="root_doc">
<Schema name="8638be78" id="8638be78">
	<SimpleField name="type" type="string"></SimpleField>
	<SimpleField name="view" type="string"></SimpleField>
	<SimpleField name="leveling_order" type="string"></SimpleField>
	<SimpleField name="leveling_height" type="string"></SimpleField>
	<SimpleField name="control_height" type="string"></SimpleField>
	<SimpleField name="benchmark_number" type="string"></SimpleField>
	<SimpleField name="control_location" type="string"></SimpleField>
	<SimpleField name="benchmark_type" type="string"></SimpleField>
	<SimpleField name="leveling_line_section" type="string"></SimpleField>
	<SimpleField name="location_description" type="string"></SimpleField>
	<SimpleField name="status" type="string"></SimpleField>
	<SimpleField name="guid" type="string"></SimpleField>
	<SimpleField name="kml" type="string"></SimpleField>
	<SimpleField name="kml_link" type="string"></SimpleField>
</Schema>
<Folder><name>8638be78</name>
  <Placemark id="8638be78.1">
	<name>7799</name>
	<name>грунт. реп.</name>
	<ExtendedData><SchemaData schemaUrl="#8638be78">
		<SimpleData name="type">2</SimpleData>
		<SimpleData name="view">251.809</SimpleData>
		<SimpleData name="benchmark_number">146 оп</SimpleData>
		<SimpleData name="control_location">Линия №4 : Ащебутак - Актасты , II класс . Участок : грунт. Реп. 7223-фунд. Реп. 7867</SimpleData>
		<SimpleData name="benchmark_type">Актасты, зим. свх. Урожайный, в 2.0 км к сев.-зап. от нее, в 0.4 км к юго-вост. от разв. Зим. Кайранколь, в 8 м к вост. от дороги </SimpleData>
		<SimpleData name="location_description">8638be78-ebc0-4203-9be1-870914044a1d</SimpleData>
		<SimpleData name="status">data/stations/8638be78.kml</SimpleData>
		<SimpleData name="guid">&lt;a href='data/stations/8638be78.kml' target='_blank'&gt;Download KML&lt;/a&gt;</SimpleData>
	</SchemaData></ExtendedData>
      <Point><coordinates>61.6417246618018,50.7408512767609</coordinates></Point>
  </Placemark>
</Folder>
</Document></kml>
