<?xml version="1.0" encoding="utf-8" ?>
<kml xmlns="http://www.opengis.net/kml/2.2">
<Document id="root_doc">
<Schema name="865e9139" id="865e9139">
	<SimpleField name="title" type="string"></SimpleField>
	<SimpleField name="type" type="string"></SimpleField>
	<SimpleField name="ext_sign" type="string"></SimpleField>
	<SimpleField name="class_lvl" type="string"></SimpleField>
	<SimpleField name="height_lvl" type="string"></SimpleField>
	<SimpleField name="height_ctrl" type="string"></SimpleField>
	<SimpleField name="ctrl_place" type="string"></SimpleField>
	<SimpleField name="mark_num" type="string"></SimpleField>
	<SimpleField name="center_type" type="string"></SimpleField>
	<SimpleField name="lvl_line" type="string"></SimpleField>
	<SimpleField name="guid" type="string"></SimpleField>
</Schema>
<Folder><name>865e9139</name>
  <Placemark id="865e9139.1">
	<name>Койсан</name>
	<description>перенос. знак</description>
	<ExtendedData><SchemaData schemaUrl="#865e9139">
		<SimpleData name="type">2</SimpleData>
		<SimpleData name="ext_sign">84.597</SimpleData>
		<SimpleData name="ctrl_place">2 оп</SimpleData>
		<SimpleData name="mark_num">Линия Жаксыкарсакбас (фунд. реп. 351) - Коккабак (фунд. реп.2)</SimpleData>
		<SimpleData name="lvl_line">865e9139-cbfd-43e3-91d7-44f64a3ee650</SimpleData>
	</SchemaData></ExtendedData>
      <Point><coordinates>62.4109346416771,48.1452320616977</coordinates></Point>
  </Placemark>
</Folder>
</Document></kml>
