<?xml version="1.0" encoding="utf-8" ?>
<kml xmlns="http://www.opengis.net/kml/2.2">
<Document id="root_doc">
<Schema name="86797ae6" id="86797ae6">
	<SimpleField name="title" type="string"></SimpleField>
	<SimpleField name="type" type="string"></SimpleField>
	<SimpleField name="ext_sign" type="string"></SimpleField>
	<SimpleField name="class_lvl" type="string"></SimpleField>
	<SimpleField name="height_lvl" type="string"></SimpleField>
	<SimpleField name="height_ctrl" type="string"></SimpleField>
	<SimpleField name="ctrl_place" type="string"></SimpleField>
	<SimpleField name="mark_num" type="string"></SimpleField>
	<SimpleField name="center_type" type="string"></SimpleField>
	<SimpleField name="lvl_line" type="string"></SimpleField>
	<SimpleField name="guid" type="string"></SimpleField>
</Schema>
<Folder><name>86797ae6</name>
  <Placemark id="86797ae6.1">
	<name>4839</name>
	<description>грунтовый репер</description>
	<ExtendedData><SchemaData schemaUrl="#86797ae6">
		<SimpleData name="type">1</SimpleData>
		<SimpleData name="ext_sign">249,786</SimpleData>
		<SimpleData name="ctrl_place">159</SimpleData>
		<SimpleData name="mark_num">Линия № 1: Туйемойнак - Торыустаган, 1 класс (1) Участок: грунт, реп, 3215 - фунд, реп, 9993</SimpleData>
		<SimpleData name="center_type">№ 532, к,, в 10,2 км к юго-вост, от него, в 4,0 км к юго­ зап, от к, Баймурын, в 40 м к сев,-вост, от полевой дороги</SimpleData>
		<SimpleData name="lvl_line">86797ae6-7f4a-4d0c-b4e9-e2b05ba844f1</SimpleData>
	</SchemaData></ExtendedData>
      <Point><coordinates>69.7728004765109,45.1361385816862</coordinates></Point>
  </Placemark>
</Folder>
</Document></kml>
