<?xml version="1.0" encoding="utf-8" ?>
<kml xmlns="http://www.opengis.net/kml/2.2">
<Document id="root_doc">
<Schema name="86997d55" id="86997d55">
	<SimpleField name="title" type="string"></SimpleField>
	<SimpleField name="type" type="string"></SimpleField>
	<SimpleField name="ext_sign" type="string"></SimpleField>
	<SimpleField name="class_lvl" type="string"></SimpleField>
	<SimpleField name="height_lvl" type="string"></SimpleField>
	<SimpleField name="height_ctrl" type="string"></SimpleField>
	<SimpleField name="ctrl_place" type="string"></SimpleField>
	<SimpleField name="mark_num" type="string"></SimpleField>
	<SimpleField name="center_type" type="string"></SimpleField>
	<SimpleField name="lvl_line" type="string"></SimpleField>
	<SimpleField name="guid" type="string"></SimpleField>
</Schema>
<Folder><name>86997d55</name>
  <Placemark id="86997d55.1">
	<name>Трианг.(доп.)</name>
	<ExtendedData><SchemaData schemaUrl="#86997d55">
		<SimpleData name="lvl_line">86997d55-70bb-46f9-8767-d709575be781</SimpleData>
	</SchemaData></ExtendedData>
      <Point><coordinates>64.5784607467275,51.6642187543874</coordinates></Point>
  </Placemark>
</Folder>
</Document></kml>
