<?xml version="1.0" encoding="utf-8" ?>
<kml xmlns="http://www.opengis.net/kml/2.2">
<Document id="root_doc">
<Schema name="86a2b3f6" id="86a2b3f6">
	<SimpleField name="type" type="string"></SimpleField>
	<SimpleField name="view" type="string"></SimpleField>
	<SimpleField name="leveling_order" type="string"></SimpleField>
	<SimpleField name="leveling_height" type="string"></SimpleField>
	<SimpleField name="control_height" type="string"></SimpleField>
	<SimpleField name="benchmark_number" type="string"></SimpleField>
	<SimpleField name="control_location" type="string"></SimpleField>
	<SimpleField name="benchmark_type" type="string"></SimpleField>
	<SimpleField name="leveling_line_section" type="string"></SimpleField>
	<SimpleField name="location_description" type="string"></SimpleField>
	<SimpleField name="status" type="string"></SimpleField>
	<SimpleField name="guid" type="string"></SimpleField>
	<SimpleField name="kml" type="string"></SimpleField>
	<SimpleField name="kml_link" type="string"></SimpleField>
</Schema>
<Folder><name>86a2b3f6</name>
  <Placemark id="86a2b3f6.1">
	<name>2925</name>
	<name>фунд. реп. </name>
	<ExtendedData><SchemaData schemaUrl="#86a2b3f6">
		<SimpleData name="type">1</SimpleData>
		<SimpleData name="view">441,142</SimpleData>
		<SimpleData name="leveling_order">440,044*</SimpleData>
		<SimpleData name="leveling_height">3216</SimpleData>
		<SimpleData name="control_height">Контрольный репер №  в фундаментной плите</SimpleData>
		<SimpleData name="benchmark_number">161 оп. знак </SimpleData>
		<SimpleData name="control_location">Линия № 1: Оз. Жаланашколь - Аягоз, I класс (1)
Участок: грунт.реп. 4536 – грунт.реп. 4176
</SimpleData>
		<SimpleData name="benchmark_type">Сарыногай, с., в 3,5 км к сев.-вост. от него, в 0.2 км к сев. от светофора, в 78 м к зап. от км  стб. № 614/615, в 4 м к югу от стб. линии связи</SimpleData>
		<SimpleData name="location_description">86a2b3f6-7284-4404-9190-84bb975df727</SimpleData>
		<SimpleData name="status">data/stations/86a2b3f6.kml</SimpleData>
		<SimpleData name="guid">&lt;a href='data/stations/86a2b3f6.kml' target='_blank'&gt;Download KML&lt;/a&gt;</SimpleData>
	</SchemaData></ExtendedData>
      <Point><coordinates>82.135984303396,47.0413160268405</coordinates></Point>
  </Placemark>
</Folder>
</Document></kml>
