<?xml version="1.0" encoding="utf-8" ?>
<kml xmlns="http://www.opengis.net/kml/2.2">
<Document id="root_doc">
<Schema name="86e2ea7c" id="86e2ea7c">
	<SimpleField name="type" type="string"></SimpleField>
	<SimpleField name="view" type="string"></SimpleField>
	<SimpleField name="leveling_order" type="string"></SimpleField>
	<SimpleField name="leveling_height" type="string"></SimpleField>
	<SimpleField name="control_height" type="string"></SimpleField>
	<SimpleField name="benchmark_number" type="string"></SimpleField>
	<SimpleField name="control_location" type="string"></SimpleField>
	<SimpleField name="benchmark_type" type="string"></SimpleField>
	<SimpleField name="leveling_line_section" type="string"></SimpleField>
	<SimpleField name="location_description" type="string"></SimpleField>
	<SimpleField name="status" type="string"></SimpleField>
	<SimpleField name="guid" type="string"></SimpleField>
	<SimpleField name="kml" type="string"></SimpleField>
	<SimpleField name="kml_link" type="string"></SimpleField>
</Schema>
<Folder><name>86e2ea7c</name>
  <Placemark id="86e2ea7c.1">
	<name>Бозой</name>
	<description>пирамида</description>
	<ExtendedData><SchemaData schemaUrl="#86e2ea7c">
		<SimpleData name="type">4</SimpleData>
		<SimpleData name="view">541,896</SimpleData>
		<SimpleData name="leveling_height">602</SimpleData>
		<SimpleData name="benchmark_number">2оп</SimpleData>
		<SimpleData name="control_location">Линия № 3: Белая Школа - Зайсан, II класс (2)
Участок: фунд.реп. 5491 – грунт.реп. 1486
Висячий ход от грунт.реп. 43, IV класс (4)</SimpleData>
		<SimpleData name="benchmark_type">Шенгельды, с., в 8.0 км к юго-вост. от него, в 1.9 км к юго-зап. от к. Нура, в 1.6 км к югу от шоссе с. Кокпекты – гор. Зайсан</SimpleData>
		<SimpleData name="leveling_line_section">Наружный знак уничтожен</SimpleData>
		<SimpleData name="location_description">86e2ea7c-267d-4bea-8e69-461b9cd4c523</SimpleData>
		<SimpleData name="status">data/stations/86e2ea7c.kml</SimpleData>
		<SimpleData name="guid">&lt;a href='data/stations/86e2ea7c.kml' target='_blank'&gt;Download KML&lt;/a&gt;</SimpleData>
	</SchemaData></ExtendedData>
      <Point><coordinates>83.7223847300785,47.7944950509354</coordinates></Point>
  </Placemark>
</Folder>
</Document></kml>
