<?xml version="1.0" encoding="utf-8" ?>
<kml xmlns="http://www.opengis.net/kml/2.2">
<Document id="root_doc">
<Schema name="86fbc544" id="86fbc544">
	<SimpleField name="type" type="string"></SimpleField>
	<SimpleField name="view" type="string"></SimpleField>
	<SimpleField name="leveling_order" type="string"></SimpleField>
	<SimpleField name="leveling_height" type="string"></SimpleField>
	<SimpleField name="control_height" type="string"></SimpleField>
	<SimpleField name="benchmark_number" type="string"></SimpleField>
	<SimpleField name="control_location" type="string"></SimpleField>
	<SimpleField name="benchmark_type" type="string"></SimpleField>
	<SimpleField name="leveling_line_section" type="string"></SimpleField>
	<SimpleField name="location_description" type="string"></SimpleField>
	<SimpleField name="status" type="string"></SimpleField>
	<SimpleField name="guid" type="string"></SimpleField>
	<SimpleField name="kml" type="string"></SimpleField>
	<SimpleField name="kml_link" type="string"></SimpleField>
</Schema>
<Folder><name>86fbc544</name>
  <Placemark id="86fbc544.1">
	<name>1253</name>
	<name>грунт. реп.</name>
	<ExtendedData><SchemaData schemaUrl="#86fbc544">
		<SimpleData name="type">2</SimpleData>
		<SimpleData name="view">223.099</SimpleData>
		<SimpleData name="leveling_order">221.506</SimpleData>
		<SimpleData name="benchmark_number">121</SimpleData>
		<SimpleData name="control_location">Линия №1 : Карабутак-Жанатурмыс II класс . Участок : фунд. реп. 2109-фунд. реп. 1336</SimpleData>
		<SimpleData name="benchmark_type">Калмаккара, разв., в 6,0 км к зап. от них, в 4,0 км к вост. от разв. Назарова, в 42 м к юго-зап. от пересечения дорог</SimpleData>
		<SimpleData name="location_description">86fbc544-651b-45a4-90b0-10c35b98e7aa</SimpleData>
		<SimpleData name="status">data/stations/86fbc544.kml</SimpleData>
		<SimpleData name="guid">&lt;a href='data/stations/86fbc544.kml' target='_blank'&gt;Download KML&lt;/a&gt;</SimpleData>
	</SchemaData></ExtendedData>
      <Point><coordinates>62.7593240854315,51.3247002515285</coordinates></Point>
  </Placemark>
</Folder>
</Document></kml>
