<?xml version="1.0" encoding="utf-8" ?>
<kml xmlns="http://www.opengis.net/kml/2.2">
<Document id="root_doc">
<Schema name="87028325" id="87028325">
	<SimpleField name="type" type="string"></SimpleField>
	<SimpleField name="view" type="string"></SimpleField>
	<SimpleField name="leveling_order" type="string"></SimpleField>
	<SimpleField name="leveling_height" type="string"></SimpleField>
	<SimpleField name="control_height" type="string"></SimpleField>
	<SimpleField name="benchmark_number" type="string"></SimpleField>
	<SimpleField name="control_location" type="string"></SimpleField>
	<SimpleField name="benchmark_type" type="string"></SimpleField>
	<SimpleField name="leveling_line_section" type="string"></SimpleField>
	<SimpleField name="location_description" type="string"></SimpleField>
	<SimpleField name="status" type="string"></SimpleField>
	<SimpleField name="guid" type="string"></SimpleField>
	<SimpleField name="kml" type="string"></SimpleField>
	<SimpleField name="kml_link" type="string"></SimpleField>
</Schema>
<Folder><name>87028325</name>
  <Placemark id="87028325.1">
	<name>1947</name>
	<name>грунтовый репер</name>
	<ExtendedData><SchemaData schemaUrl="#87028325">
		<SimpleData name="type">II</SimpleData>
		<SimpleData name="view">535.049</SimpleData>
		<SimpleData name="benchmark_number">146</SimpleData>
		<SimpleData name="control_location">Линия №18: пир. 1 разр. СМТ-232 - грунт.реп.1008, II класс (3)</SimpleData>
		<SimpleData name="benchmark_type">Майкудук, с., в 5.1 км к сев.-вост. от него, в 4.0 км к сев. от свх. Победа, на берегу пересыхающего ручья</SimpleData>
		<SimpleData name="location_description">87028325-136f-4774-a579-d5dff09ebcf1</SimpleData>
		<SimpleData name="status">data/stations/87028325.kml</SimpleData>
		<SimpleData name="guid">&lt;a href='data/stations/87028325.kml' target='_blank'&gt;Download KML&lt;/a&gt;</SimpleData>
	</SchemaData></ExtendedData>
      <Point><coordinates>73.2759697021135,49.9026760749105</coordinates></Point>
  </Placemark>
</Folder>
</Document></kml>
