<?xml version="1.0" encoding="utf-8" ?>
<kml xmlns="http://www.opengis.net/kml/2.2">
<Document id="root_doc">
<Schema name="870ef3a2" id="870ef3a2">
	<SimpleField name="title" type="string"></SimpleField>
	<SimpleField name="type" type="string"></SimpleField>
	<SimpleField name="ext_sign" type="string"></SimpleField>
	<SimpleField name="class_lvl" type="string"></SimpleField>
	<SimpleField name="height_lvl" type="string"></SimpleField>
	<SimpleField name="height_ctrl" type="string"></SimpleField>
	<SimpleField name="ctrl_place" type="string"></SimpleField>
	<SimpleField name="mark_num" type="string"></SimpleField>
	<SimpleField name="center_type" type="string"></SimpleField>
	<SimpleField name="lvl_line" type="string"></SimpleField>
	<SimpleField name="guid" type="string"></SimpleField>
</Schema>
<Folder><name>870ef3a2</name>
  <Placemark id="870ef3a2.1">
	<name>528</name>
	<ExtendedData><SchemaData schemaUrl="#870ef3a2">
		<SimpleData name="title">грунт. реп.</SimpleData>
		<SimpleData name="type">1</SimpleData>
		<SimpleData name="ext_sign">1579.672</SimpleData>
		<SimpleData name="class_lvl">1578.635*</SimpleData>
		<SimpleData name="ctrl_place">118 оп. знак.</SimpleData>
		<SimpleData name="mark_num">Линия № 3: Сарыозек – Каракол (Пржевальск) , I класс  Участок: фунд. реп. 384 – грунт. реп. 1216</SimpleData>
		<SimpleData name="center_type">Алтынемель. пер.. в 2.1 км к сев. от него. в 0.1 км к юго-вост. от км. стб. 55/123. в 26 м к вост. от шоссе с. Сарыозек – гор. Жаркент</SimpleData>
		<SimpleData name="lvl_line">870ef3a2-8bbe-4457-a117-a2b92fa88a8b</SimpleData>
	</SchemaData></ExtendedData>
      <Point><coordinates>78.5036759316775,44.2164437005993</coordinates></Point>
  </Placemark>
</Folder>
</Document></kml>
