<?xml version="1.0" encoding="utf-8" ?>
<kml xmlns="http://www.opengis.net/kml/2.2">
<Document id="root_doc">
<Schema name="874c7a05" id="874c7a05">
	<SimpleField name="type" type="string"></SimpleField>
	<SimpleField name="view" type="string"></SimpleField>
	<SimpleField name="leveling_order" type="string"></SimpleField>
	<SimpleField name="leveling_height" type="string"></SimpleField>
	<SimpleField name="control_height" type="string"></SimpleField>
	<SimpleField name="benchmark_number" type="string"></SimpleField>
	<SimpleField name="control_location" type="string"></SimpleField>
	<SimpleField name="benchmark_type" type="string"></SimpleField>
	<SimpleField name="leveling_line_section" type="string"></SimpleField>
	<SimpleField name="location_description" type="string"></SimpleField>
	<SimpleField name="status" type="string"></SimpleField>
	<SimpleField name="guid" type="string"></SimpleField>
	<SimpleField name="kml" type="string"></SimpleField>
	<SimpleField name="kml_link" type="string"></SimpleField>
</Schema>
<Folder><name>874c7a05</name>
  <Placemark id="874c7a05.1">
	<name>3801</name>
	<description>марка</description>
	<ExtendedData><SchemaData schemaUrl="#874c7a05">
		<SimpleData name="type">1</SimpleData>
		<SimpleData name="view">82.842</SimpleData>
		<SimpleData name="control_location">Линия №1: Аральск-Шалкар, 1 класс (1). Участок: грунт.реп. 0137 -грует.реп. 2495</SimpleData>
		<SimpleData name="benchmark_type">Шиликты, разъезд , здание разъезда</SimpleData>
		<SimpleData name="leveling_line_section">не найден</SimpleData>
		<SimpleData name="location_description">874c7a05-9fa6-4aba-b5e4-788f161ba029</SimpleData>
		<SimpleData name="status">data/stations/874c7a05.kml</SimpleData>
		<SimpleData name="guid">&lt;a href='data/stations/874c7a05.kml' target='_blank'&gt;Download KML&lt;/a&gt;</SimpleData>
	</SchemaData></ExtendedData>
      <Point><coordinates>60.6540980941688,47.5209957639313</coordinates></Point>
  </Placemark>
</Folder>
</Document></kml>
