<?xml version="1.0" encoding="utf-8" ?>
<kml xmlns="http://www.opengis.net/kml/2.2">
<Document id="root_doc">
<Schema name="87ce3446" id="87ce3446">
	<SimpleField name="type" type="string"></SimpleField>
	<SimpleField name="view" type="string"></SimpleField>
	<SimpleField name="leveling_order" type="string"></SimpleField>
	<SimpleField name="leveling_height" type="string"></SimpleField>
	<SimpleField name="control_height" type="string"></SimpleField>
	<SimpleField name="benchmark_number" type="string"></SimpleField>
	<SimpleField name="control_location" type="string"></SimpleField>
	<SimpleField name="benchmark_type" type="string"></SimpleField>
	<SimpleField name="leveling_line_section" type="string"></SimpleField>
	<SimpleField name="location_description" type="string"></SimpleField>
	<SimpleField name="status" type="string"></SimpleField>
	<SimpleField name="guid" type="string"></SimpleField>
	<SimpleField name="kml" type="string"></SimpleField>
	<SimpleField name="kml_link" type="string"></SimpleField>
</Schema>
<Folder><name>87ce3446</name>
  <Placemark id="87ce3446.1">
	<name>49</name>
	<name>грунт.реп.</name>
	<ExtendedData><SchemaData schemaUrl="#87ce3446">
		<SimpleData name="type">II</SimpleData>
		<SimpleData name="view">405.060</SimpleData>
		<SimpleData name="control_location">Линия №2: Талдысай-Жиделысай, II класс (2) Участок: грунт.реп.41-фунд.реп.0539</SimpleData>
		<SimpleData name="benchmark_type">Подхоз.Сатпаев,в 5.0 км к юго-вост.от него,в 1.6 км к вост.от р.Жыланды,в 0.2 км к юго-зап.от перекрестка полевых дорог</SimpleData>
		<SimpleData name="location_description">87ce3446-8192-4e87-b1d5-ae00b0cd6053</SimpleData>
		<SimpleData name="status">data/stations/87ce3446.kml</SimpleData>
		<SimpleData name="guid">&lt;a href='data/stations/87ce3446.kml' target='_blank'&gt;Download KML&lt;/a&gt;</SimpleData>
	</SchemaData></ExtendedData>
      <Point><coordinates>67.5771856080649,48.1299229103674</coordinates></Point>
  </Placemark>
</Folder>
</Document></kml>
