<?xml version="1.0" encoding="utf-8" ?>
<kml xmlns="http://www.opengis.net/kml/2.2">
<Document id="root_doc">
<Schema name="87dad2be" id="87dad2be">
	<SimpleField name="title" type="string"></SimpleField>
	<SimpleField name="type" type="string"></SimpleField>
	<SimpleField name="ext_sign" type="string"></SimpleField>
	<SimpleField name="class_lvl" type="string"></SimpleField>
	<SimpleField name="height_lvl" type="string"></SimpleField>
	<SimpleField name="height_ctrl" type="string"></SimpleField>
	<SimpleField name="ctrl_place" type="string"></SimpleField>
	<SimpleField name="mark_num" type="string"></SimpleField>
	<SimpleField name="center_type" type="string"></SimpleField>
	<SimpleField name="lvl_line" type="string"></SimpleField>
	<SimpleField name="guid" type="string"></SimpleField>
</Schema>
<Folder><name>87dad2be</name>
  <Placemark id="87dad2be.1">
	<name>4076</name>
	<description>грунтовый репер</description>
	<ExtendedData><SchemaData schemaUrl="#87dad2be">
		<SimpleData name="type">1</SimpleData>
		<SimpleData name="ext_sign">266.248</SimpleData>
		<SimpleData name="ctrl_place">160</SimpleData>
		<SimpleData name="center_type">Алгабас, с., в 3.0 км к сев.-зап. от него, в 1.6 км к зап. от дороги с.Алгабас-с.Жана-Кийма, в 0.6 км к юго-вост. от п.тр.Алгабас, в 17 м к сев. от полевой дороги. </SimpleData>
		<SimpleData name="lvl_line">87dad2be-e260-476a-812c-fd57cdd21ddd</SimpleData>
	</SchemaData></ExtendedData>
      <Point><coordinates>67.8436940543898,51.6026345153864</coordinates></Point>
  </Placemark>
</Folder>
</Document></kml>
