<?xml version="1.0" encoding="utf-8" ?>
<kml xmlns="http://www.opengis.net/kml/2.2">
<Document id="root_doc">
<Schema name="87fcf6b5" id="87fcf6b5">
	<SimpleField name="title" type="string"></SimpleField>
	<SimpleField name="type" type="string"></SimpleField>
	<SimpleField name="ext_sign" type="string"></SimpleField>
	<SimpleField name="class_lvl" type="string"></SimpleField>
	<SimpleField name="height_lvl" type="string"></SimpleField>
	<SimpleField name="height_ctrl" type="string"></SimpleField>
	<SimpleField name="ctrl_place" type="string"></SimpleField>
	<SimpleField name="mark_num" type="string"></SimpleField>
	<SimpleField name="center_type" type="string"></SimpleField>
	<SimpleField name="lvl_line" type="string"></SimpleField>
	<SimpleField name="guid" type="string"></SimpleField>
</Schema>
<Folder><name>87fcf6b5</name>
  <Placemark id="87fcf6b5.1">
	<name>1018</name>
	<ExtendedData><SchemaData schemaUrl="#87fcf6b5">
		<SimpleData name="title">гр. реп.</SimpleData>
		<SimpleData name="type">3</SimpleData>
		<SimpleData name="ext_sign">13,097</SimpleData>
		<SimpleData name="ctrl_place">121</SimpleData>
		<SimpleData name="mark_num">Линия № 10: гр. реп. 676 - гр. реп. 3953</SimpleData>
		<SimpleData name="center_type">Ащисай, а., в 4,4 км. к юго-вост. от него, в 0,4 км к вост. от газопровода</SimpleData>
		<SimpleData name="lvl_line">87fcf6b5-8871-410a-a3c9-c8dabcb94f0f</SimpleData>
	</SchemaData></ExtendedData>
      <Point><coordinates>49.142802628977,49.9453237568572</coordinates></Point>
  </Placemark>
</Folder>
</Document></kml>
