<?xml version="1.0" encoding="utf-8" ?>
<kml xmlns="http://www.opengis.net/kml/2.2">
<Document id="root_doc">
<Schema name="884dc0bb" id="884dc0bb">
	<SimpleField name="type" type="string"></SimpleField>
	<SimpleField name="view" type="string"></SimpleField>
	<SimpleField name="leveling_order" type="string"></SimpleField>
	<SimpleField name="leveling_height" type="string"></SimpleField>
	<SimpleField name="control_height" type="string"></SimpleField>
	<SimpleField name="benchmark_number" type="string"></SimpleField>
	<SimpleField name="control_location" type="string"></SimpleField>
	<SimpleField name="benchmark_type" type="string"></SimpleField>
	<SimpleField name="leveling_line_section" type="string"></SimpleField>
	<SimpleField name="location_description" type="string"></SimpleField>
	<SimpleField name="status" type="string"></SimpleField>
	<SimpleField name="guid" type="string"></SimpleField>
	<SimpleField name="kml" type="string"></SimpleField>
	<SimpleField name="kml_link" type="string"></SimpleField>
</Schema>
<Folder><name>884dc0bb</name>
  <Placemark id="884dc0bb.1">
	<name>1846</name>
	<name>грунт.реп.</name>
	<description>грунт.реп.</description>
	<ExtendedData><SchemaData schemaUrl="#884dc0bb">
		<SimpleData name="type">II</SimpleData>
		<SimpleData name="view">412.871</SimpleData>
		<SimpleData name="benchmark_number">160оп.знак</SimpleData>
		<SimpleData name="control_location">Линия № 1:Урочище Куйган-Уштобе II класс                            Участок: пир. 2 кл. Туранглы-грунт. Реп.2245</SimpleData>
		<SimpleData name="benchmark_type">Тассуат,зим.,в 6.0 км к юго-вост.от нее,
в 32 м к юго-зап.от шоссе с,Акжар-гор.
Уштобе,в 22 м к сев.-вост.от ЛЭП</SimpleData>
		<SimpleData name="location_description">884dc0bb-701c-408d-8779-8d6d7ad70a59</SimpleData>
		<SimpleData name="status">data/stations/884dc0bb.kml</SimpleData>
		<SimpleData name="guid">&lt;a href='data/stations/884dc0bb.kml' target='_blank'&gt;Download KML&lt;/a&gt;</SimpleData>
	</SchemaData></ExtendedData>
      <Point><coordinates>77.7509853555645,45.3821168699804</coordinates></Point>
  </Placemark>
</Folder>
</Document></kml>
