<?xml version="1.0" encoding="utf-8" ?>
<kml xmlns="http://www.opengis.net/kml/2.2">
<Document id="root_doc">
<Schema name="88bfa96c" id="88bfa96c">
	<SimpleField name="title" type="string"></SimpleField>
	<SimpleField name="type" type="string"></SimpleField>
	<SimpleField name="ext_sign" type="string"></SimpleField>
	<SimpleField name="class_lvl" type="string"></SimpleField>
	<SimpleField name="height_lvl" type="string"></SimpleField>
	<SimpleField name="height_ctrl" type="string"></SimpleField>
	<SimpleField name="ctrl_place" type="string"></SimpleField>
	<SimpleField name="mark_num" type="string"></SimpleField>
	<SimpleField name="center_type" type="string"></SimpleField>
	<SimpleField name="lvl_line" type="string"></SimpleField>
	<SimpleField name="guid" type="string"></SimpleField>
</Schema>
<Folder><name>88bfa96c</name>
  <Placemark id="88bfa96c.1">
	<name>0188</name>
	<description>грунтовый репер</description>
	<ExtendedData><SchemaData schemaUrl="#88bfa96c">
		<SimpleData name="type">1</SimpleData>
		<SimpleData name="ext_sign">645.031</SimpleData>
		<SimpleData name="ctrl_place">160 оп</SimpleData>
		<SimpleData name="center_type">Аягуз, гор., в 5.0 км к западу от ж.д. вокзала, в 130 м к сев.-зап. от км.стб. 3/343, в 40 м к северу от шоссе с.Баршатас-гор.Аягуз.</SimpleData>
		<SimpleData name="lvl_line">88bfa96c-ea23-473c-8231-a378a7f2a007</SimpleData>
	</SchemaData></ExtendedData>
      <Point><coordinates>80.3784928632613,47.9586646131821</coordinates></Point>
  </Placemark>
</Folder>
</Document></kml>
