<?xml version="1.0" encoding="utf-8" ?>
<kml xmlns="http://www.opengis.net/kml/2.2">
<Document id="root_doc">
<Schema name="88f8c181" id="88f8c181">
	<SimpleField name="type" type="string"></SimpleField>
	<SimpleField name="view" type="string"></SimpleField>
	<SimpleField name="leveling_order" type="string"></SimpleField>
	<SimpleField name="leveling_height" type="string"></SimpleField>
	<SimpleField name="control_height" type="string"></SimpleField>
	<SimpleField name="benchmark_number" type="string"></SimpleField>
	<SimpleField name="control_location" type="string"></SimpleField>
	<SimpleField name="benchmark_type" type="string"></SimpleField>
	<SimpleField name="leveling_line_section" type="string"></SimpleField>
	<SimpleField name="location_description" type="string"></SimpleField>
	<SimpleField name="status" type="string"></SimpleField>
	<SimpleField name="guid" type="string"></SimpleField>
	<SimpleField name="kml" type="string"></SimpleField>
	<SimpleField name="kml_link" type="string"></SimpleField>
</Schema>
<Folder><name>88f8c181</name>
  <Placemark id="88f8c181.1">
	<name>4070</name>
	<name>грунтовый репер</name>
	<ExtendedData><SchemaData schemaUrl="#88f8c181">
		<SimpleData name="type">1</SimpleData>
		<SimpleData name="view">329.711</SimpleData>
		<SimpleData name="benchmark_number">160 оп,знак </SimpleData>
		<SimpleData name="control_location">Линия № 1: Тюемойнак - Торетоган, I класс (1)Участок: фунд, реп, 3245 - грунт, реп, 1029</SimpleData>
		<SimpleData name="benchmark_type">Торгаут, кладб,, в 15,2 км к сев,-вост, от него, в 11,3 км к вост, от мог, Мереке, в 10 м к вост, от полевой дороги</SimpleData>
		<SimpleData name="location_description">88f8c181-0cb2-4f4d-aabd-e75df16757e8</SimpleData>
		<SimpleData name="status">data/stations/88f8c181.kml</SimpleData>
		<SimpleData name="guid">&lt;a href='data/stations/88f8c181.kml' target='_blank'&gt;Download KML&lt;/a&gt;</SimpleData>
	</SchemaData></ExtendedData>
      <Point><coordinates>69.4122635919623,47.0911921466545</coordinates></Point>
  </Placemark>
</Folder>
</Document></kml>
