<?xml version="1.0" encoding="utf-8" ?>
<kml xmlns="http://www.opengis.net/kml/2.2">
<Document id="root_doc">
<Schema name="89850394" id="89850394">
	<SimpleField name="title" type="string"></SimpleField>
	<SimpleField name="type" type="string"></SimpleField>
	<SimpleField name="ext_sign" type="string"></SimpleField>
	<SimpleField name="class_lvl" type="string"></SimpleField>
	<SimpleField name="height_lvl" type="string"></SimpleField>
	<SimpleField name="height_ctrl" type="string"></SimpleField>
	<SimpleField name="ctrl_place" type="string"></SimpleField>
	<SimpleField name="mark_num" type="string"></SimpleField>
	<SimpleField name="center_type" type="string"></SimpleField>
	<SimpleField name="lvl_line" type="string"></SimpleField>
	<SimpleField name="guid" type="string"></SimpleField>
</Schema>
<Folder><name>89850394</name>
  <Placemark id="89850394.1">
	<name>Нов. Шушанай</name>
	<description>пирамида</description>
	<ExtendedData><SchemaData schemaUrl="#89850394">
		<SimpleData name="type">1</SimpleData>
		<SimpleData name="ext_sign">965,113</SimpleData>
		<SimpleData name="ctrl_place">1 оп</SimpleData>
		<SimpleData name="mark_num">Линия №1; Сары-Озек - Пржевальск, 1 класс(2) Участок: грунт. реп. 155- грунт.реп. 682</SimpleData>
		<SimpleData name="center_type">Чунджа, с., в 16.0 км к юго-зап. от него, в 25 м к сев. от дороги с.Чунджа- с. Кеген, на 67 км</SimpleData>
		<SimpleData name="lvl_line">89850394-245b-4ae0-9300-916b933d98a7</SimpleData>
	</SchemaData></ExtendedData>
      <Point><coordinates>79.3365776043196,43.4304777320905</coordinates></Point>
  </Placemark>
</Folder>
</Document></kml>
