<?xml version="1.0" encoding="utf-8" ?>
<kml xmlns="http://www.opengis.net/kml/2.2">
<Document id="root_doc">
<Schema name="898b002d" id="898b002d">
	<SimpleField name="title" type="string"></SimpleField>
	<SimpleField name="type" type="string"></SimpleField>
	<SimpleField name="ext_sign" type="string"></SimpleField>
	<SimpleField name="class_lvl" type="string"></SimpleField>
	<SimpleField name="height_lvl" type="string"></SimpleField>
	<SimpleField name="height_ctrl" type="string"></SimpleField>
	<SimpleField name="ctrl_place" type="string"></SimpleField>
	<SimpleField name="mark_num" type="string"></SimpleField>
	<SimpleField name="center_type" type="string"></SimpleField>
	<SimpleField name="lvl_line" type="string"></SimpleField>
	<SimpleField name="guid" type="string"></SimpleField>
</Schema>
<Folder><name>898b002d</name>
  <Placemark id="898b002d.1">
	<name>Нет в инпуте грунт репер</name>
	<ExtendedData><SchemaData schemaUrl="#898b002d">
		<SimpleData name="lvl_line">898b002d-0da7-4145-a3e3-3f8cbcb70424</SimpleData>
	</SchemaData></ExtendedData>
      <Point><coordinates>64.43383,48.7425533333333</coordinates></Point>
  </Placemark>
</Folder>
</Document></kml>
