<?xml version="1.0" encoding="utf-8" ?>
<kml xmlns="http://www.opengis.net/kml/2.2">
<Document id="root_doc">
<Schema name="89925e52" id="89925e52">
	<SimpleField name="type" type="string"></SimpleField>
	<SimpleField name="view" type="string"></SimpleField>
	<SimpleField name="leveling_order" type="string"></SimpleField>
	<SimpleField name="leveling_height" type="string"></SimpleField>
	<SimpleField name="control_height" type="string"></SimpleField>
	<SimpleField name="benchmark_number" type="string"></SimpleField>
	<SimpleField name="control_location" type="string"></SimpleField>
	<SimpleField name="benchmark_type" type="string"></SimpleField>
	<SimpleField name="leveling_line_section" type="string"></SimpleField>
	<SimpleField name="location_description" type="string"></SimpleField>
	<SimpleField name="status" type="string"></SimpleField>
	<SimpleField name="guid" type="string"></SimpleField>
	<SimpleField name="kml" type="string"></SimpleField>
	<SimpleField name="kml_link" type="string"></SimpleField>
</Schema>
<Folder><name>89925e52</name>
  <Placemark id="89925e52.1">
	<name>4176</name>
	<name>грунт реп</name>
	<ExtendedData><SchemaData schemaUrl="#89925e52">
		<SimpleData name="type">1</SimpleData>
		<SimpleData name="view">557.367</SimpleData>
		<SimpleData name="benchmark_number">161 оп. Знак</SimpleData>
		<SimpleData name="control_location">Линия № 1: Оз. Жаланашколь – Аягоз, I класс. Участок: грунт.реп. 1437 – ск.реп. 5318</SimpleData>
		<SimpleData name="benchmark_type">Кызылжулдыз, с., в 2.2 км к зап. от него, 25 км шоссе с. Таскескен – с. Бахты, в 18 м к сев.-вост. от шоссе, в 6 м к сев.-зап. от тлф. стб. № 63/336</SimpleData>
		<SimpleData name="location_description">89925e52-283f-4ff2-bd71-d5dc1000825f</SimpleData>
		<SimpleData name="status">data/stations/89925e52.kml</SimpleData>
		<SimpleData name="guid">&lt;a href='data/stations/89925e52.kml' target='_blank'&gt;Download KML&lt;/a&gt;</SimpleData>
	</SchemaData></ExtendedData>
      <Point><coordinates>80.969656978143,47.1604851640054</coordinates></Point>
  </Placemark>
</Folder>
</Document></kml>
