<?xml version="1.0" encoding="utf-8" ?>
<kml xmlns="http://www.opengis.net/kml/2.2">
<Document id="root_doc">
<Schema name="89fcc875" id="89fcc875">
	<SimpleField name="type" type="string"></SimpleField>
	<SimpleField name="view" type="string"></SimpleField>
	<SimpleField name="leveling_order" type="string"></SimpleField>
	<SimpleField name="leveling_height" type="string"></SimpleField>
	<SimpleField name="control_height" type="string"></SimpleField>
	<SimpleField name="benchmark_number" type="string"></SimpleField>
	<SimpleField name="control_location" type="string"></SimpleField>
	<SimpleField name="benchmark_type" type="string"></SimpleField>
	<SimpleField name="leveling_line_section" type="string"></SimpleField>
	<SimpleField name="location_description" type="string"></SimpleField>
	<SimpleField name="status" type="string"></SimpleField>
	<SimpleField name="guid" type="string"></SimpleField>
	<SimpleField name="kml" type="string"></SimpleField>
	<SimpleField name="kml_link" type="string"></SimpleField>
</Schema>
<Folder><name>89fcc875</name>
  <Placemark id="89fcc875.1">
	<name>9261</name>
	<name>грунтовый репер</name>
	<ExtendedData><SchemaData schemaUrl="#89fcc875">
		<SimpleData name="type">2</SimpleData>
		<SimpleData name="view">259,251</SimpleData>
		<SimpleData name="control_location">Линия № 1: Жезказган - Caрысу. ІІ класс (2) Участок: - грунт реп. 730 - грунт.реп. 9470</SimpleData>
		<SimpleData name="benchmark_type">Кладбище, в 1.6 км к сев. от него, в 1.4 км к сев.-зап. от р. Сарысу, в 40 м к вост. от дороги гор. Жезказган - гор.Кызылорда, на 175 км</SimpleData>
		<SimpleData name="location_description">89fcc875-439a-4dbc-8294-85606a2777c2</SimpleData>
		<SimpleData name="status">data/stations/89fcc875.kml</SimpleData>
		<SimpleData name="guid">&lt;a href='data/stations/89fcc875.kml' target='_blank'&gt;Download KML&lt;/a&gt;</SimpleData>
	</SchemaData></ExtendedData>
      <Point><coordinates>67.204944096668,46.3866260857267</coordinates></Point>
  </Placemark>
</Folder>
</Document></kml>
