<?xml version="1.0" encoding="utf-8" ?>
<kml xmlns="http://www.opengis.net/kml/2.2">
<Document id="root_doc">
<Schema name="8a29a1cb" id="8a29a1cb">
	<SimpleField name="type" type="string"></SimpleField>
	<SimpleField name="view" type="string"></SimpleField>
	<SimpleField name="leveling_order" type="string"></SimpleField>
	<SimpleField name="leveling_height" type="string"></SimpleField>
	<SimpleField name="control_height" type="string"></SimpleField>
	<SimpleField name="benchmark_number" type="string"></SimpleField>
	<SimpleField name="control_location" type="string"></SimpleField>
	<SimpleField name="benchmark_type" type="string"></SimpleField>
	<SimpleField name="leveling_line_section" type="string"></SimpleField>
	<SimpleField name="location_description" type="string"></SimpleField>
	<SimpleField name="status" type="string"></SimpleField>
	<SimpleField name="guid" type="string"></SimpleField>
	<SimpleField name="kml" type="string"></SimpleField>
	<SimpleField name="kml_link" type="string"></SimpleField>
</Schema>
<Folder><name>8a29a1cb</name>
  <Placemark id="8a29a1cb.1">
	<name>3650</name>
	<name>грунт. реп.</name>
	<ExtendedData><SchemaData schemaUrl="#8a29a1cb">
		<SimpleData name="type">2</SimpleData>
		<SimpleData name="view">133.823</SimpleData>
		<SimpleData name="benchmark_number">160</SimpleData>
		<SimpleData name="control_location">Линия № 4:  Коккабат-Жосалы.  Участок:           грунт. реп. 6005-фунд.реп. 153.                II класс   </SimpleData>
		<SimpleData name="benchmark_type">Боранбай. мог..  в 12.0 км юго-вост. от неё. в 3.5 км к сев.-зап. от буг. Акшатау. в 0.3 км к зап. от полевой дороги</SimpleData>
		<SimpleData name="location_description">8a29a1cb-88ba-449e-84f8-015a7a04c33e</SimpleData>
		<SimpleData name="status">data/stations/8a29a1cb.kml</SimpleData>
		<SimpleData name="guid">&lt;a href='data/stations/8a29a1cb.kml' target='_blank'&gt;Download KML&lt;/a&gt;</SimpleData>
	</SchemaData></ExtendedData>
      <Point><coordinates>64.161139230101,45.8848203608237</coordinates></Point>
  </Placemark>
</Folder>
</Document></kml>
