<?xml version="1.0" encoding="utf-8" ?>
<kml xmlns="http://www.opengis.net/kml/2.2">
<Document id="root_doc">
<Schema name="8a2b5a92" id="8a2b5a92">
	<SimpleField name="type" type="string"></SimpleField>
	<SimpleField name="view" type="string"></SimpleField>
	<SimpleField name="leveling_order" type="string"></SimpleField>
	<SimpleField name="leveling_height" type="string"></SimpleField>
	<SimpleField name="control_height" type="string"></SimpleField>
	<SimpleField name="benchmark_number" type="string"></SimpleField>
	<SimpleField name="control_location" type="string"></SimpleField>
	<SimpleField name="benchmark_type" type="string"></SimpleField>
	<SimpleField name="leveling_line_section" type="string"></SimpleField>
	<SimpleField name="location_description" type="string"></SimpleField>
	<SimpleField name="status" type="string"></SimpleField>
	<SimpleField name="guid" type="string"></SimpleField>
	<SimpleField name="kml" type="string"></SimpleField>
	<SimpleField name="kml_link" type="string"></SimpleField>
</Schema>
<Folder><name>8a2b5a92</name>
  <Placemark id="8a2b5a92.1">
	<name>9204</name>
	<name>грунт. реп.</name>
	<ExtendedData><SchemaData schemaUrl="#8a2b5a92">
		<SimpleData name="type">2</SimpleData>
		<SimpleData name="view">184.618</SimpleData>
		<SimpleData name="benchmark_number">146 оп</SimpleData>
		<SimpleData name="control_location">Линия №1: Тургай - Кызылуй, II класс. Участок: грунт. реп. 59 - грунт. реп. 9260</SimpleData>
		<SimpleData name="benchmark_type">Али, с., в 7.0 км к вост. от него, в 3.4 км к югу от кладб. Куаныш, в 7 м к юго-зап. от дороги с. Тургай - с. Байконур</SimpleData>
		<SimpleData name="location_description">8a2b5a92-ace5-4c17-8ded-b13e56644ccc</SimpleData>
		<SimpleData name="status">data/stations/8a2b5a92.kml</SimpleData>
		<SimpleData name="guid">&lt;a href='data/stations/8a2b5a92.kml' target='_blank'&gt;Download KML&lt;/a&gt;</SimpleData>
	</SchemaData></ExtendedData>
      <Point><coordinates>64.9181689347912,48.3294395376885</coordinates></Point>
  </Placemark>
</Folder>
</Document></kml>
