<?xml version="1.0" encoding="utf-8" ?>
<kml xmlns="http://www.opengis.net/kml/2.2">
<Document id="root_doc">
<Schema name="8a4a2a91" id="8a4a2a91">
	<SimpleField name="title" type="string"></SimpleField>
	<SimpleField name="type" type="string"></SimpleField>
	<SimpleField name="ext_sign" type="string"></SimpleField>
	<SimpleField name="class_lvl" type="string"></SimpleField>
	<SimpleField name="height_lvl" type="string"></SimpleField>
	<SimpleField name="height_ctrl" type="string"></SimpleField>
	<SimpleField name="ctrl_place" type="string"></SimpleField>
	<SimpleField name="mark_num" type="string"></SimpleField>
	<SimpleField name="center_type" type="string"></SimpleField>
	<SimpleField name="lvl_line" type="string"></SimpleField>
	<SimpleField name="guid" type="string"></SimpleField>
</Schema>
<Folder><name>8a4a2a91</name>
  <Placemark id="8a4a2a91.1">
	<name>1600</name>
	<description>грунтовый репер</description>
	<ExtendedData><SchemaData schemaUrl="#8a4a2a91">
		<SimpleData name="title">грунт. реп.</SimpleData>
		<SimpleData name="type">2</SimpleData>
		<SimpleData name="ext_sign">96.706</SimpleData>
		<SimpleData name="ctrl_place">160</SimpleData>
		<SimpleData name="mark_num">Линия № 4:  Коккабат-Жосалы.  Участок:           грунт. реп. 6005-фунд.реп. 153.                II класс</SimpleData>
		<SimpleData name="center_type">Акшатау.буг..  в 9.1 км юго-зап. от него. в 5.0 км к сев. от арт. к. Кожакельдыкудык. в   30 м к зап.от полевой дороги</SimpleData>
		<SimpleData name="lvl_line">8a4a2a91-e314-4c22-bcb9-38e87b0bbe7a</SimpleData>
	</SchemaData></ExtendedData>
      <Point><coordinates>64.1449175860952,45.784194178435</coordinates></Point>
  </Placemark>
</Folder>
</Document></kml>
