<?xml version="1.0" encoding="utf-8" ?>
<kml xmlns="http://www.opengis.net/kml/2.2">
<Document id="root_doc">
<Schema name="8a60aedf" id="8a60aedf">
	<SimpleField name="title" type="string"></SimpleField>
	<SimpleField name="type" type="string"></SimpleField>
	<SimpleField name="ext_sign" type="string"></SimpleField>
	<SimpleField name="class_lvl" type="string"></SimpleField>
	<SimpleField name="height_lvl" type="string"></SimpleField>
	<SimpleField name="height_ctrl" type="string"></SimpleField>
	<SimpleField name="ctrl_place" type="string"></SimpleField>
	<SimpleField name="mark_num" type="string"></SimpleField>
	<SimpleField name="center_type" type="string"></SimpleField>
	<SimpleField name="lvl_line" type="string"></SimpleField>
	<SimpleField name="guid" type="string"></SimpleField>
</Schema>
<Folder><name>8a60aedf</name>
  <Placemark id="8a60aedf.1">
	<name>16286</name>
	<description>грунтовый репер</description>
	<ExtendedData><SchemaData schemaUrl="#8a60aedf">
		<SimpleData name="type">2</SimpleData>
		<SimpleData name="ext_sign">451,284</SimpleData>
		<SimpleData name="class_lvl">449,633</SimpleData>
		<SimpleData name="height_lvl">Контрольный репер в верхней плоскости монолита</SimpleData>
		<SimpleData name="ctrl_place">121оп</SimpleData>
		<SimpleData name="mark_num">Линия № 2: Сарыкияк-Степное, II класс (2)   Участок: грунт. реп. 903-грунт. реп. 2687</SimpleData>
		<SimpleData name="center_type">Молодежный, с., в 3,1 км к юго-зап. от него, в 1,0 км к зап. от шоссе с. Молодежный-гор. Караганда, в 0,1 км к югу от р. Жарыкты</SimpleData>
		<SimpleData name="lvl_line">8a60aedf-b82a-486c-8756-86f44af97ab3</SimpleData>
	</SchemaData></ExtendedData>
      <Point><coordinates>73.4960615496067,50.6978430854954</coordinates></Point>
  </Placemark>
</Folder>
</Document></kml>
