<?xml version="1.0" encoding="utf-8" ?>
<kml xmlns="http://www.opengis.net/kml/2.2">
<Document id="root_doc">
<Schema name="8a65ecdb" id="8a65ecdb">
	<SimpleField name="title" type="string"></SimpleField>
	<SimpleField name="type" type="string"></SimpleField>
	<SimpleField name="ext_sign" type="string"></SimpleField>
	<SimpleField name="class_lvl" type="string"></SimpleField>
	<SimpleField name="height_lvl" type="string"></SimpleField>
	<SimpleField name="height_ctrl" type="string"></SimpleField>
	<SimpleField name="ctrl_place" type="string"></SimpleField>
	<SimpleField name="mark_num" type="string"></SimpleField>
	<SimpleField name="center_type" type="string"></SimpleField>
	<SimpleField name="lvl_line" type="string"></SimpleField>
	<SimpleField name="guid" type="string"></SimpleField>
</Schema>
<Folder><name>8a65ecdb</name>
  <Placemark id="8a65ecdb.1">
	<name>5165</name>
	<ExtendedData><SchemaData schemaUrl="#8a65ecdb">
		<SimpleData name="title">грунт. реп.</SimpleData>
		<SimpleData name="type">II</SimpleData>
		<SimpleData name="ext_sign">151,937</SimpleData>
		<SimpleData name="ctrl_place">146 оп</SimpleData>
		<SimpleData name="mark_num">Линия №3 :  Актасты-Тургай, II  класс . Участок : фунд. реп. 3712-грунт. реп. 5167</SimpleData>
		<SimpleData name="center_type">Кызылкемер, с.,в 15,0 км к югу от него, в 5,0 км к юго-вост.от земляного вала, на р.Кабырга, в 26 м к сев.-вост.от дороги с.Кызылкемер - с.Тургай, на вершине горы</SimpleData>
		<SimpleData name="lvl_line">8a65ecdb-709f-4d07-8dbc-28f5b53c7f82</SimpleData>
	</SchemaData></ExtendedData>
      <Point><coordinates>63.0379263915345,49.96664249678</coordinates></Point>
  </Placemark>
</Folder>
</Document></kml>
