<?xml version="1.0" encoding="utf-8" ?>
<kml xmlns="http://www.opengis.net/kml/2.2">
<Document id="root_doc">
<Schema name="8a7157ad" id="8a7157ad">
	<SimpleField name="title" type="string"></SimpleField>
	<SimpleField name="type" type="string"></SimpleField>
	<SimpleField name="ext_sign" type="string"></SimpleField>
	<SimpleField name="class_lvl" type="string"></SimpleField>
	<SimpleField name="height_lvl" type="string"></SimpleField>
	<SimpleField name="height_ctrl" type="string"></SimpleField>
	<SimpleField name="ctrl_place" type="string"></SimpleField>
	<SimpleField name="mark_num" type="string"></SimpleField>
	<SimpleField name="center_type" type="string"></SimpleField>
	<SimpleField name="lvl_line" type="string"></SimpleField>
	<SimpleField name="guid" type="string"></SimpleField>
</Schema>
<Folder><name>8a7157ad</name>
  <Placemark id="8a7157ad.1">
	<name>3563</name>
	<description>грунтовый репер</description>
	<ExtendedData><SchemaData schemaUrl="#8a7157ad">
		<SimpleData name="type">2</SimpleData>
		<SimpleData name="ctrl_place">121</SimpleData>
		<SimpleData name="mark_num">Линия II класса: Есиль - Семиозерный. Участок: грунт. реп. 3961 - фунд. реп. 349</SimpleData>
		<SimpleData name="center_type">Кушмурун, с., в 0.8 км к вост. от него, на 292/293 км стб., в 45 м к сев. от жел.-дор. полотна</SimpleData>
		<SimpleData name="lvl_line">8a7157ad-0f3f-4b0b-bf6e-82ca670c82bc</SimpleData>
	</SchemaData></ExtendedData>
      <Point><coordinates>nan,nan</coordinates></Point>
  </Placemark>
</Folder>
</Document></kml>
