<?xml version="1.0" encoding="utf-8" ?>
<kml xmlns="http://www.opengis.net/kml/2.2">
<Document id="root_doc">
<Schema name="8baadd35" id="8baadd35">
	<SimpleField name="type" type="string"></SimpleField>
	<SimpleField name="view" type="string"></SimpleField>
	<SimpleField name="leveling_order" type="string"></SimpleField>
	<SimpleField name="leveling_height" type="string"></SimpleField>
	<SimpleField name="control_height" type="string"></SimpleField>
	<SimpleField name="benchmark_number" type="string"></SimpleField>
	<SimpleField name="control_location" type="string"></SimpleField>
	<SimpleField name="benchmark_type" type="string"></SimpleField>
	<SimpleField name="leveling_line_section" type="string"></SimpleField>
	<SimpleField name="location_description" type="string"></SimpleField>
	<SimpleField name="status" type="string"></SimpleField>
	<SimpleField name="guid" type="string"></SimpleField>
	<SimpleField name="kml" type="string"></SimpleField>
	<SimpleField name="kml_link" type="string"></SimpleField>
</Schema>
<Folder><name>8baadd35</name>
  <Placemark id="8baadd35.1">
	<name>1918</name>
	<name>грунт. реп.</name>
	<ExtendedData><SchemaData schemaUrl="#8baadd35">
		<SimpleData name="type">2</SimpleData>
		<SimpleData name="view">98.506</SimpleData>
		<SimpleData name="benchmark_number">162 оп</SimpleData>
		<SimpleData name="control_location">Линия №3:  Развалины Пикета №8 - Сарысу. 2 класс. Участок: фунд.реп.. 520 - грунт.реп. 1842</SimpleData>
		<SimpleData name="benchmark_type">Кумколь. вахт.пос.. в 8.0 км к юго-зап.от него. в 6.2 км к юго-вост.от к. Мустафа 1-й. в 0.1 км к вост.от полевой дороги. на возвышенности</SimpleData>
		<SimpleData name="location_description">8baadd35-c902-4cfb-a8aa-199c3ead1530</SimpleData>
		<SimpleData name="status">data/stations/8baadd35.kml</SimpleData>
		<SimpleData name="guid">&lt;a href='data/stations/8baadd35.kml' target='_blank'&gt;Download KML&lt;/a&gt;</SimpleData>
	</SchemaData></ExtendedData>
      <Point><coordinates>65.6689421198605,46.3450417083971</coordinates></Point>
  </Placemark>
</Folder>
</Document></kml>
