<?xml version="1.0" encoding="utf-8" ?>
<kml xmlns="http://www.opengis.net/kml/2.2">
<Document id="root_doc">
<Schema name="8be6f993" id="8be6f993">
	<SimpleField name="type" type="string"></SimpleField>
	<SimpleField name="view" type="string"></SimpleField>
	<SimpleField name="leveling_order" type="string"></SimpleField>
	<SimpleField name="leveling_height" type="string"></SimpleField>
	<SimpleField name="control_height" type="string"></SimpleField>
	<SimpleField name="benchmark_number" type="string"></SimpleField>
	<SimpleField name="control_location" type="string"></SimpleField>
	<SimpleField name="benchmark_type" type="string"></SimpleField>
	<SimpleField name="leveling_line_section" type="string"></SimpleField>
	<SimpleField name="location_description" type="string"></SimpleField>
	<SimpleField name="status" type="string"></SimpleField>
	<SimpleField name="guid" type="string"></SimpleField>
	<SimpleField name="kml" type="string"></SimpleField>
	<SimpleField name="kml_link" type="string"></SimpleField>
</Schema>
<Folder><name>8be6f993</name>
  <Placemark id="8be6f993.1">
	<name>863</name>
	<name>грунт.реп.</name>
	<ExtendedData><SchemaData schemaUrl="#8be6f993">
		<SimpleData name="type">II</SimpleData>
		<SimpleData name="view">130.758</SimpleData>
		<SimpleData name="leveling_order">148.465</SimpleData>
		<SimpleData name="benchmark_number">161</SimpleData>
		<SimpleData name="control_location">Линия № 2: Золторунное-Кобенсай, II класс. Участок: фунд.реп. 7Б-грунт.реп.57</SimpleData>
		<SimpleData name="benchmark_type">Шункырколь, с., южн.окрайна его,  в 50 м сев.-зап.от кладбища, в 15 м к сев.-зап.от перекрестка улучшен.грунт.дороги с. Шункырколь-с. Алабота-с. Тихоокеанское-оз. Калибек</SimpleData>
		<SimpleData name="location_description">8be6f993-cd0d-450b-97e6-591c8a3fcbd2</SimpleData>
		<SimpleData name="status">data/stations/8be6f993.kml</SimpleData>
		<SimpleData name="guid">&lt;a href='data/stations/8be6f993.kml' target='_blank'&gt;Download KML&lt;/a&gt;</SimpleData>
	</SchemaData></ExtendedData>
      <Point><coordinates>70.8529621081437,53.8511752390022</coordinates></Point>
  </Placemark>
</Folder>
</Document></kml>
