<?xml version="1.0" encoding="utf-8" ?>
<kml xmlns="http://www.opengis.net/kml/2.2">
<Document id="root_doc">
<Schema name="8c128329" id="8c128329">
	<SimpleField name="title" type="string"></SimpleField>
	<SimpleField name="type" type="string"></SimpleField>
	<SimpleField name="ext_sign" type="string"></SimpleField>
	<SimpleField name="class_lvl" type="string"></SimpleField>
	<SimpleField name="height_lvl" type="string"></SimpleField>
	<SimpleField name="height_ctrl" type="string"></SimpleField>
	<SimpleField name="ctrl_place" type="string"></SimpleField>
	<SimpleField name="mark_num" type="string"></SimpleField>
	<SimpleField name="center_type" type="string"></SimpleField>
	<SimpleField name="lvl_line" type="string"></SimpleField>
	<SimpleField name="guid" type="string"></SimpleField>
</Schema>
<Folder><name>8c128329</name>
  <Placemark id="8c128329.1">
	<name>R080</name>
	<description>Фунд.реп.</description>
	<ExtendedData><SchemaData schemaUrl="#8c128329">
		<SimpleData name="height_ctrl">R080</SimpleData>
		<SimpleData name="ctrl_place">161</SimpleData>
		<SimpleData name="lvl_line">8c128329-f258-478e-814d-3cf1f75cd58e</SimpleData>
	</SchemaData></ExtendedData>
      <Point><coordinates>54.5586714681431,43.9451178147811</coordinates></Point>
  </Placemark>
</Folder>
</Document></kml>
