<?xml version="1.0" encoding="utf-8" ?>
<kml xmlns="http://www.opengis.net/kml/2.2">
<Document id="root_doc">
<Schema name="8c610489" id="8c610489">
	<SimpleField name="title" type="string"></SimpleField>
	<SimpleField name="type" type="string"></SimpleField>
	<SimpleField name="ext_sign" type="string"></SimpleField>
	<SimpleField name="class_lvl" type="string"></SimpleField>
	<SimpleField name="height_lvl" type="string"></SimpleField>
	<SimpleField name="height_ctrl" type="string"></SimpleField>
	<SimpleField name="ctrl_place" type="string"></SimpleField>
	<SimpleField name="mark_num" type="string"></SimpleField>
	<SimpleField name="center_type" type="string"></SimpleField>
	<SimpleField name="lvl_line" type="string"></SimpleField>
	<SimpleField name="guid" type="string"></SimpleField>
</Schema>
<Folder><name>8c610489</name>
  <Placemark id="8c610489.1">
	<name>15913</name>
	<description>грунтовый репер</description>
	<ExtendedData><SchemaData schemaUrl="#8c610489">
		<SimpleData name="type">2</SimpleData>
		<SimpleData name="ext_sign">688,321</SimpleData>
		<SimpleData name="class_lvl">686.851</SimpleData>
		<SimpleData name="height_lvl">Контрольный репер в верхней плоскости монолита </SimpleData>
		<SimpleData name="ctrl_place">121 оп. знак</SimpleData>
		<SimpleData name="mark_num">Линия № 2: Карабута – Белая Школа, II класс (1)
Участок: грунт.реп. 93 –  фунд.реп. 5491</SimpleData>
		<SimpleData name="center_type">Ойчилик, с., в 6.3 км к сев. от него, в 1.5 км к югу от зим. Туяк, в 38 м к вост. от грунт. дороги с. Аксуат – с. Ойчилик</SimpleData>
		<SimpleData name="lvl_line">8c610489-87ed-4587-b747-64911759dfde</SimpleData>
	</SchemaData></ExtendedData>
      <Point><coordinates>83.0103775352505,47.6057905957228</coordinates></Point>
  </Placemark>
</Folder>
</Document></kml>
