<?xml version="1.0" encoding="utf-8" ?>
<kml xmlns="http://www.opengis.net/kml/2.2">
<Document id="root_doc">
<Schema name="8cf49502" id="8cf49502">
	<SimpleField name="title" type="string"></SimpleField>
	<SimpleField name="type" type="string"></SimpleField>
	<SimpleField name="ext_sign" type="string"></SimpleField>
	<SimpleField name="class_lvl" type="string"></SimpleField>
	<SimpleField name="height_lvl" type="string"></SimpleField>
	<SimpleField name="height_ctrl" type="string"></SimpleField>
	<SimpleField name="ctrl_place" type="string"></SimpleField>
	<SimpleField name="mark_num" type="string"></SimpleField>
	<SimpleField name="center_type" type="string"></SimpleField>
	<SimpleField name="lvl_line" type="string"></SimpleField>
	<SimpleField name="guid" type="string"></SimpleField>
</Schema>
<Folder><name>8cf49502</name>
  <Placemark id="8cf49502.1">
	<name>4674</name>
	<description>грунтовый репер</description>
	<ExtendedData><SchemaData schemaUrl="#8cf49502">
		<SimpleData name="type">2</SimpleData>
		<SimpleData name="ext_sign">520,723</SimpleData>
		<SimpleData name="ctrl_place">160оп</SimpleData>
		<SimpleData name="mark_num">Линия №1: Карасорский-Каркаралинск, II класс (1) Участок: грунт.реп. 50 - грунт.реп.0224</SimpleData>
		<SimpleData name="center_type">Маяжон, с., в 3,2 км к вост. от него, в 40 м к зап. от линии связи, в 10 м  к вост. от полевой дороги</SimpleData>
		<SimpleData name="lvl_line">8cf49502-0d19-4861-b34a-960ed21317a7</SimpleData>
	</SchemaData></ExtendedData>
      <Point><coordinates>75.6487354088276,50.5834860430766</coordinates></Point>
  </Placemark>
</Folder>
</Document></kml>
