<?xml version="1.0" encoding="utf-8" ?>
<kml xmlns="http://www.opengis.net/kml/2.2">
<Document id="root_doc">
<Schema name="8d7c317f" id="8d7c317f">
	<SimpleField name="title" type="string"></SimpleField>
	<SimpleField name="type" type="string"></SimpleField>
	<SimpleField name="ext_sign" type="string"></SimpleField>
	<SimpleField name="class_lvl" type="string"></SimpleField>
	<SimpleField name="height_lvl" type="string"></SimpleField>
	<SimpleField name="height_ctrl" type="string"></SimpleField>
	<SimpleField name="ctrl_place" type="string"></SimpleField>
	<SimpleField name="mark_num" type="string"></SimpleField>
	<SimpleField name="center_type" type="string"></SimpleField>
	<SimpleField name="lvl_line" type="string"></SimpleField>
	<SimpleField name="guid" type="string"></SimpleField>
</Schema>
<Folder><name>8d7c317f</name>
  <Placemark id="8d7c317f.1">
	<name>2656</name>
	<description>марка</description>
	<ExtendedData><SchemaData schemaUrl="#8d7c317f">
		<SimpleData name="title">марка</SimpleData>
		<SimpleData name="type">1</SimpleData>
		<SimpleData name="ext_sign">188.049</SimpleData>
		<SimpleData name="mark_num">Линия №1: Сагиз-Кандагач, І класс Участок: марка-2864-грнут.реп.1615</SimpleData>
		<SimpleData name="center_type">Джарлы, станц., в 6.5км к юго-зап.от нее, на 10пикете 196км, жел.-дор.мост</SimpleData>
		<SimpleData name="lvl_line">8d7c317f-c6fc-4e82-90d9-1bc9634d1962</SimpleData>
	</SchemaData></ExtendedData>
      <Point><coordinates>55.5006373255249,48.5122671187304</coordinates></Point>
  </Placemark>
</Folder>
</Document></kml>
