<?xml version="1.0" encoding="utf-8" ?>
<kml xmlns="http://www.opengis.net/kml/2.2">
<Document id="root_doc">
<Schema name="8daddf65" id="8daddf65">
	<SimpleField name="type" type="string"></SimpleField>
	<SimpleField name="view" type="string"></SimpleField>
	<SimpleField name="leveling_order" type="string"></SimpleField>
	<SimpleField name="leveling_height" type="string"></SimpleField>
	<SimpleField name="control_height" type="string"></SimpleField>
	<SimpleField name="benchmark_number" type="string"></SimpleField>
	<SimpleField name="control_location" type="string"></SimpleField>
	<SimpleField name="benchmark_type" type="string"></SimpleField>
	<SimpleField name="leveling_line_section" type="string"></SimpleField>
	<SimpleField name="location_description" type="string"></SimpleField>
	<SimpleField name="status" type="string"></SimpleField>
	<SimpleField name="guid" type="string"></SimpleField>
	<SimpleField name="kml" type="string"></SimpleField>
	<SimpleField name="kml_link" type="string"></SimpleField>
</Schema>
<Folder><name>8daddf65</name>
  <Placemark id="8daddf65.1">
	<name>356</name>
	<name>фунд. реп.</name>
	<ExtendedData><SchemaData schemaUrl="#8daddf65">
		<SimpleData name="type">1</SimpleData>
		<SimpleData name="view">211.714</SimpleData>
		<SimpleData name="leveling_order">210.467</SimpleData>
		<SimpleData name="benchmark_number">104</SimpleData>
		<SimpleData name="control_location">Линия №1: Сагиз-Кандагач, I класс. Участок: грунт. реп. 1675 - марка 2907</SimpleData>
		<SimpleData name="benchmark_type">Караулкельды. станц., в 3.0 км к сев.-вост. от нее, на 9 пикете 154 км, в 76 м к сев.-зап. от жел.-дор. полотна, в 58 м к зап. от тлф. стб. №879</SimpleData>
		<SimpleData name="location_description">8daddf65-088d-4fe0-9f3b-1cd695ea4781</SimpleData>
		<SimpleData name="status">data/stations/8daddf65.kml</SimpleData>
		<SimpleData name="guid">&lt;a href='data/stations/8daddf65.kml' target='_blank'&gt;Download KML&lt;/a&gt;</SimpleData>
	</SchemaData></ExtendedData>
      <Point><coordinates>55.9181400004329,48.7323737731675</coordinates></Point>
  </Placemark>
</Folder>
</Document></kml>
