<?xml version="1.0" encoding="utf-8" ?>
<kml xmlns="http://www.opengis.net/kml/2.2">
<Document id="root_doc">
<Schema name="8dc9ca3f" id="8dc9ca3f">
	<SimpleField name="title" type="string"></SimpleField>
	<SimpleField name="type" type="string"></SimpleField>
	<SimpleField name="ext_sign" type="string"></SimpleField>
	<SimpleField name="class_lvl" type="string"></SimpleField>
	<SimpleField name="height_lvl" type="string"></SimpleField>
	<SimpleField name="height_ctrl" type="string"></SimpleField>
	<SimpleField name="ctrl_place" type="string"></SimpleField>
	<SimpleField name="mark_num" type="string"></SimpleField>
	<SimpleField name="center_type" type="string"></SimpleField>
	<SimpleField name="lvl_line" type="string"></SimpleField>
	<SimpleField name="guid" type="string"></SimpleField>
</Schema>
<Folder><name>8dc9ca3f</name>
  <Placemark id="8dc9ca3f.1">
	<name>427</name>
	<description>грунтовый репер</description>
	<ExtendedData><SchemaData schemaUrl="#8dc9ca3f">
		<SimpleData name="title">1А63</SimpleData>
		<SimpleData name="lvl_line">8dc9ca3f-4840-41f4-8225-75a3c4922657</SimpleData>
	</SchemaData></ExtendedData>
      <Point><coordinates>52.8224966666667,47.446575</coordinates></Point>
  </Placemark>
</Folder>
</Document></kml>
