<?xml version="1.0" encoding="utf-8" ?>
<kml xmlns="http://www.opengis.net/kml/2.2">
<Document id="root_doc">
<Schema name="8ddfbac8" id="8ddfbac8">
	<SimpleField name="title" type="string"></SimpleField>
	<SimpleField name="type" type="string"></SimpleField>
	<SimpleField name="ext_sign" type="string"></SimpleField>
	<SimpleField name="class_lvl" type="string"></SimpleField>
	<SimpleField name="height_lvl" type="string"></SimpleField>
	<SimpleField name="height_ctrl" type="string"></SimpleField>
	<SimpleField name="ctrl_place" type="string"></SimpleField>
	<SimpleField name="mark_num" type="string"></SimpleField>
	<SimpleField name="center_type" type="string"></SimpleField>
	<SimpleField name="lvl_line" type="string"></SimpleField>
	<SimpleField name="guid" type="string"></SimpleField>
</Schema>
<Folder><name>8ddfbac8</name>
  <Placemark id="8ddfbac8.1">
	<name>68</name>
	<description>грунтовый репер</description>
	<ExtendedData><SchemaData schemaUrl="#8ddfbac8">
		<SimpleData name="type">2</SimpleData>
		<SimpleData name="ext_sign">634,848</SimpleData>
		<SimpleData name="class_lvl">632,192</SimpleData>
		<SimpleData name="height_lvl">Контрольный репер №100 в верхней плоскости монолита</SimpleData>
		<SimpleData name="ctrl_place">123</SimpleData>
		<SimpleData name="mark_num">Линия №2: Коянды - Каркаралинск, II класс (2) Участок: грунт. реп. 71 - грунт. реп. 3423</SimpleData>
		<SimpleData name="center_type">Карасор, с., в 3,2 км к юго-вост. от него, в 1,8 км к сев.-вост. от оз.Карасор, в 0,2 км к зап. от дороги на полевой стан</SimpleData>
		<SimpleData name="lvl_line">8ddfbac8-8c7a-4a65-9410-36b728bb5306</SimpleData>
	</SchemaData></ExtendedData>
      <Point><coordinates>77.0483245438288,50.034110694498</coordinates></Point>
  </Placemark>
</Folder>
</Document></kml>
