<?xml version="1.0" encoding="utf-8" ?>
<kml xmlns="http://www.opengis.net/kml/2.2">
<Document id="root_doc">
<Schema name="8dea71b0" id="8dea71b0">
	<SimpleField name="type" type="string"></SimpleField>
	<SimpleField name="view" type="string"></SimpleField>
	<SimpleField name="leveling_order" type="string"></SimpleField>
	<SimpleField name="leveling_height" type="string"></SimpleField>
	<SimpleField name="control_height" type="string"></SimpleField>
	<SimpleField name="benchmark_number" type="string"></SimpleField>
	<SimpleField name="control_location" type="string"></SimpleField>
	<SimpleField name="benchmark_type" type="string"></SimpleField>
	<SimpleField name="leveling_line_section" type="string"></SimpleField>
	<SimpleField name="location_description" type="string"></SimpleField>
	<SimpleField name="status" type="string"></SimpleField>
	<SimpleField name="guid" type="string"></SimpleField>
	<SimpleField name="kml" type="string"></SimpleField>
	<SimpleField name="kml_link" type="string"></SimpleField>
</Schema>
<Folder><name>8dea71b0</name>
  <Placemark id="8dea71b0.1">
	<name>4156</name>
	<description>грунт.реп</description>
	<ExtendedData><SchemaData schemaUrl="#8dea71b0">
		<SimpleData name="type">1</SimpleData>
		<SimpleData name="view">119,644</SimpleData>
		<SimpleData name="benchmark_number">107</SimpleData>
		<SimpleData name="control_location">Линия №1: Семиозерный - Наурзум (Аксуат), 1 класс (1,2). Участок: фунд.реп.1378 - грунт.реп. 4047</SimpleData>
		<SimpleData name="benchmark_type">Карасу, с., в 1,0 км к югу от него, в 1,1 км к юго-зап. от полевого стана, в 54 м к вост. от дороги с.Карасу - с.Наурзум</SimpleData>
		<SimpleData name="location_description">8dea71b0-fdcc-4fde-8e13-9e432b35b9bc</SimpleData>
		<SimpleData name="status">data/stations/8dea71b0.kml</SimpleData>
		<SimpleData name="guid">&lt;a href='data/stations/8dea71b0.kml' target='_blank'&gt;Download KML&lt;/a&gt;</SimpleData>
	</SchemaData></ExtendedData>
      <Point><coordinates>64.6111094188965,51.6833137965394</coordinates></Point>
  </Placemark>
</Folder>
</Document></kml>
