<?xml version="1.0" encoding="utf-8" ?>
<kml xmlns="http://www.opengis.net/kml/2.2">
<Document id="root_doc">
<Schema name="8df491bc" id="8df491bc">
	<SimpleField name="type" type="string"></SimpleField>
	<SimpleField name="view" type="string"></SimpleField>
	<SimpleField name="leveling_order" type="string"></SimpleField>
	<SimpleField name="leveling_height" type="string"></SimpleField>
	<SimpleField name="control_height" type="string"></SimpleField>
	<SimpleField name="benchmark_number" type="string"></SimpleField>
	<SimpleField name="control_location" type="string"></SimpleField>
	<SimpleField name="benchmark_type" type="string"></SimpleField>
	<SimpleField name="leveling_line_section" type="string"></SimpleField>
	<SimpleField name="location_description" type="string"></SimpleField>
	<SimpleField name="status" type="string"></SimpleField>
	<SimpleField name="guid" type="string"></SimpleField>
	<SimpleField name="kml" type="string"></SimpleField>
	<SimpleField name="kml_link" type="string"></SimpleField>
</Schema>
<Folder><name>8df491bc</name>
  <Placemark id="8df491bc.1">
	<name>2095</name>
	<name>стен,реп,</name>
	<ExtendedData><SchemaData schemaUrl="#8df491bc">
		<SimpleData name="type">I</SimpleData>
		<SimpleData name="view">381.756</SimpleData>
		<SimpleData name="control_location">Линия № 1: Петропавловск - Астана (Целиноград), I класс, Участок: грунт,реп, 0772 - грунт, реп, б/№ ГМС</SimpleData>
		<SimpleData name="benchmark_type">Ельтай,станц,, в 0,9 км к юго-вост, от неё, на 10 пк 345 км,жел,-дор,мост, на вост, стороне, сев,-вост, Устой жел,-дор,моста</SimpleData>
		<SimpleData name="leveling_line_section">в хорошем состояний</SimpleData>
		<SimpleData name="location_description">8df491bc-a73e-4583-b3de-2355e70a1c74</SimpleData>
		<SimpleData name="status">data/stations/8df491bc.kml</SimpleData>
		<SimpleData name="guid">&lt;a href='data/stations/8df491bc.kml' target='_blank'&gt;Download KML&lt;/a&gt;</SimpleData>
	</SchemaData></ExtendedData>
      <Point><coordinates>70.5981157541691,52.2696366701248</coordinates></Point>
  </Placemark>
</Folder>
</Document></kml>
