<?xml version="1.0" encoding="utf-8" ?>
<kml xmlns="http://www.opengis.net/kml/2.2">
<Document id="root_doc">
<Schema name="8dfdb7a5" id="8dfdb7a5">
	<SimpleField name="title" type="string"></SimpleField>
	<SimpleField name="type" type="string"></SimpleField>
	<SimpleField name="ext_sign" type="string"></SimpleField>
	<SimpleField name="class_lvl" type="string"></SimpleField>
	<SimpleField name="height_lvl" type="string"></SimpleField>
	<SimpleField name="height_ctrl" type="string"></SimpleField>
	<SimpleField name="ctrl_place" type="string"></SimpleField>
	<SimpleField name="mark_num" type="string"></SimpleField>
	<SimpleField name="center_type" type="string"></SimpleField>
	<SimpleField name="lvl_line" type="string"></SimpleField>
	<SimpleField name="guid" type="string"></SimpleField>
</Schema>
<Folder><name>8dfdb7a5</name>
  <Placemark id="8dfdb7a5.1">
	<name>1739</name>
	<description>грунт.реп.</description>
	<ExtendedData><SchemaData schemaUrl="#8dfdb7a5">
		<SimpleData name="type">2</SimpleData>
		<SimpleData name="ext_sign">-7.422</SimpleData>
		<SimpleData name="ctrl_place">15 оп</SimpleData>
		<SimpleData name="mark_num">Линия нивелирования II класса на объекте &quot;Баван-Зелёный, Актонук-Баван, Баван-Керей&quot; 06.03.1751</SimpleData>
		<SimpleData name="center_type">кладб. Турагалимола, в 7.4 км к сев.-зап. от неё, в 7,0 км к сев.-зап. от зим., в 4,4 км к юго-вост. от п. трианг. Байкадале,  на кладб. Берлибаймола.</SimpleData>
		<SimpleData name="lvl_line">8dfdb7a5-7036-4183-9de6-c2259b2dc4da</SimpleData>
	</SchemaData></ExtendedData>
      <Point><coordinates>49.9766087616169,48.1158809368879</coordinates></Point>
  </Placemark>
</Folder>
</Document></kml>
