<?xml version="1.0" encoding="utf-8" ?>
<kml xmlns="http://www.opengis.net/kml/2.2">
<Document id="root_doc">
<Schema name="8e3dc1b3" id="8e3dc1b3">
	<SimpleField name="type" type="string"></SimpleField>
	<SimpleField name="view" type="string"></SimpleField>
	<SimpleField name="leveling_order" type="string"></SimpleField>
	<SimpleField name="leveling_height" type="string"></SimpleField>
	<SimpleField name="control_height" type="string"></SimpleField>
	<SimpleField name="benchmark_number" type="string"></SimpleField>
	<SimpleField name="control_location" type="string"></SimpleField>
	<SimpleField name="benchmark_type" type="string"></SimpleField>
	<SimpleField name="leveling_line_section" type="string"></SimpleField>
	<SimpleField name="location_description" type="string"></SimpleField>
	<SimpleField name="status" type="string"></SimpleField>
	<SimpleField name="guid" type="string"></SimpleField>
	<SimpleField name="kml" type="string"></SimpleField>
	<SimpleField name="kml_link" type="string"></SimpleField>
</Schema>
<Folder><name>8e3dc1b3</name>
  <Placemark id="8e3dc1b3.1">
	<name>4737</name>
	<name>грунтовый репер</name>
	<ExtendedData><SchemaData schemaUrl="#8e3dc1b3">
		<SimpleData name="type">2</SimpleData>
		<SimpleData name="view">213,174</SimpleData>
		<SimpleData name="control_location">Линия № 2: Сарысу - Кендырлык (Айгарлык).ІІ класс (1)               Участок: грунт, реп. 3939 - пир.        3 кл. Дувана Зап.</SimpleData>
		<SimpleData name="benchmark_type">Ахметишан. кладб., в 12.2 км к юго-вост. от него, в 10.1 км к сев.-вост. от мог. Мырзакельди,  в 5.6 км к зап. от развилки полевой дороги</SimpleData>
		<SimpleData name="location_description">8e3dc1b3-8389-4725-9932-8e1406e644c7</SimpleData>
		<SimpleData name="status">data/stations/8e3dc1b3.kml</SimpleData>
		<SimpleData name="guid">&lt;a href='data/stations/8e3dc1b3.kml' target='_blank'&gt;Download KML&lt;/a&gt;</SimpleData>
	</SchemaData></ExtendedData>
      <Point><coordinates>67.3043679748685,46.0120034383363</coordinates></Point>
  </Placemark>
</Folder>
</Document></kml>
