<?xml version="1.0" encoding="utf-8" ?>
<kml xmlns="http://www.opengis.net/kml/2.2">
<Document id="root_doc">
<Schema name="8efd384a" id="8efd384a">
	<SimpleField name="type" type="string"></SimpleField>
	<SimpleField name="view" type="string"></SimpleField>
	<SimpleField name="leveling_order" type="string"></SimpleField>
	<SimpleField name="leveling_height" type="string"></SimpleField>
	<SimpleField name="control_height" type="string"></SimpleField>
	<SimpleField name="benchmark_number" type="string"></SimpleField>
	<SimpleField name="control_location" type="string"></SimpleField>
	<SimpleField name="benchmark_type" type="string"></SimpleField>
	<SimpleField name="leveling_line_section" type="string"></SimpleField>
	<SimpleField name="location_description" type="string"></SimpleField>
	<SimpleField name="status" type="string"></SimpleField>
	<SimpleField name="guid" type="string"></SimpleField>
	<SimpleField name="kml" type="string"></SimpleField>
	<SimpleField name="kml_link" type="string"></SimpleField>
</Schema>
<Folder><name>8efd384a</name>
  <Placemark id="8efd384a.1">
	<name>2549</name>
	<description>гр. реп.</description>
	<ExtendedData><SchemaData schemaUrl="#8efd384a">
		<SimpleData name="type">1</SimpleData>
		<SimpleData name="view">351.160</SimpleData>
		<SimpleData name="benchmark_number">160 оп.знак</SimpleData>
		<SimpleData name="control_location">Линия № 3:фунд.реп. 3215-фунд.реп.512, I класс                            Участок: пир. 3 кл. Роща-гр.реп. 2653</SimpleData>
		<SimpleData name="benchmark_type">Жамбыл, с., в 3.1км к юго-зап. от него, в25м к сев. от км. стб. 51/266 на шоссе с. Бирлик-с. Мойынкум,в 62.5м к зап. от оп. стб. ЛЭП №24, в 30.5м к вост. от стб. ЛЭП №23, в 12.6м к югу от стб. линии связи</SimpleData>
		<SimpleData name="location_description">8efd384a-93a4-45a4-ba78-320061473bd3</SimpleData>
		<SimpleData name="status">data/stations/8efd384a.kml</SimpleData>
		<SimpleData name="guid">&lt;a href='data/stations/8efd384a.kml' target='_blank'&gt;Download KML&lt;/a&gt;</SimpleData>
	</SchemaData></ExtendedData>
      <Point><coordinates>73.0037708512312,44.2717390733336</coordinates></Point>
  </Placemark>
</Folder>
</Document></kml>
