<?xml version="1.0" encoding="utf-8" ?>
<kml xmlns="http://www.opengis.net/kml/2.2">
<Document id="root_doc">
<Schema name="8efdc423" id="8efdc423">
	<SimpleField name="title" type="string"></SimpleField>
	<SimpleField name="type" type="string"></SimpleField>
	<SimpleField name="ext_sign" type="string"></SimpleField>
	<SimpleField name="class_lvl" type="string"></SimpleField>
	<SimpleField name="height_lvl" type="string"></SimpleField>
	<SimpleField name="height_ctrl" type="string"></SimpleField>
	<SimpleField name="ctrl_place" type="string"></SimpleField>
	<SimpleField name="mark_num" type="string"></SimpleField>
	<SimpleField name="center_type" type="string"></SimpleField>
	<SimpleField name="lvl_line" type="string"></SimpleField>
	<SimpleField name="guid" type="string"></SimpleField>
</Schema>
<Folder><name>8efdc423</name>
  <Placemark id="8efdc423.1">
	<name>2821</name>
	<ExtendedData><SchemaData schemaUrl="#8efdc423">
		<SimpleData name="title">грунт.реп.</SimpleData>
		<SimpleData name="type">2</SimpleData>
		<SimpleData name="ext_sign">175.837</SimpleData>
		<SimpleData name="ctrl_place">160</SimpleData>
		<SimpleData name="mark_num">Линия №2: Сарысай-Чурук.Нивелирование 2 класса, 1988 г. Предприятие №6. Работа №1</SimpleData>
		<SimpleData name="center_type">Туруш ,с., в 175 км к сев.-вост.от него,в 3.2 км к юго-зап.от п.тр.Бусача, в 0.4 км к зап.от мог.Бусачакыз-Мола в 10 м к зап. И вост.двух параллельных п.д.</SimpleData>
		<SimpleData name="lvl_line">8efdc423-e11c-45a1-b593-15ebf894b38e</SimpleData>
	</SchemaData></ExtendedData>
      <Point><coordinates>57.5124596344518,46.3627770968316</coordinates></Point>
  </Placemark>
</Folder>
</Document></kml>
