<?xml version="1.0" encoding="utf-8" ?>
<kml xmlns="http://www.opengis.net/kml/2.2">
<Document id="root_doc">
<Schema name="8f112a28" id="8f112a28">
	<SimpleField name="type" type="string"></SimpleField>
	<SimpleField name="view" type="string"></SimpleField>
	<SimpleField name="leveling_order" type="string"></SimpleField>
	<SimpleField name="leveling_height" type="string"></SimpleField>
	<SimpleField name="control_height" type="string"></SimpleField>
	<SimpleField name="benchmark_number" type="string"></SimpleField>
	<SimpleField name="control_location" type="string"></SimpleField>
	<SimpleField name="benchmark_type" type="string"></SimpleField>
	<SimpleField name="leveling_line_section" type="string"></SimpleField>
	<SimpleField name="location_description" type="string"></SimpleField>
	<SimpleField name="status" type="string"></SimpleField>
	<SimpleField name="guid" type="string"></SimpleField>
	<SimpleField name="kml" type="string"></SimpleField>
	<SimpleField name="kml_link" type="string"></SimpleField>
</Schema>
<Folder><name>8f112a28</name>
  <Placemark id="8f112a28.1">
	<name>17</name>
	<description>грунт. реп.</description>
	<ExtendedData><SchemaData schemaUrl="#8f112a28">
		<SimpleData name="type">1</SimpleData>
		<SimpleData name="view">107.460</SimpleData>
		<SimpleData name="leveling_order">106,246</SimpleData>
		<SimpleData name="leveling_height">Контрольный репер №3199 в верхней плоскости монолита </SimpleData>
		<SimpleData name="benchmark_number">131 оп</SimpleData>
		<SimpleData name="control_location">линия №3: Наурзум (Аксуат) - Иргиз, I класс Участок: грунт.реп. 11 - грунт.реп. 87</SimpleData>
		<SimpleData name="benchmark_type">Шестой  Аул, с., в 6.5 км к юго-зап. от него, в 0.5 км к зап.  От фунд.реп. 87,  в 0.1 км к юго-вост. от дороги с. Шобан - с. Тургай</SimpleData>
		<SimpleData name="leveling_line_section">Не найден</SimpleData>
		<SimpleData name="location_description">8f112a28-930f-43af-a541-5e34d3b13d93</SimpleData>
		<SimpleData name="status">data/stations/8f112a28.kml</SimpleData>
		<SimpleData name="guid">&lt;a href='data/stations/8f112a28.kml' target='_blank'&gt;Download KML&lt;/a&gt;</SimpleData>
	</SchemaData></ExtendedData>
      <Point><coordinates>63.7092406070998,49.8332152093444</coordinates></Point>
  </Placemark>
</Folder>
</Document></kml>
