<?xml version="1.0" encoding="utf-8" ?>
<kml xmlns="http://www.opengis.net/kml/2.2">
<Document id="root_doc">
<Schema name="8f768249" id="8f768249">
	<SimpleField name="type" type="string"></SimpleField>
	<SimpleField name="view" type="string"></SimpleField>
	<SimpleField name="leveling_order" type="string"></SimpleField>
	<SimpleField name="leveling_height" type="string"></SimpleField>
	<SimpleField name="control_height" type="string"></SimpleField>
	<SimpleField name="benchmark_number" type="string"></SimpleField>
	<SimpleField name="control_location" type="string"></SimpleField>
	<SimpleField name="benchmark_type" type="string"></SimpleField>
	<SimpleField name="leveling_line_section" type="string"></SimpleField>
	<SimpleField name="location_description" type="string"></SimpleField>
	<SimpleField name="status" type="string"></SimpleField>
	<SimpleField name="guid" type="string"></SimpleField>
	<SimpleField name="kml" type="string"></SimpleField>
	<SimpleField name="kml_link" type="string"></SimpleField>
</Schema>
<Folder><name>8f768249</name>
  <Placemark id="8f768249.1">
	<name>23925</name>
	<name>грунт.реп.</name>
	<ExtendedData><SchemaData schemaUrl="#8f768249">
		<SimpleData name="type">2</SimpleData>
		<SimpleData name="view">214.034</SimpleData>
		<SimpleData name="leveling_height">212.128</SimpleData>
		<SimpleData name="benchmark_number">репер в верхней плоскости монолита</SimpleData>
		<SimpleData name="control_location">Линия №2: Байркум-Куракбулак, II класс </SimpleData>
		<SimpleData name="benchmark_type">Баиркум,  схв., в 14.5 км к сев.-зап. от него, в  1.1 км к сев.-вост. от  к. Тушыкудук, в 10 м к югу от дороги ферма №2 свх. Баиркум-Ферма №3 свх. Баиркум</SimpleData>
		<SimpleData name="location_description">8f768249-6255-4f90-b093-8de5758b60c3</SimpleData>
		<SimpleData name="status">data/stations/8f768249.kml</SimpleData>
		<SimpleData name="guid">&lt;a href='data/stations/8f768249.kml' target='_blank'&gt;Download KML&lt;/a&gt;</SimpleData>
	</SchemaData></ExtendedData>
      <Point><coordinates>66.7480879392017,42.1417708295009</coordinates></Point>
  </Placemark>
</Folder>
</Document></kml>
