<?xml version="1.0" encoding="utf-8" ?>
<kml xmlns="http://www.opengis.net/kml/2.2">
<Document id="root_doc">
<Schema name="8f770d23" id="8f770d23">
	<SimpleField name="type" type="string"></SimpleField>
	<SimpleField name="view" type="string"></SimpleField>
	<SimpleField name="leveling_order" type="string"></SimpleField>
	<SimpleField name="leveling_height" type="string"></SimpleField>
	<SimpleField name="control_height" type="string"></SimpleField>
	<SimpleField name="benchmark_number" type="string"></SimpleField>
	<SimpleField name="control_location" type="string"></SimpleField>
	<SimpleField name="benchmark_type" type="string"></SimpleField>
	<SimpleField name="leveling_line_section" type="string"></SimpleField>
	<SimpleField name="location_description" type="string"></SimpleField>
	<SimpleField name="status" type="string"></SimpleField>
	<SimpleField name="guid" type="string"></SimpleField>
	<SimpleField name="kml" type="string"></SimpleField>
	<SimpleField name="kml_link" type="string"></SimpleField>
</Schema>
<Folder><name>8f770d23</name>
  <Placemark id="8f770d23.1">
	<name>2662</name>
	<name>грунт. реп.</name>
	<ExtendedData><SchemaData schemaUrl="#8f770d23">
		<SimpleData name="type">2</SimpleData>
		<SimpleData name="view">75.891</SimpleData>
		<SimpleData name="benchmark_number">160 оп. знак</SimpleData>
		<SimpleData name="control_location">Линия №1: Аральск - Коккабак, II класс. Участок: грунт. реп. 9049 - грунт. реп. 2665</SimpleData>
		<SimpleData name="benchmark_type">Каракоз, зим., в 9.5 км к сев. от него, в 2.5 км к юго-зап. от пир. 2 кл. Шубартобе, в 17 м к югу от грунтовой дороги с. Жинишкекум - с. Жаксыкылыш</SimpleData>
		<SimpleData name="location_description">8f770d23-7c19-405c-8e3b-40ec09000630</SimpleData>
		<SimpleData name="status">data/stations/8f770d23.kml</SimpleData>
		<SimpleData name="guid">&lt;a href='data/stations/8f770d23.kml' target='_blank'&gt;Download KML&lt;/a&gt;</SimpleData>
	</SchemaData></ExtendedData>
      <Point><coordinates>62.5079805653517,46.9707661117741</coordinates></Point>
  </Placemark>
</Folder>
</Document></kml>
