<?xml version="1.0" encoding="utf-8" ?>
<kml xmlns="http://www.opengis.net/kml/2.2">
<Document id="root_doc">
<Schema name="8fc817e4" id="8fc817e4">
	<SimpleField name="type" type="string"></SimpleField>
	<SimpleField name="view" type="string"></SimpleField>
	<SimpleField name="leveling_order" type="string"></SimpleField>
	<SimpleField name="leveling_height" type="string"></SimpleField>
	<SimpleField name="control_height" type="string"></SimpleField>
	<SimpleField name="benchmark_number" type="string"></SimpleField>
	<SimpleField name="control_location" type="string"></SimpleField>
	<SimpleField name="benchmark_type" type="string"></SimpleField>
	<SimpleField name="leveling_line_section" type="string"></SimpleField>
	<SimpleField name="location_description" type="string"></SimpleField>
	<SimpleField name="status" type="string"></SimpleField>
	<SimpleField name="guid" type="string"></SimpleField>
	<SimpleField name="kml" type="string"></SimpleField>
	<SimpleField name="kml_link" type="string"></SimpleField>
</Schema>
<Folder><name>8fc817e4</name>
  <Placemark id="8fc817e4.1">
	<name>5832</name>
	<name>грунт.реп.</name>
	<ExtendedData><SchemaData schemaUrl="#8fc817e4">
		<SimpleData name="type">2</SimpleData>
		<SimpleData name="view">529.388</SimpleData>
		<SimpleData name="benchmark_number">146 оп</SimpleData>
		<SimpleData name="control_location">Линия № 2 :       Усть-Каменогорск - Зайсан, II класс(1) Участок :                 ск.реп. 2906 - грунт.реп. 9861</SimpleData>
		<SimpleData name="benchmark_type">Дорога с. Курчум - с. Буран, в 20 м к югу от нее, в 0,2 км к зап. от указателя границы Курчумского и Маркакольского районов, в 50 м к сев. от линии связи</SimpleData>
		<SimpleData name="location_description">8fc817e4-986c-4d22-860a-0200d7e955bd</SimpleData>
		<SimpleData name="status">data/stations/8fc817e4.kml</SimpleData>
		<SimpleData name="guid">&lt;a href='data/stations/8fc817e4.kml' target='_blank'&gt;Download KML&lt;/a&gt;</SimpleData>
	</SchemaData></ExtendedData>
      <Point><coordinates>84.5525450349778,48.2574874385808</coordinates></Point>
  </Placemark>
</Folder>
</Document></kml>
