<?xml version="1.0" encoding="utf-8" ?>
<kml xmlns="http://www.opengis.net/kml/2.2">
<Document id="root_doc">
<Schema name="900a8eb4" id="900a8eb4">
	<SimpleField name="type" type="string"></SimpleField>
	<SimpleField name="view" type="string"></SimpleField>
	<SimpleField name="leveling_order" type="string"></SimpleField>
	<SimpleField name="leveling_height" type="string"></SimpleField>
	<SimpleField name="control_height" type="string"></SimpleField>
	<SimpleField name="benchmark_number" type="string"></SimpleField>
	<SimpleField name="control_location" type="string"></SimpleField>
	<SimpleField name="benchmark_type" type="string"></SimpleField>
	<SimpleField name="leveling_line_section" type="string"></SimpleField>
	<SimpleField name="location_description" type="string"></SimpleField>
	<SimpleField name="status" type="string"></SimpleField>
	<SimpleField name="guid" type="string"></SimpleField>
	<SimpleField name="kml" type="string"></SimpleField>
	<SimpleField name="kml_link" type="string"></SimpleField>
</Schema>
<Folder><name>900a8eb4</name>
  <Placemark id="900a8eb4.1">
	<name>4960</name>
	<name>грунт.реп.</name>
	<description>грунт.реп.</description>
	<ExtendedData><SchemaData schemaUrl="#900a8eb4">
		<SimpleData name="type">II</SimpleData>
		<SimpleData name="view">450,252</SimpleData>
		<SimpleData name="benchmark_number">160 оп.знак</SimpleData>
		<SimpleData name="control_location">Линия № 3: Балхаш - Акчатау, II класс
Участок: фунд.реп.0653 - грунт.реп. 4723</SimpleData>
		<SimpleData name="benchmark_type">Балхаш,гор.,в 19.2 км к сев.от него,в
0.2 км к вост.от ЛЭП,в 0.1 км к зап.от
шоссе Караганда-Балхаш,против км.стб.
№ 358</SimpleData>
		<SimpleData name="location_description">900a8eb4-e440-4fad-afe9-dc740311374a</SimpleData>
		<SimpleData name="status">data/stations/900a8eb4.kml</SimpleData>
		<SimpleData name="guid">&lt;a href='data/stations/900a8eb4.kml' target='_blank'&gt;Download KML&lt;/a&gt;</SimpleData>
	</SchemaData></ExtendedData>
      <Point><coordinates>74.9085732235861,47.0287428995814</coordinates></Point>
  </Placemark>
</Folder>
</Document></kml>
