<?xml version="1.0" encoding="utf-8" ?>
<kml xmlns="http://www.opengis.net/kml/2.2">
<Document id="root_doc">
<Schema name="901ff81e" id="901ff81e">
	<SimpleField name="type" type="string"></SimpleField>
	<SimpleField name="view" type="string"></SimpleField>
	<SimpleField name="leveling_order" type="string"></SimpleField>
	<SimpleField name="leveling_height" type="string"></SimpleField>
	<SimpleField name="control_height" type="string"></SimpleField>
	<SimpleField name="benchmark_number" type="string"></SimpleField>
	<SimpleField name="control_location" type="string"></SimpleField>
	<SimpleField name="benchmark_type" type="string"></SimpleField>
	<SimpleField name="leveling_line_section" type="string"></SimpleField>
	<SimpleField name="location_description" type="string"></SimpleField>
	<SimpleField name="status" type="string"></SimpleField>
	<SimpleField name="guid" type="string"></SimpleField>
	<SimpleField name="kml" type="string"></SimpleField>
	<SimpleField name="kml_link" type="string"></SimpleField>
</Schema>
<Folder><name>901ff81e</name>
  <Placemark id="901ff81e.1">
	<name>4622</name>
	<name>грунтовый репер</name>
	<ExtendedData><SchemaData schemaUrl="#901ff81e">
		<SimpleData name="type">1</SimpleData>
		<SimpleData name="view">203.854</SimpleData>
		<SimpleData name="benchmark_number">160 оп, знак</SimpleData>
		<SimpleData name="control_location">Линия № 1: Туйемойнак - Торыустаган, 1 класс (1) Участок: грунт, реп, 3215 - фунд, реп, 9993</SimpleData>
		<SimpleData name="benchmark_type">Актобе, с,, в 3,5 км к юго-зап, от него, в 0,3 км к югу от зимовки, в 10 м к вост, от полевой дороги</SimpleData>
		<SimpleData name="location_description">901ff81e-fbbc-4194-9688-33b115206886</SimpleData>
		<SimpleData name="status">data/stations/901ff81e.kml</SimpleData>
		<SimpleData name="guid">&lt;a href='data/stations/901ff81e.kml' target='_blank'&gt;Download KML&lt;/a&gt;</SimpleData>
	</SchemaData></ExtendedData>
      <Point><coordinates>69.7683725800576,44.9734750331445</coordinates></Point>
  </Placemark>
</Folder>
</Document></kml>
