<?xml version="1.0" encoding="utf-8" ?>
<kml xmlns="http://www.opengis.net/kml/2.2">
<Document id="root_doc">
<Schema name="90452c15" id="90452c15">
	<SimpleField name="type" type="string"></SimpleField>
	<SimpleField name="view" type="string"></SimpleField>
	<SimpleField name="leveling_order" type="string"></SimpleField>
	<SimpleField name="leveling_height" type="string"></SimpleField>
	<SimpleField name="control_height" type="string"></SimpleField>
	<SimpleField name="benchmark_number" type="string"></SimpleField>
	<SimpleField name="control_location" type="string"></SimpleField>
	<SimpleField name="benchmark_type" type="string"></SimpleField>
	<SimpleField name="leveling_line_section" type="string"></SimpleField>
	<SimpleField name="location_description" type="string"></SimpleField>
	<SimpleField name="status" type="string"></SimpleField>
	<SimpleField name="guid" type="string"></SimpleField>
	<SimpleField name="kml" type="string"></SimpleField>
	<SimpleField name="kml_link" type="string"></SimpleField>
</Schema>
<Folder><name>90452c15</name>
  <Placemark id="90452c15.1">
	<name>17228</name>
	<name>грунтовый репер</name>
	<ExtendedData><SchemaData schemaUrl="#90452c15">
		<SimpleData name="type">2</SimpleData>
		<SimpleData name="view">121.676</SimpleData>
		<SimpleData name="benchmark_number">121</SimpleData>
		<SimpleData name="control_location">Линия №10: сигн.2 кл., Бестобе-сигн.1 кл. Совхозный, III класс (3) Участок: грунт. реп. 16444</SimpleData>
		<SimpleData name="benchmark_type">В 5.5 км к сев.-зап. от фермы №2 свх.Экибастузский, в 15 м к сев. от дороги ферма №2 свх.Экибастузский-ур.Найзажер</SimpleData>
		<SimpleData name="location_description">90452c15-6ded-49df-980b-c9e5f86d7ed8</SimpleData>
		<SimpleData name="status">data/stations/90452c15.kml</SimpleData>
		<SimpleData name="guid">&lt;a href='data/stations/90452c15.kml' target='_blank'&gt;Download KML&lt;/a&gt;</SimpleData>
	</SchemaData></ExtendedData>
      <Point><coordinates>74.7866704219749,52.3036185791631</coordinates></Point>
  </Placemark>
</Folder>
</Document></kml>
