<?xml version="1.0" encoding="utf-8" ?>
<kml xmlns="http://www.opengis.net/kml/2.2">
<Document id="root_doc">
<Schema name="915c36a9" id="915c36a9">
	<SimpleField name="title" type="string"></SimpleField>
	<SimpleField name="type" type="string"></SimpleField>
	<SimpleField name="ext_sign" type="string"></SimpleField>
	<SimpleField name="class_lvl" type="string"></SimpleField>
	<SimpleField name="height_lvl" type="string"></SimpleField>
	<SimpleField name="height_ctrl" type="string"></SimpleField>
	<SimpleField name="ctrl_place" type="string"></SimpleField>
	<SimpleField name="mark_num" type="string"></SimpleField>
	<SimpleField name="center_type" type="string"></SimpleField>
	<SimpleField name="lvl_line" type="string"></SimpleField>
	<SimpleField name="guid" type="string"></SimpleField>
</Schema>
<Folder><name>915c36a9</name>
  <Placemark id="915c36a9.1">
	<name>Репер 6412</name>
	<description>пункт</description>
	<ExtendedData><SchemaData schemaUrl="#915c36a9">
		<SimpleData name="type">1</SimpleData>
		<SimpleData name="ext_sign">670.881</SimpleData>
		<SimpleData name="ctrl_place">117</SimpleData>
		<SimpleData name="center_type">Коктал, зим., в 15.4 км к северу от нее, в 4.6 км к юго-вост. от зим.Акшокы, в 3.5 км к зап. от р.Курбаканас, в 18 м к сев. от  полевой дороги гор.Каркаралинск-с.Баршатас.</SimpleData>
		<SimpleData name="lvl_line">915c36a9-70ab-48b2-8fed-57177ce9c9c5</SimpleData>
	</SchemaData></ExtendedData>
      <Point><coordinates>78.3250440631541,48.1890418447617</coordinates></Point>
  </Placemark>
</Folder>
</Document></kml>
