<?xml version="1.0" encoding="utf-8" ?>
<kml xmlns="http://www.opengis.net/kml/2.2">
<Document id="root_doc">
<Schema name="9171b0d0" id="9171b0d0">
	<SimpleField name="title" type="string"></SimpleField>
	<SimpleField name="type" type="string"></SimpleField>
	<SimpleField name="ext_sign" type="string"></SimpleField>
	<SimpleField name="class_lvl" type="string"></SimpleField>
	<SimpleField name="height_lvl" type="string"></SimpleField>
	<SimpleField name="height_ctrl" type="string"></SimpleField>
	<SimpleField name="ctrl_place" type="string"></SimpleField>
	<SimpleField name="mark_num" type="string"></SimpleField>
	<SimpleField name="center_type" type="string"></SimpleField>
	<SimpleField name="lvl_line" type="string"></SimpleField>
	<SimpleField name="guid" type="string"></SimpleField>
</Schema>
<Folder><name>9171b0d0</name>
  <Placemark id="9171b0d0.1">
	<name>4248</name>
	<ExtendedData><SchemaData schemaUrl="#9171b0d0">
		<SimpleData name="title">ск.реп.</SimpleData>
		<SimpleData name="type">1</SimpleData>
		<SimpleData name="ext_sign">488.625</SimpleData>
		<SimpleData name="mark_num">Линия № 1:Висячий ход от грунт.реп. 763- I класс                      Участок: грунт.реп. 0833-грунт.реп. 21 (ОГП)</SimpleData>
		<SimpleData name="center_type">Капчагай, гор., в 2.5 км к сев.
ог него, в 0.1 им к сев. от авто
стоянки, в 10 м к сев.-зап. от
шоссе Капчагай - Талдыкорган, на
плоском выступе скалы</SimpleData>
		<SimpleData name="lvl_line">9171b0d0-f11a-42aa-81f2-ff4af04fa173</SimpleData>
	</SchemaData></ExtendedData>
      <Point><coordinates>77.1011605005528,43.9215104618362</coordinates></Point>
  </Placemark>
</Folder>
</Document></kml>
