<?xml version="1.0" encoding="UTF-8"?>
<kml xmlns="http://www.opengis.net/kml/2.2">
  <Document id="root_doc">
    <Schema id="9172FE3C" name="9172FE3C">
      <SimpleField name="title" type="string"/>
      <SimpleField name="type" type="string"/>
      <SimpleField name="ext_sign" type="string"/>
      <SimpleField name="class_lvl" type="string"/>
      <SimpleField name="height_lvl" type="string"/>
      <SimpleField name="height_ctrl" type="string"/>
      <SimpleField name="ctrl_place" type="string"/>
      <SimpleField name="mark_num" type="string"/>
      <SimpleField name="center_type" type="string"/>
      <SimpleField name="lvl_line" type="string"/>
      <SimpleField name="guid" type="string"/>
    </Schema>
    <Schema id="_9172FE3C.schema">
      <SimpleField name="title" type="string"/>
      <SimpleField name="type" type="string"/>
      <SimpleField name="ext_sign" type="string"/>
      <SimpleField name="class_lvl" type="string"/>
      <SimpleField name="height_lvl" type="string"/>
      <SimpleField name="height_ctrl" type="string"/>
      <SimpleField name="ctrl_place" type="string"/>
      <SimpleField name="mark_num" type="string"/>
      <SimpleField name="center_type" type="string"/>
      <SimpleField name="lvl_line" type="string"/>
      <SimpleField name="guid" type="string"/>
    </Schema>
    <Document id="_9172FE3C">
      <name>9172FE3C</name>
      <Placemark id="_9172FE3C.1">
        <ExtendedData>
          <SchemaData schemaUrl="#_9172FE3C.schema">
            <SimpleData name="title">Караш</SimpleData>
            <SimpleData name="ext_sign">пирамида</SimpleData>
            <SimpleData name="class_lvl">4</SimpleData>
            <SimpleData name="center_type">146</SimpleData>
            <SimpleData name="guid">9172FE3C-6E33-E9F9-9B7A-81402715A52D</SimpleData>
          </SchemaData>
        </ExtendedData>
        <Point>
          <coordinates>
            54.3363516426326,47.0819862284429,0
          </coordinates>
        </Point>
      </Placemark>
    </Document>
  </Document>
</kml>
