<?xml version="1.0" encoding="utf-8" ?>
<kml xmlns="http://www.opengis.net/kml/2.2">
<Document id="root_doc">
<Schema name="91c9fd95" id="91c9fd95">
	<SimpleField name="type" type="string"></SimpleField>
	<SimpleField name="view" type="string"></SimpleField>
	<SimpleField name="leveling_order" type="string"></SimpleField>
	<SimpleField name="leveling_height" type="string"></SimpleField>
	<SimpleField name="control_height" type="string"></SimpleField>
	<SimpleField name="benchmark_number" type="string"></SimpleField>
	<SimpleField name="control_location" type="string"></SimpleField>
	<SimpleField name="benchmark_type" type="string"></SimpleField>
	<SimpleField name="leveling_line_section" type="string"></SimpleField>
	<SimpleField name="location_description" type="string"></SimpleField>
	<SimpleField name="status" type="string"></SimpleField>
	<SimpleField name="guid" type="string"></SimpleField>
	<SimpleField name="kml" type="string"></SimpleField>
	<SimpleField name="kml_link" type="string"></SimpleField>
</Schema>
<Folder><name>91c9fd95</name>
  <Placemark id="91c9fd95.1">
	<name>1284</name>
	<description>грунт. реп.</description>
	<ExtendedData><SchemaData schemaUrl="#91c9fd95">
		<SimpleData name="type">1</SimpleData>
		<SimpleData name="view">98.767</SimpleData>
		<SimpleData name="benchmark_number">160 оп</SimpleData>
		<SimpleData name="control_location">Линия №185 : Аральск - Семиозерное , I класс . Участок : грунт. Реп. 2189-грунт. Реп. 32</SimpleData>
		<SimpleData name="benchmark_type">Иргиз, с., в 3.5 км к сев.-вост. от него, в 1.0 км к югу от кладбища, у южн. Конца дамбы, в 30 м к сев.-зап. от дороги с. Иргиз-с. Тургай</SimpleData>
		<SimpleData name="leveling_line_section">утрачен</SimpleData>
		<SimpleData name="location_description">91c9fd95-423e-491f-a621-f105b176b29e</SimpleData>
		<SimpleData name="status">data/stations/91c9fd95.kml</SimpleData>
		<SimpleData name="guid">&lt;a href='data/stations/91c9fd95.kml' target='_blank'&gt;Download KML&lt;/a&gt;</SimpleData>
	</SchemaData></ExtendedData>
      <Point><coordinates>61.2985765347901,48.6458122557913</coordinates></Point>
  </Placemark>
</Folder>
</Document></kml>
