<?xml version="1.0" encoding="utf-8" ?>
<kml xmlns="http://www.opengis.net/kml/2.2">
<Document id="root_doc">
<Schema name="91dd6870" id="91dd6870">
	<SimpleField name="type" type="string"></SimpleField>
	<SimpleField name="view" type="string"></SimpleField>
	<SimpleField name="leveling_order" type="string"></SimpleField>
	<SimpleField name="leveling_height" type="string"></SimpleField>
	<SimpleField name="control_height" type="string"></SimpleField>
	<SimpleField name="benchmark_number" type="string"></SimpleField>
	<SimpleField name="control_location" type="string"></SimpleField>
	<SimpleField name="benchmark_type" type="string"></SimpleField>
	<SimpleField name="leveling_line_section" type="string"></SimpleField>
	<SimpleField name="location_description" type="string"></SimpleField>
	<SimpleField name="status" type="string"></SimpleField>
	<SimpleField name="guid" type="string"></SimpleField>
	<SimpleField name="kml" type="string"></SimpleField>
	<SimpleField name="kml_link" type="string"></SimpleField>
</Schema>
<Folder><name>91dd6870</name>
  <Placemark id="91dd6870.1">
	<name>2897</name>
	<name>грунт. реп.</name>
	<ExtendedData><SchemaData schemaUrl="#91dd6870">
		<SimpleData name="type">2</SimpleData>
		<SimpleData name="view">381.551</SimpleData>
		<SimpleData name="benchmark_number">160 оп. знак</SimpleData>
		<SimpleData name="control_location">Линия № 3: Сайкан  – Учарал , II класс </SimpleData>
		<SimpleData name="benchmark_type">Сайкан, станц., в 11.2 км к юго-вост. от нее, в 0.1 км к юго-зап. от км. стб. 111/112 жел. дор., в 8 м к сев. от полевой дороги</SimpleData>
		<SimpleData name="location_description">91dd6870-b336-4b3e-8d36-274b8238beed</SimpleData>
		<SimpleData name="status">data/stations/91dd6870.kml</SimpleData>
		<SimpleData name="guid">&lt;a href='data/stations/91dd6870.kml' target='_blank'&gt;Download KML&lt;/a&gt;</SimpleData>
	</SchemaData></ExtendedData>
      <Point><coordinates>80.7877420369222,46.3530387481763</coordinates></Point>
  </Placemark>
</Folder>
</Document></kml>
