<?xml version="1.0" encoding="utf-8" ?>
<kml xmlns="http://www.opengis.net/kml/2.2">
<Document id="root_doc">
<Schema name="91eaa190" id="91eaa190">
	<SimpleField name="title" type="string"></SimpleField>
	<SimpleField name="type" type="string"></SimpleField>
	<SimpleField name="ext_sign" type="string"></SimpleField>
	<SimpleField name="class_lvl" type="string"></SimpleField>
	<SimpleField name="height_lvl" type="string"></SimpleField>
	<SimpleField name="height_ctrl" type="string"></SimpleField>
	<SimpleField name="ctrl_place" type="string"></SimpleField>
	<SimpleField name="mark_num" type="string"></SimpleField>
	<SimpleField name="center_type" type="string"></SimpleField>
	<SimpleField name="lvl_line" type="string"></SimpleField>
	<SimpleField name="guid" type="string"></SimpleField>
</Schema>
<Folder><name>91eaa190</name>
  <Placemark id="91eaa190.1">
	<name>3719</name>
	<description>фундаментальный репер</description>
	<ExtendedData><SchemaData schemaUrl="#91eaa190">
		<SimpleData name="type">1</SimpleData>
		<SimpleData name="ext_sign">324,626</SimpleData>
		<SimpleData name="class_lvl">323,619</SimpleData>
		<SimpleData name="height_lvl">в фундаментной плите</SimpleData>
		<SimpleData name="height_ctrl">4403</SimpleData>
		<SimpleData name="ctrl_place">161 оп,зн</SimpleData>
		<SimpleData name="mark_num">Линия № 1: Тюемойнак - Торетоган, I класс (1) Участок: грунт, реп, 2929 - грунт,реп, 1029</SimpleData>
		<SimpleData name="center_type">Сатыбалды, к,, в 13,8 км к юго-вост, от него, в 3,2 км к вост, от такыра Кокбута, в 0,7 км к сев,-вост, от перекрестка полевых дорог</SimpleData>
		<SimpleData name="lvl_line">91eaa190-559c-4892-9b69-1c3bf5d5800d</SimpleData>
	</SchemaData></ExtendedData>
      <Point><coordinates>69.3890658374572,46.4707677135407</coordinates></Point>
  </Placemark>
</Folder>
</Document></kml>
