<?xml version="1.0" encoding="utf-8" ?>
<kml xmlns="http://www.opengis.net/kml/2.2">
<Document id="root_doc">
<Schema name="925b9501" id="925b9501">
	<SimpleField name="type" type="string"></SimpleField>
	<SimpleField name="view" type="string"></SimpleField>
	<SimpleField name="leveling_order" type="string"></SimpleField>
	<SimpleField name="leveling_height" type="string"></SimpleField>
	<SimpleField name="control_height" type="string"></SimpleField>
	<SimpleField name="benchmark_number" type="string"></SimpleField>
	<SimpleField name="control_location" type="string"></SimpleField>
	<SimpleField name="benchmark_type" type="string"></SimpleField>
	<SimpleField name="leveling_line_section" type="string"></SimpleField>
	<SimpleField name="location_description" type="string"></SimpleField>
	<SimpleField name="status" type="string"></SimpleField>
	<SimpleField name="guid" type="string"></SimpleField>
	<SimpleField name="kml" type="string"></SimpleField>
	<SimpleField name="kml_link" type="string"></SimpleField>
</Schema>
<Folder><name>925b9501</name>
  <Placemark id="925b9501.1">
	<name>2538</name>
	<name>грунт.реп.</name>
	<ExtendedData><SchemaData schemaUrl="#925b9501">
		<SimpleData name="type">II</SimpleData>
		<SimpleData name="view">273.614</SimpleData>
		<SimpleData name="leveling_order">318.437</SimpleData>
		<SimpleData name="benchmark_number">121</SimpleData>
		<SimpleData name="control_location">Линия №3: Тасты=Бала=Терсаккан, II класс (1) Участок:фунд.реп.2608- грунт.реп.5382</SimpleData>
		<SimpleData name="benchmark_type">Аксай,с.,в 15.1 км к зап.от него,в 4.3 км к вост.от слияния рек Жосалысай и Молалыайрык,в 70 м к зап.от полевой дороги</SimpleData>
		<SimpleData name="leveling_line_section">уничтожен</SimpleData>
		<SimpleData name="location_description">925b9501-8d4b-461f-ab12-0ccf8c4cff7a</SimpleData>
		<SimpleData name="status">data/stations/925b9501.kml</SimpleData>
		<SimpleData name="guid">&lt;a href='data/stations/925b9501.kml' target='_blank'&gt;Download KML&lt;/a&gt;</SimpleData>
	</SchemaData></ExtendedData>
      <Point><coordinates>66.4391809865382,50.343432367971</coordinates></Point>
  </Placemark>
</Folder>
</Document></kml>
