<?xml version="1.0" encoding="utf-8" ?>
<kml xmlns="http://www.opengis.net/kml/2.2">
<Document id="root_doc">
<Schema name="9279f0eb" id="9279f0eb">
	<SimpleField name="title" type="string"></SimpleField>
	<SimpleField name="type" type="string"></SimpleField>
	<SimpleField name="ext_sign" type="string"></SimpleField>
	<SimpleField name="class_lvl" type="string"></SimpleField>
	<SimpleField name="height_lvl" type="string"></SimpleField>
	<SimpleField name="height_ctrl" type="string"></SimpleField>
	<SimpleField name="ctrl_place" type="string"></SimpleField>
	<SimpleField name="mark_num" type="string"></SimpleField>
	<SimpleField name="center_type" type="string"></SimpleField>
	<SimpleField name="lvl_line" type="string"></SimpleField>
	<SimpleField name="guid" type="string"></SimpleField>
</Schema>
<Folder><name>9279f0eb</name>
  <Placemark id="9279f0eb.1">
	<name>7148</name>
	<ExtendedData><SchemaData schemaUrl="#9279f0eb">
		<SimpleData name="title">грунт.реп</SimpleData>
		<SimpleData name="type">2</SimpleData>
		<SimpleData name="ext_sign">379.778</SimpleData>
		<SimpleData name="ctrl_place">160оп</SimpleData>
		<SimpleData name="mark_num">Линия №3: р.Чу-Коскызыл, II класс (2). Участок: грунт.реп. 31-фунд.реп. IV</SimpleData>
		<SimpleData name="center_type">Акколь,с., в 16.8 км к сев.от него, в 0.3 км к юго-зап.от брода через р.Асса, в 0.2 км к югу от полевой дороги</SimpleData>
		<SimpleData name="lvl_line">9279f0eb-00ae-42ba-b475-8575c668caa5</SimpleData>
	</SchemaData></ExtendedData>
      <Point><coordinates>70.7601457847095,43.5933141084243</coordinates></Point>
  </Placemark>
</Folder>
</Document></kml>
