<?xml version="1.0" encoding="utf-8" ?>
<kml xmlns="http://www.opengis.net/kml/2.2">
<Document id="root_doc">
<Schema name="92dc6ef6" id="92dc6ef6">
	<SimpleField name="type" type="string"></SimpleField>
	<SimpleField name="view" type="string"></SimpleField>
	<SimpleField name="leveling_order" type="string"></SimpleField>
	<SimpleField name="leveling_height" type="string"></SimpleField>
	<SimpleField name="control_height" type="string"></SimpleField>
	<SimpleField name="benchmark_number" type="string"></SimpleField>
	<SimpleField name="control_location" type="string"></SimpleField>
	<SimpleField name="benchmark_type" type="string"></SimpleField>
	<SimpleField name="leveling_line_section" type="string"></SimpleField>
	<SimpleField name="location_description" type="string"></SimpleField>
	<SimpleField name="status" type="string"></SimpleField>
	<SimpleField name="guid" type="string"></SimpleField>
	<SimpleField name="kml" type="string"></SimpleField>
	<SimpleField name="kml_link" type="string"></SimpleField>
</Schema>
<Folder><name>92dc6ef6</name>
  <Placemark id="92dc6ef6.1">
	<name>2530</name>
	<name>грунтовый репер</name>
	<ExtendedData><SchemaData schemaUrl="#92dc6ef6">
		<SimpleData name="type">1</SimpleData>
		<SimpleData name="view">143.414</SimpleData>
		<SimpleData name="benchmark_number">160 оп, знак</SimpleData>
		<SimpleData name="control_location">Линия № 1: Кызылорда - Арыс, 1 класс (1) Участок: марка 2490 - грунт, реп, 1850 </SimpleData>
		<SimpleData name="benchmark_type">Коскаракум, раз,, в 2,4 км к юго-вост, от него, на 8 пк 2917 км жел, дор,, в 32 м к сев,-вост, от жел, дор,, в 5 м к сев,-зап, от тлф, стб, б/№</SimpleData>
		<SimpleData name="leveling_line_section">утрачен</SimpleData>
		<SimpleData name="location_description">92dc6ef6-dc0d-42d4-88a2-e54695d7896b</SimpleData>
		<SimpleData name="status">data/stations/92dc6ef6.kml</SimpleData>
		<SimpleData name="guid">&lt;a href='data/stations/92dc6ef6.kml' target='_blank'&gt;Download KML&lt;/a&gt;</SimpleData>
	</SchemaData></ExtendedData>
      <Point><coordinates>66.4310937646181,44.3402470064004</coordinates></Point>
  </Placemark>
</Folder>
</Document></kml>
