<?xml version="1.0" encoding="UTF-8"?>
<kml xmlns="http://www.opengis.net/kml/2.2">
  <Document id="root_doc">
    <Schema id="92EA579F" name="92EA579F">
      <SimpleField name="title" type="string"/>
      <SimpleField name="type" type="string"/>
      <SimpleField name="ext_sign" type="string"/>
      <SimpleField name="class_lvl" type="string"/>
      <SimpleField name="height_lvl" type="string"/>
      <SimpleField name="height_ctrl" type="string"/>
      <SimpleField name="ctrl_place" type="string"/>
      <SimpleField name="mark_num" type="string"/>
      <SimpleField name="center_type" type="string"/>
      <SimpleField name="lvl_line" type="string"/>
      <SimpleField name="guid" type="string"/>
    </Schema>
    <Schema id="_92EA579F.schema">
      <SimpleField name="title" type="string"/>
      <SimpleField name="type" type="string"/>
      <SimpleField name="ext_sign" type="string"/>
      <SimpleField name="class_lvl" type="string"/>
      <SimpleField name="height_lvl" type="string"/>
      <SimpleField name="height_ctrl" type="string"/>
      <SimpleField name="ctrl_place" type="string"/>
      <SimpleField name="mark_num" type="string"/>
      <SimpleField name="center_type" type="string"/>
      <SimpleField name="lvl_line" type="string"/>
      <SimpleField name="guid" type="string"/>
    </Schema>
    <Document id="_92EA579F">
      <name>92EA579F</name>
      <Placemark id="_92EA579F.1">
        <ExtendedData>
          <SchemaData schemaUrl="#_92EA579F.schema">
            <SimpleData name="title">Уйкстау</SimpleData>
            <SimpleData name="ext_sign">пирамида</SimpleData>
            <SimpleData name="class_lvl">4</SimpleData>
            <SimpleData name="center_type">1оп</SimpleData>
            <SimpleData name="guid">92EA579F-BF01-49C7-B3FA-38ED32072DD7</SimpleData>
          </SchemaData>
        </ExtendedData>
        <Point>
          <coordinates>
            58.2223773698105,46.6901103662677,0
          </coordinates>
        </Point>
      </Placemark>
    </Document>
  </Document>
</kml>
