<?xml version="1.0" encoding="utf-8" ?>
<kml xmlns="http://www.opengis.net/kml/2.2">
<Document id="root_doc">
<Schema name="93316922" id="93316922">
	<SimpleField name="type" type="string"></SimpleField>
	<SimpleField name="view" type="string"></SimpleField>
	<SimpleField name="leveling_order" type="string"></SimpleField>
	<SimpleField name="leveling_height" type="string"></SimpleField>
	<SimpleField name="control_height" type="string"></SimpleField>
	<SimpleField name="benchmark_number" type="string"></SimpleField>
	<SimpleField name="control_location" type="string"></SimpleField>
	<SimpleField name="benchmark_type" type="string"></SimpleField>
	<SimpleField name="leveling_line_section" type="string"></SimpleField>
	<SimpleField name="location_description" type="string"></SimpleField>
	<SimpleField name="status" type="string"></SimpleField>
	<SimpleField name="guid" type="string"></SimpleField>
	<SimpleField name="kml" type="string"></SimpleField>
	<SimpleField name="kml_link" type="string"></SimpleField>
</Schema>
<Folder><name>93316922</name>
  <Placemark id="93316922.1">
	<name>9580</name>
	<name>грунт. реп.</name>
	<ExtendedData><SchemaData schemaUrl="#93316922">
		<SimpleData name="type">2</SimpleData>
		<SimpleData name="view">242.495</SimpleData>
		<SimpleData name="benchmark_number">146 оп</SimpleData>
		<SimpleData name="control_location">Линия №2 : Новоильиновка - Актасты , II класс . Участок : грунт. Реп. 169-фунд. Реп. 7867</SimpleData>
		<SimpleData name="benchmark_type">Шунай, с., в 4.5 км к сев. от него, в 25 м к сев. от края пашни, в 9 м к вост. от дороги с. Жанадаур - с. Восточное</SimpleData>
		<SimpleData name="location_description">93316922-4f87-4ae1-8c5e-803a4d6b1649</SimpleData>
		<SimpleData name="status">data/stations/93316922.kml</SimpleData>
		<SimpleData name="guid">&lt;a href='data/stations/93316922.kml' target='_blank'&gt;Download KML&lt;/a&gt;</SimpleData>
	</SchemaData></ExtendedData>
      <Point><coordinates>61.9340376932431,50.9695246872551</coordinates></Point>
  </Placemark>
</Folder>
</Document></kml>
