<?xml version="1.0" encoding="utf-8" ?>
<kml xmlns="http://www.opengis.net/kml/2.2">
<Document id="root_doc">
<Schema name="93a45770" id="93a45770">
	<SimpleField name="type" type="string"></SimpleField>
	<SimpleField name="view" type="string"></SimpleField>
	<SimpleField name="leveling_order" type="string"></SimpleField>
	<SimpleField name="leveling_height" type="string"></SimpleField>
	<SimpleField name="control_height" type="string"></SimpleField>
	<SimpleField name="benchmark_number" type="string"></SimpleField>
	<SimpleField name="control_location" type="string"></SimpleField>
	<SimpleField name="benchmark_type" type="string"></SimpleField>
	<SimpleField name="leveling_line_section" type="string"></SimpleField>
	<SimpleField name="location_description" type="string"></SimpleField>
	<SimpleField name="status" type="string"></SimpleField>
	<SimpleField name="guid" type="string"></SimpleField>
	<SimpleField name="kml" type="string"></SimpleField>
	<SimpleField name="kml_link" type="string"></SimpleField>
</Schema>
<Folder><name>93a45770</name>
  <Placemark id="93a45770.1">
	<name>5166</name>
	<name>грунт. реп.</name>
	<ExtendedData><SchemaData schemaUrl="#93a45770">
		<SimpleData name="type">1</SimpleData>
		<SimpleData name="view">396.320</SimpleData>
		<SimpleData name="benchmark_number">160 оп. знак</SimpleData>
		<SimpleData name="control_location">Линия № 1: Алажиде - оз.Жаланашколь, I класс. Участок: грунт.реп. 4351 – грунт.реп. 852</SimpleData>
		<SimpleData name="benchmark_type">Коктума, станц., сев.-зап. окраина ее, в 0.4 км к сев.-зап. от здания вокзала, в 66 м к юго-зап. от пк стб. 6/7, в 3 м к юго-вост. от тлф. стб. № 57/264</SimpleData>
		<SimpleData name="location_description">93a45770-8e99-4ad2-8d69-bf3a23286fc2</SimpleData>
		<SimpleData name="status">data/stations/93a45770.kml</SimpleData>
		<SimpleData name="guid">&lt;a href='data/stations/93a45770.kml' target='_blank'&gt;Download KML&lt;/a&gt;</SimpleData>
	</SchemaData></ExtendedData>
      <Point><coordinates>81.710182211519,45.8216871841885</coordinates></Point>
  </Placemark>
</Folder>
</Document></kml>
