<?xml version="1.0" encoding="utf-8" ?>
<kml xmlns="http://www.opengis.net/kml/2.2">
<Document id="root_doc">
<Schema name="93b44d62" id="93b44d62">
	<SimpleField name="type" type="string"></SimpleField>
	<SimpleField name="view" type="string"></SimpleField>
	<SimpleField name="leveling_order" type="string"></SimpleField>
	<SimpleField name="leveling_height" type="string"></SimpleField>
	<SimpleField name="control_height" type="string"></SimpleField>
	<SimpleField name="benchmark_number" type="string"></SimpleField>
	<SimpleField name="control_location" type="string"></SimpleField>
	<SimpleField name="benchmark_type" type="string"></SimpleField>
	<SimpleField name="leveling_line_section" type="string"></SimpleField>
	<SimpleField name="location_description" type="string"></SimpleField>
	<SimpleField name="status" type="string"></SimpleField>
	<SimpleField name="guid" type="string"></SimpleField>
	<SimpleField name="kml" type="string"></SimpleField>
	<SimpleField name="kml_link" type="string"></SimpleField>
</Schema>
<Folder><name>93b44d62</name>
  <Placemark id="93b44d62.1">
	<name>1</name>
	<description>грунт.реп.</description>
	<ExtendedData><SchemaData schemaUrl="#93b44d62">
		<SimpleData name="type">2</SimpleData>
		<SimpleData name="view">180.658</SimpleData>
		<SimpleData name="leveling_order">179.136</SimpleData>
		<SimpleData name="benchmark_number">121 оп</SimpleData>
		<SimpleData name="control_location">Линия № 1: Амангельды - Байконур, II класс                 Участок: грунт.реп.61 - грунт.реп.66</SimpleData>
		<SimpleData name="benchmark_type">Рахмет, с., в 5.5 км к сев.-вост.от него, в 1.6 км к сев.от зим.Жакен, в 20 м к зап.от дороги с.Амангельды - с.Рахмет</SimpleData>
		<SimpleData name="location_description">93b44d62-e831-41d0-a5fa-d1339af5ee3a</SimpleData>
		<SimpleData name="status">data/stations/93b44d62.kml</SimpleData>
		<SimpleData name="guid">&lt;a href='data/stations/93b44d62.kml' target='_blank'&gt;Download KML&lt;/a&gt;</SimpleData>
	</SchemaData></ExtendedData>
      <Point><coordinates>65.34564870484,49.2909912399953</coordinates></Point>
  </Placemark>
</Folder>
</Document></kml>
