<?xml version="1.0" encoding="utf-8" ?>
<kml xmlns="http://www.opengis.net/kml/2.2">
<Document id="root_doc">
<Schema name="950b4010" id="950b4010">
	<SimpleField name="type" type="string"></SimpleField>
	<SimpleField name="view" type="string"></SimpleField>
	<SimpleField name="leveling_order" type="string"></SimpleField>
	<SimpleField name="leveling_height" type="string"></SimpleField>
	<SimpleField name="control_height" type="string"></SimpleField>
	<SimpleField name="benchmark_number" type="string"></SimpleField>
	<SimpleField name="control_location" type="string"></SimpleField>
	<SimpleField name="benchmark_type" type="string"></SimpleField>
	<SimpleField name="leveling_line_section" type="string"></SimpleField>
	<SimpleField name="location_description" type="string"></SimpleField>
	<SimpleField name="status" type="string"></SimpleField>
	<SimpleField name="guid" type="string"></SimpleField>
	<SimpleField name="kml" type="string"></SimpleField>
	<SimpleField name="kml_link" type="string"></SimpleField>
</Schema>
<Folder><name>950b4010</name>
  <Placemark id="950b4010.1">
	<name>8567</name>
	<name>грунт. реп.</name>
	<ExtendedData><SchemaData schemaUrl="#950b4010">
		<SimpleData name="type">2</SimpleData>
		<SimpleData name="view">84.534</SimpleData>
		<SimpleData name="benchmark_number">160 оп. знак</SimpleData>
		<SimpleData name="control_location">Линия № 1 : Жаксыкарсакбас - Коккабак, II класс. Участок: грунт.реп. 532 - фунд. реп. 2</SimpleData>
		<SimpleData name="benchmark_type">Коккабак, с., в 15.8 км к вост. от него, в 7.9 км к сев.-вост. от мог. Агатай, в 1.2 км к юго-вост. от солончака</SimpleData>
		<SimpleData name="location_description">950b4010-5a5b-4412-ba93-b96b93256da5</SimpleData>
		<SimpleData name="status">data/stations/950b4010.kml</SimpleData>
		<SimpleData name="guid">&lt;a href='data/stations/950b4010.kml' target='_blank'&gt;Download KML&lt;/a&gt;</SimpleData>
	</SchemaData></ExtendedData>
      <Point><coordinates>63.4938297835719,47.6131842741461</coordinates></Point>
  </Placemark>
</Folder>
</Document></kml>
