<?xml version="1.0" encoding="utf-8" ?>
<kml xmlns="http://www.opengis.net/kml/2.2">
<Document id="root_doc">
<Schema name="952efdd2" id="952efdd2">
	<SimpleField name="type" type="string"></SimpleField>
	<SimpleField name="view" type="string"></SimpleField>
	<SimpleField name="leveling_order" type="string"></SimpleField>
	<SimpleField name="leveling_height" type="string"></SimpleField>
	<SimpleField name="control_height" type="string"></SimpleField>
	<SimpleField name="benchmark_number" type="string"></SimpleField>
	<SimpleField name="control_location" type="string"></SimpleField>
	<SimpleField name="benchmark_type" type="string"></SimpleField>
	<SimpleField name="leveling_line_section" type="string"></SimpleField>
	<SimpleField name="location_description" type="string"></SimpleField>
	<SimpleField name="status" type="string"></SimpleField>
	<SimpleField name="guid" type="string"></SimpleField>
	<SimpleField name="kml" type="string"></SimpleField>
	<SimpleField name="kml_link" type="string"></SimpleField>
</Schema>
<Folder><name>952efdd2</name>
  <Placemark id="952efdd2.1">
	<name>3430</name>
	<name>грунт. реп.</name>
	<ExtendedData><SchemaData schemaUrl="#952efdd2">
		<SimpleData name="type">2</SimpleData>
		<SimpleData name="view">92.107</SimpleData>
		<SimpleData name="benchmark_number">160 оп</SimpleData>
		<SimpleData name="control_location">Линия №1 : Ащылысай-Майлыозек , II класс . Участок : грунт. реп. 514-фунд. реп. 2938</SimpleData>
		<SimpleData name="benchmark_type">Комекбаев, с., в 10.8 км к сев.-зап. от него, в 2.4 км к сев.-вост. от мазара Жаркынбайтам, в 1.7 км к зап. от арт. колодца и зимовки, в 14 м к югу от полевой дороги </SimpleData>
		<SimpleData name="location_description">952efdd2-123d-41df-9611-8f6fb75e67e6</SimpleData>
		<SimpleData name="status">data/stations/952efdd2.kml</SimpleData>
		<SimpleData name="guid">&lt;a href='data/stations/952efdd2.kml' target='_blank'&gt;Download KML&lt;/a&gt;</SimpleData>
	</SchemaData></ExtendedData>
      <Point><coordinates>63.0648793023687,44.8757272218327</coordinates></Point>
  </Placemark>
</Folder>
</Document></kml>
