<?xml version="1.0" encoding="utf-8" ?>
<kml xmlns="http://www.opengis.net/kml/2.2">
<Document id="root_doc">
<Schema name="9534ecc1" id="9534ecc1">
	<SimpleField name="type" type="string"></SimpleField>
	<SimpleField name="view" type="string"></SimpleField>
	<SimpleField name="leveling_order" type="string"></SimpleField>
	<SimpleField name="leveling_height" type="string"></SimpleField>
	<SimpleField name="control_height" type="string"></SimpleField>
	<SimpleField name="benchmark_number" type="string"></SimpleField>
	<SimpleField name="control_location" type="string"></SimpleField>
	<SimpleField name="benchmark_type" type="string"></SimpleField>
	<SimpleField name="leveling_line_section" type="string"></SimpleField>
	<SimpleField name="location_description" type="string"></SimpleField>
	<SimpleField name="status" type="string"></SimpleField>
	<SimpleField name="guid" type="string"></SimpleField>
	<SimpleField name="kml" type="string"></SimpleField>
	<SimpleField name="kml_link" type="string"></SimpleField>
</Schema>
<Folder><name>9534ecc1</name>
  <Placemark id="9534ecc1.1">
	<name>7641</name>
	<name>грунт.реп.</name>
	<ExtendedData><SchemaData schemaUrl="#9534ecc1">
		<SimpleData name="type">II</SimpleData>
		<SimpleData name="view">242.780</SimpleData>
		<SimpleData name="leveling_order">386.467</SimpleData>
		<SimpleData name="control_height">в трубе</SimpleData>
		<SimpleData name="benchmark_number">160 оп.зн.</SimpleData>
		<SimpleData name="control_location">Ход от грунт.реп. 91159 до грунт.реп. 7227, II класс. Участок: грунт.реп.0960-грунт.реп. 7227</SimpleData>
		<SimpleData name="benchmark_type">Кокшетау, гор., в 9.8 км к вост.от него, в 15 м к югу от поворотного столба связи, в 9 м к югу от стб. Кабеля связи</SimpleData>
		<SimpleData name="location_description">9534ecc1-5f8d-4931-9e71-327f6e376fb1</SimpleData>
		<SimpleData name="status">data/stations/9534ecc1.kml</SimpleData>
		<SimpleData name="guid">&lt;a href='data/stations/9534ecc1.kml' target='_blank'&gt;Download KML&lt;/a&gt;</SimpleData>
	</SchemaData></ExtendedData>
      <Point><coordinates>69.504608472372,53.309136962224</coordinates></Point>
  </Placemark>
</Folder>
</Document></kml>
