<?xml version="1.0" encoding="utf-8" ?>
<kml xmlns="http://www.opengis.net/kml/2.2">
<Document id="root_doc">
<Schema name="959f1c1b" id="959f1c1b">
	<SimpleField name="title" type="string"></SimpleField>
	<SimpleField name="type" type="string"></SimpleField>
	<SimpleField name="ext_sign" type="string"></SimpleField>
	<SimpleField name="class_lvl" type="string"></SimpleField>
	<SimpleField name="height_lvl" type="string"></SimpleField>
	<SimpleField name="height_ctrl" type="string"></SimpleField>
	<SimpleField name="ctrl_place" type="string"></SimpleField>
	<SimpleField name="mark_num" type="string"></SimpleField>
	<SimpleField name="center_type" type="string"></SimpleField>
	<SimpleField name="lvl_line" type="string"></SimpleField>
	<SimpleField name="guid" type="string"></SimpleField>
</Schema>
<Folder><name>959f1c1b</name>
  <Placemark id="959f1c1b.1">
	<name>7784</name>
	<description>скальный репер</description>
	<ExtendedData><SchemaData schemaUrl="#959f1c1b">
		<SimpleData name="type">2</SimpleData>
		<SimpleData name="ext_sign">440,852</SimpleData>
		<SimpleData name="ctrl_place">99оп</SimpleData>
		<SimpleData name="mark_num">Линия №1: Коянды - Семиярск, I класс (1) Участок: грунт. реп. 71 - грунт. реп. 1861</SimpleData>
		<SimpleData name="center_type">Алыбай, зим., в 3,5 км к югу от неё, в 2,4 км к зап. от кладбища, в 0,1 км к югу от полевой дороги зим.Алыбай-с.Муржик</SimpleData>
		<SimpleData name="lvl_line">959f1c1b-f768-4ce1-bd66-5e56d6edd67b</SimpleData>
	</SchemaData></ExtendedData>
      <Point><coordinates>77.4018170017481,50.2638122631525</coordinates></Point>
  </Placemark>
</Folder>
</Document></kml>
