<?xml version="1.0" encoding="utf-8" ?>
<kml xmlns="http://www.opengis.net/kml/2.2">
<Document id="root_doc">
<Schema name="95cc65d3" id="95cc65d3">
	<SimpleField name="title" type="string"></SimpleField>
	<SimpleField name="type" type="string"></SimpleField>
	<SimpleField name="ext_sign" type="string"></SimpleField>
	<SimpleField name="class_lvl" type="string"></SimpleField>
	<SimpleField name="height_lvl" type="string"></SimpleField>
	<SimpleField name="height_ctrl" type="string"></SimpleField>
	<SimpleField name="ctrl_place" type="string"></SimpleField>
	<SimpleField name="mark_num" type="string"></SimpleField>
	<SimpleField name="center_type" type="string"></SimpleField>
	<SimpleField name="lvl_line" type="string"></SimpleField>
	<SimpleField name="guid" type="string"></SimpleField>
</Schema>
<Folder><name>95cc65d3</name>
  <Placemark id="95cc65d3.1">
	<name>2359</name>
	<description>Грунтовый репер </description>
	<ExtendedData><SchemaData schemaUrl="#95cc65d3">
		<SimpleData name="title">Опознавательный знак </SimpleData>
		<SimpleData name="type">І</SimpleData>
		<SimpleData name="height_ctrl">2359</SimpleData>
		<SimpleData name="ctrl_place">162</SimpleData>
		<SimpleData name="mark_num">Линия нивелирования І класса #102 &quot;Петропавловск-Павлодар&quot;</SimpleData>
		<SimpleData name="center_type">Село Достык 2,5 км к северу от него, 200 м юго-востоку от км стб. 971/350, 115 м к востоку от шоссе &quot;Павлодар-Омск&quot;, 18 м к востоку от лесополосы</SimpleData>
		<SimpleData name="lvl_line">95cc65d3-a19e-4283-89f6-9acfc3bc9f0c</SimpleData>
	</SchemaData></ExtendedData>
      <Point><coordinates>76.630015,52.8047</coordinates></Point>
  </Placemark>
</Folder>
</Document></kml>
