<?xml version="1.0" encoding="utf-8" ?>
<kml xmlns="http://www.opengis.net/kml/2.2">
<Document id="root_doc">
<Schema name="95d4a04e" id="95d4a04e">
	<SimpleField name="type" type="string"></SimpleField>
	<SimpleField name="view" type="string"></SimpleField>
	<SimpleField name="leveling_order" type="string"></SimpleField>
	<SimpleField name="leveling_height" type="string"></SimpleField>
	<SimpleField name="control_height" type="string"></SimpleField>
	<SimpleField name="benchmark_number" type="string"></SimpleField>
	<SimpleField name="control_location" type="string"></SimpleField>
	<SimpleField name="benchmark_type" type="string"></SimpleField>
	<SimpleField name="leveling_line_section" type="string"></SimpleField>
	<SimpleField name="location_description" type="string"></SimpleField>
	<SimpleField name="status" type="string"></SimpleField>
	<SimpleField name="guid" type="string"></SimpleField>
	<SimpleField name="kml" type="string"></SimpleField>
	<SimpleField name="kml_link" type="string"></SimpleField>
</Schema>
<Folder><name>95d4a04e</name>
  <Placemark id="95d4a04e.1">
	<name>152</name>
	<name>грунт.реп</name>
	<ExtendedData><SchemaData schemaUrl="#95d4a04e">
		<SimpleData name="type">2</SimpleData>
		<SimpleData name="view">471.980</SimpleData>
		<SimpleData name="leveling_height">470.844</SimpleData>
		<SimpleData name="benchmark_number">репер в верзхней плоскости монолита</SimpleData>
		<SimpleData name="control_location">Ход от грунта.реп. 140 до грунт.реп.143, 2 кл. (5). Участок::грунт.реп.152-грунт.реп.143</SimpleData>
		<SimpleData name="benchmark_type">Чулаккурган,с., в 13.0 км к сев-зап. От него, в 1.5 км к сев.-зап. От развалин, в 30 м к сев.отстарой дороги с.Сузак-с.Чулаккурган</SimpleData>
		<SimpleData name="location_description">95d4a04e-a249-481e-94df-d0c935c18690</SimpleData>
		<SimpleData name="status">data/stations/95d4a04e.kml</SimpleData>
		<SimpleData name="guid">&lt;a href='data/stations/95d4a04e.kml' target='_blank'&gt;Download KML&lt;/a&gt;</SimpleData>
	</SchemaData></ExtendedData>
      <Point><coordinates>69.0489705703299,43.8534518878889</coordinates></Point>
  </Placemark>
</Folder>
</Document></kml>
