<?xml version="1.0" encoding="utf-8" ?>
<kml xmlns="http://www.opengis.net/kml/2.2">
<Document id="root_doc">
<Schema name="9689e808" id="9689e808">
	<SimpleField name="type" type="string"></SimpleField>
	<SimpleField name="view" type="string"></SimpleField>
	<SimpleField name="leveling_order" type="string"></SimpleField>
	<SimpleField name="leveling_height" type="string"></SimpleField>
	<SimpleField name="control_height" type="string"></SimpleField>
	<SimpleField name="benchmark_number" type="string"></SimpleField>
	<SimpleField name="control_location" type="string"></SimpleField>
	<SimpleField name="benchmark_type" type="string"></SimpleField>
	<SimpleField name="leveling_line_section" type="string"></SimpleField>
	<SimpleField name="location_description" type="string"></SimpleField>
	<SimpleField name="status" type="string"></SimpleField>
	<SimpleField name="guid" type="string"></SimpleField>
	<SimpleField name="kml" type="string"></SimpleField>
	<SimpleField name="kml_link" type="string"></SimpleField>
</Schema>
<Folder><name>9689e808</name>
  <Placemark id="9689e808.1">
	<name>5942</name>
	<name>грунт.реп.</name>
	<description>грунт.реп.</description>
	<ExtendedData><SchemaData schemaUrl="#9689e808">
		<SimpleData name="type">II</SimpleData>
		<SimpleData name="view">491.586</SimpleData>
		<SimpleData name="benchmark_number">160 оп.знак</SimpleData>
		<SimpleData name="control_location">Линия № 2:Капчагай-Акколь II класс                            Участок: грунт.реп. 5262-грунт.реп. 4845</SimpleData>
		<SimpleData name="benchmark_type">Ушарал,с.,в I0.3 км к сев.-вост.от него,в 5.2 км к юго-вост.от перевала Малайсары,в 54 м к юго-зап.от км.стб. 
127/138 шоссе с.Баканас-rор.Алматы </SimpleData>
		<SimpleData name="location_description">9689e808-9ab8-4b5a-93b5-8d15875a2d83</SimpleData>
		<SimpleData name="status">data/stations/9689e808.kml</SimpleData>
		<SimpleData name="guid">&lt;a href='data/stations/9689e808.kml' target='_blank'&gt;Download KML&lt;/a&gt;</SimpleData>
	</SchemaData></ExtendedData>
      <Point><coordinates>76.9649010544677,44.2816511901859</coordinates></Point>
  </Placemark>
</Folder>
</Document></kml>
