<?xml version="1.0" encoding="utf-8" ?>
<kml xmlns="http://www.opengis.net/kml/2.2">
<Document id="root_doc">
<Schema name="96e3b1f5" id="96e3b1f5">
	<SimpleField name="type" type="string"></SimpleField>
	<SimpleField name="view" type="string"></SimpleField>
	<SimpleField name="leveling_order" type="string"></SimpleField>
	<SimpleField name="leveling_height" type="string"></SimpleField>
	<SimpleField name="control_height" type="string"></SimpleField>
	<SimpleField name="benchmark_number" type="string"></SimpleField>
	<SimpleField name="control_location" type="string"></SimpleField>
	<SimpleField name="benchmark_type" type="string"></SimpleField>
	<SimpleField name="leveling_line_section" type="string"></SimpleField>
	<SimpleField name="location_description" type="string"></SimpleField>
	<SimpleField name="status" type="string"></SimpleField>
	<SimpleField name="guid" type="string"></SimpleField>
	<SimpleField name="kml" type="string"></SimpleField>
	<SimpleField name="kml_link" type="string"></SimpleField>
</Schema>
<Folder><name>96e3b1f5</name>
  <Placemark id="96e3b1f5.1">
	<name>7472</name>
	<name>грунт.реп.</name>
	<ExtendedData><SchemaData schemaUrl="#96e3b1f5">
		<SimpleData name="type">II</SimpleData>
		<SimpleData name="view">252.184</SimpleData>
		<SimpleData name="leveling_order">286.539</SimpleData>
		<SimpleData name="control_height">Контрольный репер № I в верхней плоскости монолита</SimpleData>
		<SimpleData name="benchmark_number">121</SimpleData>
		<SimpleData name="control_location">Линия №2:Есиль-Державинск,II класс(3.6) Участок:пир.3 кл.Джарлы-Агач-фунд.реп.4781</SimpleData>
		<SimpleData name="benchmark_type">Державинск,гор.,в 2.8 км к сев.от него,у пикетного стб.6/7 102 км железной дороги,в 24 м к зап.от оси жел.-дор. Полотна</SimpleData>
		<SimpleData name="location_description">96e3b1f5-1712-4f73-b71a-dcd9095d881b</SimpleData>
		<SimpleData name="status">data/stations/96e3b1f5.kml</SimpleData>
		<SimpleData name="guid">&lt;a href='data/stations/96e3b1f5.kml' target='_blank'&gt;Download KML&lt;/a&gt;</SimpleData>
	</SchemaData></ExtendedData>
      <Point><coordinates>66.3232498205048,51.1417798359897</coordinates></Point>
  </Placemark>
</Folder>
</Document></kml>
