<?xml version="1.0" encoding="utf-8" ?>
<kml xmlns="http://www.opengis.net/kml/2.2">
<Document id="root_doc">
<Schema name="96e7a480" id="96e7a480">
	<SimpleField name="title" type="string"></SimpleField>
	<SimpleField name="type" type="string"></SimpleField>
	<SimpleField name="ext_sign" type="string"></SimpleField>
	<SimpleField name="class_lvl" type="string"></SimpleField>
	<SimpleField name="height_lvl" type="string"></SimpleField>
	<SimpleField name="height_ctrl" type="string"></SimpleField>
	<SimpleField name="ctrl_place" type="string"></SimpleField>
	<SimpleField name="mark_num" type="string"></SimpleField>
	<SimpleField name="center_type" type="string"></SimpleField>
	<SimpleField name="lvl_line" type="string"></SimpleField>
	<SimpleField name="guid" type="string"></SimpleField>
</Schema>
<Folder><name>96e7a480</name>
  <Placemark id="96e7a480.1">
	<name>343</name>
	<ExtendedData><SchemaData schemaUrl="#96e7a480">
		<SimpleData name="title">грунтовый репер</SimpleData>
		<SimpleData name="type">2</SimpleData>
		<SimpleData name="ext_sign">331,111</SimpleData>
		<SimpleData name="class_lvl">330,037</SimpleData>
		<SimpleData name="height_lvl">в верхней плоскости монолита</SimpleData>
		<SimpleData name="height_ctrl">893</SimpleData>
		<SimpleData name="ctrl_place">121 оп.зн</SimpleData>
		<SimpleData name="mark_num">Участок: грунт. реп. 9240 - грунт.реп. 255</SimpleData>
		<SimpleData name="center_type">Бетпак-Дала, зим., в 19.2 км                   к юго-зап. от нее, в 1.2 км                      к юго-зап. от могилы, в 20 м               к югу от грунт. дороги зим. Бетпак- Дала - с. Тасты</SimpleData>
		<SimpleData name="lvl_line">96e7a480-4362-40f3-ae29-86bf3f684ac3</SimpleData>
	</SchemaData></ExtendedData>
      <Point><coordinates>69.9494373333333,46.0033223333333</coordinates></Point>
  </Placemark>
</Folder>
</Document></kml>
