<?xml version="1.0" encoding="utf-8" ?>
<kml xmlns="http://www.opengis.net/kml/2.2">
<Document id="root_doc">
<Schema name="9715bbc0" id="9715bbc0">
	<SimpleField name="title" type="string"></SimpleField>
	<SimpleField name="type" type="string"></SimpleField>
	<SimpleField name="ext_sign" type="string"></SimpleField>
	<SimpleField name="class_lvl" type="string"></SimpleField>
	<SimpleField name="height_lvl" type="string"></SimpleField>
	<SimpleField name="height_ctrl" type="string"></SimpleField>
	<SimpleField name="ctrl_place" type="string"></SimpleField>
	<SimpleField name="mark_num" type="string"></SimpleField>
	<SimpleField name="center_type" type="string"></SimpleField>
	<SimpleField name="lvl_line" type="string"></SimpleField>
	<SimpleField name="guid" type="string"></SimpleField>
</Schema>
<Folder><name>9715bbc0</name>
  <Placemark id="9715bbc0.1">
	<name>0077</name>
	<description>грунтовый репер</description>
	<ExtendedData><SchemaData schemaUrl="#9715bbc0">
		<SimpleData name="title">1А44</SimpleData>
		<SimpleData name="lvl_line">9715bbc0-f879-452c-8e90-bce04c7d23ee</SimpleData>
	</SchemaData></ExtendedData>
      <Point><coordinates>51.723935,47.218695</coordinates></Point>
  </Placemark>
</Folder>
</Document></kml>
