<?xml version="1.0" encoding="utf-8" ?>
<kml xmlns="http://www.opengis.net/kml/2.2">
<Document id="root_doc">
<Schema name="979d6514" id="979d6514">
	<SimpleField name="title" type="string"></SimpleField>
	<SimpleField name="type" type="string"></SimpleField>
	<SimpleField name="ext_sign" type="string"></SimpleField>
	<SimpleField name="class_lvl" type="string"></SimpleField>
	<SimpleField name="height_lvl" type="string"></SimpleField>
	<SimpleField name="height_ctrl" type="string"></SimpleField>
	<SimpleField name="ctrl_place" type="string"></SimpleField>
	<SimpleField name="mark_num" type="string"></SimpleField>
	<SimpleField name="center_type" type="string"></SimpleField>
	<SimpleField name="lvl_line" type="string"></SimpleField>
	<SimpleField name="guid" type="string"></SimpleField>
</Schema>
<Folder><name>979d6514</name>
  <Placemark id="979d6514.1">
	<name>1219</name>
	<description>грунтовый репер</description>
	<ExtendedData><SchemaData schemaUrl="#979d6514">
		<SimpleData name="type">2</SimpleData>
		<SimpleData name="ext_sign">371,309</SimpleData>
		<SimpleData name="ctrl_place">146оп</SimpleData>
		<SimpleData name="mark_num">Линия №1: Сарыкияк - Степное, II класс (1)  Участок: грунт.реп.2 - грунт.реп. 10974</SimpleData>
		<SimpleData name="center_type">Кызылшан, зим., в 3,0 км к юго-зап.от нее,в 0,6 км к юго-вост.от пересыхающей р.Курттыозек, в 0,1 км к сев. от полевой дороги</SimpleData>
		<SimpleData name="lvl_line">979d6514-9935-4ea0-b983-0b4a09fd5d31</SimpleData>
	</SchemaData></ExtendedData>
      <Point><coordinates>74.7059473310522,50.9897835657514</coordinates></Point>
  </Placemark>
</Folder>
</Document></kml>
