<?xml version="1.0" encoding="utf-8" ?>
<kml xmlns="http://www.opengis.net/kml/2.2">
<Document id="root_doc">
<Schema name="97a2abb6" id="97a2abb6">
	<SimpleField name="type" type="string"></SimpleField>
	<SimpleField name="view" type="string"></SimpleField>
	<SimpleField name="leveling_order" type="string"></SimpleField>
	<SimpleField name="leveling_height" type="string"></SimpleField>
	<SimpleField name="control_height" type="string"></SimpleField>
	<SimpleField name="benchmark_number" type="string"></SimpleField>
	<SimpleField name="control_location" type="string"></SimpleField>
	<SimpleField name="benchmark_type" type="string"></SimpleField>
	<SimpleField name="leveling_line_section" type="string"></SimpleField>
	<SimpleField name="location_description" type="string"></SimpleField>
	<SimpleField name="status" type="string"></SimpleField>
	<SimpleField name="guid" type="string"></SimpleField>
	<SimpleField name="kml" type="string"></SimpleField>
	<SimpleField name="kml_link" type="string"></SimpleField>
</Schema>
<Folder><name>97a2abb6</name>
  <Placemark id="97a2abb6.1">
	<name>2272</name>
	<name>грунтовый репер</name>
	<ExtendedData><SchemaData schemaUrl="#97a2abb6">
		<SimpleData name="type">1</SimpleData>
		<SimpleData name="view">132.643</SimpleData>
		<SimpleData name="benchmark_number">160 оп, знак</SimpleData>
		<SimpleData name="control_location">Линия № 1: Кызылорда - Торетоган, 1 класс (1) Участок: грунт, реп, 681 - грунт, реп, 1112</SimpleData>
		<SimpleData name="benchmark_type">Кыргызольген, арт, к,, в 6,8 км к сев,-вост, от него, в 3,0 км к юго-вост, от арт, к, Калдан, в 30 м к югу от полевой дороги</SimpleData>
		<SimpleData name="location_description">97a2abb6-c729-4a3f-973b-56807af53f10</SimpleData>
		<SimpleData name="status">data/stations/97a2abb6.kml</SimpleData>
		<SimpleData name="guid">&lt;a href='data/stations/97a2abb6.kml' target='_blank'&gt;Download KML&lt;/a&gt;</SimpleData>
	</SchemaData></ExtendedData>
      <Point><coordinates>67.9393472123654,44.977044124368</coordinates></Point>
  </Placemark>
</Folder>
</Document></kml>
