<?xml version="1.0" encoding="utf-8" ?>
<kml xmlns="http://www.opengis.net/kml/2.2">
<Document id="root_doc">
<Schema name="9805e4eb" id="9805e4eb">
	<SimpleField name="title" type="string"></SimpleField>
	<SimpleField name="type" type="string"></SimpleField>
	<SimpleField name="ext_sign" type="string"></SimpleField>
	<SimpleField name="class_lvl" type="string"></SimpleField>
	<SimpleField name="height_lvl" type="string"></SimpleField>
	<SimpleField name="height_ctrl" type="string"></SimpleField>
	<SimpleField name="ctrl_place" type="string"></SimpleField>
	<SimpleField name="mark_num" type="string"></SimpleField>
	<SimpleField name="center_type" type="string"></SimpleField>
	<SimpleField name="lvl_line" type="string"></SimpleField>
	<SimpleField name="guid" type="string"></SimpleField>
</Schema>
<Folder><name>9805e4eb</name>
  <Placemark id="9805e4eb.1">
	<name>5228</name>
	<description>грунт.реп.</description>
	<ExtendedData><SchemaData schemaUrl="#9805e4eb">
		<SimpleData name="type">2</SimpleData>
		<SimpleData name="ext_sign">9.811</SimpleData>
		<SimpleData name="ctrl_place">146</SimpleData>
		<SimpleData name="mark_num">Линия: Аккудук-Караумбет</SimpleData>
		<SimpleData name="center_type">Айтманащы,к., в 2.8 км к сев.-зап.от него, в 0.1 км к сев.-вост.от ямы, в 70 м к сев.-зап.от фунд.реп.8507, в 3 м к юго-зап.от дороги с.Аккудук-к.Айтманащы</SimpleData>
		<SimpleData name="lvl_line">9805e4eb-8136-4f94-adc1-712f247c473b</SimpleData>
	</SchemaData></ExtendedData>
      <Point><coordinates>54.3585719489951,43.0577738736653</coordinates></Point>
  </Placemark>
</Folder>
</Document></kml>
