<?xml version="1.0" encoding="utf-8" ?>
<kml xmlns="http://www.opengis.net/kml/2.2">
<Document id="root_doc">
<Schema name="98fc86d7" id="98fc86d7">
	<SimpleField name="type" type="string"></SimpleField>
	<SimpleField name="view" type="string"></SimpleField>
	<SimpleField name="leveling_order" type="string"></SimpleField>
	<SimpleField name="leveling_height" type="string"></SimpleField>
	<SimpleField name="control_height" type="string"></SimpleField>
	<SimpleField name="benchmark_number" type="string"></SimpleField>
	<SimpleField name="control_location" type="string"></SimpleField>
	<SimpleField name="benchmark_type" type="string"></SimpleField>
	<SimpleField name="leveling_line_section" type="string"></SimpleField>
	<SimpleField name="location_description" type="string"></SimpleField>
	<SimpleField name="status" type="string"></SimpleField>
	<SimpleField name="guid" type="string"></SimpleField>
	<SimpleField name="kml" type="string"></SimpleField>
	<SimpleField name="kml_link" type="string"></SimpleField>
</Schema>
<Folder><name>98fc86d7</name>
  <Placemark id="98fc86d7.1">
	<name>6588</name>
	<name>фундаментальный репер</name>
	<ExtendedData><SchemaData schemaUrl="#98fc86d7">
		<SimpleData name="type">1</SimpleData>
		<SimpleData name="view">230.634</SimpleData>
		<SimpleData name="leveling_order">229,826</SimpleData>
		<SimpleData name="leveling_height">7601</SimpleData>
		<SimpleData name="control_height">в фундаментной плите</SimpleData>
		<SimpleData name="benchmark_number">161 оп, знак</SimpleData>
		<SimpleData name="control_location">Линия № 1: Туйемойнак - Торыустаган, 1 класс (1) Участок: грунт, реп, 3215 - фунд, реп, 9993</SimpleData>
		<SimpleData name="benchmark_type">Кисемис, кладб,, в 11,1 км к сев,-зап, от него, в 7,0 км к югу от к, Баймурын, в 0,1 км к югу от развилки полевой дороги</SimpleData>
		<SimpleData name="location_description">98fc86d7-e27b-45c2-9d83-5b62b7507396</SimpleData>
		<SimpleData name="status">data/stations/98fc86d7.kml</SimpleData>
		<SimpleData name="guid">&lt;a href='data/stations/98fc86d7.kml' target='_blank'&gt;Download KML&lt;/a&gt;</SimpleData>
	</SchemaData></ExtendedData>
      <Point><coordinates>69.8359577942899,45.0966462986716</coordinates></Point>
  </Placemark>
</Folder>
</Document></kml>
