<?xml version="1.0" encoding="utf-8" ?>
<kml xmlns="http://www.opengis.net/kml/2.2">
<Document id="root_doc">
<Schema name="98fd140f" id="98fd140f">
	<SimpleField name="type" type="string"></SimpleField>
	<SimpleField name="view" type="string"></SimpleField>
	<SimpleField name="leveling_order" type="string"></SimpleField>
	<SimpleField name="leveling_height" type="string"></SimpleField>
	<SimpleField name="control_height" type="string"></SimpleField>
	<SimpleField name="benchmark_number" type="string"></SimpleField>
	<SimpleField name="control_location" type="string"></SimpleField>
	<SimpleField name="benchmark_type" type="string"></SimpleField>
	<SimpleField name="leveling_line_section" type="string"></SimpleField>
	<SimpleField name="location_description" type="string"></SimpleField>
	<SimpleField name="status" type="string"></SimpleField>
	<SimpleField name="guid" type="string"></SimpleField>
	<SimpleField name="kml" type="string"></SimpleField>
	<SimpleField name="kml_link" type="string"></SimpleField>
</Schema>
<Folder><name>98fd140f</name>
  <Placemark id="98fd140f.1">
	<name>816</name>
	<name>грунтовый репер</name>
	<description>1</description>
	<ExtendedData><SchemaData schemaUrl="#98fd140f">
		<SimpleData name="type">2</SimpleData>
		<SimpleData name="view">98.453</SimpleData>
		<SimpleData name="leveling_order">96.947</SimpleData>
		<SimpleData name="control_height">Контрольный репер №165 в верхней плоскости монолита</SimpleData>
		<SimpleData name="benchmark_number">121</SimpleData>
		<SimpleData name="control_location">Линия №3: Качиры - Павлодар, II класс Участок: фунд.реп.312 - грунт.реп.900</SimpleData>
		<SimpleData name="benchmark_type">в 0.8 км к сев. От МТМ с. Байконыс, в 56 м к сев.-вост. От дороги в с. Теренколь</SimpleData>
		<SimpleData name="location_description">98fd140f-e66f-4806-9270-4b8c04d4dd59</SimpleData>
		<SimpleData name="status">data/stations/98fd140f.kml</SimpleData>
		<SimpleData name="guid">&lt;a href='data/stations/98fd140f.kml' target='_blank'&gt;Download KML&lt;/a&gt;</SimpleData>
	</SchemaData></ExtendedData>
      <Point><coordinates>76.4206011343443,52.9657123601194</coordinates></Point>
  </Placemark>
</Folder>
</Document></kml>
