<?xml version="1.0" encoding="utf-8" ?>
<kml xmlns="http://www.opengis.net/kml/2.2">
<Document id="root_doc">
<Schema name="9914f775" id="9914f775">
	<SimpleField name="title" type="string"></SimpleField>
	<SimpleField name="type" type="string"></SimpleField>
	<SimpleField name="ext_sign" type="string"></SimpleField>
	<SimpleField name="class_lvl" type="string"></SimpleField>
	<SimpleField name="height_lvl" type="string"></SimpleField>
	<SimpleField name="height_ctrl" type="string"></SimpleField>
	<SimpleField name="ctrl_place" type="string"></SimpleField>
	<SimpleField name="mark_num" type="string"></SimpleField>
	<SimpleField name="center_type" type="string"></SimpleField>
	<SimpleField name="lvl_line" type="string"></SimpleField>
	<SimpleField name="guid" type="string"></SimpleField>
</Schema>
<Folder><name>9914f775</name>
  <Placemark id="9914f775.1">
	<name>125</name>
	<ExtendedData><SchemaData schemaUrl="#9914f775">
		<SimpleData name="title">грунт.реп</SimpleData>
		<SimpleData name="type">2</SimpleData>
		<SimpleData name="ext_sign">355.416</SimpleData>
		<SimpleData name="ctrl_place">118</SimpleData>
		<SimpleData name="mark_num">Линпмя №2: Сузак-Туркестан, II класс (3) Участок: грунт.реп. 10178-грунт.реп. 1695</SimpleData>
		<SimpleData name="center_type">Кумайлыкас,с., в 1.0 км к сев.от него, в 0.7 км к зап.от мельницы,у дороги с.Бозбутак-с.Кумайлыкас</SimpleData>
		<SimpleData name="lvl_line">9914f775-4bc7-44b7-90a9-ffeff8f11903</SimpleData>
	</SchemaData></ExtendedData>
      <Point><coordinates>68.2270851598356,43.5448425048634</coordinates></Point>
  </Placemark>
</Folder>
</Document></kml>
