<?xml version="1.0" encoding="utf-8" ?>
<kml xmlns="http://www.opengis.net/kml/2.2">
<Document id="root_doc">
<Schema name="999c2132" id="999c2132">
	<SimpleField name="type" type="string"></SimpleField>
	<SimpleField name="view" type="string"></SimpleField>
	<SimpleField name="leveling_order" type="string"></SimpleField>
	<SimpleField name="leveling_height" type="string"></SimpleField>
	<SimpleField name="control_height" type="string"></SimpleField>
	<SimpleField name="benchmark_number" type="string"></SimpleField>
	<SimpleField name="control_location" type="string"></SimpleField>
	<SimpleField name="benchmark_type" type="string"></SimpleField>
	<SimpleField name="leveling_line_section" type="string"></SimpleField>
	<SimpleField name="location_description" type="string"></SimpleField>
	<SimpleField name="status" type="string"></SimpleField>
	<SimpleField name="guid" type="string"></SimpleField>
	<SimpleField name="kml" type="string"></SimpleField>
	<SimpleField name="kml_link" type="string"></SimpleField>
</Schema>
<Folder><name>999c2132</name>
  <Placemark id="999c2132.1">
	<name>8810</name>
	<name>грунтовый репер</name>
	<ExtendedData><SchemaData schemaUrl="#999c2132">
		<SimpleData name="type">2</SimpleData>
		<SimpleData name="view">329,432</SimpleData>
		<SimpleData name="control_location">Линия № 3: Созак - Шолаккорган, II класс (1) Участок: фунд. реп.6972 - пир. 2 кл. Итмурун</SimpleData>
		<SimpleData name="benchmark_type">Созак, с., в 2.1 км к юго-вост, от него,                в 0.2 км к юговост. от моста через арык,              в 35 м к вост, от шоссе                                             с. Созак - с. Шолаккорган</SimpleData>
		<SimpleData name="location_description">999c2132-d5d4-42cc-af4f-0218b8c97f62</SimpleData>
		<SimpleData name="status">data/stations/999c2132.kml</SimpleData>
		<SimpleData name="guid">&lt;a href='data/stations/999c2132.kml' target='_blank'&gt;Download KML&lt;/a&gt;</SimpleData>
	</SchemaData></ExtendedData>
      <Point><coordinates>68.5007312815653,44.1214685332975</coordinates></Point>
  </Placemark>
</Folder>
</Document></kml>
