<?xml version="1.0" encoding="utf-8" ?>
<kml xmlns="http://www.opengis.net/kml/2.2">
<Document id="root_doc">
<Schema name="99b601a2" id="99b601a2">
	<SimpleField name="title" type="string"></SimpleField>
	<SimpleField name="type" type="string"></SimpleField>
	<SimpleField name="ext_sign" type="string"></SimpleField>
	<SimpleField name="class_lvl" type="string"></SimpleField>
	<SimpleField name="height_lvl" type="string"></SimpleField>
	<SimpleField name="height_ctrl" type="string"></SimpleField>
	<SimpleField name="ctrl_place" type="string"></SimpleField>
	<SimpleField name="mark_num" type="string"></SimpleField>
	<SimpleField name="center_type" type="string"></SimpleField>
	<SimpleField name="lvl_line" type="string"></SimpleField>
	<SimpleField name="guid" type="string"></SimpleField>
</Schema>
<Folder><name>99b601a2</name>
  <Placemark id="99b601a2.1">
	<name>9094</name>
	<description>грунтовый репер</description>
	<ExtendedData><SchemaData schemaUrl="#99b601a2">
		<SimpleData name="type">1</SimpleData>
		<SimpleData name="ext_sign">32.356</SimpleData>
		<SimpleData name="ctrl_place">160</SimpleData>
		<SimpleData name="mark_num">Линия нивелирования 1 класса Уральск-Жанибек</SimpleData>
		<SimpleData name="lvl_line">99b601a2-30b8-4729-9ac1-0cdb8fe9e2f9</SimpleData>
	</SchemaData></ExtendedData>
      <Point><coordinates>48.2408700900866,49.73117448743</coordinates></Point>
  </Placemark>
</Folder>
</Document></kml>
