<?xml version="1.0" encoding="utf-8" ?>
<kml xmlns="http://www.opengis.net/kml/2.2">
<Document id="root_doc">
<Schema name="99bfc7db" id="99bfc7db">
	<SimpleField name="type" type="string"></SimpleField>
	<SimpleField name="view" type="string"></SimpleField>
	<SimpleField name="leveling_order" type="string"></SimpleField>
	<SimpleField name="leveling_height" type="string"></SimpleField>
	<SimpleField name="control_height" type="string"></SimpleField>
	<SimpleField name="benchmark_number" type="string"></SimpleField>
	<SimpleField name="control_location" type="string"></SimpleField>
	<SimpleField name="benchmark_type" type="string"></SimpleField>
	<SimpleField name="leveling_line_section" type="string"></SimpleField>
	<SimpleField name="location_description" type="string"></SimpleField>
	<SimpleField name="status" type="string"></SimpleField>
	<SimpleField name="guid" type="string"></SimpleField>
	<SimpleField name="kml" type="string"></SimpleField>
	<SimpleField name="kml_link" type="string"></SimpleField>
</Schema>
<Folder><name>99bfc7db</name>
  <Placemark id="99bfc7db.1">
	<name>244</name>
	<name>грунт,реп,</name>
	<ExtendedData><SchemaData schemaUrl="#99bfc7db">
		<SimpleData name="type">1</SimpleData>
		<SimpleData name="view">428.047</SimpleData>
		<SimpleData name="leveling_order">427,042</SimpleData>
		<SimpleData name="control_height">в трубе</SimpleData>
		<SimpleData name="benchmark_number">118 оп</SimpleData>
		<SimpleData name="control_location">Линия № I: Арысь - Хаваст, 1 класс
Участок: грунт,реп, 12-317 = фунд,реп,12-762</SimpleData>
		<SimpleData name="benchmark_type">Джилга,станц, ,в 3,3 км к сев,-вост,от 
неё, на I ПК 3306 км,в 28 м к вост,от
жел, дор,</SimpleData>
		<SimpleData name="location_description">99bfc7db-cdcd-4de5-b7bf-1cedea7cf6ab</SimpleData>
		<SimpleData name="status">data/stations/99bfc7db.kml</SimpleData>
		<SimpleData name="guid">&lt;a href='data/stations/99bfc7db.kml' target='_blank'&gt;Download KML&lt;/a&gt;</SimpleData>
	</SchemaData></ExtendedData>
      <Point><coordinates>69.0274198758403,41.7515770831789</coordinates></Point>
  </Placemark>
</Folder>
</Document></kml>
