<?xml version="1.0" encoding="UTF-8"?>
<kml xmlns="http://www.opengis.net/kml/2.2">
  <Document id="root_doc">
    <Schema id="9a11a036" name="9a11a036">
      <SimpleField name="title" type="string"/>
      <SimpleField name="type" type="string"/>
      <SimpleField name="ext_sign" type="string"/>
      <SimpleField name="class_lvl" type="string"/>
      <SimpleField name="height_lvl" type="string"/>
      <SimpleField name="height_ctrl" type="string"/>
      <SimpleField name="ctrl_place" type="string"/>
      <SimpleField name="mark_num" type="string"/>
      <SimpleField name="center_type" type="string"/>
      <SimpleField name="lvl_line" type="string"/>
      <SimpleField name="guid" type="string"/>
    </Schema>
    <Schema id="_9a11a036.schema">
      <SimpleField name="title" type="string"/>
      <SimpleField name="type" type="string"/>
      <SimpleField name="ext_sign" type="string"/>
      <SimpleField name="class_lvl" type="string"/>
      <SimpleField name="height_lvl" type="string"/>
      <SimpleField name="height_ctrl" type="string"/>
      <SimpleField name="ctrl_place" type="string"/>
      <SimpleField name="mark_num" type="string"/>
      <SimpleField name="center_type" type="string"/>
      <SimpleField name="lvl_line" type="string"/>
      <SimpleField name="guid" type="string"/>
    </Schema>
    <Document id="_9a11a036">
      <name>9a11a036</name>
      <Placemark id="_9a11a036.1">
        <description>Перевалочная, станц,, в 8,1 км            к югу от неё, в 3,1 км к сев,                от кладб, Сарыбас, в 34 м к вост, от грунт. дороги с, Жезказган - разв, Ески Талап</description>
        <ExtendedData>
          <SchemaData schemaUrl="#_9a11a036.schema">
            <SimpleData name="title">8898</SimpleData>
            <SimpleData name="type">грунтовый репер</SimpleData>
            <SimpleData name="ext_sign">грунтовый репер</SimpleData>
            <SimpleData name="class_lvl">2</SimpleData>
            <SimpleData name="height_lvl">375,303</SimpleData>
            <SimpleData name="center_type">160 оп. знак</SimpleData>
            <SimpleData name="lvl_line">Линия № 4: Жезказган (фунд, реп. 495) - Древний Курган (фунд, реп. 1377), 2 класс (5)</SimpleData>
            <SimpleData name="guid">9a11a036-1a4e-42a6-a2d0-0af218c97628</SimpleData>
          </SchemaData>
        </ExtendedData>
        <Point>
          <coordinates>
            67.4585721151827,47.7786078473561,0
          </coordinates>
        </Point>
      </Placemark>
    </Document>
  </Document>
</kml>
