<?xml version="1.0" encoding="UTF-8"?>
<kml xmlns="http://www.opengis.net/kml/2.2">
  <Document id="root_doc">
    <Schema id="9a35420e" name="9a35420e">
      <SimpleField name="title" type="string"/>
      <SimpleField name="type" type="string"/>
      <SimpleField name="ext_sign" type="string"/>
      <SimpleField name="class_lvl" type="string"/>
      <SimpleField name="height_lvl" type="string"/>
      <SimpleField name="height_ctrl" type="string"/>
      <SimpleField name="ctrl_place" type="string"/>
      <SimpleField name="mark_num" type="string"/>
      <SimpleField name="center_type" type="string"/>
      <SimpleField name="lvl_line" type="string"/>
      <SimpleField name="guid" type="string"/>
    </Schema>
    <Schema id="_9a35420e.schema">
      <SimpleField name="title" type="string"/>
      <SimpleField name="type" type="string"/>
      <SimpleField name="ext_sign" type="string"/>
      <SimpleField name="class_lvl" type="string"/>
      <SimpleField name="height_lvl" type="string"/>
      <SimpleField name="height_ctrl" type="string"/>
      <SimpleField name="ctrl_place" type="string"/>
      <SimpleField name="mark_num" type="string"/>
      <SimpleField name="center_type" type="string"/>
      <SimpleField name="lvl_line" type="string"/>
      <SimpleField name="guid" type="string"/>
    </Schema>
    <Document id="_9a35420e">
      <name>9a35420e</name>
      <Placemark id="_9a35420e.1">
        <description>Жаркум. г., в 3.3 км к сев. от нее,               в  3.1 км к югу от зим.Сарысу, 2.5 км к юго-вост. от км. стб. 192 дороги гор.Жезказган - гор. Кызылорда,             в 0.8 км к зап. от р. Сарысу, в 40 м          к вост. от полевой дороги</description>
        <ExtendedData>
          <SchemaData schemaUrl="#_9a35420e.schema">
            <SimpleData name="title">9328</SimpleData>
            <SimpleData name="type">грунтовый репер</SimpleData>
            <SimpleData name="ext_sign">грунтовый репер</SimpleData>
            <SimpleData name="class_lvl">2</SimpleData>
            <SimpleData name="height_lvl">206,856</SimpleData>
            <SimpleData name="lvl_line">Линия № 1: Жезказган - Caрысу. ІІ класс (2) Участок: - грунт реп. 730 - грунт.реп. 9470</SimpleData>
            <SimpleData name="guid">9a35420e-9bc0-4fda-bbf3-d1da4e911be3</SimpleData>
          </SchemaData>
        </ExtendedData>
        <Point>
          <coordinates>
            67.1259338017855,46.2473227994563,0
          </coordinates>
        </Point>
      </Placemark>
    </Document>
  </Document>
</kml>
