<?xml version="1.0" encoding="utf-8" ?>
<kml xmlns="http://www.opengis.net/kml/2.2">
<Document id="root_doc">
<Schema name="9a5450e5" id="9a5450e5">
	<SimpleField name="type" type="string"></SimpleField>
	<SimpleField name="view" type="string"></SimpleField>
	<SimpleField name="leveling_order" type="string"></SimpleField>
	<SimpleField name="leveling_height" type="string"></SimpleField>
	<SimpleField name="control_height" type="string"></SimpleField>
	<SimpleField name="benchmark_number" type="string"></SimpleField>
	<SimpleField name="control_location" type="string"></SimpleField>
	<SimpleField name="benchmark_type" type="string"></SimpleField>
	<SimpleField name="leveling_line_section" type="string"></SimpleField>
	<SimpleField name="location_description" type="string"></SimpleField>
	<SimpleField name="status" type="string"></SimpleField>
	<SimpleField name="guid" type="string"></SimpleField>
	<SimpleField name="kml" type="string"></SimpleField>
	<SimpleField name="kml_link" type="string"></SimpleField>
</Schema>
<Folder><name>9a5450e5</name>
  <Placemark id="9a5450e5.1">
	<name>3237</name>
	<description>грунт.реп.</description>
	<ExtendedData><SchemaData schemaUrl="#9a5450e5">
		<SimpleData name="type">1</SimpleData>
		<SimpleData name="view">253.062</SimpleData>
		<SimpleData name="benchmark_number">146 оп</SimpleData>
		<SimpleData name="control_location">Линия № 1: Карталы - Семиозерный, I класс                                Участок : грунт.реп.3654 - грунт.реп.1816</SimpleData>
		<SimpleData name="benchmark_type">Караоба, станц., в 5.2 км к юго-вост.от нее, против конца 4 пк.60 км жел.дор., в 90 м к зап.от нежилой казармы, в 18 м к вост.от стб.ЛЭП № 123, в 14 м к сев.-вост.от жел.-дор.полотна</SimpleData>
		<SimpleData name="location_description">9a5450e5-a36c-43fc-b850-dfb9a9f5caed</SimpleData>
		<SimpleData name="status">data/stations/9a5450e5.kml</SimpleData>
		<SimpleData name="guid">&lt;a href='data/stations/9a5450e5.kml' target='_blank'&gt;Download KML&lt;/a&gt;</SimpleData>
	</SchemaData></ExtendedData>
      <Point><coordinates>61.4496554461488,52.9190416087845</coordinates></Point>
  </Placemark>
</Folder>
</Document></kml>
