<?xml version="1.0" encoding="utf-8" ?>
<kml xmlns="http://www.opengis.net/kml/2.2">
<Document id="root_doc">
<Schema name="9acdb98e" id="9acdb98e">
	<SimpleField name="type" type="string"></SimpleField>
	<SimpleField name="view" type="string"></SimpleField>
	<SimpleField name="leveling_order" type="string"></SimpleField>
	<SimpleField name="leveling_height" type="string"></SimpleField>
	<SimpleField name="control_height" type="string"></SimpleField>
	<SimpleField name="benchmark_number" type="string"></SimpleField>
	<SimpleField name="control_location" type="string"></SimpleField>
	<SimpleField name="benchmark_type" type="string"></SimpleField>
	<SimpleField name="leveling_line_section" type="string"></SimpleField>
	<SimpleField name="location_description" type="string"></SimpleField>
	<SimpleField name="status" type="string"></SimpleField>
	<SimpleField name="guid" type="string"></SimpleField>
	<SimpleField name="kml" type="string"></SimpleField>
	<SimpleField name="kml_link" type="string"></SimpleField>
</Schema>
<Folder><name>9acdb98e</name>
  <Placemark id="9acdb98e.1">
	<name>582</name>
	<name>грунт. реп.</name>
	<ExtendedData><SchemaData schemaUrl="#9acdb98e">
		<SimpleData name="type">2</SimpleData>
		<SimpleData name="leveling_height">118</SimpleData>
		<SimpleData name="benchmark_number">Ход от грунт.реп. 22 до грунт.реп. 763, II класс</SimpleData>
		<SimpleData name="control_location">Ай, с., в 5.3 км к югу от него, в 20 м к вост. от шоссе гор. Алматы – гор. Усть-Каменогорск</SimpleData>
		<SimpleData name="benchmark_type">L-44-18-В</SimpleData>
		<SimpleData name="location_description">9acdb98e-52f9-4c46-9cac-b1645aabf91e</SimpleData>
		<SimpleData name="status">data/stations/9acdb98e.kml</SimpleData>
		<SimpleData name="guid">&lt;a href='data/stations/9acdb98e.kml' target='_blank'&gt;Download KML&lt;/a&gt;</SimpleData>
	</SchemaData></ExtendedData>
      <Point><coordinates>80.5964876889157,47.4391729330903</coordinates></Point>
  </Placemark>
</Folder>
</Document></kml>
