<?xml version="1.0" encoding="utf-8" ?>
<kml xmlns="http://www.opengis.net/kml/2.2">
<Document id="root_doc">
<Schema name="9af0b724" id="9af0b724">
	<SimpleField name="title" type="string"></SimpleField>
	<SimpleField name="type" type="string"></SimpleField>
	<SimpleField name="ext_sign" type="string"></SimpleField>
	<SimpleField name="class_lvl" type="string"></SimpleField>
	<SimpleField name="height_lvl" type="string"></SimpleField>
	<SimpleField name="height_ctrl" type="string"></SimpleField>
	<SimpleField name="ctrl_place" type="string"></SimpleField>
	<SimpleField name="mark_num" type="string"></SimpleField>
	<SimpleField name="center_type" type="string"></SimpleField>
	<SimpleField name="lvl_line" type="string"></SimpleField>
	<SimpleField name="guid" type="string"></SimpleField>
</Schema>
<Folder><name>9af0b724</name>
  <Placemark id="9af0b724.1">
	<name>3743</name>
	<description>грунтовый репер</description>
	<ExtendedData><SchemaData schemaUrl="#9af0b724">
		<SimpleData name="title">грунт. реп.</SimpleData>
		<SimpleData name="type">II</SimpleData>
		<SimpleData name="ext_sign">202,312</SimpleData>
		<SimpleData name="ctrl_place">149 оп.</SimpleData>
		<SimpleData name="mark_num">Линия № 2 Иргиз (фунд.реп.7707) - Толыбай (фунд.реп.3780)</SimpleData>
		<SimpleData name="center_type">Сазанбай,разв.,в 10,0км к сев.от них,
в 0,4км к зап.от оз. Шукырсор,в 48 м к
зап.от дороги с.Камсор-с.Иргиз.</SimpleData>
		<SimpleData name="lvl_line">9af0b724-6ea1-49a0-a652-81c60e9eadcb</SimpleData>
	</SchemaData></ExtendedData>
      <Point><coordinates>61.3996565607401,49.5599813752884</coordinates></Point>
  </Placemark>
</Folder>
</Document></kml>
