<?xml version="1.0" encoding="utf-8" ?>
<kml xmlns="http://www.opengis.net/kml/2.2">
<Document id="root_doc">
<Schema name="9b247f9c" id="9b247f9c">
	<SimpleField name="type" type="string"></SimpleField>
	<SimpleField name="view" type="string"></SimpleField>
	<SimpleField name="leveling_order" type="string"></SimpleField>
	<SimpleField name="leveling_height" type="string"></SimpleField>
	<SimpleField name="control_height" type="string"></SimpleField>
	<SimpleField name="benchmark_number" type="string"></SimpleField>
	<SimpleField name="control_location" type="string"></SimpleField>
	<SimpleField name="benchmark_type" type="string"></SimpleField>
	<SimpleField name="leveling_line_section" type="string"></SimpleField>
	<SimpleField name="location_description" type="string"></SimpleField>
	<SimpleField name="status" type="string"></SimpleField>
	<SimpleField name="guid" type="string"></SimpleField>
	<SimpleField name="kml" type="string"></SimpleField>
	<SimpleField name="kml_link" type="string"></SimpleField>
</Schema>
<Folder><name>9b247f9c</name>
  <Placemark id="9b247f9c.1">
	<name>2316</name>
	<name>грунт,реп,</name>
	<ExtendedData><SchemaData schemaUrl="#9b247f9c">
		<SimpleData name="type">I</SimpleData>
		<SimpleData name="view">289.119</SimpleData>
		<SimpleData name="benchmark_number">160оп</SimpleData>
		<SimpleData name="control_location">Линия №1 Астана (Целиноград) - Амангельды, I класс (I), Участок: грунт,реп,7842</SimpleData>
		<SimpleData name="benchmark_type">Колутон, станц,, в 11,3 км к юго-вост,от нее, в 28 м к сев,от бет,стб, №341, в 26 м к сев,от жел,-дор,полотна</SimpleData>
		<SimpleData name="location_description">9b247f9c-3dd6-4fc2-aee3-fd927e9916cb</SimpleData>
		<SimpleData name="status">data/stations/9b247f9c.kml</SimpleData>
		<SimpleData name="guid">&lt;a href='data/stations/9b247f9c.kml' target='_blank'&gt;Download KML&lt;/a&gt;</SimpleData>
	</SchemaData></ExtendedData>
      <Point><coordinates>69.5632009339096,51.7011457857727</coordinates></Point>
  </Placemark>
</Folder>
</Document></kml>
