<?xml version="1.0" encoding="utf-8" ?>
<kml xmlns="http://www.opengis.net/kml/2.2">
<Document id="root_doc">
<Schema name="9b6546c1" id="9b6546c1">
	<SimpleField name="type" type="string"></SimpleField>
	<SimpleField name="view" type="string"></SimpleField>
	<SimpleField name="leveling_order" type="string"></SimpleField>
	<SimpleField name="leveling_height" type="string"></SimpleField>
	<SimpleField name="control_height" type="string"></SimpleField>
	<SimpleField name="benchmark_number" type="string"></SimpleField>
	<SimpleField name="control_location" type="string"></SimpleField>
	<SimpleField name="benchmark_type" type="string"></SimpleField>
	<SimpleField name="leveling_line_section" type="string"></SimpleField>
	<SimpleField name="location_description" type="string"></SimpleField>
	<SimpleField name="status" type="string"></SimpleField>
	<SimpleField name="guid" type="string"></SimpleField>
	<SimpleField name="kml" type="string"></SimpleField>
	<SimpleField name="kml_link" type="string"></SimpleField>
</Schema>
<Folder><name>9b6546c1</name>
  <Placemark id="9b6546c1.1">
	<name>19 (214)</name>
	<name>фунд, реп,</name>
	<ExtendedData><SchemaData schemaUrl="#9b6546c1">
		<SimpleData name="type">I</SimpleData>
		<SimpleData name="view">126.142</SimpleData>
		<SimpleData name="leveling_order">126,953</SimpleData>
		<SimpleData name="control_height">фундаментной плите</SimpleData>
		<SimpleData name="benchmark_number">140 оп,знак  (уничтожен)</SimpleData>
		<SimpleData name="control_location">Линия № 1: Петропавловск - Мариановка, I класс Участок: фунп реп, 454 - грунт, реп, 5381</SimpleData>
		<SimpleData name="benchmark_type">Зарослое, станц,, в 3,2 ш к сев,-зап, от нее, на 5 пикете 231 км, в 0,6 км к сев,-вост, от жел,-дор, полотна</SimpleData>
		<SimpleData name="location_description">9b6546c1-4a4b-4420-a168-35c4edede05e</SimpleData>
		<SimpleData name="status">data/stations/9b6546c1.kml</SimpleData>
		<SimpleData name="guid">&lt;a href='data/stations/9b6546c1.kml' target='_blank'&gt;Download KML&lt;/a&gt;</SimpleData>
	</SchemaData></ExtendedData>
      <Point><coordinates>70.5973371861987,54.9132812561203</coordinates></Point>
  </Placemark>
</Folder>
</Document></kml>
