<?xml version="1.0" encoding="utf-8" ?>
<kml xmlns="http://www.opengis.net/kml/2.2">
<Document id="root_doc">
<Schema name="9c1b7a9d" id="9c1b7a9d">
	<SimpleField name="title" type="string"></SimpleField>
	<SimpleField name="type" type="string"></SimpleField>
	<SimpleField name="ext_sign" type="string"></SimpleField>
	<SimpleField name="class_lvl" type="string"></SimpleField>
	<SimpleField name="height_lvl" type="string"></SimpleField>
	<SimpleField name="height_ctrl" type="string"></SimpleField>
	<SimpleField name="ctrl_place" type="string"></SimpleField>
	<SimpleField name="mark_num" type="string"></SimpleField>
	<SimpleField name="center_type" type="string"></SimpleField>
	<SimpleField name="lvl_line" type="string"></SimpleField>
	<SimpleField name="guid" type="string"></SimpleField>
</Schema>
<Folder><name>9c1b7a9d</name>
  <Placemark id="9c1b7a9d.1">
	<name>4986</name>
	<description>грунтовый репер</description>
	<ExtendedData><SchemaData schemaUrl="#9c1b7a9d">
		<SimpleData name="type">1</SimpleData>
		<SimpleData name="ext_sign">351,94</SimpleData>
		<SimpleData name="ctrl_place">160 оп.знак</SimpleData>
		<SimpleData name="mark_num">Линия № 1:Торетоган-Берлик, I класс                            Участок: гр.реп. 1446-гр.реп. 2653</SimpleData>
		<SimpleData name="center_type">Фурмановка, с., в 0,7 км к югу от него, в 0,2 км к зап. от ЖБ моста через сух. русло р. Чу, в 42 м к сев. от трубы под  шоссе с.Уланбель-с. Фурмановка</SimpleData>
		<SimpleData name="lvl_line">9c1b7a9d-d67e-4e1d-b811-266296609467</SimpleData>
	</SchemaData></ExtendedData>
      <Point><coordinates>72.961442632679,44.2736191518292</coordinates></Point>
  </Placemark>
</Folder>
</Document></kml>
