<?xml version="1.0" encoding="utf-8" ?>
<kml xmlns="http://www.opengis.net/kml/2.2">
<Document id="root_doc">
<Schema name="9c7d5e95" id="9c7d5e95">
	<SimpleField name="title" type="string"></SimpleField>
	<SimpleField name="type" type="string"></SimpleField>
	<SimpleField name="ext_sign" type="string"></SimpleField>
	<SimpleField name="class_lvl" type="string"></SimpleField>
	<SimpleField name="height_lvl" type="string"></SimpleField>
	<SimpleField name="height_ctrl" type="string"></SimpleField>
	<SimpleField name="ctrl_place" type="string"></SimpleField>
	<SimpleField name="mark_num" type="string"></SimpleField>
	<SimpleField name="center_type" type="string"></SimpleField>
	<SimpleField name="lvl_line" type="string"></SimpleField>
	<SimpleField name="guid" type="string"></SimpleField>
</Schema>
<Folder><name>9c7d5e95</name>
  <Placemark id="9c7d5e95.1">
	<name>А 11</name>
	<description>грунтовый репер</description>
	<ExtendedData><SchemaData schemaUrl="#9c7d5e95">
		<SimpleData name="type">2</SimpleData>
		<SimpleData name="ext_sign">718,717</SimpleData>
		<SimpleData name="ctrl_place">160 оп. знак</SimpleData>
		<SimpleData name="mark_num">Линия № 2: Карабута – Белая Школа, II класс (1)
Участок: грунт.реп. 93 –  фунд.реп. 5491</SimpleData>
		<SimpleData name="center_type">Ойчилик, с., в 4.3 км к сев. от него, в 3.6 км к югу от зим. Туяк, в 30 м к зап. от грунт. дороги с. Аксуат – с. Ойчилик</SimpleData>
		<SimpleData name="lvl_line">9c7d5e95-887b-4c77-a093-ba84fdc56fff</SimpleData>
	</SchemaData></ExtendedData>
      <Point><coordinates>83.0069627951667,47.5860619013118</coordinates></Point>
  </Placemark>
</Folder>
</Document></kml>
