<?xml version="1.0" encoding="utf-8" ?>
<kml xmlns="http://www.opengis.net/kml/2.2">
<Document id="root_doc">
<Schema name="9d065d82" id="9d065d82">
	<SimpleField name="title" type="string"></SimpleField>
	<SimpleField name="type" type="string"></SimpleField>
	<SimpleField name="ext_sign" type="string"></SimpleField>
	<SimpleField name="class_lvl" type="string"></SimpleField>
	<SimpleField name="height_lvl" type="string"></SimpleField>
	<SimpleField name="height_ctrl" type="string"></SimpleField>
	<SimpleField name="ctrl_place" type="string"></SimpleField>
	<SimpleField name="mark_num" type="string"></SimpleField>
	<SimpleField name="center_type" type="string"></SimpleField>
	<SimpleField name="lvl_line" type="string"></SimpleField>
	<SimpleField name="guid" type="string"></SimpleField>
</Schema>
<Folder><name>9d065d82</name>
  <Placemark id="9d065d82.1">
	<name>2216</name>
	<description>грунтовый репер</description>
	<ExtendedData><SchemaData schemaUrl="#9d065d82">
		<SimpleData name="ctrl_place">160 оп</SimpleData>
		<SimpleData name="center_type">Оркендеу, с., в 24,2 км к югу от него, в 12.5 км к юго-вост. от кладбища Адамата, в 4.6 км к сев.- зап. от бугра Кубин, в 1.4 км к зап. от р. Куандарья, в 50 м к вост. от полевой дороги
</SimpleData>
		<SimpleData name="lvl_line">9d065d82-1bf0-4fad-8392-1423e8dc55d0</SimpleData>
	</SchemaData></ExtendedData>
      <Point><coordinates>62.0019744444444,45.4080377777778</coordinates></Point>
  </Placemark>
</Folder>
</Document></kml>
