<?xml version="1.0" encoding="utf-8" ?>
<kml xmlns="http://www.opengis.net/kml/2.2">
<Document id="root_doc">
<Schema name="9d8e5e47" id="9d8e5e47">
	<SimpleField name="type" type="string"></SimpleField>
	<SimpleField name="view" type="string"></SimpleField>
	<SimpleField name="leveling_order" type="string"></SimpleField>
	<SimpleField name="leveling_height" type="string"></SimpleField>
	<SimpleField name="control_height" type="string"></SimpleField>
	<SimpleField name="benchmark_number" type="string"></SimpleField>
	<SimpleField name="control_location" type="string"></SimpleField>
	<SimpleField name="benchmark_type" type="string"></SimpleField>
	<SimpleField name="leveling_line_section" type="string"></SimpleField>
	<SimpleField name="location_description" type="string"></SimpleField>
	<SimpleField name="status" type="string"></SimpleField>
	<SimpleField name="guid" type="string"></SimpleField>
	<SimpleField name="kml" type="string"></SimpleField>
	<SimpleField name="kml_link" type="string"></SimpleField>
</Schema>
<Folder><name>9d8e5e47</name>
  <Placemark id="9d8e5e47.1">
	<name>7700</name>
	<name>грунт. реп. </name>
	<ExtendedData><SchemaData schemaUrl="#9d8e5e47">
		<SimpleData name="type">2</SimpleData>
		<SimpleData name="view">581,451</SimpleData>
		<SimpleData name="leveling_order">580,207</SimpleData>
		<SimpleData name="control_height">репер № 2557 в фундаментной плите</SimpleData>
		<SimpleData name="benchmark_number">116 оп</SimpleData>
		<SimpleData name="control_location">Линия № 1: Жангиз-Тобе-Ак-Булак, II класс (1) Участок: грунт. реп. 7833-грунт. реп. 2545</SimpleData>
		<SimpleData name="benchmark_type">Жасар, с., в 1.8 км к сев.-вост. от него, в 10 м к вост. р. Коспалай, в 10 м к югу от дороги с. Бестамак (свх. Кызылту)-с. Карааул</SimpleData>
		<SimpleData name="location_description">9d8e5e47-f0e6-4801-85d1-6c1e3914c477</SimpleData>
		<SimpleData name="status">data/stations/9d8e5e47.kml</SimpleData>
		<SimpleData name="guid">&lt;a href='data/stations/9d8e5e47.kml' target='_blank'&gt;Download KML&lt;/a&gt;</SimpleData>
	</SchemaData></ExtendedData>
      <Point><coordinates>78.8245525116217,49.1370800842423</coordinates></Point>
  </Placemark>
</Folder>
</Document></kml>
