<?xml version="1.0" encoding="utf-8" ?>
<kml xmlns="http://www.opengis.net/kml/2.2">
<Document id="root_doc">
<Schema name="9d9fa59f" id="9d9fa59f">
	<SimpleField name="type" type="string"></SimpleField>
	<SimpleField name="view" type="string"></SimpleField>
	<SimpleField name="leveling_order" type="string"></SimpleField>
	<SimpleField name="leveling_height" type="string"></SimpleField>
	<SimpleField name="control_height" type="string"></SimpleField>
	<SimpleField name="benchmark_number" type="string"></SimpleField>
	<SimpleField name="control_location" type="string"></SimpleField>
	<SimpleField name="benchmark_type" type="string"></SimpleField>
	<SimpleField name="leveling_line_section" type="string"></SimpleField>
	<SimpleField name="location_description" type="string"></SimpleField>
	<SimpleField name="status" type="string"></SimpleField>
	<SimpleField name="guid" type="string"></SimpleField>
	<SimpleField name="kml" type="string"></SimpleField>
	<SimpleField name="kml_link" type="string"></SimpleField>
</Schema>
<Folder><name>9d9fa59f</name>
  <Placemark id="9d9fa59f.1">
	<name>2029</name>
	<name>грунт. реп.</name>
	<ExtendedData><SchemaData schemaUrl="#9d9fa59f">
		<SimpleData name="type">2</SimpleData>
		<SimpleData name="view">181.363</SimpleData>
		<SimpleData name="benchmark_number">107</SimpleData>
		<SimpleData name="control_location">Линия №7: Тран-Отряд - Алабуга , II класс(5) Участок: грунт. реп. 2029- марка 2856</SimpleData>
		<SimpleData name="benchmark_type">Каратерек, с., в 2,9 км к югу от него, в 1,5 км к сев. от с.Тран, в22 м к вост от дороги с.Тран-с.Каратерек</SimpleData>
		<SimpleData name="location_description">9d9fa59f-13a6-4d45-9c5b-b858b2dc454a</SimpleData>
		<SimpleData name="status">data/stations/9d9fa59f.kml</SimpleData>
		<SimpleData name="guid">&lt;a href='data/stations/9d9fa59f.kml' target='_blank'&gt;Download KML&lt;/a&gt;</SimpleData>
	</SchemaData></ExtendedData>
      <Point><coordinates>65.5164162349792,53.9909154336154</coordinates></Point>
  </Placemark>
</Folder>
</Document></kml>
