<?xml version="1.0" encoding="utf-8" ?>
<kml xmlns="http://www.opengis.net/kml/2.2">
<Document id="root_doc">
<Schema name="9da7dd69" id="9da7dd69">
	<SimpleField name="type" type="string"></SimpleField>
	<SimpleField name="view" type="string"></SimpleField>
	<SimpleField name="leveling_order" type="string"></SimpleField>
	<SimpleField name="leveling_height" type="string"></SimpleField>
	<SimpleField name="control_height" type="string"></SimpleField>
	<SimpleField name="benchmark_number" type="string"></SimpleField>
	<SimpleField name="control_location" type="string"></SimpleField>
	<SimpleField name="benchmark_type" type="string"></SimpleField>
	<SimpleField name="leveling_line_section" type="string"></SimpleField>
	<SimpleField name="location_description" type="string"></SimpleField>
	<SimpleField name="status" type="string"></SimpleField>
	<SimpleField name="guid" type="string"></SimpleField>
	<SimpleField name="kml" type="string"></SimpleField>
	<SimpleField name="kml_link" type="string"></SimpleField>
</Schema>
<Folder><name>9da7dd69</name>
  <Placemark id="9da7dd69.1">
	<name>1486</name>
	<name>грунт.реп.</name>
	<ExtendedData><SchemaData schemaUrl="#9da7dd69">
		<SimpleData name="type">2</SimpleData>
		<SimpleData name="view">482,080</SimpleData>
		<SimpleData name="benchmark_number">160 оп. знак</SimpleData>
		<SimpleData name="control_location">Линия № 3: Белая Школа - Зайсан, II класс (2)
Участок: фунд.реп. 5491 – грунт.реп. 1486</SimpleData>
		<SimpleData name="benchmark_type">Тайжузген, пикет, в 0.2 км к сев. от него, в 0.5 км к сев.-зап. от моста на шоссе с. Кокпекты – гор. Зайсан, в 0.3 км к сев. от шоссе </SimpleData>
		<SimpleData name="location_description">9da7dd69-93d8-4056-a057-b8e731d25485</SimpleData>
		<SimpleData name="status">data/stations/9da7dd69.kml</SimpleData>
		<SimpleData name="guid">&lt;a href='data/stations/9da7dd69.kml' target='_blank'&gt;Download KML&lt;/a&gt;</SimpleData>
	</SchemaData></ExtendedData>
      <Point><coordinates>78.0385231533282,47.7206623458461</coordinates></Point>
  </Placemark>
</Folder>
</Document></kml>
