<?xml version="1.0" encoding="utf-8" ?>
<kml xmlns="http://www.opengis.net/kml/2.2">
<Document id="root_doc">
<Schema name="9e0a39fc" id="9e0a39fc">
	<SimpleField name="title" type="string"></SimpleField>
	<SimpleField name="type" type="string"></SimpleField>
	<SimpleField name="ext_sign" type="string"></SimpleField>
	<SimpleField name="class_lvl" type="string"></SimpleField>
	<SimpleField name="height_lvl" type="string"></SimpleField>
	<SimpleField name="height_ctrl" type="string"></SimpleField>
	<SimpleField name="ctrl_place" type="string"></SimpleField>
	<SimpleField name="mark_num" type="string"></SimpleField>
	<SimpleField name="center_type" type="string"></SimpleField>
	<SimpleField name="lvl_line" type="string"></SimpleField>
	<SimpleField name="guid" type="string"></SimpleField>
</Schema>
<Folder><name>9e0a39fc</name>
  <Placemark id="9e0a39fc.1">
	<name>5041</name>
	<ExtendedData><SchemaData schemaUrl="#9e0a39fc">
		<SimpleData name="title">грунт.реп.</SimpleData>
		<SimpleData name="type">2</SimpleData>
		<SimpleData name="ext_sign">638.430</SimpleData>
		<SimpleData name="ctrl_place">121 оп</SimpleData>
		<SimpleData name="mark_num">Линия №1: Жиделисай=Бала-Терсаккан, II класс (I) Участок: фунд.реп.0539-грунт.реп.7524</SimpleData>
		<SimpleData name="center_type">Улытау,с.,в 6.1 км к юго-вост.от него,в 3.2 км к юго-вост.от пионерлаг.Жасулан,в 0.1 км к вост.от линии связи</SimpleData>
		<SimpleData name="lvl_line">9e0a39fc-6494-4eae-b818-d468ee7a3b0b</SimpleData>
	</SchemaData></ExtendedData>
      <Point><coordinates>67.0467680146247,48.6013949277296</coordinates></Point>
  </Placemark>
</Folder>
</Document></kml>
