<?xml version="1.0" encoding="utf-8" ?>
<kml xmlns="http://www.opengis.net/kml/2.2">
<Document id="root_doc">
<Schema name="9e1a2297" id="9e1a2297">
	<SimpleField name="title" type="string"></SimpleField>
	<SimpleField name="type" type="string"></SimpleField>
	<SimpleField name="ext_sign" type="string"></SimpleField>
	<SimpleField name="class_lvl" type="string"></SimpleField>
	<SimpleField name="height_lvl" type="string"></SimpleField>
	<SimpleField name="height_ctrl" type="string"></SimpleField>
	<SimpleField name="ctrl_place" type="string"></SimpleField>
	<SimpleField name="mark_num" type="string"></SimpleField>
	<SimpleField name="center_type" type="string"></SimpleField>
	<SimpleField name="lvl_line" type="string"></SimpleField>
	<SimpleField name="guid" type="string"></SimpleField>
</Schema>
<Folder><name>9e1a2297</name>
  <Placemark id="9e1a2297.1">
	<name>6102</name>
	<description>Фундаментальный </description>
	<ExtendedData><SchemaData schemaUrl="#9e1a2297">
		<SimpleData name="height_ctrl">6102</SimpleData>
		<SimpleData name="lvl_line">9e1a2297-d2f5-44d7-a15f-a2ea85c48a81</SimpleData>
	</SchemaData></ExtendedData>
      <Point><coordinates>74.424595,44.7718783333333</coordinates></Point>
  </Placemark>
</Folder>
</Document></kml>
