<?xml version="1.0" encoding="utf-8" ?>
<kml xmlns="http://www.opengis.net/kml/2.2">
<Document id="root_doc">
<Schema name="9e720e9f" id="9e720e9f">
	<SimpleField name="type" type="string"></SimpleField>
	<SimpleField name="view" type="string"></SimpleField>
	<SimpleField name="leveling_order" type="string"></SimpleField>
	<SimpleField name="leveling_height" type="string"></SimpleField>
	<SimpleField name="control_height" type="string"></SimpleField>
	<SimpleField name="benchmark_number" type="string"></SimpleField>
	<SimpleField name="control_location" type="string"></SimpleField>
	<SimpleField name="benchmark_type" type="string"></SimpleField>
	<SimpleField name="leveling_line_section" type="string"></SimpleField>
	<SimpleField name="location_description" type="string"></SimpleField>
	<SimpleField name="status" type="string"></SimpleField>
	<SimpleField name="guid" type="string"></SimpleField>
	<SimpleField name="kml" type="string"></SimpleField>
	<SimpleField name="kml_link" type="string"></SimpleField>
</Schema>
<Folder><name>9e720e9f</name>
  <Placemark id="9e720e9f.1">
	<name>15</name>
	<description>грунт. реп.</description>
	<ExtendedData><SchemaData schemaUrl="#9e720e9f">
		<SimpleData name="type">2</SimpleData>
		<SimpleData name="view">100.386</SimpleData>
		<SimpleData name="leveling_order">99,209</SimpleData>
		<SimpleData name="benchmark_number">131 оп</SimpleData>
		<SimpleData name="control_location">Линия № 7: Тургай - Кызылуй, II класс  Участок: марка 20890 - грунт.реп. 318</SimpleData>
		<SimpleData name="benchmark_type">Тургай, с.,  в 14.7 км к юго-вост. от него,  в 0.4 км к юго-вост. от р. Кабырга, в 23 м к вост. от полевой дороги, на бугре</SimpleData>
		<SimpleData name="location_description">9e720e9f-24fe-4173-a760-c58f393be5ff</SimpleData>
		<SimpleData name="status">data/stations/9e720e9f.kml</SimpleData>
		<SimpleData name="guid">&lt;a href='data/stations/9e720e9f.kml' target='_blank'&gt;Download KML&lt;/a&gt;</SimpleData>
	</SchemaData></ExtendedData>
      <Point><coordinates>63.614921717184,49.5190684715929</coordinates></Point>
  </Placemark>
</Folder>
</Document></kml>
