<?xml version="1.0" encoding="utf-8" ?>
<kml xmlns="http://www.opengis.net/kml/2.2">
<Document id="root_doc">
<Schema name="9f3d6505" id="9f3d6505">
	<SimpleField name="title" type="string"></SimpleField>
	<SimpleField name="type" type="string"></SimpleField>
	<SimpleField name="ext_sign" type="string"></SimpleField>
	<SimpleField name="class_lvl" type="string"></SimpleField>
	<SimpleField name="height_lvl" type="string"></SimpleField>
	<SimpleField name="height_ctrl" type="string"></SimpleField>
	<SimpleField name="ctrl_place" type="string"></SimpleField>
	<SimpleField name="mark_num" type="string"></SimpleField>
	<SimpleField name="center_type" type="string"></SimpleField>
	<SimpleField name="lvl_line" type="string"></SimpleField>
	<SimpleField name="guid" type="string"></SimpleField>
</Schema>
<Folder><name>9f3d6505</name>
  <Placemark id="9f3d6505.1">
	<name>3013</name>
	<description>грунтовый репер</description>
	<ExtendedData><SchemaData schemaUrl="#9f3d6505">
		<SimpleData name="type">1</SimpleData>
		<SimpleData name="ext_sign">692.473</SimpleData>
		<SimpleData name="height_ctrl">5489</SimpleData>
		<SimpleData name="ctrl_place">А</SimpleData>
		<SimpleData name="center_type">Коктал, зим., в 17.2 км к сев.-зап. от нее, в 2.0 км к юго-зап. от зим.Акшокы, в 40 м к северу отЛЭП, в 9 м к югу от полевой дороги гор.Каркаралинск-с.Баршатас.</SimpleData>
		<SimpleData name="lvl_line">9f3d6505-aad6-44e6-832a-81c345198cef</SimpleData>
	</SchemaData></ExtendedData>
      <Point><coordinates>78.2425468726997,48.2080931157335</coordinates></Point>
  </Placemark>
</Folder>
</Document></kml>
