<?xml version="1.0" encoding="utf-8" ?>
<kml xmlns="http://www.opengis.net/kml/2.2">
<Document id="root_doc">
<Schema name="9f52f8db" id="9f52f8db">
	<SimpleField name="type" type="string"></SimpleField>
	<SimpleField name="view" type="string"></SimpleField>
	<SimpleField name="leveling_order" type="string"></SimpleField>
	<SimpleField name="leveling_height" type="string"></SimpleField>
	<SimpleField name="control_height" type="string"></SimpleField>
	<SimpleField name="benchmark_number" type="string"></SimpleField>
	<SimpleField name="control_location" type="string"></SimpleField>
	<SimpleField name="benchmark_type" type="string"></SimpleField>
	<SimpleField name="leveling_line_section" type="string"></SimpleField>
	<SimpleField name="location_description" type="string"></SimpleField>
	<SimpleField name="status" type="string"></SimpleField>
	<SimpleField name="guid" type="string"></SimpleField>
	<SimpleField name="kml" type="string"></SimpleField>
	<SimpleField name="kml_link" type="string"></SimpleField>
</Schema>
<Folder><name>9f52f8db</name>
  <Placemark id="9f52f8db.1">
	<name>9497</name>
	<description>грунт.реп</description>
	<ExtendedData><SchemaData schemaUrl="#9f52f8db">
		<SimpleData name="type">1</SimpleData>
		<SimpleData name="view">119,913</SimpleData>
		<SimpleData name="benchmark_number">160 оп</SimpleData>
		<SimpleData name="control_location">Линия 241: Аральск-Семиозерное, 1 класс, Участок: грунт. реп. 3304 - грунт.реп. 1387</SimpleData>
		<SimpleData name="benchmark_type">Шолаксай, с., в 14,1 км к сев.-зап. от него, в 1,2 км к зап. от разв. Шилик, в 52 м к юго-зап. от дороги гор. Аркалык - гор.Кустанай, у км. стб. 286/174</SimpleData>
		<SimpleData name="location_description">9f52f8db-81f0-4244-b556-48a1f32165fb</SimpleData>
		<SimpleData name="status">data/stations/9f52f8db.kml</SimpleData>
		<SimpleData name="guid">&lt;a href='data/stations/9f52f8db.kml' target='_blank'&gt;Download KML&lt;/a&gt;</SimpleData>
	</SchemaData></ExtendedData>
      <Point><coordinates>64.5950263015162,51.8426305630413</coordinates></Point>
  </Placemark>
</Folder>
</Document></kml>
