<?xml version="1.0" encoding="utf-8" ?>
<kml xmlns="http://www.opengis.net/kml/2.2">
<Document id="root_doc">
<Schema name="9f7f88eb" id="9f7f88eb">
	<SimpleField name="type" type="string"></SimpleField>
	<SimpleField name="view" type="string"></SimpleField>
	<SimpleField name="leveling_order" type="string"></SimpleField>
	<SimpleField name="leveling_height" type="string"></SimpleField>
	<SimpleField name="control_height" type="string"></SimpleField>
	<SimpleField name="benchmark_number" type="string"></SimpleField>
	<SimpleField name="control_location" type="string"></SimpleField>
	<SimpleField name="benchmark_type" type="string"></SimpleField>
	<SimpleField name="leveling_line_section" type="string"></SimpleField>
	<SimpleField name="location_description" type="string"></SimpleField>
	<SimpleField name="status" type="string"></SimpleField>
	<SimpleField name="guid" type="string"></SimpleField>
	<SimpleField name="kml" type="string"></SimpleField>
	<SimpleField name="kml_link" type="string"></SimpleField>
</Schema>
<Folder><name>9f7f88eb</name>
  <Placemark id="9f7f88eb.1">
	<name>0921</name>
	<name>грунт.реп.</name>
	<ExtendedData><SchemaData schemaUrl="#9f7f88eb">
		<SimpleData name="type">2</SimpleData>
		<SimpleData name="view">61.732</SimpleData>
		<SimpleData name="benchmark_number">160</SimpleData>
		<SimpleData name="control_location">Линия №2 Айтеке Би (Новоказалинск)-Ащылысай, II класс(4) Участок: фунд.реп. 9412-грунт.реп. 4945</SimpleData>
		<SimpleData name="benchmark_type">Кенжебай, кладб., в  6,8 км к сев.-зап. от него, в 3,9 км к зап. от мог. Ердыр, в 3,3 км к юго-зап. от брода на р. Куандария</SimpleData>
		<SimpleData name="location_description">9f7f88eb-ff73-4a07-a479-f6ad0ee106d1</SimpleData>
		<SimpleData name="status">data/stations/9f7f88eb.kml</SimpleData>
		<SimpleData name="guid">&lt;a href='data/stations/9f7f88eb.kml' target='_blank'&gt;Download KML&lt;/a&gt;</SimpleData>
	</SchemaData></ExtendedData>
      <Point><coordinates>62.0154563878031,45.3358043865495</coordinates></Point>
  </Placemark>
</Folder>
</Document></kml>
