<?xml version="1.0" encoding="utf-8" ?>
<kml xmlns="http://www.opengis.net/kml/2.2">
<Document id="root_doc">
<Schema name="9fafc112" id="9fafc112">
	<SimpleField name="title" type="string"></SimpleField>
	<SimpleField name="type" type="string"></SimpleField>
	<SimpleField name="ext_sign" type="string"></SimpleField>
	<SimpleField name="class_lvl" type="string"></SimpleField>
	<SimpleField name="height_lvl" type="string"></SimpleField>
	<SimpleField name="height_ctrl" type="string"></SimpleField>
	<SimpleField name="ctrl_place" type="string"></SimpleField>
	<SimpleField name="mark_num" type="string"></SimpleField>
	<SimpleField name="center_type" type="string"></SimpleField>
	<SimpleField name="lvl_line" type="string"></SimpleField>
	<SimpleField name="guid" type="string"></SimpleField>
</Schema>
<Folder><name>9fafc112</name>
  <Placemark id="9fafc112.1">
	<name>403</name>
	<description>Фундаментальный репер </description>
	<ExtendedData><SchemaData schemaUrl="#9fafc112">
		<SimpleData name="title">Z8a</SimpleData>
		<SimpleData name="lvl_line">9fafc112-41d5-4879-a6a7-c712c08f8b6f</SimpleData>
	</SchemaData></ExtendedData>
      <Point><coordinates>49.1569927160115,47.163377530719</coordinates></Point>
  </Placemark>
</Folder>
</Document></kml>
