<?xml version="1.0" encoding="utf-8" ?>
<kml xmlns="http://www.opengis.net/kml/2.2">
<Document id="root_doc">
<Schema name="9fd06ae6" id="9fd06ae6">
	<SimpleField name="type" type="string"></SimpleField>
	<SimpleField name="view" type="string"></SimpleField>
	<SimpleField name="leveling_order" type="string"></SimpleField>
	<SimpleField name="leveling_height" type="string"></SimpleField>
	<SimpleField name="control_height" type="string"></SimpleField>
	<SimpleField name="benchmark_number" type="string"></SimpleField>
	<SimpleField name="control_location" type="string"></SimpleField>
	<SimpleField name="benchmark_type" type="string"></SimpleField>
	<SimpleField name="leveling_line_section" type="string"></SimpleField>
	<SimpleField name="location_description" type="string"></SimpleField>
	<SimpleField name="status" type="string"></SimpleField>
	<SimpleField name="guid" type="string"></SimpleField>
	<SimpleField name="kml" type="string"></SimpleField>
	<SimpleField name="kml_link" type="string"></SimpleField>
</Schema>
<Folder><name>9fd06ae6</name>
  <Placemark id="9fd06ae6.1">
	<name>602</name>
	<description>грунт.реп.</description>
	<ExtendedData><SchemaData schemaUrl="#9fd06ae6">
		<SimpleData name="type">1</SimpleData>
		<SimpleData name="view">210.118</SimpleData>
		<SimpleData name="benchmark_number">146</SimpleData>
		<SimpleData name="control_location">Линия № 2: Зверинголовское - Семиозерный, I класс                     Участок : фунд.реп.76 - фунд.реп.75</SimpleData>
		<SimpleData name="benchmark_type">Лаврентьевка, с., в 8.4 км к юго-вост.от него, в 0.3 км к вост.от тлф.стб. № 37/1136, в 56 м к юго-зап.от км.стб. 71/389, в 38 м к зап.от шоссейной дороги, 72 км </SimpleData>
		<SimpleData name="location_description">9fd06ae6-4447-40ab-a92d-522a95c794ff</SimpleData>
		<SimpleData name="status">data/stations/9fd06ae6.kml</SimpleData>
		<SimpleData name="guid">&lt;a href='data/stations/9fd06ae6.kml' target='_blank'&gt;Download KML&lt;/a&gt;</SimpleData>
	</SchemaData></ExtendedData>
      <Point><coordinates>63.9895658400254,52.6159030795755</coordinates></Point>
  </Placemark>
</Folder>
</Document></kml>
