<?xml version="1.0" encoding="utf-8" ?>
<kml xmlns="http://www.opengis.net/kml/2.2">
<Document id="root_doc">
<Schema name="a01ca401" id="a01ca401">
	<SimpleField name="title" type="string"></SimpleField>
	<SimpleField name="type" type="string"></SimpleField>
	<SimpleField name="ext_sign" type="string"></SimpleField>
	<SimpleField name="class_lvl" type="string"></SimpleField>
	<SimpleField name="height_lvl" type="string"></SimpleField>
	<SimpleField name="height_ctrl" type="string"></SimpleField>
	<SimpleField name="ctrl_place" type="string"></SimpleField>
	<SimpleField name="mark_num" type="string"></SimpleField>
	<SimpleField name="center_type" type="string"></SimpleField>
	<SimpleField name="lvl_line" type="string"></SimpleField>
	<SimpleField name="guid" type="string"></SimpleField>
</Schema>
<Folder><name>a01ca401</name>
  <Placemark id="a01ca401.1">
	<name>3335</name>
	<description>грунтовый репер</description>
	<ExtendedData><SchemaData schemaUrl="#a01ca401">
		<SimpleData name="type">1</SimpleData>
		<SimpleData name="ext_sign">36.587</SimpleData>
		<SimpleData name="class_lvl">Контрольный репаер №3168 в верхней пломскости монолита</SimpleData>
		<SimpleData name="ctrl_place">121</SimpleData>
		<SimpleData name="mark_num">Линия нивелирования 1 класса Уральск-Жанибек</SimpleData>
		<SimpleData name="center_type">
Акоба,с., в 4.3 км к сев-вост.от него, в 1.1 км к юго-зап.от зим.кузнец, в 19 м к сев-вост.от п.тр.Реперный</SimpleData>
		<SimpleData name="lvl_line">a01ca401-7547-4c0d-90c3-61671349b33f</SimpleData>
	</SchemaData></ExtendedData>
      <Point><coordinates>47.443341838186,49.4964515198743</coordinates></Point>
  </Placemark>
</Folder>
</Document></kml>
