<?xml version="1.0" encoding="utf-8" ?>
<kml xmlns="http://www.opengis.net/kml/2.2">
<Document id="root_doc">
<Schema name="a02d7c31" id="a02d7c31">
	<SimpleField name="type" type="string"></SimpleField>
	<SimpleField name="view" type="string"></SimpleField>
	<SimpleField name="leveling_order" type="string"></SimpleField>
	<SimpleField name="leveling_height" type="string"></SimpleField>
	<SimpleField name="control_height" type="string"></SimpleField>
	<SimpleField name="benchmark_number" type="string"></SimpleField>
	<SimpleField name="control_location" type="string"></SimpleField>
	<SimpleField name="benchmark_type" type="string"></SimpleField>
	<SimpleField name="leveling_line_section" type="string"></SimpleField>
	<SimpleField name="location_description" type="string"></SimpleField>
	<SimpleField name="status" type="string"></SimpleField>
	<SimpleField name="guid" type="string"></SimpleField>
	<SimpleField name="kml" type="string"></SimpleField>
	<SimpleField name="kml_link" type="string"></SimpleField>
</Schema>
<Folder><name>a02d7c31</name>
  <Placemark id="a02d7c31.1">
	<name>569</name>
	<name>грунтовый репер</name>
	<ExtendedData><SchemaData schemaUrl="#a02d7c31">
		<SimpleData name="type">1</SimpleData>
		<SimpleData name="view">160.308</SimpleData>
		<SimpleData name="leveling_order">159,236</SimpleData>
		<SimpleData name="leveling_height">№1422</SimpleData>
		<SimpleData name="control_height">в фундаментной плите</SimpleData>
		<SimpleData name="benchmark_number">116 оп, знак</SimpleData>
		<SimpleData name="control_location">Линия № 1: Кызылорда - Арыс, I класс (1) Участок: грунт, реп,659 - грунт, реп, 569</SimpleData>
		<SimpleData name="benchmark_type">Боритескен, станц,, в 2,2 км к сев,-зап, от неё, на 9 пк 2982 км жел, дор,, в 0,1 км к зап, от км, стб, 2982/2983, в 58 м к юго-зап, от жел, дор,</SimpleData>
		<SimpleData name="location_description">a02d7c31-69be-4416-9a68-08ddc1a14d0f</SimpleData>
		<SimpleData name="status">data/stations/a02d7c31.kml</SimpleData>
		<SimpleData name="guid">&lt;a href='data/stations/a02d7c31.kml' target='_blank'&gt;Download KML&lt;/a&gt;</SimpleData>
	</SchemaData></ExtendedData>
      <Point><coordinates>67.0830850217975,43.9948743329609</coordinates></Point>
  </Placemark>
</Folder>
</Document></kml>
