<?xml version="1.0" encoding="utf-8" ?>
<kml xmlns="http://www.opengis.net/kml/2.2">
<Document id="root_doc">
<Schema name="a04bf730" id="a04bf730">
	<SimpleField name="title" type="string"></SimpleField>
	<SimpleField name="type" type="string"></SimpleField>
	<SimpleField name="ext_sign" type="string"></SimpleField>
	<SimpleField name="class_lvl" type="string"></SimpleField>
	<SimpleField name="height_lvl" type="string"></SimpleField>
	<SimpleField name="height_ctrl" type="string"></SimpleField>
	<SimpleField name="ctrl_place" type="string"></SimpleField>
	<SimpleField name="mark_num" type="string"></SimpleField>
	<SimpleField name="center_type" type="string"></SimpleField>
	<SimpleField name="lvl_line" type="string"></SimpleField>
	<SimpleField name="guid" type="string"></SimpleField>
</Schema>
<Folder><name>a04bf730</name>
  <Placemark id="a04bf730.1">
	<name>Отделение №1</name>
	<description>сигнал</description>
	<ExtendedData><SchemaData schemaUrl="#a04bf730">
		<SimpleData name="type">4</SimpleData>
		<SimpleData name="ext_sign">115,182</SimpleData>
		<SimpleData name="ctrl_place">1</SimpleData>
		<SimpleData name="mark_num">Линия: грунт. реп.3732-грунт. реп. 3039, IV класс </SimpleData>
		<SimpleData name="lvl_line">a04bf730-3209-4010-bb86-8363e397423b</SimpleData>
	</SchemaData></ExtendedData>
      <Point><coordinates>74.769338506013,53.5966214263583</coordinates></Point>
  </Placemark>
</Folder>
</Document></kml>
