<?xml version="1.0" encoding="utf-8" ?>
<kml xmlns="http://www.opengis.net/kml/2.2">
<Document id="root_doc">
<Schema name="a074a9d6" id="a074a9d6">
	<SimpleField name="title" type="string"></SimpleField>
	<SimpleField name="type" type="string"></SimpleField>
	<SimpleField name="ext_sign" type="string"></SimpleField>
	<SimpleField name="class_lvl" type="string"></SimpleField>
	<SimpleField name="height_lvl" type="string"></SimpleField>
	<SimpleField name="height_ctrl" type="string"></SimpleField>
	<SimpleField name="ctrl_place" type="string"></SimpleField>
	<SimpleField name="mark_num" type="string"></SimpleField>
	<SimpleField name="center_type" type="string"></SimpleField>
	<SimpleField name="lvl_line" type="string"></SimpleField>
	<SimpleField name="guid" type="string"></SimpleField>
</Schema>
<Folder><name>a074a9d6</name>
  <Placemark id="a074a9d6.1">
	<name>закладка фунд. реп. 9</name>
	<ExtendedData><SchemaData schemaUrl="#a074a9d6">
		<SimpleData name="lvl_line">a074a9d6-7a12-46d4-a0e3-ac71fcd3a0e6</SimpleData>
	</SchemaData></ExtendedData>
      <Point><coordinates>63.7168331225676,49.8331064847626</coordinates></Point>
  </Placemark>
</Folder>
</Document></kml>
