<?xml version="1.0" encoding="UTF-8"?>
<kml xmlns="http://www.opengis.net/kml/2.2">
  <Document id="root_doc">
    <Schema id="a0b91ec9" name="a0b91ec9">
      <SimpleField name="title" type="string"/>
      <SimpleField name="type" type="string"/>
      <SimpleField name="ext_sign" type="string"/>
      <SimpleField name="class_lvl" type="string"/>
      <SimpleField name="height_lvl" type="string"/>
      <SimpleField name="height_ctrl" type="string"/>
      <SimpleField name="ctrl_place" type="string"/>
      <SimpleField name="mark_num" type="string"/>
      <SimpleField name="center_type" type="string"/>
      <SimpleField name="lvl_line" type="string"/>
      <SimpleField name="guid" type="string"/>
    </Schema>
    <Schema id="a0b91ec9.schema">
      <SimpleField name="title" type="string"/>
      <SimpleField name="type" type="string"/>
      <SimpleField name="ext_sign" type="string"/>
      <SimpleField name="class_lvl" type="string"/>
      <SimpleField name="height_lvl" type="string"/>
      <SimpleField name="height_ctrl" type="string"/>
      <SimpleField name="ctrl_place" type="string"/>
      <SimpleField name="mark_num" type="string"/>
      <SimpleField name="center_type" type="string"/>
      <SimpleField name="lvl_line" type="string"/>
      <SimpleField name="guid" type="string"/>
    </Schema>
    <Document id="a0b91ec9">
      <name>a0b91ec9</name>
      <Placemark id="a0b91ec9.1">
        <description>Басбулак, зим., в 10,2км к сев.-зап. от нее, в 5,5км к сев.-зап. от мог. Сенгирбай, в 4,6км к вост, от линии ВЛЭП и нефтепровода Шымкент- Павлодар, в 20м к сев.-вост. от пол. дор., на краю песка Саменкум</description>
        <ExtendedData>
          <SchemaData schemaUrl="#a0b91ec9.schema">
            <SimpleData name="title">7612</SimpleData>
            <SimpleData name="type">грунтовый репер</SimpleData>
            <SimpleData name="ext_sign">грунтовый репер</SimpleData>
            <SimpleData name="class_lvl">2</SimpleData>
            <SimpleData name="height_lvl">252.716</SimpleData>
            <SimpleData name="center_type">160</SimpleData>
            <SimpleData name="guid">a0b91ec9-4637-4bca-8de8-70f18d4d7ec3</SimpleData>
          </SchemaData>
        </ExtendedData>
        <Point>
          <coordinates>
            68.3420695839777,46.4739425181366,0
          </coordinates>
        </Point>
      </Placemark>
    </Document>
  </Document>
</kml>
