<?xml version="1.0" encoding="utf-8" ?>
<kml xmlns="http://www.opengis.net/kml/2.2">
<Document id="root_doc">
<Schema name="a0c58fd5" id="a0c58fd5">
	<SimpleField name="type" type="string"></SimpleField>
	<SimpleField name="view" type="string"></SimpleField>
	<SimpleField name="leveling_order" type="string"></SimpleField>
	<SimpleField name="leveling_height" type="string"></SimpleField>
	<SimpleField name="control_height" type="string"></SimpleField>
	<SimpleField name="benchmark_number" type="string"></SimpleField>
	<SimpleField name="control_location" type="string"></SimpleField>
	<SimpleField name="benchmark_type" type="string"></SimpleField>
	<SimpleField name="leveling_line_section" type="string"></SimpleField>
	<SimpleField name="location_description" type="string"></SimpleField>
	<SimpleField name="status" type="string"></SimpleField>
	<SimpleField name="guid" type="string"></SimpleField>
	<SimpleField name="kml" type="string"></SimpleField>
	<SimpleField name="kml_link" type="string"></SimpleField>
</Schema>
<Folder><name>a0c58fd5</name>
  <Placemark id="a0c58fd5.1">
	<name>7092</name>
	<name>грунт. реп.</name>
	<ExtendedData><SchemaData schemaUrl="#a0c58fd5">
		<SimpleData name="type">2</SimpleData>
		<SimpleData name="view">58.756</SimpleData>
		<SimpleData name="benchmark_number">160 оп.з.</SimpleData>
		<SimpleData name="control_location">Линия №2: фунд. реп. 4580 - фунд. реп. 4436, II класса (1) Участок: грунт.реп.2033 - грунгт. реп. 4679</SimpleData>
		<SimpleData name="benchmark_type">Жанакурылыс, с., в 5.8 км к юго-вост. от него, в 2.5 км к вост. от мог. Псурман, в 35 м к сев. от полевой дороги</SimpleData>
		<SimpleData name="location_description">a0c58fd5-c93b-47c8-8225-b0edb313ffdc</SimpleData>
		<SimpleData name="status">data/stations/a0c58fd5.kml</SimpleData>
		<SimpleData name="guid">&lt;a href='data/stations/a0c58fd5.kml' target='_blank'&gt;Download KML&lt;/a&gt;</SimpleData>
	</SchemaData></ExtendedData>
      <Point><coordinates>61.3540214095545,45.9591926716058</coordinates></Point>
  </Placemark>
</Folder>
</Document></kml>
