<?xml version="1.0" encoding="utf-8" ?>
<kml xmlns="http://www.opengis.net/kml/2.2">
<Document id="root_doc">
<Schema name="a209f7be" id="a209f7be">
	<SimpleField name="type" type="string"></SimpleField>
	<SimpleField name="view" type="string"></SimpleField>
	<SimpleField name="leveling_order" type="string"></SimpleField>
	<SimpleField name="leveling_height" type="string"></SimpleField>
	<SimpleField name="control_height" type="string"></SimpleField>
	<SimpleField name="benchmark_number" type="string"></SimpleField>
	<SimpleField name="control_location" type="string"></SimpleField>
	<SimpleField name="benchmark_type" type="string"></SimpleField>
	<SimpleField name="leveling_line_section" type="string"></SimpleField>
	<SimpleField name="location_description" type="string"></SimpleField>
	<SimpleField name="status" type="string"></SimpleField>
	<SimpleField name="guid" type="string"></SimpleField>
	<SimpleField name="kml" type="string"></SimpleField>
	<SimpleField name="kml_link" type="string"></SimpleField>
</Schema>
<Folder><name>a209f7be</name>
  <Placemark id="a209f7be.1">
	<name>7527</name>
	<description>скальный реп.</description>
	<ExtendedData><SchemaData schemaUrl="#a209f7be">
		<SimpleData name="type">1</SimpleData>
		<SimpleData name="view">892.054</SimpleData>
		<SimpleData name="benchmark_number">99 оп</SimpleData>
		<SimpleData name="control_location">Линия № I: Каркаралиннск-Аягуз, I класс (1) Участок: грунт.реп.3998 - ск.реп.3442</SimpleData>
		<SimpleData name="benchmark_type">Тасшокы, г., в 9.0 км к сев.-вост. от нее, в 6.6 км к юго-вост. от зим.Акбулак, в 5.2 км к юго-вост. от зим.Бекетбулак, в 0.2 км к юго- вост. от пересыхающего русла ручья Караагаш, в 22 м к юго- вост. от пол.дороги.</SimpleData>
		<SimpleData name="location_description">a209f7be-61a9-4c72-88f2-f62e240d0b99</SimpleData>
		<SimpleData name="status">data/stations/a209f7be.kml</SimpleData>
		<SimpleData name="guid">&lt;a href='data/stations/a209f7be.kml' target='_blank'&gt;Download KML&lt;/a&gt;</SimpleData>
	</SchemaData></ExtendedData>
      <Point><coordinates>76.9759784365712,48.7480306060206</coordinates></Point>
  </Placemark>
</Folder>
</Document></kml>
