<?xml version="1.0" encoding="utf-8" ?>
<kml xmlns="http://www.opengis.net/kml/2.2">
<Document id="root_doc">
<Schema name="a20f3699" id="a20f3699">
	<SimpleField name="type" type="string"></SimpleField>
	<SimpleField name="view" type="string"></SimpleField>
	<SimpleField name="leveling_order" type="string"></SimpleField>
	<SimpleField name="leveling_height" type="string"></SimpleField>
	<SimpleField name="control_height" type="string"></SimpleField>
	<SimpleField name="benchmark_number" type="string"></SimpleField>
	<SimpleField name="control_location" type="string"></SimpleField>
	<SimpleField name="benchmark_type" type="string"></SimpleField>
	<SimpleField name="leveling_line_section" type="string"></SimpleField>
	<SimpleField name="location_description" type="string"></SimpleField>
	<SimpleField name="status" type="string"></SimpleField>
	<SimpleField name="guid" type="string"></SimpleField>
	<SimpleField name="kml" type="string"></SimpleField>
	<SimpleField name="kml_link" type="string"></SimpleField>
</Schema>
<Folder><name>a20f3699</name>
  <Placemark id="a20f3699.1">
	<name>1164</name>
	<description>грунт. реп.</description>
	<ExtendedData><SchemaData schemaUrl="#a20f3699">
		<SimpleData name="type">1</SimpleData>
		<SimpleData name="view">104.519</SimpleData>
		<SimpleData name="leveling_order">103.392</SimpleData>
		<SimpleData name="leveling_height">Контрольный репер №034 в фундаментной плите</SimpleData>
		<SimpleData name="benchmark_number">116</SimpleData>
		<SimpleData name="control_location">Линия № 3:  Жосалы-Кызылорда.  Участок:    фунд.реп. 153  - марка 4277.                I класс      </SimpleData>
		<SimpleData name="benchmark_type">Абыла. раз..  в 5.4 км юго-вост. от него. на 8 ПК 2536 км. в 36 м к юго-зап. от жел.-дор. полотна</SimpleData>
		<SimpleData name="leveling_line_section">утрачен</SimpleData>
		<SimpleData name="location_description">a20f3699-d399-4765-a3f6-5de724b182cf</SimpleData>
		<SimpleData name="status">data/stations/a20f3699.kml</SimpleData>
		<SimpleData name="guid">&lt;a href='data/stations/a20f3699.kml' target='_blank'&gt;Download KML&lt;/a&gt;</SimpleData>
	</SchemaData></ExtendedData>
      <Point><coordinates>64.301273772419,45.3498815814972</coordinates></Point>
  </Placemark>
</Folder>
</Document></kml>
