<?xml version="1.0" encoding="UTF-8"?>
<kml xmlns="http://www.opengis.net/kml/2.2">
  <Document id="root_doc">
    <Schema id="a20fc89b" name="a20fc89b">
      <SimpleField name="title" type="string"/>
      <SimpleField name="type" type="string"/>
      <SimpleField name="ext_sign" type="string"/>
      <SimpleField name="class_lvl" type="string"/>
      <SimpleField name="height_lvl" type="string"/>
      <SimpleField name="height_ctrl" type="string"/>
      <SimpleField name="ctrl_place" type="string"/>
      <SimpleField name="mark_num" type="string"/>
      <SimpleField name="center_type" type="string"/>
      <SimpleField name="lvl_line" type="string"/>
      <SimpleField name="guid" type="string"/>
    </Schema>
    <Schema id="a20fc89b.schema">
      <SimpleField name="title" type="string"/>
      <SimpleField name="type" type="string"/>
      <SimpleField name="ext_sign" type="string"/>
      <SimpleField name="class_lvl" type="string"/>
      <SimpleField name="height_lvl" type="string"/>
      <SimpleField name="height_ctrl" type="string"/>
      <SimpleField name="ctrl_place" type="string"/>
      <SimpleField name="mark_num" type="string"/>
      <SimpleField name="center_type" type="string"/>
      <SimpleField name="lvl_line" type="string"/>
      <SimpleField name="guid" type="string"/>
    </Schema>
    <Document id="a20fc89b">
      <name>a20fc89b</name>
      <Placemark id="a20fc89b.1">
        <description>Карамола, к., в 10.0 км к вост. от него, в 2.1 км к юго-зап. от к. № 180. в 0.4 км к сев.-зап. от развалин, на пологом склоне</description>
        <ExtendedData>
          <SchemaData schemaUrl="#a20fc89b.schema">
            <SimpleData name="title">7993</SimpleData>
            <SimpleData name="type">грунтовый репер</SimpleData>
            <SimpleData name="ext_sign">грунтовый репер</SimpleData>
            <SimpleData name="class_lvl">2</SimpleData>
            <SimpleData name="height_lvl">128,688</SimpleData>
            <SimpleData name="center_type">160 оп. знак</SimpleData>
            <SimpleData name="lvl_line">Линия № 2: Кызылорда- р. Сарысу. 2 класс (3) Унасток: грунт, реп. 5040-грунт, реп. 1761</SimpleData>
            <SimpleData name="guid">a20fc89b-bf0a-49ac-8afb-ac1657d3b468</SimpleData>
          </SchemaData>
        </ExtendedData>
        <Point>
          <coordinates>
            66.6096577753423,45.2448983447455,0
          </coordinates>
        </Point>
      </Placemark>
    </Document>
  </Document>
</kml>
