<?xml version="1.0" encoding="utf-8" ?>
<kml xmlns="http://www.opengis.net/kml/2.2">
<Document id="root_doc">
<Schema name="a22a8a94" id="a22a8a94">
	<SimpleField name="type" type="string"></SimpleField>
	<SimpleField name="view" type="string"></SimpleField>
	<SimpleField name="leveling_order" type="string"></SimpleField>
	<SimpleField name="leveling_height" type="string"></SimpleField>
	<SimpleField name="control_height" type="string"></SimpleField>
	<SimpleField name="benchmark_number" type="string"></SimpleField>
	<SimpleField name="control_location" type="string"></SimpleField>
	<SimpleField name="benchmark_type" type="string"></SimpleField>
	<SimpleField name="leveling_line_section" type="string"></SimpleField>
	<SimpleField name="location_description" type="string"></SimpleField>
	<SimpleField name="status" type="string"></SimpleField>
	<SimpleField name="guid" type="string"></SimpleField>
	<SimpleField name="kml" type="string"></SimpleField>
	<SimpleField name="kml_link" type="string"></SimpleField>
</Schema>
<Folder><name>a22a8a94</name>
  <Placemark id="a22a8a94.1">
	<name>7493</name>
	<name>грунт.реп.</name>
	<ExtendedData><SchemaData schemaUrl="#a22a8a94">
		<SimpleData name="type">1</SimpleData>
		<SimpleData name="view">92.446</SimpleData>
		<SimpleData name="leveling_order">91.214</SimpleData>
		<SimpleData name="benchmark_number">104</SimpleData>
		<SimpleData name="control_location">Линия №1: Сагиз-Кандагач, І класс Участок: марка-2864-грнут.реп.1615</SimpleData>
		<SimpleData name="benchmark_type">Сагиз, станц., в 16.3км к сев.-вост.от нее, на 4 пикете 238км, в 33м к юго-зап, от жел.-дор.полотна</SimpleData>
		<SimpleData name="location_description">a22a8a94-29cd-4750-90ff-452986a30fcd</SimpleData>
		<SimpleData name="status">data/stations/a22a8a94.kml</SimpleData>
		<SimpleData name="guid">&lt;a href='data/stations/a22a8a94.kml' target='_blank'&gt;Download KML&lt;/a&gt;</SimpleData>
	</SchemaData></ExtendedData>
      <Point><coordinates>55.0132766477483,48.3723037247486</coordinates></Point>
  </Placemark>
</Folder>
</Document></kml>
