<?xml version="1.0" encoding="utf-8" ?>
<kml xmlns="http://www.opengis.net/kml/2.2">
<Document id="root_doc">
<Schema name="a23a6d1d" id="a23a6d1d">
	<SimpleField name="title" type="string"></SimpleField>
	<SimpleField name="type" type="string"></SimpleField>
	<SimpleField name="ext_sign" type="string"></SimpleField>
	<SimpleField name="class_lvl" type="string"></SimpleField>
	<SimpleField name="height_lvl" type="string"></SimpleField>
	<SimpleField name="height_ctrl" type="string"></SimpleField>
	<SimpleField name="ctrl_place" type="string"></SimpleField>
	<SimpleField name="mark_num" type="string"></SimpleField>
	<SimpleField name="center_type" type="string"></SimpleField>
	<SimpleField name="lvl_line" type="string"></SimpleField>
	<SimpleField name="guid" type="string"></SimpleField>
</Schema>
<Folder><name>a23a6d1d</name>
  <Placemark id="a23a6d1d.1">
	<name>17532</name>
	<description>грунтовый репер</description>
	<ExtendedData><SchemaData schemaUrl="#a23a6d1d">
		<SimpleData name="title">грунтовый репер</SimpleData>
		<SimpleData name="type">2</SimpleData>
		<SimpleData name="ext_sign">175.060</SimpleData>
		<SimpleData name="height_lvl">121</SimpleData>
		<SimpleData name="mark_num">Линия №1: Чапаевский-Каратал, II класс (I) Участок: грунт.реп. 17964-грунт.реп. I</SimpleData>
		<SimpleData name="center_type">Изобильное, с., в 9.7 км к югу от него, в 1.2 км к вост. от развилки дорог, в 0.1 км к сев. от ЛЭП</SimpleData>
		<SimpleData name="lvl_line">a23a6d1d-68d4-4a16-acaa-6645c817b4c8</SimpleData>
	</SchemaData></ExtendedData>
      <Point><coordinates>73.3356236467406,52.3983872965419</coordinates></Point>
  </Placemark>
</Folder>
</Document></kml>
