<?xml version="1.0" encoding="utf-8" ?>
<kml xmlns="http://www.opengis.net/kml/2.2">
<Document id="root_doc">
<Schema name="a264f13b" id="a264f13b">
	<SimpleField name="type" type="string"></SimpleField>
	<SimpleField name="view" type="string"></SimpleField>
	<SimpleField name="leveling_order" type="string"></SimpleField>
	<SimpleField name="leveling_height" type="string"></SimpleField>
	<SimpleField name="control_height" type="string"></SimpleField>
	<SimpleField name="benchmark_number" type="string"></SimpleField>
	<SimpleField name="control_location" type="string"></SimpleField>
	<SimpleField name="benchmark_type" type="string"></SimpleField>
	<SimpleField name="leveling_line_section" type="string"></SimpleField>
	<SimpleField name="location_description" type="string"></SimpleField>
	<SimpleField name="status" type="string"></SimpleField>
	<SimpleField name="guid" type="string"></SimpleField>
	<SimpleField name="kml" type="string"></SimpleField>
	<SimpleField name="kml_link" type="string"></SimpleField>
</Schema>
<Folder><name>a264f13b</name>
  <Placemark id="a264f13b.1">
	<name>5208</name>
	<name>грунтовый репер</name>
	<ExtendedData><SchemaData schemaUrl="#a264f13b">
		<SimpleData name="type">1</SimpleData>
		<SimpleData name="view">300.443</SimpleData>
		<SimpleData name="benchmark_number">160 оп,зн</SimpleData>
		<SimpleData name="control_location">Линия № 1: Тюемойнак - Торетоган, I класс (1) Участок: грунт, реп, 2929 - грунт,реп, 1029</SimpleData>
		<SimpleData name="benchmark_type">Высота 317, пир, 2 кл,, в 2,5 км к сев,-зап, от нее и могилы, в 5,5 км к югу от перекрестка полевых дорог, в 10 м к вост, от полевой дороги</SimpleData>
		<SimpleData name="location_description">a264f13b-7b79-49c9-ba61-886232d0ce98</SimpleData>
		<SimpleData name="status">data/stations/a264f13b.kml</SimpleData>
		<SimpleData name="guid">&lt;a href='data/stations/a264f13b.kml' target='_blank'&gt;Download KML&lt;/a&gt;</SimpleData>
	</SchemaData></ExtendedData>
      <Point><coordinates>69.4370151046247,46.0587885038981</coordinates></Point>
  </Placemark>
</Folder>
</Document></kml>
