<?xml version="1.0" encoding="utf-8" ?>
<kml xmlns="http://www.opengis.net/kml/2.2">
<Document id="root_doc">
<Schema name="a27d06d3" id="a27d06d3">
	<SimpleField name="title" type="string"></SimpleField>
	<SimpleField name="type" type="string"></SimpleField>
	<SimpleField name="ext_sign" type="string"></SimpleField>
	<SimpleField name="class_lvl" type="string"></SimpleField>
	<SimpleField name="height_lvl" type="string"></SimpleField>
	<SimpleField name="height_ctrl" type="string"></SimpleField>
	<SimpleField name="ctrl_place" type="string"></SimpleField>
	<SimpleField name="mark_num" type="string"></SimpleField>
	<SimpleField name="center_type" type="string"></SimpleField>
	<SimpleField name="lvl_line" type="string"></SimpleField>
	<SimpleField name="guid" type="string"></SimpleField>
</Schema>
<Folder><name>a27d06d3</name>
  <Placemark id="a27d06d3.1">
	<name>8305</name>
	<description>грунт.реп</description>
	<ExtendedData><SchemaData schemaUrl="#a27d06d3">
		<SimpleData name="type">2</SimpleData>
		<SimpleData name="ext_sign">226.133</SimpleData>
		<SimpleData name="class_lvl">225.152</SimpleData>
		<SimpleData name="height_lvl">Контрольный репер в трубе</SimpleData>
		<SimpleData name="ctrl_place">107</SimpleData>
		<SimpleData name="mark_num">Линия № 1: Урицоке - Койбагар, II класс             Участок : грунт.реп.8480 - марка 3079</SimpleData>
		<SimpleData name="center_type">Клещенка, с., в 3.4 км к югу от него, в 150 м к сев.-зап.от отдельно стоящих кустов, в 43 м к вост.от дороги с.Клещенка - с.Былкылдак</SimpleData>
		<SimpleData name="lvl_line">a27d06d3-4e4d-4925-8714-9c66fe97a18b</SimpleData>
	</SchemaData></ExtendedData>
      <Point><coordinates>65.5603357090674,53.0152812562968</coordinates></Point>
  </Placemark>
</Folder>
</Document></kml>
