<?xml version="1.0" encoding="utf-8" ?>
<kml xmlns="http://www.opengis.net/kml/2.2">
<Document id="root_doc">
<Schema name="a2b07d9f" id="a2b07d9f">
	<SimpleField name="title" type="string"></SimpleField>
	<SimpleField name="type" type="string"></SimpleField>
	<SimpleField name="ext_sign" type="string"></SimpleField>
	<SimpleField name="class_lvl" type="string"></SimpleField>
	<SimpleField name="height_lvl" type="string"></SimpleField>
	<SimpleField name="height_ctrl" type="string"></SimpleField>
	<SimpleField name="ctrl_place" type="string"></SimpleField>
	<SimpleField name="mark_num" type="string"></SimpleField>
	<SimpleField name="center_type" type="string"></SimpleField>
	<SimpleField name="lvl_line" type="string"></SimpleField>
	<SimpleField name="guid" type="string"></SimpleField>
</Schema>
<Folder><name>a2b07d9f</name>
  <Placemark id="a2b07d9f.1">
	<name>9043</name>
	<description>скальный репер</description>
	<ExtendedData><SchemaData schemaUrl="#a2b07d9f">
		<SimpleData name="type">2</SimpleData>
		<SimpleData name="ext_sign">899.623</SimpleData>
		<SimpleData name="ctrl_place">99 оп</SimpleData>
		<SimpleData name="mark_num">Линия: Шыганши-Бугаз-Белая-Школа-Боран-Улькен Нарын, II класс (2)
Участок: фунд.реп. 5491 – грунт.реп. 1486</SimpleData>
		<SimpleData name="center_type">Свинчатка, с., в 4.0 км к юго-зап. от него, в 0.5 км к юго-зап. от пов. стб.ЛЭП, в 25 м к зап. от полевой дороги, зап. край выступа скальных пород</SimpleData>
		<SimpleData name="lvl_line">a2b07d9f-0dce-44fb-9e8c-b73ee81cc457</SimpleData>
	</SchemaData></ExtendedData>
      <Point><coordinates>84.1700039909686,49.0533421681331</coordinates></Point>
  </Placemark>
</Folder>
</Document></kml>
