<?xml version="1.0" encoding="utf-8" ?>
<kml xmlns="http://www.opengis.net/kml/2.2">
<Document id="root_doc">
<Schema name="a2e1f3a8" id="a2e1f3a8">
	<SimpleField name="title" type="string"></SimpleField>
	<SimpleField name="type" type="string"></SimpleField>
	<SimpleField name="ext_sign" type="string"></SimpleField>
	<SimpleField name="class_lvl" type="string"></SimpleField>
	<SimpleField name="height_lvl" type="string"></SimpleField>
	<SimpleField name="height_ctrl" type="string"></SimpleField>
	<SimpleField name="ctrl_place" type="string"></SimpleField>
	<SimpleField name="mark_num" type="string"></SimpleField>
	<SimpleField name="center_type" type="string"></SimpleField>
	<SimpleField name="lvl_line" type="string"></SimpleField>
	<SimpleField name="guid" type="string"></SimpleField>
</Schema>
<Folder><name>a2e1f3a8</name>
  <Placemark id="a2e1f3a8.1">
	<name>732</name>
	<ExtendedData><SchemaData schemaUrl="#a2e1f3a8">
		<SimpleData name="title">грунт.реп.</SimpleData>
		<SimpleData name="type">II</SimpleData>
		<SimpleData name="ctrl_place">123</SimpleData>
		<SimpleData name="mark_num">Линия № 1: Макинск - Байулесты, II класс, Участок: грунт.реп. 0586 - грунт. реп.732</SimpleData>
		<SimpleData name="center_type">Байулесты, с., в3.4 км к сев.-зап.от него, в 1.0 км к юго-вост.от г. Кырманкуйген, в 0.3 км к югу от полевой дороги</SimpleData>
		<SimpleData name="lvl_line">a2e1f3a8-2e11-414e-926c-d8f643b7d5c1</SimpleData>
	</SchemaData></ExtendedData>
      <Point><coordinates>72.0391496682676,52.789011402925</coordinates></Point>
  </Placemark>
</Folder>
</Document></kml>
