<?xml version="1.0" encoding="utf-8" ?>
<kml xmlns="http://www.opengis.net/kml/2.2">
<Document id="root_doc">
<Schema name="a3170e33" id="a3170e33">
	<SimpleField name="type" type="string"></SimpleField>
	<SimpleField name="view" type="string"></SimpleField>
	<SimpleField name="leveling_order" type="string"></SimpleField>
	<SimpleField name="leveling_height" type="string"></SimpleField>
	<SimpleField name="control_height" type="string"></SimpleField>
	<SimpleField name="benchmark_number" type="string"></SimpleField>
	<SimpleField name="control_location" type="string"></SimpleField>
	<SimpleField name="benchmark_type" type="string"></SimpleField>
	<SimpleField name="leveling_line_section" type="string"></SimpleField>
	<SimpleField name="location_description" type="string"></SimpleField>
	<SimpleField name="status" type="string"></SimpleField>
	<SimpleField name="guid" type="string"></SimpleField>
	<SimpleField name="kml" type="string"></SimpleField>
	<SimpleField name="kml_link" type="string"></SimpleField>
</Schema>
<Folder><name>a3170e33</name>
  <Placemark id="a3170e33.1">
	<name>5447</name>
	<name>грунт.реп</name>
	<ExtendedData><SchemaData schemaUrl="#a3170e33">
		<SimpleData name="type">2</SimpleData>
		<SimpleData name="view">461.193</SimpleData>
		<SimpleData name="control_location">Линия №2: грунт. реп. 157 - грунт.реп. 150, II  класс  </SimpleData>
		<SimpleData name="benchmark_type">Акколь, с., в 12.9 км к юго-вост.от него, в 0.9 км к югу от пир. 3 кл. Высота 472(241), в 0.4 км к юго-зап.от 67 км.стб. шоссе гор.Джамбул - с.Акколь, в 48 м к югу от фунд.реп. 2022 </SimpleData>
		<SimpleData name="location_description">a3170e33-7e81-4401-8c23-52647b6954bc</SimpleData>
		<SimpleData name="status">data/stations/a3170e33.kml</SimpleData>
		<SimpleData name="guid">&lt;a href='data/stations/a3170e33.kml' target='_blank'&gt;Download KML&lt;/a&gt;</SimpleData>
	</SchemaData></ExtendedData>
      <Point><coordinates>70.8259337245381,43.3105528471188</coordinates></Point>
  </Placemark>
</Folder>
</Document></kml>
