<?xml version="1.0" encoding="utf-8" ?>
<kml xmlns="http://www.opengis.net/kml/2.2">
<Document id="root_doc">
<Schema name="a323830a" id="a323830a">
	<SimpleField name="type" type="string"></SimpleField>
	<SimpleField name="view" type="string"></SimpleField>
	<SimpleField name="leveling_order" type="string"></SimpleField>
	<SimpleField name="leveling_height" type="string"></SimpleField>
	<SimpleField name="control_height" type="string"></SimpleField>
	<SimpleField name="benchmark_number" type="string"></SimpleField>
	<SimpleField name="control_location" type="string"></SimpleField>
	<SimpleField name="benchmark_type" type="string"></SimpleField>
	<SimpleField name="leveling_line_section" type="string"></SimpleField>
	<SimpleField name="location_description" type="string"></SimpleField>
	<SimpleField name="status" type="string"></SimpleField>
	<SimpleField name="guid" type="string"></SimpleField>
	<SimpleField name="kml" type="string"></SimpleField>
	<SimpleField name="kml_link" type="string"></SimpleField>
</Schema>
<Folder><name>a323830a</name>
  <Placemark id="a323830a.1">
	<name>4917</name>
	<name>грунтовый репер</name>
	<ExtendedData><SchemaData schemaUrl="#a323830a">
		<SimpleData name="type">II</SimpleData>
		<SimpleData name="view">761,728</SimpleData>
		<SimpleData name="benchmark_number">160оп</SimpleData>
		<SimpleData name="control_location">Линия № 1: Спасск -Акчатау, II класс (1) Участок: грунт.реп.5961 -фунд.реп.0875</SimpleData>
		<SimpleData name="benchmark_type">Акчатау, с., в 36,2 км сев.-зап.от него, в 3,5 км к сев.от мог.Токсеит, в 70 м к зап.от шоссе Караганда-Балхаш, между км.стб. № 192 и № 191</SimpleData>
		<SimpleData name="location_description">a323830a-766a-4409-abdc-4579b430e55e</SimpleData>
		<SimpleData name="status">data/stations/a323830a.kml</SimpleData>
		<SimpleData name="guid">&lt;a href='data/stations/a323830a.kml' target='_blank'&gt;Download KML&lt;/a&gt;</SimpleData>
	</SchemaData></ExtendedData>
      <Point><coordinates>73.788190435275,48.2743783330856</coordinates></Point>
  </Placemark>
</Folder>
</Document></kml>
