<?xml version="1.0" encoding="utf-8" ?>
<kml xmlns="http://www.opengis.net/kml/2.2">
<Document id="root_doc">
<Schema name="a3268598" id="a3268598">
	<SimpleField name="type" type="string"></SimpleField>
	<SimpleField name="view" type="string"></SimpleField>
	<SimpleField name="leveling_order" type="string"></SimpleField>
	<SimpleField name="leveling_height" type="string"></SimpleField>
	<SimpleField name="control_height" type="string"></SimpleField>
	<SimpleField name="benchmark_number" type="string"></SimpleField>
	<SimpleField name="control_location" type="string"></SimpleField>
	<SimpleField name="benchmark_type" type="string"></SimpleField>
	<SimpleField name="leveling_line_section" type="string"></SimpleField>
	<SimpleField name="location_description" type="string"></SimpleField>
	<SimpleField name="status" type="string"></SimpleField>
	<SimpleField name="guid" type="string"></SimpleField>
	<SimpleField name="kml" type="string"></SimpleField>
	<SimpleField name="kml_link" type="string"></SimpleField>
</Schema>
<Folder><name>a3268598</name>
  <Placemark id="a3268598.1">
	<name>3304</name>
	<description>грунт.реп</description>
	<ExtendedData><SchemaData schemaUrl="#a3268598">
		<SimpleData name="type">1</SimpleData>
		<SimpleData name="view">220,317</SimpleData>
		<SimpleData name="benchmark_number">107</SimpleData>
		<SimpleData name="control_location">Линия №2: Наурзум (Аксуат) - Иргиа, 1 класс (1). Участок: грунт.реп. 4041 - грунт.реп. 3308</SimpleData>
		<SimpleData name="benchmark_type">Наурузм, с., в 28,5 км к юго-вост. от него, в 96 м к юго-зап. от тлф. стб. б/№, в 66 м к юго-зап. от дороги с.Наурузм - с.Кайга</SimpleData>
		<SimpleData name="location_description">a3268598-4983-484a-8b85-5dec80a1d4b4</SimpleData>
		<SimpleData name="status">data/stations/a3268598.kml</SimpleData>
		<SimpleData name="guid">&lt;a href='data/stations/a3268598.kml' target='_blank'&gt;Download KML&lt;/a&gt;</SimpleData>
	</SchemaData></ExtendedData>
      <Point><coordinates>64.7249502237031,51.2915764273641</coordinates></Point>
  </Placemark>
</Folder>
</Document></kml>
