<?xml version="1.0" encoding="utf-8" ?>
<kml xmlns="http://www.opengis.net/kml/2.2">
<Document id="root_doc">
<Schema name="a33985ad" id="a33985ad">
	<SimpleField name="type" type="string"></SimpleField>
	<SimpleField name="view" type="string"></SimpleField>
	<SimpleField name="leveling_order" type="string"></SimpleField>
	<SimpleField name="leveling_height" type="string"></SimpleField>
	<SimpleField name="control_height" type="string"></SimpleField>
	<SimpleField name="benchmark_number" type="string"></SimpleField>
	<SimpleField name="control_location" type="string"></SimpleField>
	<SimpleField name="benchmark_type" type="string"></SimpleField>
	<SimpleField name="leveling_line_section" type="string"></SimpleField>
	<SimpleField name="location_description" type="string"></SimpleField>
	<SimpleField name="status" type="string"></SimpleField>
	<SimpleField name="guid" type="string"></SimpleField>
	<SimpleField name="kml" type="string"></SimpleField>
	<SimpleField name="kml_link" type="string"></SimpleField>
</Schema>
<Folder><name>a33985ad</name>
  <Placemark id="a33985ad.1">
	<name>663</name>
	<name>грунт. реп.</name>
	<ExtendedData><SchemaData schemaUrl="#a33985ad">
		<SimpleData name="type">1</SimpleData>
		<SimpleData name="view">1103.709</SimpleData>
		<SimpleData name="benchmark_number">160 оп. знак.</SimpleData>
		<SimpleData name="control_location">Линия № 3: Сарыозек – Каракол (Пржевальск) , I класс  Участок: фунд. реп. 384 – грунт. реп. 1216</SimpleData>
		<SimpleData name="benchmark_type">Калинино. с.. в 9.5 км к сев.-зап. от него. в 33 м к юго-зап. от км. стб. 70/108. в 30 м к югу от шоссе  с. Сарыозек – гор. Жаркент</SimpleData>
		<SimpleData name="location_description">a33985ad-3b0e-4fc2-8e15-c49498e28a37</SimpleData>
		<SimpleData name="status">data/stations/a33985ad.kml</SimpleData>
		<SimpleData name="guid">&lt;a href='data/stations/a33985ad.kml' target='_blank'&gt;Download KML&lt;/a&gt;</SimpleData>
	</SchemaData></ExtendedData>
      <Point><coordinates>78.6322597951274,44.1795924940439</coordinates></Point>
  </Placemark>
</Folder>
</Document></kml>
