<?xml version="1.0" encoding="utf-8" ?>
<kml xmlns="http://www.opengis.net/kml/2.2">
<Document id="root_doc">
<Schema name="a351bd87" id="a351bd87">
	<SimpleField name="title" type="string"></SimpleField>
	<SimpleField name="type" type="string"></SimpleField>
	<SimpleField name="ext_sign" type="string"></SimpleField>
	<SimpleField name="class_lvl" type="string"></SimpleField>
	<SimpleField name="height_lvl" type="string"></SimpleField>
	<SimpleField name="height_ctrl" type="string"></SimpleField>
	<SimpleField name="ctrl_place" type="string"></SimpleField>
	<SimpleField name="mark_num" type="string"></SimpleField>
	<SimpleField name="center_type" type="string"></SimpleField>
	<SimpleField name="lvl_line" type="string"></SimpleField>
	<SimpleField name="guid" type="string"></SimpleField>
</Schema>
<Folder><name>a351bd87</name>
  <Placemark id="a351bd87.1">
	<name>Закладка фундамент. Реп</name>
	<description>Фундамент. Репер</description>
	<ExtendedData><SchemaData schemaUrl="#a351bd87">
		<SimpleData name="height_ctrl">5120</SimpleData>
		<SimpleData name="lvl_line">a351bd87-ac5b-4950-b072-be30688b0731</SimpleData>
	</SchemaData></ExtendedData>
      <Point><coordinates>82.637325,49.9075233333333</coordinates></Point>
  </Placemark>
</Folder>
</Document></kml>
