<?xml version="1.0" encoding="utf-8" ?>
<kml xmlns="http://www.opengis.net/kml/2.2">
<Document id="root_doc">
<Schema name="a49b026f" id="a49b026f">
	<SimpleField name="title" type="string"></SimpleField>
	<SimpleField name="type" type="string"></SimpleField>
	<SimpleField name="ext_sign" type="string"></SimpleField>
	<SimpleField name="class_lvl" type="string"></SimpleField>
	<SimpleField name="height_lvl" type="string"></SimpleField>
	<SimpleField name="height_ctrl" type="string"></SimpleField>
	<SimpleField name="ctrl_place" type="string"></SimpleField>
	<SimpleField name="mark_num" type="string"></SimpleField>
	<SimpleField name="center_type" type="string"></SimpleField>
	<SimpleField name="lvl_line" type="string"></SimpleField>
	<SimpleField name="guid" type="string"></SimpleField>
</Schema>
<Folder><name>a49b026f</name>
  <Placemark id="a49b026f.1">
	<name>Масат</name>
	<ExtendedData><SchemaData schemaUrl="#a49b026f">
		<SimpleData name="title">пирамида</SimpleData>
		<SimpleData name="type">2</SimpleData>
		<SimpleData name="ext_sign">243.475</SimpleData>
		<SimpleData name="ctrl_place">1</SimpleData>
		<SimpleData name="center_type">Масат, клад.,  на нём</SimpleData>
		<SimpleData name="lvl_line">a49b026f-2805-4d63-bb41-2bd3872378b7</SimpleData>
	</SchemaData></ExtendedData>
      <Point><coordinates>52.8817431474519,43.6937742770568</coordinates></Point>
  </Placemark>
</Folder>
</Document></kml>
