<?xml version="1.0" encoding="utf-8" ?>
<kml xmlns="http://www.opengis.net/kml/2.2">
<Document id="root_doc">
<Schema name="a4eb5690" id="a4eb5690">
	<SimpleField name="type" type="string"></SimpleField>
	<SimpleField name="view" type="string"></SimpleField>
	<SimpleField name="leveling_order" type="string"></SimpleField>
	<SimpleField name="leveling_height" type="string"></SimpleField>
	<SimpleField name="control_height" type="string"></SimpleField>
	<SimpleField name="benchmark_number" type="string"></SimpleField>
	<SimpleField name="control_location" type="string"></SimpleField>
	<SimpleField name="benchmark_type" type="string"></SimpleField>
	<SimpleField name="leveling_line_section" type="string"></SimpleField>
	<SimpleField name="location_description" type="string"></SimpleField>
	<SimpleField name="status" type="string"></SimpleField>
	<SimpleField name="guid" type="string"></SimpleField>
	<SimpleField name="kml" type="string"></SimpleField>
	<SimpleField name="kml_link" type="string"></SimpleField>
</Schema>
<Folder><name>a4eb5690</name>
  <Placemark id="a4eb5690.1">
	<name>7933</name>
	<description>грунт. реп.</description>
	<ExtendedData><SchemaData schemaUrl="#a4eb5690">
		<SimpleData name="type">2</SimpleData>
		<SimpleData name="view">129.390</SimpleData>
		<SimpleData name="benchmark_number">146 оп</SimpleData>
		<SimpleData name="control_location">Линия № 1: Аще-Бутак = Сарысай,  II класс Участок: пир. 3 кл. Жамартмола - грунт.реп. 580      </SimpleData>
		<SimpleData name="benchmark_type">Жаныс Би, с., в 1.2 км к сев.-зап. от него, в 0.7 км к сев. от р. Ыргыз,  в 0.2 км к сев.-зап. от дороги  с.Киров - с. Жаныс Би,в 60 м к юго-зап.от ЛЭП 10кВ</SimpleData>
		<SimpleData name="location_description">a4eb5690-b475-42d1-b3ce-70b1dfc5a76e</SimpleData>
		<SimpleData name="status">data/stations/a4eb5690.kml</SimpleData>
		<SimpleData name="guid">&lt;a href='data/stations/a4eb5690.kml' target='_blank'&gt;Download KML&lt;/a&gt;</SimpleData>
	</SchemaData></ExtendedData>
      <Point><coordinates>60.4401773773471,48.6856886848781</coordinates></Point>
  </Placemark>
</Folder>
</Document></kml>
