<?xml version="1.0" encoding="utf-8" ?>
<kml xmlns="http://www.opengis.net/kml/2.2">
<Document id="root_doc">
<Schema name="a502a4eb" id="a502a4eb">
	<SimpleField name="type" type="string"></SimpleField>
	<SimpleField name="view" type="string"></SimpleField>
	<SimpleField name="leveling_order" type="string"></SimpleField>
	<SimpleField name="leveling_height" type="string"></SimpleField>
	<SimpleField name="control_height" type="string"></SimpleField>
	<SimpleField name="benchmark_number" type="string"></SimpleField>
	<SimpleField name="control_location" type="string"></SimpleField>
	<SimpleField name="benchmark_type" type="string"></SimpleField>
	<SimpleField name="leveling_line_section" type="string"></SimpleField>
	<SimpleField name="location_description" type="string"></SimpleField>
	<SimpleField name="status" type="string"></SimpleField>
	<SimpleField name="guid" type="string"></SimpleField>
	<SimpleField name="kml" type="string"></SimpleField>
	<SimpleField name="kml_link" type="string"></SimpleField>
</Schema>
<Folder><name>a502a4eb</name>
  <Placemark id="a502a4eb.1">
	<name>6858</name>
	<name>грунт. реп.</name>
	<ExtendedData><SchemaData schemaUrl="#a502a4eb">
		<SimpleData name="type">2</SimpleData>
		<SimpleData name="view">155.136</SimpleData>
		<SimpleData name="benchmark_number">160</SimpleData>
		<SimpleData name="control_location">Линия № 4:  Коккабат-Жосалы.  Участок:           грунт. реп. 6005-фунд.реп. 153.                II класс   </SimpleData>
		<SimpleData name="benchmark_type">Жосалы.с..  в 10.0 км сев. от него. в 4.3 км к юго-вост. от    к. Таскудык. в 0.2 км югу от ЛЭП. в 65 м к зап. полевой дороги</SimpleData>
		<SimpleData name="location_description">a502a4eb-00fb-4de7-b66c-c5438663b326</SimpleData>
		<SimpleData name="status">data/stations/a502a4eb.kml</SimpleData>
		<SimpleData name="guid">&lt;a href='data/stations/a502a4eb.kml' target='_blank'&gt;Download KML&lt;/a&gt;</SimpleData>
	</SchemaData></ExtendedData>
      <Point><coordinates>64.1165167901864,45.5892297548672</coordinates></Point>
  </Placemark>
</Folder>
</Document></kml>
