<?xml version="1.0" encoding="utf-8" ?>
<kml xmlns="http://www.opengis.net/kml/2.2">
<Document id="root_doc">
<Schema name="a50bf67e" id="a50bf67e">
	<SimpleField name="title" type="string"></SimpleField>
	<SimpleField name="type" type="string"></SimpleField>
	<SimpleField name="ext_sign" type="string"></SimpleField>
	<SimpleField name="class_lvl" type="string"></SimpleField>
	<SimpleField name="height_lvl" type="string"></SimpleField>
	<SimpleField name="height_ctrl" type="string"></SimpleField>
	<SimpleField name="ctrl_place" type="string"></SimpleField>
	<SimpleField name="mark_num" type="string"></SimpleField>
	<SimpleField name="center_type" type="string"></SimpleField>
	<SimpleField name="lvl_line" type="string"></SimpleField>
	<SimpleField name="guid" type="string"></SimpleField>
</Schema>
<Folder><name>a50bf67e</name>
  <Placemark id="a50bf67e.1">
	<name>072 (закладка)</name>
	<description>Грунтовый репер </description>
	<ExtendedData><SchemaData schemaUrl="#a50bf67e">
		<SimpleData name="lvl_line">a50bf67e-4178-4f55-a654-4e29314f764f</SimpleData>
	</SchemaData></ExtendedData>
      <Point><coordinates>74.7044066666667,51.1848833333333</coordinates></Point>
  </Placemark>
</Folder>
</Document></kml>
