<?xml version="1.0" encoding="utf-8" ?>
<kml xmlns="http://www.opengis.net/kml/2.2">
<Document id="root_doc">
<Schema name="a64a64a7" id="a64a64a7">
	<SimpleField name="title" type="string"></SimpleField>
	<SimpleField name="type" type="string"></SimpleField>
	<SimpleField name="ext_sign" type="string"></SimpleField>
	<SimpleField name="class_lvl" type="string"></SimpleField>
	<SimpleField name="height_lvl" type="string"></SimpleField>
	<SimpleField name="height_ctrl" type="string"></SimpleField>
	<SimpleField name="ctrl_place" type="string"></SimpleField>
	<SimpleField name="mark_num" type="string"></SimpleField>
	<SimpleField name="center_type" type="string"></SimpleField>
	<SimpleField name="lvl_line" type="string"></SimpleField>
	<SimpleField name="guid" type="string"></SimpleField>
</Schema>
<Folder><name>a64a64a7</name>
  <Placemark id="a64a64a7.1">
	<name>0658</name>
	<description>скальный репер</description>
	<ExtendedData><SchemaData schemaUrl="#a64a64a7">
		<SimpleData name="type">1</SimpleData>
		<SimpleData name="ext_sign">793.704</SimpleData>
		<SimpleData name="ctrl_place">99</SimpleData>
		<SimpleData name="center_type">Корешты, г., в 14.8 км к вост. от нее, в 0.3 км к сев.-зап. от летовки, на восточном склоне хребта.</SimpleData>
		<SimpleData name="lvl_line">a64a64a7-4418-44ee-950e-7435d6595cfe</SimpleData>
	</SchemaData></ExtendedData>
      <Point><coordinates>77.3474143150902,48.564190018104</coordinates></Point>
  </Placemark>
</Folder>
</Document></kml>
