<?xml version="1.0" encoding="utf-8" ?>
<kml xmlns="http://www.opengis.net/kml/2.2">
<Document id="root_doc">
<Schema name="a6813995" id="a6813995">
	<SimpleField name="type" type="string"></SimpleField>
	<SimpleField name="view" type="string"></SimpleField>
	<SimpleField name="leveling_order" type="string"></SimpleField>
	<SimpleField name="leveling_height" type="string"></SimpleField>
	<SimpleField name="control_height" type="string"></SimpleField>
	<SimpleField name="benchmark_number" type="string"></SimpleField>
	<SimpleField name="control_location" type="string"></SimpleField>
	<SimpleField name="benchmark_type" type="string"></SimpleField>
	<SimpleField name="leveling_line_section" type="string"></SimpleField>
	<SimpleField name="location_description" type="string"></SimpleField>
	<SimpleField name="status" type="string"></SimpleField>
	<SimpleField name="guid" type="string"></SimpleField>
	<SimpleField name="kml" type="string"></SimpleField>
	<SimpleField name="kml_link" type="string"></SimpleField>
</Schema>
<Folder><name>a6813995</name>
  <Placemark id="a6813995.1">
	<name>19</name>
	<name>ск.реп.</name>
	<ExtendedData><SchemaData schemaUrl="#a6813995">
		<SimpleData name="type">2</SimpleData>
		<SimpleData name="view">3061.051</SimpleData>
		<SimpleData name="benchmark_number">99 оп</SimpleData>
		<SimpleData name="control_location">Линия № 17:  фунд.реп. 1458 - фунд.реп. 2214    Участок: ск.реп. 24 - грунт.реп. 42</SimpleData>
		<SimpleData name="benchmark_type">Космостанция, в 7.0 км к юго-вост. от неё, в 1.7 км к юго-вост. от р.Озерная, в 0.1 км к югу от горной тропы</SimpleData>
		<SimpleData name="location_description">a6813995-134d-4150-b05f-b82106a6c390</SimpleData>
		<SimpleData name="status">data/stations/a6813995.kml</SimpleData>
		<SimpleData name="guid">&lt;a href='data/stations/a6813995.kml' target='_blank'&gt;Download KML&lt;/a&gt;</SimpleData>
	</SchemaData></ExtendedData>
      <Point><coordinates>77.0156570303098,43.0049895558953</coordinates></Point>
  </Placemark>
</Folder>
</Document></kml>
