<?xml version="1.0" encoding="utf-8" ?>
<kml xmlns="http://www.opengis.net/kml/2.2">
<Document id="root_doc">
<Schema name="a6a57550" id="a6a57550">
	<SimpleField name="type" type="string"></SimpleField>
	<SimpleField name="view" type="string"></SimpleField>
	<SimpleField name="leveling_order" type="string"></SimpleField>
	<SimpleField name="leveling_height" type="string"></SimpleField>
	<SimpleField name="control_height" type="string"></SimpleField>
	<SimpleField name="benchmark_number" type="string"></SimpleField>
	<SimpleField name="control_location" type="string"></SimpleField>
	<SimpleField name="benchmark_type" type="string"></SimpleField>
	<SimpleField name="leveling_line_section" type="string"></SimpleField>
	<SimpleField name="location_description" type="string"></SimpleField>
	<SimpleField name="status" type="string"></SimpleField>
	<SimpleField name="guid" type="string"></SimpleField>
	<SimpleField name="kml" type="string"></SimpleField>
	<SimpleField name="kml_link" type="string"></SimpleField>
</Schema>
<Folder><name>a6a57550</name>
  <Placemark id="a6a57550.1">
	<name>128</name>
	<name>грунтовый репер</name>
	<ExtendedData><SchemaData schemaUrl="#a6a57550">
		<SimpleData name="type">2</SimpleData>
		<SimpleData name="view">600,828</SimpleData>
		<SimpleData name="leveling_height">598,34</SimpleData>
		<SimpleData name="benchmark_number">в верхней плоскости монолита</SimpleData>
		<SimpleData name="control_location">Линия № 1: Аркарлы - Моинты, 2 класс (1) Участок: грунт. реп. 27 — пир. 3 кл. Екижал</SimpleData>
		<SimpleData name="benchmark_type">Жамбыл, с., в 4.7 км к вост. от него, в 2.5 км к юго-зап. от развалины у подножья г. Каратас, в 55 м к сев. от грунт. дороги с. Жамбыл - с. Киик</SimpleData>
		<SimpleData name="location_description">a6a57550-8531-4cff-8198-706a3f16c4d0</SimpleData>
		<SimpleData name="status">data/stations/a6a57550.kml</SimpleData>
		<SimpleData name="guid">&lt;a href='data/stations/a6a57550.kml' target='_blank'&gt;Download KML&lt;/a&gt;</SimpleData>
	</SchemaData></ExtendedData>
      <Point><coordinates>71.4657203613226,47.214353587983</coordinates></Point>
  </Placemark>
</Folder>
</Document></kml>
