<?xml version="1.0" encoding="UTF-8"?>
<kml xmlns="http://www.opengis.net/kml/2.2">
  <Document id="root_doc">
    <Schema id="a6b51627" name="a6b51627">
      <SimpleField name="title" type="string"/>
      <SimpleField name="type" type="string"/>
      <SimpleField name="ext_sign" type="string"/>
      <SimpleField name="class_lvl" type="string"/>
      <SimpleField name="height_lvl" type="string"/>
      <SimpleField name="height_ctrl" type="string"/>
      <SimpleField name="ctrl_place" type="string"/>
      <SimpleField name="mark_num" type="string"/>
      <SimpleField name="center_type" type="string"/>
      <SimpleField name="lvl_line" type="string"/>
      <SimpleField name="guid" type="string"/>
    </Schema>
    <Schema id="a6b51627.schema">
      <SimpleField name="title" type="string"/>
      <SimpleField name="type" type="string"/>
      <SimpleField name="ext_sign" type="string"/>
      <SimpleField name="class_lvl" type="string"/>
      <SimpleField name="height_lvl" type="string"/>
      <SimpleField name="height_ctrl" type="string"/>
      <SimpleField name="ctrl_place" type="string"/>
      <SimpleField name="mark_num" type="string"/>
      <SimpleField name="center_type" type="string"/>
      <SimpleField name="lvl_line" type="string"/>
      <SimpleField name="guid" type="string"/>
    </Schema>
    <Document id="a6b51627">
      <name>a6b51627</name>
      <Placemark id="a6b51627.1">
        <description>Шетпе,станц., в  3,8 км к юго-зап. от здания вокзала, в 0,5 км к югу от щебеночного завода , в 0,3 км к юго-вост. от жел. дор. , в 35 м к  югу от сухового русла</description>
        <ExtendedData>
          <SchemaData schemaUrl="#a6b51627.schema">
            <SimpleData name="title">6257</SimpleData>
            <SimpleData name="type">грунтовый репер</SimpleData>
            <SimpleData name="class_lvl">1</SimpleData>
            <SimpleData name="height_lvl">177,261</SimpleData>
            <SimpleData name="center_type">162</SimpleData>
            <SimpleData name="lvl_line">ЛинияБейнеу-Актау (Шевченко), 1 класс</SimpleData>
            <SimpleData name="guid">a6b51627-c87f-41d9-9db6-042128c739f3</SimpleData>
          </SchemaData>
        </ExtendedData>
        <Point>
          <coordinates>
            52.1246885242347,44.1256682443452,0
          </coordinates>
        </Point>
      </Placemark>
    </Document>
  </Document>
</kml>
