<?xml version="1.0" encoding="utf-8" ?>
<kml xmlns="http://www.opengis.net/kml/2.2">
<Document id="root_doc">
<Schema name="a6e4af9b" id="a6e4af9b">
	<SimpleField name="type" type="string"></SimpleField>
	<SimpleField name="view" type="string"></SimpleField>
	<SimpleField name="leveling_order" type="string"></SimpleField>
	<SimpleField name="leveling_height" type="string"></SimpleField>
	<SimpleField name="control_height" type="string"></SimpleField>
	<SimpleField name="benchmark_number" type="string"></SimpleField>
	<SimpleField name="control_location" type="string"></SimpleField>
	<SimpleField name="benchmark_type" type="string"></SimpleField>
	<SimpleField name="leveling_line_section" type="string"></SimpleField>
	<SimpleField name="location_description" type="string"></SimpleField>
	<SimpleField name="status" type="string"></SimpleField>
	<SimpleField name="guid" type="string"></SimpleField>
	<SimpleField name="kml" type="string"></SimpleField>
	<SimpleField name="kml_link" type="string"></SimpleField>
</Schema>
<Folder><name>a6e4af9b</name>
  <Placemark id="a6e4af9b.1">
	<name>2002</name>
	<name>грунт.реп.</name>
	<ExtendedData><SchemaData schemaUrl="#a6e4af9b">
		<SimpleData name="type">ІІ</SimpleData>
		<SimpleData name="view">605.387</SimpleData>
		<SimpleData name="benchmark_number">121</SimpleData>
		<SimpleData name="control_location">Линия № 1: Жиделисай - Бала-Терсаккан, ІІ класс (1) Участок: грунт.реп. 599 - ск.реп. 7585 </SimpleData>
		<SimpleData name="benchmark_type">Улытау, с., в 13.0 км к сев от него, в 0.2 км к югу от моста по шоссе с. Коргасын - с. Улытау, в 0.1 км к вост от шоссе</SimpleData>
		<SimpleData name="location_description">a6e4af9b-23ad-4ad5-8f06-381339cdae20</SimpleData>
		<SimpleData name="status">data/stations/a6e4af9b.kml</SimpleData>
		<SimpleData name="guid">&lt;a href='data/stations/a6e4af9b.kml' target='_blank'&gt;Download KML&lt;/a&gt;</SimpleData>
	</SchemaData></ExtendedData>
      <Point><coordinates>67.0361448621089,48.7675780911119</coordinates></Point>
  </Placemark>
</Folder>
</Document></kml>
