<?xml version="1.0" encoding="utf-8" ?>
<kml xmlns="http://www.opengis.net/kml/2.2">
<Document id="root_doc">
<Schema name="a7075a7f" id="a7075a7f">
	<SimpleField name="title" type="string"></SimpleField>
	<SimpleField name="type" type="string"></SimpleField>
	<SimpleField name="ext_sign" type="string"></SimpleField>
	<SimpleField name="class_lvl" type="string"></SimpleField>
	<SimpleField name="height_lvl" type="string"></SimpleField>
	<SimpleField name="height_ctrl" type="string"></SimpleField>
	<SimpleField name="ctrl_place" type="string"></SimpleField>
	<SimpleField name="mark_num" type="string"></SimpleField>
	<SimpleField name="center_type" type="string"></SimpleField>
	<SimpleField name="lvl_line" type="string"></SimpleField>
	<SimpleField name="guid" type="string"></SimpleField>
</Schema>
<Folder><name>a7075a7f</name>
  <Placemark id="a7075a7f.1">
	<name>6168</name>
	<description>грунтовый репер</description>
	<ExtendedData><SchemaData schemaUrl="#a7075a7f">
		<SimpleData name="type">1</SimpleData>
		<SimpleData name="ext_sign">766.868</SimpleData>
		<SimpleData name="ctrl_place">160 оп. знак</SimpleData>
		<SimpleData name="mark_num">Линия № 4: Жаланашколь – Аягоз, I класс 
Участок: грунт.реп. 2086 – фунд.реп. 1027</SimpleData>
		<SimpleData name="center_type">Шингожа, с., в 5.7 км к юго-вост. от него, в 27 м к сев.-вост. от км. стб. 735/348 шоссе гор. Алматы – гор. Усть-Каменогорск, в 15 м к югу от лесополосы, под линией связи</SimpleData>
		<SimpleData name="lvl_line">a7075a7f-34b3-4087-a971-57c1c4de2643</SimpleData>
	</SchemaData></ExtendedData>
      <Point><coordinates>80.6632642642082,47.6895022581776</coordinates></Point>
  </Placemark>
</Folder>
</Document></kml>
