<?xml version="1.0" encoding="utf-8" ?>
<kml xmlns="http://www.opengis.net/kml/2.2">
<Document id="root_doc">
<Schema name="a74e3ec7" id="a74e3ec7">
	<SimpleField name="type" type="string"></SimpleField>
	<SimpleField name="view" type="string"></SimpleField>
	<SimpleField name="leveling_order" type="string"></SimpleField>
	<SimpleField name="leveling_height" type="string"></SimpleField>
	<SimpleField name="control_height" type="string"></SimpleField>
	<SimpleField name="benchmark_number" type="string"></SimpleField>
	<SimpleField name="control_location" type="string"></SimpleField>
	<SimpleField name="benchmark_type" type="string"></SimpleField>
	<SimpleField name="leveling_line_section" type="string"></SimpleField>
	<SimpleField name="location_description" type="string"></SimpleField>
	<SimpleField name="status" type="string"></SimpleField>
	<SimpleField name="guid" type="string"></SimpleField>
	<SimpleField name="kml" type="string"></SimpleField>
	<SimpleField name="kml_link" type="string"></SimpleField>
</Schema>
<Folder><name>a74e3ec7</name>
  <Placemark id="a74e3ec7.1">
	<name>6151</name>
	<name>грунт. реп.</name>
	<ExtendedData><SchemaData schemaUrl="#a74e3ec7">
		<SimpleData name="type">2</SimpleData>
		<SimpleData name="view">66,222</SimpleData>
		<SimpleData name="benchmark_number">160 оп. знак.</SimpleData>
		<SimpleData name="control_location">Ход от грунт.реп. VII до грунт.реп. XV, 2 класс. Участок: грунт.реп. VII - пир. 2 кл. Каратас</SimpleData>
		<SimpleData name="benchmark_type">Аккожа, кладб., в 8,6 км к зап.от него, в 2,5 км к сев.-вост.от могилы, в 1,3 км к сев.от арт.колодца</SimpleData>
		<SimpleData name="location_description">a74e3ec7-f34b-4a8b-8de0-073f64ad6a50</SimpleData>
		<SimpleData name="status">data/stations/a74e3ec7.kml</SimpleData>
		<SimpleData name="guid">&lt;a href='data/stations/a74e3ec7.kml' target='_blank'&gt;Download KML&lt;/a&gt;</SimpleData>
	</SchemaData></ExtendedData>
      <Point><coordinates>61.7645384844146,44.6473088354354</coordinates></Point>
  </Placemark>
</Folder>
</Document></kml>
