<?xml version="1.0" encoding="utf-8" ?>
<kml xmlns="http://www.opengis.net/kml/2.2">
<Document id="root_doc">
<Schema name="a7fdc6e1" id="a7fdc6e1">
	<SimpleField name="title" type="string"></SimpleField>
	<SimpleField name="type" type="string"></SimpleField>
	<SimpleField name="ext_sign" type="string"></SimpleField>
	<SimpleField name="class_lvl" type="string"></SimpleField>
	<SimpleField name="height_lvl" type="string"></SimpleField>
	<SimpleField name="height_ctrl" type="string"></SimpleField>
	<SimpleField name="ctrl_place" type="string"></SimpleField>
	<SimpleField name="mark_num" type="string"></SimpleField>
	<SimpleField name="center_type" type="string"></SimpleField>
	<SimpleField name="lvl_line" type="string"></SimpleField>
	<SimpleField name="guid" type="string"></SimpleField>
</Schema>
<Folder><name>a7fdc6e1</name>
  <Placemark id="a7fdc6e1.1">
	<name>8158</name>
	<description>грунтовый репер</description>
	<ExtendedData><SchemaData schemaUrl="#a7fdc6e1">
		<SimpleData name="title">грунт.реп.</SimpleData>
		<SimpleData name="type">2</SimpleData>
		<SimpleData name="ext_sign">205,136</SimpleData>
		<SimpleData name="ctrl_place">146 оп</SimpleData>
		<SimpleData name="mark_num">Линия №6: Карабутак-Сарысай, II класс. Участок: фунд. реп. 5070-фунд. реп. 8140</SimpleData>
		<SimpleData name="center_type">Миялы, с. , в 7.5 км к юго- вост. от него, в 1.7 км к сев. - вост. от р. Иргиз, в 17 м к вост. от полевой дороги, на бугре</SimpleData>
		<SimpleData name="lvl_line">a7fdc6e1-01c9-46c9-92fd-d68b78d52864</SimpleData>
	</SchemaData></ExtendedData>
      <Point><coordinates>60.3054087494748,49.3481143598628</coordinates></Point>
  </Placemark>
</Folder>
</Document></kml>
