<?xml version="1.0" encoding="utf-8" ?>
<kml xmlns="http://www.opengis.net/kml/2.2">
<Document id="root_doc">
<Schema name="a84845eb" id="a84845eb">
	<SimpleField name="title" type="string"></SimpleField>
	<SimpleField name="type" type="string"></SimpleField>
	<SimpleField name="ext_sign" type="string"></SimpleField>
	<SimpleField name="class_lvl" type="string"></SimpleField>
	<SimpleField name="height_lvl" type="string"></SimpleField>
	<SimpleField name="height_ctrl" type="string"></SimpleField>
	<SimpleField name="ctrl_place" type="string"></SimpleField>
	<SimpleField name="mark_num" type="string"></SimpleField>
	<SimpleField name="center_type" type="string"></SimpleField>
	<SimpleField name="lvl_line" type="string"></SimpleField>
	<SimpleField name="guid" type="string"></SimpleField>
</Schema>
<Folder><name>a84845eb</name>
  <Placemark id="a84845eb.1">
	<name>7237</name>
	<ExtendedData><SchemaData schemaUrl="#a84845eb">
		<SimpleData name="title">грунт.реп.</SimpleData>
		<SimpleData name="type">2</SimpleData>
		<SimpleData name="ext_sign">490.586</SimpleData>
		<SimpleData name="ctrl_place">121</SimpleData>
		<SimpleData name="mark_num">Линия № 1: Жиделисай - Бала-Терсаккан, ІІ класс (1) Участок: грунт.реп. 599 - ск.реп. 7585</SimpleData>
		<SimpleData name="center_type">Кокбулак, с., в 0.7 км к югу от него, в 0.7 км к вост от моста по шоссе с. Коргасын - с.Улытау</SimpleData>
		<SimpleData name="lvl_line">a84845eb-b6f1-46a8-9d5f-fcf6638e356e</SimpleData>
	</SchemaData></ExtendedData>
      <Point><coordinates>67.0604310541104,48.9548141205934</coordinates></Point>
  </Placemark>
</Folder>
</Document></kml>
