<?xml version="1.0" encoding="utf-8" ?>
<kml xmlns="http://www.opengis.net/kml/2.2">
<Document id="root_doc">
<Schema name="a9096d17" id="a9096d17">
	<SimpleField name="type" type="string"></SimpleField>
	<SimpleField name="view" type="string"></SimpleField>
	<SimpleField name="leveling_order" type="string"></SimpleField>
	<SimpleField name="leveling_height" type="string"></SimpleField>
	<SimpleField name="control_height" type="string"></SimpleField>
	<SimpleField name="benchmark_number" type="string"></SimpleField>
	<SimpleField name="control_location" type="string"></SimpleField>
	<SimpleField name="benchmark_type" type="string"></SimpleField>
	<SimpleField name="leveling_line_section" type="string"></SimpleField>
	<SimpleField name="location_description" type="string"></SimpleField>
	<SimpleField name="status" type="string"></SimpleField>
	<SimpleField name="guid" type="string"></SimpleField>
	<SimpleField name="kml" type="string"></SimpleField>
	<SimpleField name="kml_link" type="string"></SimpleField>
</Schema>
<Folder><name>a9096d17</name>
  <Placemark id="a9096d17.1">
	<name>5465</name>
	<name>грунтовый репер</name>
	<ExtendedData><SchemaData schemaUrl="#a9096d17">
		<SimpleData name="type">1</SimpleData>
		<SimpleData name="view">158.309</SimpleData>
		<SimpleData name="benchmark_number">160 оп, знак</SimpleData>
		<SimpleData name="control_location">Линия № 1: Кызылорда - Торыустаган, 1 класс (1) Участок: грунт, реп, 8368 - грунт, реп, 2172</SimpleData>
		<SimpleData name="benchmark_type">Бестам, с,, в 6,1 км к сев,-вост, от него, в 0,2 км к югу от зимовки, в 0,1 км к зап, от полевой дороги</SimpleData>
		<SimpleData name="location_description">a9096d17-a13d-4043-ada8-e2320b57ff92</SimpleData>
		<SimpleData name="status">data/stations/a9096d17.kml</SimpleData>
		<SimpleData name="guid">&lt;a href='data/stations/a9096d17.kml' target='_blank'&gt;Download KML&lt;/a&gt;</SimpleData>
	</SchemaData></ExtendedData>
      <Point><coordinates>68.6117982050223,44.8985249127247</coordinates></Point>
  </Placemark>
</Folder>
</Document></kml>
