<?xml version="1.0" encoding="utf-8" ?>
<kml xmlns="http://www.opengis.net/kml/2.2">
<Document id="root_doc">
<Schema name="a9b41cd8" id="a9b41cd8">
	<SimpleField name="type" type="string"></SimpleField>
	<SimpleField name="view" type="string"></SimpleField>
	<SimpleField name="leveling_order" type="string"></SimpleField>
	<SimpleField name="leveling_height" type="string"></SimpleField>
	<SimpleField name="control_height" type="string"></SimpleField>
	<SimpleField name="benchmark_number" type="string"></SimpleField>
	<SimpleField name="control_location" type="string"></SimpleField>
	<SimpleField name="benchmark_type" type="string"></SimpleField>
	<SimpleField name="leveling_line_section" type="string"></SimpleField>
	<SimpleField name="location_description" type="string"></SimpleField>
	<SimpleField name="status" type="string"></SimpleField>
	<SimpleField name="guid" type="string"></SimpleField>
	<SimpleField name="kml" type="string"></SimpleField>
	<SimpleField name="kml_link" type="string"></SimpleField>
</Schema>
<Folder><name>a9b41cd8</name>
  <Placemark id="a9b41cd8.1">
	<name>5222</name>
	<name>грунт,реп,</name>
	<ExtendedData><SchemaData schemaUrl="#a9b41cd8">
		<SimpleData name="type">I</SimpleData>
		<SimpleData name="view">378.288</SimpleData>
		<SimpleData name="leveling_order">376,986</SimpleData>
		<SimpleData name="control_height">Контрольный репер № 6420 в фундаментной плите</SimpleData>
		<SimpleData name="benchmark_number">116 оп,знак</SimpleData>
		<SimpleData name="control_location">Линия №2: Тюемойнак-Жарык, I класс (2) Участок: фунд,реп,497 - пир, 1 кл,Арал-Тюбе</SimpleData>
		<SimpleData name="benchmark_type">Женыс, станция, в 3,2 км к юго-зап, от нее, на 9 пк 230
км, в 42 м к сев,-вост, от жал,-дор, полотна, в 15 м к
вост, от линии связи</SimpleData>
		<SimpleData name="location_description">a9b41cd8-cfa3-4e06-90c0-f9c8793eb7d4</SimpleData>
		<SimpleData name="status">data/stations/a9b41cd8.kml</SimpleData>
		<SimpleData name="guid">&lt;a href='data/stations/a9b41cd8.kml' target='_blank'&gt;Download KML&lt;/a&gt;</SimpleData>
	</SchemaData></ExtendedData>
      <Point><coordinates>69.9606706915847,48.3624473924355</coordinates></Point>
  </Placemark>
</Folder>
</Document></kml>
