<?xml version="1.0" encoding="utf-8" ?>
<kml xmlns="http://www.opengis.net/kml/2.2">
<Document id="root_doc">
<Schema name="aaa5ef4e" id="aaa5ef4e">
	<SimpleField name="type" type="string"></SimpleField>
	<SimpleField name="view" type="string"></SimpleField>
	<SimpleField name="leveling_order" type="string"></SimpleField>
	<SimpleField name="leveling_height" type="string"></SimpleField>
	<SimpleField name="control_height" type="string"></SimpleField>
	<SimpleField name="benchmark_number" type="string"></SimpleField>
	<SimpleField name="control_location" type="string"></SimpleField>
	<SimpleField name="benchmark_type" type="string"></SimpleField>
	<SimpleField name="leveling_line_section" type="string"></SimpleField>
	<SimpleField name="location_description" type="string"></SimpleField>
	<SimpleField name="status" type="string"></SimpleField>
	<SimpleField name="guid" type="string"></SimpleField>
	<SimpleField name="kml" type="string"></SimpleField>
	<SimpleField name="kml_link" type="string"></SimpleField>
</Schema>
<Folder><name>aaa5ef4e</name>
  <Placemark id="aaa5ef4e.1">
	<name>I6I56</name>
	<name>грунт.реп.</name>
	<ExtendedData><SchemaData schemaUrl="#aaa5ef4e">
		<SimpleData name="type">2</SimpleData>
		<SimpleData name="view">201.012</SimpleData>
		<SimpleData name="leveling_height">199.900</SimpleData>
		<SimpleData name="benchmark_number">репер в верхней
плоскости монолита</SimpleData>
		<SimpleData name="control_location">Линия № 8: сигн.2 кл. Сулыарык - грунт.реп.16578, II класс</SimpleData>
		<SimpleData name="benchmark_type">Коксарай, с., в 5.0 км к югу от него, в 1.1 км к вост.от дороги с.Коксарай-с.Жанкель, в 0.5 км к сев.-зап.от оз.Коксарай</SimpleData>
		<SimpleData name="leveling_line_section">утрачен</SimpleData>
		<SimpleData name="location_description">aaa5ef4e-4a74-416f-b431-8594d441cbf2</SimpleData>
		<SimpleData name="status">data/stations/aaa5ef4e.kml</SimpleData>
		<SimpleData name="guid">&lt;a href='data/stations/aaa5ef4e.kml' target='_blank'&gt;Download KML&lt;/a&gt;</SimpleData>
	</SchemaData></ExtendedData>
      <Point><coordinates>68.1572390262004,42.6010016270598</coordinates></Point>
  </Placemark>
</Folder>
</Document></kml>
