<?xml version="1.0" encoding="utf-8" ?>
<kml xmlns="http://www.opengis.net/kml/2.2">
<Document id="root_doc">
<Schema name="ab0d16cb" id="ab0d16cb">
	<SimpleField name="type" type="string"></SimpleField>
	<SimpleField name="view" type="string"></SimpleField>
	<SimpleField name="leveling_order" type="string"></SimpleField>
	<SimpleField name="leveling_height" type="string"></SimpleField>
	<SimpleField name="control_height" type="string"></SimpleField>
	<SimpleField name="benchmark_number" type="string"></SimpleField>
	<SimpleField name="control_location" type="string"></SimpleField>
	<SimpleField name="benchmark_type" type="string"></SimpleField>
	<SimpleField name="leveling_line_section" type="string"></SimpleField>
	<SimpleField name="location_description" type="string"></SimpleField>
	<SimpleField name="status" type="string"></SimpleField>
	<SimpleField name="guid" type="string"></SimpleField>
	<SimpleField name="kml" type="string"></SimpleField>
	<SimpleField name="kml_link" type="string"></SimpleField>
</Schema>
<Folder><name>ab0d16cb</name>
  <Placemark id="ab0d16cb.1">
	<name>1</name>
	<name>грунт. реп.</name>
	<ExtendedData><SchemaData schemaUrl="#ab0d16cb">
		<SimpleData name="type">2</SimpleData>
		<SimpleData name="view">400,309</SimpleData>
		<SimpleData name="leveling_order">399,144</SimpleData>
		<SimpleData name="control_height">репер в верхней плоскости монолита </SimpleData>
		<SimpleData name="benchmark_number">121</SimpleData>
		<SimpleData name="control_location">Линия №3:  Каракас - Буран, 2 класс (3) Участок: грунт. реп. 225 - грунт. реп. 1234</SimpleData>
		<SimpleData name="benchmark_type">Битекак, оз., в 2.5 км к сев.-зап. от него, в 60 м к югу от дороги с. Аксуат )Белая Могила) - с. Садык</SimpleData>
		<SimpleData name="location_description">ab0d16cb-82fd-4885-9cfc-9dac1638e029</SimpleData>
		<SimpleData name="status">data/stations/ab0d16cb.kml</SimpleData>
		<SimpleData name="guid">&lt;a href='data/stations/ab0d16cb.kml' target='_blank'&gt;Download KML&lt;/a&gt;</SimpleData>
	</SchemaData></ExtendedData>
      <Point><coordinates>83.9668733533845,48.3099850108066</coordinates></Point>
  </Placemark>
</Folder>
</Document></kml>
