<?xml version="1.0" encoding="utf-8" ?>
<kml xmlns="http://www.opengis.net/kml/2.2">
<Document id="root_doc">
<Schema name="ab2c094f" id="ab2c094f">
	<SimpleField name="title" type="string"></SimpleField>
	<SimpleField name="type" type="string"></SimpleField>
	<SimpleField name="ext_sign" type="string"></SimpleField>
	<SimpleField name="class_lvl" type="string"></SimpleField>
	<SimpleField name="height_lvl" type="string"></SimpleField>
	<SimpleField name="height_ctrl" type="string"></SimpleField>
	<SimpleField name="ctrl_place" type="string"></SimpleField>
	<SimpleField name="mark_num" type="string"></SimpleField>
	<SimpleField name="center_type" type="string"></SimpleField>
	<SimpleField name="lvl_line" type="string"></SimpleField>
	<SimpleField name="guid" type="string"></SimpleField>
</Schema>
<Folder><name>ab2c094f</name>
  <Placemark id="ab2c094f.1">
	<name>571</name>
	<description>грунт.реп.</description>
	<ExtendedData><SchemaData schemaUrl="#ab2c094f">
		<SimpleData name="type">2</SimpleData>
		<SimpleData name="ext_sign">-0.485</SimpleData>
		<SimpleData name="class_lvl">-1.761</SimpleData>
		<SimpleData name="height_lvl">Контрольный репер  в фундаментальной плите. Висячий ход от грунт.реп. 30, II класс (3)</SimpleData>
		<SimpleData name="ctrl_place">116</SimpleData>
		<SimpleData name="mark_num">Линия №2: Керей-Акколь, II класс (2,3) Участок: грунт.реп. 4434 - грунт.реп. 571</SimpleData>
		<SimpleData name="center_type">кошара Каракудук в 10.0 км к сев.-зап. От неё в 4.8 км к сев. От к. Теренкудук в 22 м к югу от дороги с. Есим - кошара Каракудук</SimpleData>
		<SimpleData name="lvl_line">ab2c094f-c603-4aba-88ca-b59d1f393d68</SimpleData>
	</SchemaData></ExtendedData>
      <Point><coordinates>52.0187629317913,48.9621616834584</coordinates></Point>
  </Placemark>
</Folder>
</Document></kml>
