<?xml version="1.0" encoding="utf-8" ?>
<kml xmlns="http://www.opengis.net/kml/2.2">
<Document id="root_doc">
<Schema name="ab314f06" id="ab314f06">
	<SimpleField name="type" type="string"></SimpleField>
	<SimpleField name="view" type="string"></SimpleField>
	<SimpleField name="leveling_order" type="string"></SimpleField>
	<SimpleField name="leveling_height" type="string"></SimpleField>
	<SimpleField name="control_height" type="string"></SimpleField>
	<SimpleField name="benchmark_number" type="string"></SimpleField>
	<SimpleField name="control_location" type="string"></SimpleField>
	<SimpleField name="benchmark_type" type="string"></SimpleField>
	<SimpleField name="leveling_line_section" type="string"></SimpleField>
	<SimpleField name="location_description" type="string"></SimpleField>
	<SimpleField name="status" type="string"></SimpleField>
	<SimpleField name="guid" type="string"></SimpleField>
	<SimpleField name="kml" type="string"></SimpleField>
	<SimpleField name="kml_link" type="string"></SimpleField>
</Schema>
<Folder><name>ab314f06</name>
  <Placemark id="ab314f06.1">
	<name>9371</name>
	<name>марка</name>
	<ExtendedData><SchemaData schemaUrl="#ab314f06">
		<SimpleData name="type">1</SimpleData>
		<SimpleData name="view">298,903</SimpleData>
		<SimpleData name="benchmark_number">144</SimpleData>
		<SimpleData name="control_location">Ход: от грунт. реп. 8677 -грун. реп. фунд. реп. 110, I класс (2)</SimpleData>
		<SimpleData name="benchmark_type">Бескарагай, с., в 5.9 км к юго-вост. от него, в 1.9 км к сев.-зап. от развалин, в 60 м к сев.-вост. от полевой дороги</SimpleData>
		<SimpleData name="location_description">ab314f06-8d6e-4abe-b800-3beec4cf0143</SimpleData>
		<SimpleData name="status">data/stations/ab314f06.kml</SimpleData>
		<SimpleData name="guid">&lt;a href='data/stations/ab314f06.kml' target='_blank'&gt;Download KML&lt;/a&gt;</SimpleData>
	</SchemaData></ExtendedData>
      <Point><coordinates>80.9155923463811,50.8936103850892</coordinates></Point>
  </Placemark>
</Folder>
</Document></kml>
