<?xml version="1.0" encoding="utf-8" ?>
<kml xmlns="http://www.opengis.net/kml/2.2">
<Document id="root_doc">
<Schema name="ac088c62" id="ac088c62">
	<SimpleField name="title" type="string"></SimpleField>
	<SimpleField name="type" type="string"></SimpleField>
	<SimpleField name="ext_sign" type="string"></SimpleField>
	<SimpleField name="class_lvl" type="string"></SimpleField>
	<SimpleField name="height_lvl" type="string"></SimpleField>
	<SimpleField name="height_ctrl" type="string"></SimpleField>
	<SimpleField name="ctrl_place" type="string"></SimpleField>
	<SimpleField name="mark_num" type="string"></SimpleField>
	<SimpleField name="center_type" type="string"></SimpleField>
	<SimpleField name="lvl_line" type="string"></SimpleField>
	<SimpleField name="guid" type="string"></SimpleField>
</Schema>
<Folder><name>ac088c62</name>
  <Placemark id="ac088c62.1">
	<name>87</name>
	<ExtendedData><SchemaData schemaUrl="#ac088c62">
		<SimpleData name="title">грунт.реп.</SimpleData>
		<SimpleData name="type">2</SimpleData>
		<SimpleData name="ext_sign">233,192</SimpleData>
		<SimpleData name="class_lvl">230,509</SimpleData>
		<SimpleData name="height_lvl">репер № 150               в верхней плоскости монолита</SimpleData>
		<SimpleData name="ctrl_place">123</SimpleData>
		<SimpleData name="mark_num">Линия № 3 :       Семипалатинск - Карабас-Туз,  2 класс (4) Участок : грунт.реп. 94 - фунд.реп. 86-А</SimpleData>
		<SimpleData name="center_type">Карабастуз, с., в 3,2 км к юго-зап. от него, в 2,5 км к юго-зап. от соленого промысла Карабастуз, в 38 м к югу от дороги свх.им.Абая - с.Карабастуз</SimpleData>
		<SimpleData name="lvl_line">ac088c62-7ce0-47c6-9db8-dd32bf4a2652</SimpleData>
	</SchemaData></ExtendedData>
      <Point><coordinates>79.1122323709092,50.2841294696648</coordinates></Point>
  </Placemark>
</Folder>
</Document></kml>
