<?xml version="1.0" encoding="utf-8" ?>
<kml xmlns="http://www.opengis.net/kml/2.2">
<Document id="root_doc">
<Schema name="ac50c12e" id="ac50c12e">
	<SimpleField name="title" type="string"></SimpleField>
	<SimpleField name="type" type="string"></SimpleField>
	<SimpleField name="ext_sign" type="string"></SimpleField>
	<SimpleField name="class_lvl" type="string"></SimpleField>
	<SimpleField name="height_lvl" type="string"></SimpleField>
	<SimpleField name="height_ctrl" type="string"></SimpleField>
	<SimpleField name="ctrl_place" type="string"></SimpleField>
	<SimpleField name="mark_num" type="string"></SimpleField>
	<SimpleField name="center_type" type="string"></SimpleField>
	<SimpleField name="lvl_line" type="string"></SimpleField>
	<SimpleField name="guid" type="string"></SimpleField>
</Schema>
<Folder><name>ac50c12e</name>
  <Placemark id="ac50c12e.1">
	<name>140</name>
	<ExtendedData><SchemaData schemaUrl="#ac50c12e">
		<SimpleData name="title">фунд.реп.</SimpleData>
		<SimpleData name="type">I</SimpleData>
		<SimpleData name="ext_sign">378.208</SimpleData>
		<SimpleData name="ctrl_place">141</SimpleData>
		<SimpleData name="mark_num">Линия №1: Петропавловск -Астана (Целиноград), I класса (1) Участок: грунт.реп.92009 - грунт.реп.91306</SimpleData>
		<SimpleData name="center_type">Шортанды,с. ,в 1.1 км к вост. от здания вокзала, в 40 м к югу от юго-зап.угла кладбища, в 10 м к сев.-зап.от перекрестка шоссе Вокзал-Элеватор-Автобан</SimpleData>
		<SimpleData name="lvl_line">ac50c12e-612b-4bd3-a4d1-87030fb72d5f</SimpleData>
	</SchemaData></ExtendedData>
      <Point><coordinates>71.0119616666667,51.7026783333333</coordinates></Point>
  </Placemark>
</Folder>
</Document></kml>
