<?xml version="1.0" encoding="utf-8" ?>
<kml xmlns="http://www.opengis.net/kml/2.2">
<Document id="root_doc">
<Schema name="ad0d2908" id="ad0d2908">
	<SimpleField name="type" type="string"></SimpleField>
	<SimpleField name="view" type="string"></SimpleField>
	<SimpleField name="leveling_order" type="string"></SimpleField>
	<SimpleField name="leveling_height" type="string"></SimpleField>
	<SimpleField name="control_height" type="string"></SimpleField>
	<SimpleField name="benchmark_number" type="string"></SimpleField>
	<SimpleField name="control_location" type="string"></SimpleField>
	<SimpleField name="benchmark_type" type="string"></SimpleField>
	<SimpleField name="leveling_line_section" type="string"></SimpleField>
	<SimpleField name="location_description" type="string"></SimpleField>
	<SimpleField name="status" type="string"></SimpleField>
	<SimpleField name="guid" type="string"></SimpleField>
	<SimpleField name="kml" type="string"></SimpleField>
	<SimpleField name="kml_link" type="string"></SimpleField>
</Schema>
<Folder><name>ad0d2908</name>
  <Placemark id="ad0d2908.1">
	<name>5967</name>
	<name>грунтовый репер</name>
	<ExtendedData><SchemaData schemaUrl="#ad0d2908">
		<SimpleData name="type">2</SimpleData>
		<SimpleData name="view">266,076</SimpleData>
		<SimpleData name="control_location">Линия № 2: р. Шу - Коскызыл, 2 класс (2) Участок: фунд. реп. 3013 - грунт. реп.1262</SimpleData>
		<SimpleData name="benchmark_type">Уланбель, с., в 12.1 км к юго-зап. от него, в 3.5 км к югу от шоссе с. Жуантобе - с. Уланбель, в 0.3 км к зап. от полевой дороги, на возвышенности</SimpleData>
		<SimpleData name="location_description">ad0d2908-01cc-4cef-8fab-e6461fd78de7</SimpleData>
		<SimpleData name="status">data/stations/ad0d2908.kml</SimpleData>
		<SimpleData name="guid">&lt;a href='data/stations/ad0d2908.kml' target='_blank'&gt;Download KML&lt;/a&gt;</SimpleData>
	</SchemaData></ExtendedData>
      <Point><coordinates>70.9772138413485,44.8029452725084</coordinates></Point>
  </Placemark>
</Folder>
</Document></kml>
