<?xml version="1.0" encoding="utf-8" ?>
<kml xmlns="http://www.opengis.net/kml/2.2">
<Document id="root_doc">
<Schema name="ad3ae06a" id="ad3ae06a">
	<SimpleField name="type" type="string"></SimpleField>
	<SimpleField name="view" type="string"></SimpleField>
	<SimpleField name="leveling_order" type="string"></SimpleField>
	<SimpleField name="leveling_height" type="string"></SimpleField>
	<SimpleField name="control_height" type="string"></SimpleField>
	<SimpleField name="benchmark_number" type="string"></SimpleField>
	<SimpleField name="control_location" type="string"></SimpleField>
	<SimpleField name="benchmark_type" type="string"></SimpleField>
	<SimpleField name="leveling_line_section" type="string"></SimpleField>
	<SimpleField name="location_description" type="string"></SimpleField>
	<SimpleField name="status" type="string"></SimpleField>
	<SimpleField name="guid" type="string"></SimpleField>
	<SimpleField name="kml" type="string"></SimpleField>
	<SimpleField name="kml_link" type="string"></SimpleField>
</Schema>
<Folder><name>ad3ae06a</name>
  <Placemark id="ad3ae06a.1">
	<name>285</name>
	<name>грунт,реп,</name>
	<ExtendedData><SchemaData schemaUrl="#ad3ae06a">
		<SimpleData name="type">1</SimpleData>
		<SimpleData name="view">529.789</SimpleData>
		<SimpleData name="leveling_order">528,79</SimpleData>
		<SimpleData name="control_height">в трубе</SimpleData>
		<SimpleData name="benchmark_number">118 оп</SimpleData>
		<SimpleData name="control_location">Линия № I: Арысь - Хаваст, 1 класс
Участок; грунт,реп, 12-455 = грунт,реп, 285</SimpleData>
		<SimpleData name="benchmark_type">Ченгельды, станц,,в 1,2 км к сев,от
неё, на 7 ПК 3289 км,в 15 м к вост,от
жел,- дор,</SimpleData>
		<SimpleData name="location_description">ad3ae06a-9c6f-46a2-b84c-9f6730d248bc</SimpleData>
		<SimpleData name="status">data/stations/ad3ae06a.kml</SimpleData>
		<SimpleData name="guid">&lt;a href='data/stations/ad3ae06a.kml' target='_blank'&gt;Download KML&lt;/a&gt;</SimpleData>
	</SchemaData></ExtendedData>
      <Point><coordinates>68.9946103545724,41.8721804111356</coordinates></Point>
  </Placemark>
</Folder>
</Document></kml>
