<?xml version="1.0" encoding="utf-8" ?>
<kml xmlns="http://www.opengis.net/kml/2.2">
<Document id="root_doc">
<Schema name="ad48ccc2" id="ad48ccc2">
	<SimpleField name="type" type="string"></SimpleField>
	<SimpleField name="view" type="string"></SimpleField>
	<SimpleField name="leveling_order" type="string"></SimpleField>
	<SimpleField name="leveling_height" type="string"></SimpleField>
	<SimpleField name="control_height" type="string"></SimpleField>
	<SimpleField name="benchmark_number" type="string"></SimpleField>
	<SimpleField name="control_location" type="string"></SimpleField>
	<SimpleField name="benchmark_type" type="string"></SimpleField>
	<SimpleField name="leveling_line_section" type="string"></SimpleField>
	<SimpleField name="location_description" type="string"></SimpleField>
	<SimpleField name="status" type="string"></SimpleField>
	<SimpleField name="guid" type="string"></SimpleField>
	<SimpleField name="kml" type="string"></SimpleField>
	<SimpleField name="kml_link" type="string"></SimpleField>
</Schema>
<Folder><name>ad48ccc2</name>
  <Placemark id="ad48ccc2.1">
	<name>7738</name>
	<name>грунт.реп.</name>
	<description>грунт.реп.</description>
	<ExtendedData><SchemaData schemaUrl="#ad48ccc2">
		<SimpleData name="type">II</SimpleData>
		<SimpleData name="view">382.538</SimpleData>
		<SimpleData name="benchmark_number">160оп.знак</SimpleData>
		<SimpleData name="control_location">Линия № 1:Урочище Куйган-Уштобе II класс                            Участок: пир. 2 кл. Туранглы-грунт. Реп.2245</SimpleData>
		<SimpleData name="benchmark_type">Новостройка,е.,в 18.5 км к сев.-зап,от
него,в I.I км к юго-вост.от кош.Найман-
суык,в 16 м к юго-зап.от шоссе с.Акжар-гор.Уштобе</SimpleData>
		<SimpleData name="location_description">ad48ccc2-3304-42f0-b062-145df2748435</SimpleData>
		<SimpleData name="status">data/stations/ad48ccc2.kml</SimpleData>
		<SimpleData name="guid">&lt;a href='data/stations/ad48ccc2.kml' target='_blank'&gt;Download KML&lt;/a&gt;</SimpleData>
	</SchemaData></ExtendedData>
      <Point><coordinates>77.319521531012,45.6674963967015</coordinates></Point>
  </Placemark>
</Folder>
</Document></kml>
