<?xml version="1.0" encoding="utf-8" ?>
<kml xmlns="http://www.opengis.net/kml/2.2">
<Document id="root_doc">
<Schema name="ad53831e" id="ad53831e">
	<SimpleField name="type" type="string"></SimpleField>
	<SimpleField name="view" type="string"></SimpleField>
	<SimpleField name="leveling_order" type="string"></SimpleField>
	<SimpleField name="leveling_height" type="string"></SimpleField>
	<SimpleField name="control_height" type="string"></SimpleField>
	<SimpleField name="benchmark_number" type="string"></SimpleField>
	<SimpleField name="control_location" type="string"></SimpleField>
	<SimpleField name="benchmark_type" type="string"></SimpleField>
	<SimpleField name="leveling_line_section" type="string"></SimpleField>
	<SimpleField name="location_description" type="string"></SimpleField>
	<SimpleField name="status" type="string"></SimpleField>
	<SimpleField name="guid" type="string"></SimpleField>
	<SimpleField name="kml" type="string"></SimpleField>
	<SimpleField name="kml_link" type="string"></SimpleField>
</Schema>
<Folder><name>ad53831e</name>
  <Placemark id="ad53831e.1">
	<name>195</name>
	<name>грунт. реп.</name>
	<ExtendedData><SchemaData schemaUrl="#ad53831e">
		<SimpleData name="type">2</SimpleData>
		<SimpleData name="view">249.035</SimpleData>
		<SimpleData name="leveling_order">247.570</SimpleData>
		<SimpleData name="benchmark_number">А</SimpleData>
		<SimpleData name="control_location">Линия №1 : Карабутак - Жанатурмыс , II класс . Участок : грунт. Реп. 2702-грунт. Реп. 169</SimpleData>
		<SimpleData name="benchmark_type">Актасты, зим. Свх. Урожайный, в 0.2 км к сев.-вост. от нее, в 120 м к югу от ЛЭП, в 29 м к сев. от развилки дорог</SimpleData>
		<SimpleData name="location_description">ad53831e-3b60-4e25-af18-54ece19a2b34</SimpleData>
		<SimpleData name="status">data/stations/ad53831e.kml</SimpleData>
		<SimpleData name="guid">&lt;a href='data/stations/ad53831e.kml' target='_blank'&gt;Download KML&lt;/a&gt;</SimpleData>
	</SchemaData></ExtendedData>
      <Point><coordinates>61.668965651268,50.7294787023639</coordinates></Point>
  </Placemark>
</Folder>
</Document></kml>
