<?xml version="1.0" encoding="utf-8" ?>
<kml xmlns="http://www.opengis.net/kml/2.2">
<Document id="root_doc">
<Schema name="adaa9b8a" id="adaa9b8a">
	<SimpleField name="title" type="string"></SimpleField>
	<SimpleField name="type" type="string"></SimpleField>
	<SimpleField name="ext_sign" type="string"></SimpleField>
	<SimpleField name="class_lvl" type="string"></SimpleField>
	<SimpleField name="height_lvl" type="string"></SimpleField>
	<SimpleField name="height_ctrl" type="string"></SimpleField>
	<SimpleField name="ctrl_place" type="string"></SimpleField>
	<SimpleField name="mark_num" type="string"></SimpleField>
	<SimpleField name="center_type" type="string"></SimpleField>
	<SimpleField name="lvl_line" type="string"></SimpleField>
	<SimpleField name="guid" type="string"></SimpleField>
</Schema>
<Folder><name>adaa9b8a</name>
  <Placemark id="adaa9b8a.1">
	<name>5884</name>
	<description>грунтовый репер</description>
	<ExtendedData><SchemaData schemaUrl="#adaa9b8a">
		<SimpleData name="type">1</SimpleData>
		<SimpleData name="ext_sign">198,807</SimpleData>
		<SimpleData name="ctrl_place">160 оп, знак</SimpleData>
		<SimpleData name="mark_num">Линия № 2: Кызылорда - Торыустаган, 1 класс (3) Участок: грунт, реп, 5541 - фунд, реп, 9993</SimpleData>
		<SimpleData name="center_type">Шу, с,, в 3,3 км к вост, от него, в 31 м к югу от стб, линии связи, в 31 м к сев,-зап, от нов, стб, ЛЭП</SimpleData>
		<SimpleData name="lvl_line">adaa9b8a-a125-46ba-8d4c-8dc02f1a15ea</SimpleData>
	</SchemaData></ExtendedData>
      <Point><coordinates>69.4756721747957,44.8001231324995</coordinates></Point>
  </Placemark>
</Folder>
</Document></kml>
