<?xml version="1.0" encoding="utf-8" ?>
<kml xmlns="http://www.opengis.net/kml/2.2">
<Document id="root_doc">
<Schema name="add3f52a" id="add3f52a">
	<SimpleField name="title" type="string"></SimpleField>
	<SimpleField name="type" type="string"></SimpleField>
	<SimpleField name="ext_sign" type="string"></SimpleField>
	<SimpleField name="class_lvl" type="string"></SimpleField>
	<SimpleField name="height_lvl" type="string"></SimpleField>
	<SimpleField name="height_ctrl" type="string"></SimpleField>
	<SimpleField name="ctrl_place" type="string"></SimpleField>
	<SimpleField name="mark_num" type="string"></SimpleField>
	<SimpleField name="center_type" type="string"></SimpleField>
	<SimpleField name="lvl_line" type="string"></SimpleField>
	<SimpleField name="guid" type="string"></SimpleField>
</Schema>
<Folder><name>add3f52a</name>
  <Placemark id="add3f52a.1">
	<name>14</name>
	<description>скальный репер</description>
	<ExtendedData><SchemaData schemaUrl="#add3f52a">
		<SimpleData name="title">скальный репер</SimpleData>
		<SimpleData name="type">2</SimpleData>
		<SimpleData name="ext_sign">641.613</SimpleData>
		<SimpleData name="ctrl_place">111 оп</SimpleData>
		<SimpleData name="mark_num">Линия № 2: Баршатас - Катбар, II класс. Участок: грунт.реп. 7661 – ск.реп. 44-325</SimpleData>
		<SimpleData name="center_type">Мадениет, с., в 16.2 км к юго-зап. от него, в 1.7 км к сев.-зап. от пир. Даулет, в 1.0 км к сев.-зап. от линии ЛЭП, в 0.3 км к юго-вост. от развилки полевой дороги, в 20 м к сев.-зап. от кургана</SimpleData>
		<SimpleData name="lvl_line">add3f52a-0c10-4f4a-aac3-9282c58e72d9</SimpleData>
	</SchemaData></ExtendedData>
      <Point><coordinates>78.5224875071138,47.7409516024006</coordinates></Point>
  </Placemark>
</Folder>
</Document></kml>
