<?xml version="1.0" encoding="utf-8" ?>
<kml xmlns="http://www.opengis.net/kml/2.2">
<Document id="root_doc">
<Schema name="adff0d37" id="adff0d37">
	<SimpleField name="title" type="string"></SimpleField>
	<SimpleField name="type" type="string"></SimpleField>
	<SimpleField name="ext_sign" type="string"></SimpleField>
	<SimpleField name="class_lvl" type="string"></SimpleField>
	<SimpleField name="height_lvl" type="string"></SimpleField>
	<SimpleField name="height_ctrl" type="string"></SimpleField>
	<SimpleField name="ctrl_place" type="string"></SimpleField>
	<SimpleField name="mark_num" type="string"></SimpleField>
	<SimpleField name="center_type" type="string"></SimpleField>
	<SimpleField name="lvl_line" type="string"></SimpleField>
	<SimpleField name="guid" type="string"></SimpleField>
</Schema>
<Folder><name>adff0d37</name>
  <Placemark id="adff0d37.1">
	<name>0195</name>
	<description>грунтовый репер</description>
	<ExtendedData><SchemaData schemaUrl="#adff0d37">
		<SimpleData name="type">1</SimpleData>
		<SimpleData name="ext_sign">119.731</SimpleData>
		<SimpleData name="ctrl_place">160</SimpleData>
		<SimpleData name="mark_num">Линия нивелирования 1 класса Уральск-Жанибек</SimpleData>
		<SimpleData name="center_type">Таскала, станц., в 5.0км к зап.от нее, в 60м к сев.-зап.от оси трассы, на 5км трассы Таскала-Мереке, в 55м к юго-вост. От бет.стб.№42, в 48м к вост.от бет.стб.ЛЭП №50</SimpleData>
		<SimpleData name="lvl_line">adff0d37-2191-4544-8182-84c8c686ded2</SimpleData>
	</SchemaData></ExtendedData>
      <Point><coordinates>50.23747722392,51.0633882550022</coordinates></Point>
  </Placemark>
</Folder>
</Document></kml>
