<?xml version="1.0" encoding="utf-8" ?>
<kml xmlns="http://www.opengis.net/kml/2.2">
<Document id="root_doc">
<Schema name="ae7d9419" id="ae7d9419">
	<SimpleField name="type" type="string"></SimpleField>
	<SimpleField name="view" type="string"></SimpleField>
	<SimpleField name="leveling_order" type="string"></SimpleField>
	<SimpleField name="leveling_height" type="string"></SimpleField>
	<SimpleField name="control_height" type="string"></SimpleField>
	<SimpleField name="benchmark_number" type="string"></SimpleField>
	<SimpleField name="control_location" type="string"></SimpleField>
	<SimpleField name="benchmark_type" type="string"></SimpleField>
	<SimpleField name="leveling_line_section" type="string"></SimpleField>
	<SimpleField name="location_description" type="string"></SimpleField>
	<SimpleField name="status" type="string"></SimpleField>
	<SimpleField name="guid" type="string"></SimpleField>
	<SimpleField name="kml" type="string"></SimpleField>
	<SimpleField name="kml_link" type="string"></SimpleField>
</Schema>
<Folder><name>ae7d9419</name>
  <Placemark id="ae7d9419.1">
	<name>5944</name>
	<name>грунт. реп.</name>
	<ExtendedData><SchemaData schemaUrl="#ae7d9419">
		<SimpleData name="type">2</SimpleData>
		<SimpleData name="view">111.626</SimpleData>
		<SimpleData name="benchmark_number">160</SimpleData>
		<SimpleData name="control_location">Линия № 5:  Тасбулак-Жалагаш.   Участок:           грунт. реп. 2162-фунд.реп. 9597.                II класс   </SimpleData>
		<SimpleData name="benchmark_type">Шоктобе. к.. в 10.8 км к юго-вост. от него. в 9.3 км к сев.-вост. от мог. Килыбай. в 0.3 км к вост. от полевой дороги</SimpleData>
		<SimpleData name="location_description">ae7d9419-0cfc-4e33-913b-d1bd1de2f685</SimpleData>
		<SimpleData name="status">data/stations/ae7d9419.kml</SimpleData>
		<SimpleData name="guid">&lt;a href='data/stations/ae7d9419.kml' target='_blank'&gt;Download KML&lt;/a&gt;</SimpleData>
	</SchemaData></ExtendedData>
      <Point><coordinates>64.812379020018,45.4502845995812</coordinates></Point>
  </Placemark>
</Folder>
</Document></kml>
