<?xml version="1.0" encoding="utf-8" ?>
<kml xmlns="http://www.opengis.net/kml/2.2">
<Document id="root_doc">
<Schema name="af0af171" id="af0af171">
	<SimpleField name="title" type="string"></SimpleField>
	<SimpleField name="type" type="string"></SimpleField>
	<SimpleField name="ext_sign" type="string"></SimpleField>
	<SimpleField name="class_lvl" type="string"></SimpleField>
	<SimpleField name="height_lvl" type="string"></SimpleField>
	<SimpleField name="height_ctrl" type="string"></SimpleField>
	<SimpleField name="ctrl_place" type="string"></SimpleField>
	<SimpleField name="mark_num" type="string"></SimpleField>
	<SimpleField name="center_type" type="string"></SimpleField>
	<SimpleField name="lvl_line" type="string"></SimpleField>
	<SimpleField name="guid" type="string"></SimpleField>
</Schema>
<Folder><name>af0af171</name>
  <Placemark id="af0af171.1">
	<name>8635</name>
	<description>грунтовый репер</description>
	<ExtendedData><SchemaData schemaUrl="#af0af171">
		<SimpleData name="type">2</SimpleData>
		<SimpleData name="ext_sign">133,493</SimpleData>
		<SimpleData name="ctrl_place">160 оп знак</SimpleData>
		<SimpleData name="mark_num">Линия: Золоторунное-Кобенсай,II класс Участок:фунд. реп. 7Б-фунд. реп. 4Г</SimpleData>
		<SimpleData name="center_type">Кишкенеколь, с., в 1,1 км к вост. от него,в 0,4 км к югу от вкз. станц. Кзыл-Ту, в юго-вост. углу перекрестка дор. с.Кишкенеколь-с.Тельжан и с.Кишкенеколь-с.Чехово </SimpleData>
		<SimpleData name="lvl_line">af0af171-26c1-4ddc-a394-f597766ec215</SimpleData>
	</SchemaData></ExtendedData>
      <Point><coordinates>72.36486173,53.64516654</coordinates></Point>
  </Placemark>
</Folder>
</Document></kml>
