<?xml version="1.0" encoding="utf-8" ?>
<kml xmlns="http://www.opengis.net/kml/2.2">
<Document id="root_doc">
<Schema name="af0b6705" id="af0b6705">
	<SimpleField name="type" type="string"></SimpleField>
	<SimpleField name="view" type="string"></SimpleField>
	<SimpleField name="leveling_order" type="string"></SimpleField>
	<SimpleField name="leveling_height" type="string"></SimpleField>
	<SimpleField name="control_height" type="string"></SimpleField>
	<SimpleField name="benchmark_number" type="string"></SimpleField>
	<SimpleField name="control_location" type="string"></SimpleField>
	<SimpleField name="benchmark_type" type="string"></SimpleField>
	<SimpleField name="leveling_line_section" type="string"></SimpleField>
	<SimpleField name="location_description" type="string"></SimpleField>
	<SimpleField name="status" type="string"></SimpleField>
	<SimpleField name="guid" type="string"></SimpleField>
	<SimpleField name="kml" type="string"></SimpleField>
	<SimpleField name="kml_link" type="string"></SimpleField>
</Schema>
<Folder><name>af0b6705</name>
  <Placemark id="af0b6705.1">
	<name>4953</name>
	<name>грунт. реп.</name>
	<ExtendedData><SchemaData schemaUrl="#af0b6705">
		<SimpleData name="type">2</SimpleData>
		<SimpleData name="view">182.858</SimpleData>
		<SimpleData name="benchmark_number">146 оп</SimpleData>
		<SimpleData name="control_location">Линия №1: Тургай - Кызылуй, II класс. Участок: грунт. реп. 59 - грунт. реп. 9260</SimpleData>
		<SimpleData name="benchmark_type">Бирдин, кладб., в 7.0 км к юго-вост. от него, в 6.2 км к юго-вост. от оз. Бощаколь, в 20 м к юго-зап. от дороги с. Тургай- с. Байконур, в 70 м к юго-вост. от фнд. реп. 1377</SimpleData>
		<SimpleData name="location_description">af0b6705-8b9d-42e6-a8d7-e9a570f1dff7</SimpleData>
		<SimpleData name="status">data/stations/af0b6705.kml</SimpleData>
		<SimpleData name="guid">&lt;a href='data/stations/af0b6705.kml' target='_blank'&gt;Download KML&lt;/a&gt;</SimpleData>
	</SchemaData></ExtendedData>
      <Point><coordinates>64.7509766318149,48.4490207038852</coordinates></Point>
  </Placemark>
</Folder>
</Document></kml>
