<?xml version="1.0" encoding="utf-8" ?>
<kml xmlns="http://www.opengis.net/kml/2.2">
<Document id="root_doc">
<Schema name="af192918" id="af192918">
	<SimpleField name="type" type="string"></SimpleField>
	<SimpleField name="view" type="string"></SimpleField>
	<SimpleField name="leveling_order" type="string"></SimpleField>
	<SimpleField name="leveling_height" type="string"></SimpleField>
	<SimpleField name="control_height" type="string"></SimpleField>
	<SimpleField name="benchmark_number" type="string"></SimpleField>
	<SimpleField name="control_location" type="string"></SimpleField>
	<SimpleField name="benchmark_type" type="string"></SimpleField>
	<SimpleField name="leveling_line_section" type="string"></SimpleField>
	<SimpleField name="location_description" type="string"></SimpleField>
	<SimpleField name="status" type="string"></SimpleField>
	<SimpleField name="guid" type="string"></SimpleField>
	<SimpleField name="kml" type="string"></SimpleField>
	<SimpleField name="kml_link" type="string"></SimpleField>
</Schema>
<Folder><name>af192918</name>
  <Placemark id="af192918.1">
	<name>3811</name>
	<name>грунт.реп.</name>
	<description>грунт.реп.</description>
	<ExtendedData><SchemaData schemaUrl="#af192918">
		<SimpleData name="type">II</SimpleData>
		<SimpleData name="view">540.582</SimpleData>
		<SimpleData name="leveling_order">539.002*</SimpleData>
		<SimpleData name="control_height">верхней
плоскости монолита</SimpleData>
		<SimpleData name="benchmark_number">121</SimpleData>
		<SimpleData name="control_location">Линия № 2; Акозек - Сарыкамыс, II класс.Участок: грунт.реп.3811 - грунт.реп.16484</SimpleData>
		<SimpleData name="benchmark_type">Акыжан,мог. ,в 2.2 км к сев.от нее,в 0.5 км к юго-зап.от полевой дороги, в 0.1 км к сев.-зап.от р.Ащыозек</SimpleData>
		<SimpleData name="location_description">af192918-b60b-4381-9ab3-fe329a4f21d2</SimpleData>
		<SimpleData name="status">data/stations/af192918.kml</SimpleData>
		<SimpleData name="guid">&lt;a href='data/stations/af192918.kml' target='_blank'&gt;Download KML&lt;/a&gt;</SimpleData>
	</SchemaData></ExtendedData>
      <Point><coordinates>77.1048542350385,47.3449650985813</coordinates></Point>
  </Placemark>
</Folder>
</Document></kml>
