<?xml version="1.0" encoding="utf-8" ?>
<kml xmlns="http://www.opengis.net/kml/2.2">
<Document id="root_doc">
<Schema name="af8725f9" id="af8725f9">
	<SimpleField name="title" type="string"></SimpleField>
	<SimpleField name="type" type="string"></SimpleField>
	<SimpleField name="ext_sign" type="string"></SimpleField>
	<SimpleField name="class_lvl" type="string"></SimpleField>
	<SimpleField name="height_lvl" type="string"></SimpleField>
	<SimpleField name="height_ctrl" type="string"></SimpleField>
	<SimpleField name="ctrl_place" type="string"></SimpleField>
	<SimpleField name="mark_num" type="string"></SimpleField>
	<SimpleField name="center_type" type="string"></SimpleField>
	<SimpleField name="lvl_line" type="string"></SimpleField>
	<SimpleField name="guid" type="string"></SimpleField>
</Schema>
<Folder><name>af8725f9</name>
  <Placemark id="af8725f9.1">
	<name>8781</name>
	<ExtendedData><SchemaData schemaUrl="#af8725f9">
		<SimpleData name="title">грунт.реп.</SimpleData>
		<SimpleData name="type">II</SimpleData>
		<SimpleData name="ext_sign">243.96</SimpleData>
		<SimpleData name="mark_num">Линия№2:Наурызм-Державинск, от фунд.реп.80 до фунд.реп.4778Участок:пир. 3 кл.Тубелес-фунд.реп.4778</SimpleData>
		<SimpleData name="center_type">Им.Ушакова, свх.,3.5 км к сев.-зап.от него, в 3.2 км к зап.от пир.3 кл.Ушакова, в 24 м к сев.от гредера свх.им.Ушакова-усовершенствованное шоссе гор.Кустанай-гор.Аркалык, на неудобище</SimpleData>
		<SimpleData name="lvl_line">af8725f9-72d1-491d-a91f-e44d5072d9bb</SimpleData>
	</SchemaData></ExtendedData>
      <Point><coordinates>65.1875284605013,51.5035300039137</coordinates></Point>
  </Placemark>
</Folder>
</Document></kml>
