<?xml version="1.0" encoding="utf-8" ?>
<kml xmlns="http://www.opengis.net/kml/2.2">
<Document id="root_doc">
<Schema name="afd65843" id="afd65843">
	<SimpleField name="type" type="string"></SimpleField>
	<SimpleField name="view" type="string"></SimpleField>
	<SimpleField name="leveling_order" type="string"></SimpleField>
	<SimpleField name="leveling_height" type="string"></SimpleField>
	<SimpleField name="control_height" type="string"></SimpleField>
	<SimpleField name="benchmark_number" type="string"></SimpleField>
	<SimpleField name="control_location" type="string"></SimpleField>
	<SimpleField name="benchmark_type" type="string"></SimpleField>
	<SimpleField name="leveling_line_section" type="string"></SimpleField>
	<SimpleField name="location_description" type="string"></SimpleField>
	<SimpleField name="status" type="string"></SimpleField>
	<SimpleField name="guid" type="string"></SimpleField>
	<SimpleField name="kml" type="string"></SimpleField>
	<SimpleField name="kml_link" type="string"></SimpleField>
</Schema>
<Folder><name>afd65843</name>
  <Placemark id="afd65843.1">
	<name>109</name>
	<name>грунт. реп.</name>
	<ExtendedData><SchemaData schemaUrl="#afd65843">
		<SimpleData name="type">2</SimpleData>
		<SimpleData name="view">468.666</SimpleData>
		<SimpleData name="leveling_order">467.384</SimpleData>
		<SimpleData name="control_height">репер № 678 в фундаментной плите</SimpleData>
		<SimpleData name="benchmark_number">116</SimpleData>
		<SimpleData name="control_location">Линия№ 2: Эмбек - Буран, II класс (1) Участок: ск. реп. 410 - фунд. реп. 2290</SimpleData>
		<SimpleData name="benchmark_type">Черняевка, с., в 5.0 км к зап. от него, в 30 м к юго-вост. от дороги ферма Тегистык - с. Буран</SimpleData>
		<SimpleData name="location_description">afd65843-2d3e-4011-aacd-c6887a13847e</SimpleData>
		<SimpleData name="status">data/stations/afd65843.kml</SimpleData>
		<SimpleData name="guid">&lt;a href='data/stations/afd65843.kml' target='_blank'&gt;Download KML&lt;/a&gt;</SimpleData>
	</SchemaData></ExtendedData>
      <Point><coordinates>85.1025313820917,48.1356748471907</coordinates></Point>
  </Placemark>
</Folder>
</Document></kml>
