<?xml version="1.0" encoding="utf-8" ?>
<kml xmlns="http://www.opengis.net/kml/2.2">
<Document id="root_doc">
<Schema name="afe0807d" id="afe0807d">
	<SimpleField name="title" type="string"></SimpleField>
	<SimpleField name="type" type="string"></SimpleField>
	<SimpleField name="ext_sign" type="string"></SimpleField>
	<SimpleField name="class_lvl" type="string"></SimpleField>
	<SimpleField name="height_lvl" type="string"></SimpleField>
	<SimpleField name="height_ctrl" type="string"></SimpleField>
	<SimpleField name="ctrl_place" type="string"></SimpleField>
	<SimpleField name="mark_num" type="string"></SimpleField>
	<SimpleField name="center_type" type="string"></SimpleField>
	<SimpleField name="lvl_line" type="string"></SimpleField>
	<SimpleField name="guid" type="string"></SimpleField>
</Schema>
<Folder><name>afe0807d</name>
  <Placemark id="afe0807d.1">
	<name>356</name>
	<description>грунтовый репер</description>
	<ExtendedData><SchemaData schemaUrl="#afe0807d">
		<SimpleData name="type">4</SimpleData>
		<SimpleData name="ext_sign">154.753</SimpleData>
		<SimpleData name="class_lvl">153.593</SimpleData>
		<SimpleData name="height_lvl">Контрольный репер в верхней плоскости монолита</SimpleData>
		<SimpleData name="ctrl_place">121 оп</SimpleData>
		<SimpleData name="mark_num">Линия №23: грунт. реп. 356 - пир. 3 кл. Шестая Ферма, IV класс</SimpleData>
		<SimpleData name="center_type">В 6.7 км к сев.-зап. от с. Кельтесай, в 2.2 км к вост. от зимовки, в 0.6 км к югу от полевой дороги</SimpleData>
		<SimpleData name="lvl_line">afe0807d-0367-4ea1-8dc6-4bf6fdbdfd94</SimpleData>
	</SchemaData></ExtendedData>
      <Point><coordinates>55.89271066,49.16975301</coordinates></Point>
  </Placemark>
</Folder>
</Document></kml>
