<?xml version="1.0" encoding="utf-8" ?>
<kml xmlns="http://www.opengis.net/kml/2.2">
<Document id="root_doc">
<Schema name="b03d33aa" id="b03d33aa">
	<SimpleField name="type" type="string"></SimpleField>
	<SimpleField name="view" type="string"></SimpleField>
	<SimpleField name="leveling_order" type="string"></SimpleField>
	<SimpleField name="leveling_height" type="string"></SimpleField>
	<SimpleField name="control_height" type="string"></SimpleField>
	<SimpleField name="benchmark_number" type="string"></SimpleField>
	<SimpleField name="control_location" type="string"></SimpleField>
	<SimpleField name="benchmark_type" type="string"></SimpleField>
	<SimpleField name="leveling_line_section" type="string"></SimpleField>
	<SimpleField name="location_description" type="string"></SimpleField>
	<SimpleField name="status" type="string"></SimpleField>
	<SimpleField name="guid" type="string"></SimpleField>
	<SimpleField name="kml" type="string"></SimpleField>
	<SimpleField name="kml_link" type="string"></SimpleField>
</Schema>
<Folder><name>b03d33aa</name>
  <Placemark id="b03d33aa.1">
	<name>137</name>
	<name>грунт.реп.</name>
	<ExtendedData><SchemaData schemaUrl="#b03d33aa">
		<SimpleData name="type">II</SimpleData>
		<SimpleData name="view">320.475</SimpleData>
		<SimpleData name="benchmark_number">121</SimpleData>
		<SimpleData name="control_location">Линия №3: Тасты=Бала=Терсаккан, II класс (1) Участок:фунд.реп.2608- грунт.реп.5382</SimpleData>
		<SimpleData name="benchmark_type">Аркалык,гор.,в 6.5 км к юго-зап.от вкз.,в 4.2 км к юго-вост.от развилки шоссе гор.Аркалык-гор.Торгай и асф.дороги на с.Алуа,в 0.8 км к юго-вост.от труб под улучшенной грунт.дорогой Торгайского Бокситового Рудоуправления,в месте впадения ручья Токтыгат,в ручей Акжар,в 0.7 км к сев.-вост.от п.тр.Близкий.Имеет координаты</SimpleData>
		<SimpleData name="location_description">b03d33aa-68f3-4900-8387-acd3439d9827</SimpleData>
		<SimpleData name="status">data/stations/b03d33aa.kml</SimpleData>
		<SimpleData name="guid">&lt;a href='data/stations/b03d33aa.kml' target='_blank'&gt;Download KML&lt;/a&gt;</SimpleData>
	</SchemaData></ExtendedData>
      <Point><coordinates>66.8232832291859,50.2197355771536</coordinates></Point>
  </Placemark>
</Folder>
</Document></kml>
