<?xml version="1.0" encoding="utf-8" ?>
<kml xmlns="http://www.opengis.net/kml/2.2">
<Document id="root_doc">
<Schema name="b0b23e47" id="b0b23e47">
	<SimpleField name="type" type="string"></SimpleField>
	<SimpleField name="view" type="string"></SimpleField>
	<SimpleField name="leveling_order" type="string"></SimpleField>
	<SimpleField name="leveling_height" type="string"></SimpleField>
	<SimpleField name="control_height" type="string"></SimpleField>
	<SimpleField name="benchmark_number" type="string"></SimpleField>
	<SimpleField name="control_location" type="string"></SimpleField>
	<SimpleField name="benchmark_type" type="string"></SimpleField>
	<SimpleField name="leveling_line_section" type="string"></SimpleField>
	<SimpleField name="location_description" type="string"></SimpleField>
	<SimpleField name="status" type="string"></SimpleField>
	<SimpleField name="guid" type="string"></SimpleField>
	<SimpleField name="kml" type="string"></SimpleField>
	<SimpleField name="kml_link" type="string"></SimpleField>
</Schema>
<Folder><name>b0b23e47</name>
  <Placemark id="b0b23e47.1">
	<name>496</name>
	<name>грунт. реп.</name>
	<ExtendedData><SchemaData schemaUrl="#b0b23e47">
		<SimpleData name="type">2</SimpleData>
		<SimpleData name="view">1455.472</SimpleData>
		<SimpleData name="leveling_order">1453.447</SimpleData>
		<SimpleData name="control_height">репер № 646 в фундаментной плите </SimpleData>
		<SimpleData name="benchmark_number">116</SimpleData>
		<SimpleData name="control_location">Линия № 2:            Кош-Агач-Эмбек, 2 класс (1) Участок: грунд. реп. 764 -  грунд. реп. 637</SimpleData>
		<SimpleData name="benchmark_type">Усть-Чиндагатуй, с., в 15.0 км к юго-зап. от него, в 30 м к югу от дороги с.Арчаты - с.Усть-Чиндагатуй  </SimpleData>
		<SimpleData name="location_description">b0b23e47-b382-4b8f-b18c-0c28e3fd672c</SimpleData>
		<SimpleData name="status">data/stations/b0b23e47.kml</SimpleData>
		<SimpleData name="guid">&lt;a href='data/stations/b0b23e47.kml' target='_blank'&gt;Download KML&lt;/a&gt;</SimpleData>
	</SchemaData></ExtendedData>
      <Point><coordinates>86.803408241352,49.2051158106613</coordinates></Point>
  </Placemark>
</Folder>
</Document></kml>
