<?xml version="1.0" encoding="utf-8" ?>
<kml xmlns="http://www.opengis.net/kml/2.2">
<Document id="root_doc">
<Schema name="b1159588" id="b1159588">
	<SimpleField name="type" type="string"></SimpleField>
	<SimpleField name="view" type="string"></SimpleField>
	<SimpleField name="leveling_order" type="string"></SimpleField>
	<SimpleField name="leveling_height" type="string"></SimpleField>
	<SimpleField name="control_height" type="string"></SimpleField>
	<SimpleField name="benchmark_number" type="string"></SimpleField>
	<SimpleField name="control_location" type="string"></SimpleField>
	<SimpleField name="benchmark_type" type="string"></SimpleField>
	<SimpleField name="leveling_line_section" type="string"></SimpleField>
	<SimpleField name="location_description" type="string"></SimpleField>
	<SimpleField name="status" type="string"></SimpleField>
	<SimpleField name="guid" type="string"></SimpleField>
	<SimpleField name="kml" type="string"></SimpleField>
	<SimpleField name="kml_link" type="string"></SimpleField>
</Schema>
<Folder><name>b1159588</name>
  <Placemark id="b1159588.1">
	<name>5076</name>
	<name>грунт. реп.</name>
	<ExtendedData><SchemaData schemaUrl="#b1159588">
		<SimpleData name="type">1</SimpleData>
		<SimpleData name="view">1166.667</SimpleData>
		<SimpleData name="benchmark_number">160 оп. знак</SimpleData>
		<SimpleData name="control_location">Линия № 1: Алажиде - оз.Жаланашколь, I класс. Участок: грунт.реп. 4351 – грунт.реп. 838</SimpleData>
		<SimpleData name="benchmark_type">Ушбулак, с., зап. окраина его, в 0.2 км к сев.-зап. от км. стб. 59/127 шоссе с. Кабанбай – cтанц. Дружба, в 0.2 км к вост. от стб. ЛЭП № 114, в 18 м к сев.-вост. от шоссе</SimpleData>
		<SimpleData name="location_description">b1159588-f469-4990-a3dc-b2a2adf5ee29</SimpleData>
		<SimpleData name="status">data/stations/b1159588.kml</SimpleData>
		<SimpleData name="guid">&lt;a href='data/stations/b1159588.kml' target='_blank'&gt;Download KML&lt;/a&gt;</SimpleData>
	</SchemaData></ExtendedData>
      <Point><coordinates>81.2882120665903,45.8025502583138</coordinates></Point>
  </Placemark>
</Folder>
</Document></kml>
