<?xml version="1.0" encoding="utf-8" ?>
<kml xmlns="http://www.opengis.net/kml/2.2">
<Document id="root_doc">
<Schema name="b1efcaf5" id="b1efcaf5">
	<SimpleField name="type" type="string"></SimpleField>
	<SimpleField name="view" type="string"></SimpleField>
	<SimpleField name="leveling_order" type="string"></SimpleField>
	<SimpleField name="leveling_height" type="string"></SimpleField>
	<SimpleField name="control_height" type="string"></SimpleField>
	<SimpleField name="benchmark_number" type="string"></SimpleField>
	<SimpleField name="control_location" type="string"></SimpleField>
	<SimpleField name="benchmark_type" type="string"></SimpleField>
	<SimpleField name="leveling_line_section" type="string"></SimpleField>
	<SimpleField name="location_description" type="string"></SimpleField>
	<SimpleField name="status" type="string"></SimpleField>
	<SimpleField name="guid" type="string"></SimpleField>
	<SimpleField name="kml" type="string"></SimpleField>
	<SimpleField name="kml_link" type="string"></SimpleField>
</Schema>
<Folder><name>b1efcaf5</name>
  <Placemark id="b1efcaf5.1">
	<name>6013</name>
	<name>фундаментальный репер</name>
	<ExtendedData><SchemaData schemaUrl="#b1efcaf5">
		<SimpleData name="type">1</SimpleData>
		<SimpleData name="view">142.83</SimpleData>
		<SimpleData name="leveling_order">141,637</SimpleData>
		<SimpleData name="leveling_height">3429</SimpleData>
		<SimpleData name="control_height">в верхней плоскости монолита</SimpleData>
		<SimpleData name="benchmark_number">141 оп, знак</SimpleData>
		<SimpleData name="control_location">Линия № 1: Кызылорда - Арыс, 1 класс (1) Участок: марка 2490 - грунт, реп, 1850 </SimpleData>
		<SimpleData name="benchmark_type">Тартогай, станц,, в 0,5 км к юго-вост, от неё, на 6 пк 2899 км жел, дор,, в 50 м к сев,-вост, от жел, дор,</SimpleData>
		<SimpleData name="location_description">b1efcaf5-94f8-49e3-b86e-f399cc8d52ab</SimpleData>
		<SimpleData name="status">data/stations/b1efcaf5.kml</SimpleData>
		<SimpleData name="guid">&lt;a href='data/stations/b1efcaf5.kml' target='_blank'&gt;Download KML&lt;/a&gt;</SimpleData>
	</SchemaData></ExtendedData>
      <Point><coordinates>66.2641071554744,44.4524558897618</coordinates></Point>
  </Placemark>
</Folder>
</Document></kml>
