<?xml version="1.0" encoding="utf-8" ?>
<kml xmlns="http://www.opengis.net/kml/2.2">
<Document id="root_doc">
<Schema name="b204bcb4" id="b204bcb4">
	<SimpleField name="title" type="string"></SimpleField>
	<SimpleField name="type" type="string"></SimpleField>
	<SimpleField name="ext_sign" type="string"></SimpleField>
	<SimpleField name="class_lvl" type="string"></SimpleField>
	<SimpleField name="height_lvl" type="string"></SimpleField>
	<SimpleField name="height_ctrl" type="string"></SimpleField>
	<SimpleField name="ctrl_place" type="string"></SimpleField>
	<SimpleField name="mark_num" type="string"></SimpleField>
	<SimpleField name="center_type" type="string"></SimpleField>
	<SimpleField name="lvl_line" type="string"></SimpleField>
	<SimpleField name="guid" type="string"></SimpleField>
</Schema>
<Folder><name>b204bcb4</name>
  <Placemark id="b204bcb4.1">
	<name>2223</name>
	<description>грунтовый репер</description>
	<ExtendedData><SchemaData schemaUrl="#b204bcb4">
		<SimpleData name="type">1</SimpleData>
		<SimpleData name="ext_sign">360,681</SimpleData>
		<SimpleData name="ctrl_place">160 оп,знак</SimpleData>
		<SimpleData name="mark_num">Линия №3: Тюемойнак-Торетоган, I класс (1) Участок: фунд,реп,497 - грунт,реп, 3460</SimpleData>
		<SimpleData name="center_type">Тюемоинак, станция, в 10,1 км к югу от нее, в О 3 км к
сев, от моста чере,з р,Еспе, в 13 м к зап, от дороги с
Тюемоинак - с, Жыланды</SimpleData>
		<SimpleData name="lvl_line">b204bcb4-1145-478f-9b7d-3620c2624103</SimpleData>
	</SchemaData></ExtendedData>
      <Point><coordinates>69.0926511673246,48.0913485605833</coordinates></Point>
  </Placemark>
</Folder>
</Document></kml>
