<?xml version="1.0" encoding="utf-8" ?>
<kml xmlns="http://www.opengis.net/kml/2.2">
<Document id="root_doc">
<Schema name="b204977f" id="b204977f">
	<SimpleField name="title" type="string"></SimpleField>
	<SimpleField name="type" type="string"></SimpleField>
	<SimpleField name="ext_sign" type="string"></SimpleField>
	<SimpleField name="class_lvl" type="string"></SimpleField>
	<SimpleField name="height_lvl" type="string"></SimpleField>
	<SimpleField name="height_ctrl" type="string"></SimpleField>
	<SimpleField name="ctrl_place" type="string"></SimpleField>
	<SimpleField name="mark_num" type="string"></SimpleField>
	<SimpleField name="center_type" type="string"></SimpleField>
	<SimpleField name="lvl_line" type="string"></SimpleField>
	<SimpleField name="guid" type="string"></SimpleField>
</Schema>
<Folder><name>b204977f</name>
  <Placemark id="b204977f.1">
	<name>2</name>
	<description>Грун.реп </description>
	<ExtendedData><SchemaData schemaUrl="#b204977f">
		<SimpleData name="type">||</SimpleData>
		<SimpleData name="ext_sign">738,890</SimpleData>
		<SimpleData name="class_lvl">736,537</SimpleData>
		<SimpleData name="ctrl_place">121 оп</SimpleData>
		<SimpleData name="mark_num">Линия #6 Спасск-Каркаралинск,|| класс(4)Участок: грунтовых репер</SimpleData>
		<SimpleData name="center_type">От дороги 60 м к югу</SimpleData>
		<SimpleData name="lvl_line">b204977f-e10e-4cd0-a766-66f44c452769</SimpleData>
	</SchemaData></ExtendedData>
      <Point><coordinates>75.0036183333333,49.3364133333333</coordinates></Point>
  </Placemark>
</Folder>
</Document></kml>
