<?xml version="1.0" encoding="utf-8" ?>
<kml xmlns="http://www.opengis.net/kml/2.2">
<Document id="root_doc">
<Schema name="b21668a4" id="b21668a4">
	<SimpleField name="title" type="string"></SimpleField>
	<SimpleField name="type" type="string"></SimpleField>
	<SimpleField name="ext_sign" type="string"></SimpleField>
	<SimpleField name="class_lvl" type="string"></SimpleField>
	<SimpleField name="height_lvl" type="string"></SimpleField>
	<SimpleField name="height_ctrl" type="string"></SimpleField>
	<SimpleField name="ctrl_place" type="string"></SimpleField>
	<SimpleField name="mark_num" type="string"></SimpleField>
	<SimpleField name="center_type" type="string"></SimpleField>
	<SimpleField name="lvl_line" type="string"></SimpleField>
	<SimpleField name="guid" type="string"></SimpleField>
</Schema>
<Folder><name>b21668a4</name>
  <Placemark id="b21668a4.1">
	<name>564</name>
	<description>грунтовый репер</description>
	<ExtendedData><SchemaData schemaUrl="#b21668a4">
		<SimpleData name="title">грунт. реп.</SimpleData>
		<SimpleData name="type">II</SimpleData>
		<SimpleData name="ext_sign">196,511</SimpleData>
		<SimpleData name="class_lvl">Конт-роль-ный реп. в верхней плос-кости моно-лита</SimpleData>
		<SimpleData name="height_ctrl">195,331</SimpleData>
		<SimpleData name="ctrl_place">121 оп.</SimpleData>
		<SimpleData name="mark_num">Линия № 2 Иргиз (фунд.реп.7707) - Толыбай (фунд.реп.3780)</SimpleData>
		<SimpleData name="center_type">Сарыпансор,сол.,в 4,0км к вост.от него
в 1,8 к югу от развилки дорог с.Бас-
кудук-с.Камсор-с.Иргиз,в 41м к зап.от
дороги с.Камсор-с.Иргиз</SimpleData>
		<SimpleData name="lvl_line">b21668a4-6f3d-4bb8-b618-ac640ca327da</SimpleData>
	</SchemaData></ExtendedData>
      <Point><coordinates>61.31763006,49.22158618</coordinates></Point>
  </Placemark>
</Folder>
</Document></kml>
