<?xml version="1.0" encoding="utf-8" ?>
<kml xmlns="http://www.opengis.net/kml/2.2">
<Document id="root_doc">
<Schema name="b23140ee" id="b23140ee">
	<SimpleField name="title" type="string"></SimpleField>
	<SimpleField name="type" type="string"></SimpleField>
	<SimpleField name="ext_sign" type="string"></SimpleField>
	<SimpleField name="class_lvl" type="string"></SimpleField>
	<SimpleField name="height_lvl" type="string"></SimpleField>
	<SimpleField name="height_ctrl" type="string"></SimpleField>
	<SimpleField name="ctrl_place" type="string"></SimpleField>
	<SimpleField name="mark_num" type="string"></SimpleField>
	<SimpleField name="center_type" type="string"></SimpleField>
	<SimpleField name="lvl_line" type="string"></SimpleField>
	<SimpleField name="guid" type="string"></SimpleField>
</Schema>
<Folder><name>b23140ee</name>
  <Placemark id="b23140ee.1">
	<name>2459</name>
	<description>Грунтовый репер </description>
	<ExtendedData><SchemaData schemaUrl="#b23140ee">
		<SimpleData name="title">Опознавательный знак </SimpleData>
		<SimpleData name="type">І</SimpleData>
		<SimpleData name="height_ctrl">2459</SimpleData>
		<SimpleData name="ctrl_place">162</SimpleData>
		<SimpleData name="mark_num">Линия нивелирования І класса #102 &quot;Петропавловск-Павлодар&quot;</SimpleData>
		<SimpleData name="center_type">Село Молодая Гвардия 13,7 км к юго-западу от него, 2 км к северо-востоку от полевого стана, 30 м к юго-востоку от полевой дороги</SimpleData>
		<SimpleData name="lvl_line">b23140ee-6048-4b36-ab03-1a4af7fcd5e9</SimpleData>
	</SchemaData></ExtendedData>
      <Point><coordinates>72.6670083333333,53.3046966666667</coordinates></Point>
  </Placemark>
</Folder>
</Document></kml>
