<?xml version="1.0" encoding="utf-8" ?>
<kml xmlns="http://www.opengis.net/kml/2.2">
<Document id="root_doc">
<Schema name="b27f388c" id="b27f388c">
	<SimpleField name="type" type="string"></SimpleField>
	<SimpleField name="view" type="string"></SimpleField>
	<SimpleField name="leveling_order" type="string"></SimpleField>
	<SimpleField name="leveling_height" type="string"></SimpleField>
	<SimpleField name="control_height" type="string"></SimpleField>
	<SimpleField name="benchmark_number" type="string"></SimpleField>
	<SimpleField name="control_location" type="string"></SimpleField>
	<SimpleField name="benchmark_type" type="string"></SimpleField>
	<SimpleField name="leveling_line_section" type="string"></SimpleField>
	<SimpleField name="location_description" type="string"></SimpleField>
	<SimpleField name="status" type="string"></SimpleField>
	<SimpleField name="guid" type="string"></SimpleField>
	<SimpleField name="kml" type="string"></SimpleField>
	<SimpleField name="kml_link" type="string"></SimpleField>
</Schema>
<Folder><name>b27f388c</name>
  <Placemark id="b27f388c.1">
	<name>2640</name>
	<description>грунт. реп</description>
	<ExtendedData><SchemaData schemaUrl="#b27f388c">
		<SimpleData name="type">1</SimpleData>
		<SimpleData name="view">118,522</SimpleData>
		<SimpleData name="benchmark_number">160 оп.</SimpleData>
		<SimpleData name="control_location">Линия № 2: Кумкала -- Кызылорда, 1 класс (2,5). Участок: грунт. реп. 6131 - грунт. реп. 3098</SimpleData>
		<SimpleData name="benchmark_type">Шаган, с., в 5,1 км к юго-зап. от него, в 0,5 км к юго-зап. от могилы, в 25 м к югу от шоссе с.Акжарма - с.Шаган</SimpleData>
		<SimpleData name="leveling_line_section">утрачен</SimpleData>
		<SimpleData name="location_description">b27f388c-9d9e-43b8-a087-479d1fae294a</SimpleData>
		<SimpleData name="status">data/stations/b27f388c.kml</SimpleData>
		<SimpleData name="guid">&lt;a href='data/stations/b27f388c.kml' target='_blank'&gt;Download KML&lt;/a&gt;</SimpleData>
	</SchemaData></ExtendedData>
      <Point><coordinates>64.8811183534045,44.8809465064431</coordinates></Point>
  </Placemark>
</Folder>
</Document></kml>
