<?xml version="1.0" encoding="utf-8" ?>
<kml xmlns="http://www.opengis.net/kml/2.2">
<Document id="root_doc">
<Schema name="b2b3a656" id="b2b3a656">
	<SimpleField name="title" type="string"></SimpleField>
	<SimpleField name="type" type="string"></SimpleField>
	<SimpleField name="ext_sign" type="string"></SimpleField>
	<SimpleField name="class_lvl" type="string"></SimpleField>
	<SimpleField name="height_lvl" type="string"></SimpleField>
	<SimpleField name="height_ctrl" type="string"></SimpleField>
	<SimpleField name="ctrl_place" type="string"></SimpleField>
	<SimpleField name="mark_num" type="string"></SimpleField>
	<SimpleField name="center_type" type="string"></SimpleField>
	<SimpleField name="lvl_line" type="string"></SimpleField>
	<SimpleField name="guid" type="string"></SimpleField>
</Schema>
<Folder><name>b2b3a656</name>
  <Placemark id="b2b3a656.1">
	<name>2832</name>
	<description>грунтовый репер</description>
	<ExtendedData><SchemaData schemaUrl="#b2b3a656">
		<SimpleData name="type">2</SimpleData>
		<SimpleData name="ext_sign">839,744</SimpleData>
		<SimpleData name="ctrl_place">160оп</SimpleData>
		<SimpleData name="mark_num">Линия №1: Актогай-Каркаралинск, II класс (1)         Участок: грунт. реп. 4483 - ск. реп. 9780 </SimpleData>
		<SimpleData name="center_type">Куаныш, с., в 6,5 км к сев.-вост. от него, в 0,4 км к сев.-вост. от зим. Кызылсенгир, в 10 м к зап. от дороги</SimpleData>
		<SimpleData name="lvl_line">b2b3a656-61df-45a0-94ab-6afbb5287952</SimpleData>
	</SchemaData></ExtendedData>
      <Point><coordinates>75.0209298422784,48.5020239441545</coordinates></Point>
  </Placemark>
</Folder>
</Document></kml>
