<?xml version="1.0" encoding="utf-8" ?>
<kml xmlns="http://www.opengis.net/kml/2.2">
<Document id="root_doc">
<Schema name="b2cce676" id="b2cce676">
	<SimpleField name="title" type="string"></SimpleField>
	<SimpleField name="type" type="string"></SimpleField>
	<SimpleField name="ext_sign" type="string"></SimpleField>
	<SimpleField name="class_lvl" type="string"></SimpleField>
	<SimpleField name="height_lvl" type="string"></SimpleField>
	<SimpleField name="height_ctrl" type="string"></SimpleField>
	<SimpleField name="ctrl_place" type="string"></SimpleField>
	<SimpleField name="mark_num" type="string"></SimpleField>
	<SimpleField name="center_type" type="string"></SimpleField>
	<SimpleField name="lvl_line" type="string"></SimpleField>
	<SimpleField name="guid" type="string"></SimpleField>
</Schema>
<Folder><name>b2cce676</name>
  <Placemark id="b2cce676.1">
	<name>б/№</name>
	<description>грунтовый репер</description>
	<ExtendedData><SchemaData schemaUrl="#b2cce676">
		<SimpleData name="type">1</SimpleData>
		<SimpleData name="ext_sign">318.356</SimpleData>
		<SimpleData name="height_lvl">121 оп</SimpleData>
		<SimpleData name="ctrl_place">12</SimpleData>
		<SimpleData name="mark_num">Линия № 2: Терсаккан - Кзыл-Сенгир. І класс </SimpleData>
		<SimpleData name="center_type">Аксай. ур. в 3.0 км к юго-вост. от него. в 7.0 км к сев. от ОТФ с Кургальжинский и к. Урустем. в 1.2 км к зап. от пол. дороги</SimpleData>
		<SimpleData name="lvl_line">b2cce676-aad6-4b4e-9a2d-a880537a7ae5</SimpleData>
	</SchemaData></ExtendedData>
      <Point><coordinates>69.2966455886411,50.163007902928</coordinates></Point>
  </Placemark>
</Folder>
</Document></kml>
