<?xml version="1.0" encoding="utf-8" ?>
<kml xmlns="http://www.opengis.net/kml/2.2">
<Document id="root_doc">
<Schema name="b34792e0" id="b34792e0">
	<SimpleField name="type" type="string"></SimpleField>
	<SimpleField name="view" type="string"></SimpleField>
	<SimpleField name="leveling_order" type="string"></SimpleField>
	<SimpleField name="leveling_height" type="string"></SimpleField>
	<SimpleField name="control_height" type="string"></SimpleField>
	<SimpleField name="benchmark_number" type="string"></SimpleField>
	<SimpleField name="control_location" type="string"></SimpleField>
	<SimpleField name="benchmark_type" type="string"></SimpleField>
	<SimpleField name="leveling_line_section" type="string"></SimpleField>
	<SimpleField name="location_description" type="string"></SimpleField>
	<SimpleField name="status" type="string"></SimpleField>
	<SimpleField name="guid" type="string"></SimpleField>
	<SimpleField name="kml" type="string"></SimpleField>
	<SimpleField name="kml_link" type="string"></SimpleField>
</Schema>
<Folder><name>b34792e0</name>
  <Placemark id="b34792e0.1">
	<name>3272</name>
	<name>грунт. реп.</name>
	<ExtendedData><SchemaData schemaUrl="#b34792e0">
		<SimpleData name="type">1</SimpleData>
		<SimpleData name="view">381.047</SimpleData>
		<SimpleData name="benchmark_number">146 оп</SimpleData>
		<SimpleData name="control_location">Линия №1: Карталы - Кандагач, I класс. Участок: грунт. реп. 0710 - грунт. реп. 8454</SimpleData>
		<SimpleData name="benchmark_type">№303, раз., в 2.5 км к сев. от него, на 46 км жел.дор. гор. Орск - гор. Октябрьск, в 60 м к зап. от тлф. стб. №240/40, на южн. краю лесополосы</SimpleData>
		<SimpleData name="location_description">b34792e0-20ca-4e9f-9a9f-8a4cbf027065</SimpleData>
		<SimpleData name="status">data/stations/b34792e0.kml</SimpleData>
		<SimpleData name="guid">&lt;a href='data/stations/b34792e0.kml' target='_blank'&gt;Download KML&lt;/a&gt;</SimpleData>
	</SchemaData></ExtendedData>
      <Point><coordinates>58.4163724204538,50.9109083295134</coordinates></Point>
  </Placemark>
</Folder>
</Document></kml>
