<?xml version="1.0" encoding="UTF-8"?>
<kml xmlns="http://www.opengis.net/kml/2.2">
  <Document id="root_doc">
    <Schema id="b37b18eb" name="b37b18eb">
      <SimpleField name="title" type="string"/>
      <SimpleField name="type" type="string"/>
      <SimpleField name="ext_sign" type="string"/>
      <SimpleField name="class_lvl" type="string"/>
      <SimpleField name="height_lvl" type="string"/>
      <SimpleField name="height_ctrl" type="string"/>
      <SimpleField name="ctrl_place" type="string"/>
      <SimpleField name="mark_num" type="string"/>
      <SimpleField name="center_type" type="string"/>
      <SimpleField name="lvl_line" type="string"/>
      <SimpleField name="guid" type="string"/>
    </Schema>
    <Schema id="b37b18eb.schema">
      <SimpleField name="title" type="string"/>
      <SimpleField name="type" type="string"/>
      <SimpleField name="ext_sign" type="string"/>
      <SimpleField name="class_lvl" type="string"/>
      <SimpleField name="height_lvl" type="string"/>
      <SimpleField name="height_ctrl" type="string"/>
      <SimpleField name="ctrl_place" type="string"/>
      <SimpleField name="mark_num" type="string"/>
      <SimpleField name="center_type" type="string"/>
      <SimpleField name="lvl_line" type="string"/>
      <SimpleField name="guid" type="string"/>
    </Schema>
    <Document id="b37b18eb">
      <name>b37b18eb</name>
      <Placemark id="b37b18eb.1">
        <description>Канбакты, такыр, в 7.6 км к юго-вост, от него, в 0.3 км к сев.-зап. от перекрёстка полевых дорог, в 20 м к юго-зап. от полевой дороги, у сев. подножия г. Жамантау</description>
        <ExtendedData>
          <SchemaData schemaUrl="#b37b18eb.schema">
            <SimpleData name="title">1155</SimpleData>
            <SimpleData name="type">грунтовый репер</SimpleData>
            <SimpleData name="ext_sign">грунтовый репер</SimpleData>
            <SimpleData name="class_lvl">2</SimpleData>
            <SimpleData name="height_lvl">355,231</SimpleData>
            <SimpleData name="height_ctrl">353,679</SimpleData>
            <SimpleData name="ctrl_place">в фундаментной плите</SimpleData>
            <SimpleData name="mark_num">3443</SimpleData>
            <SimpleData name="center_type">116 оп. знак</SimpleData>
            <SimpleData name="lvl_line">Линия № 2: Древний Курган - Сасыккудык, 2 класс (3) Участок: фунд. реп. 1377-грунт, реп. 1764</SimpleData>
            <SimpleData name="guid">b37b18eb-6cef-4185-96f1-c6c793181f69</SimpleData>
          </SchemaData>
        </ExtendedData>
        <Point>
          <coordinates>
            68.729276832137,47.4258412492289,0
          </coordinates>
        </Point>
      </Placemark>
    </Document>
  </Document>
</kml>
