<?xml version="1.0" encoding="utf-8" ?>
<kml xmlns="http://www.opengis.net/kml/2.2">
<Document id="root_doc">
<Schema name="b3f1ba67" id="b3f1ba67">
	<SimpleField name="type" type="string"></SimpleField>
	<SimpleField name="view" type="string"></SimpleField>
	<SimpleField name="leveling_order" type="string"></SimpleField>
	<SimpleField name="leveling_height" type="string"></SimpleField>
	<SimpleField name="control_height" type="string"></SimpleField>
	<SimpleField name="benchmark_number" type="string"></SimpleField>
	<SimpleField name="control_location" type="string"></SimpleField>
	<SimpleField name="benchmark_type" type="string"></SimpleField>
	<SimpleField name="leveling_line_section" type="string"></SimpleField>
	<SimpleField name="location_description" type="string"></SimpleField>
	<SimpleField name="status" type="string"></SimpleField>
	<SimpleField name="guid" type="string"></SimpleField>
	<SimpleField name="kml" type="string"></SimpleField>
	<SimpleField name="kml_link" type="string"></SimpleField>
</Schema>
<Folder><name>b3f1ba67</name>
  <Placemark id="b3f1ba67.1">
	<name>1219</name>
	<name>грунтовый репер</name>
	<ExtendedData><SchemaData schemaUrl="#b3f1ba67">
		<SimpleData name="type">II</SimpleData>
		<SimpleData name="view">371,309</SimpleData>
		<SimpleData name="benchmark_number">146оп</SimpleData>
		<SimpleData name="control_location">Линия №1: Сарыкияк - Степное, II класс (1)  Участок: грунт.реп.2 - грунт.реп. 10974</SimpleData>
		<SimpleData name="benchmark_type">Кызылшан, зим., в 3,0 км к юго-зап.от нее,в 0,6 км к юго-вост.от пересыхающей р.Курттыозек, в 0,1 км к сев. от полевой дороги</SimpleData>
		<SimpleData name="location_description">b3f1ba67-4a56-46ee-9cfc-5e01a1a08554</SimpleData>
		<SimpleData name="status">data/stations/b3f1ba67.kml</SimpleData>
		<SimpleData name="guid">&lt;a href='data/stations/b3f1ba67.kml' target='_blank'&gt;Download KML&lt;/a&gt;</SimpleData>
	</SchemaData></ExtendedData>
      <Point><coordinates>74.7059844670171,50.989757160258</coordinates></Point>
  </Placemark>
</Folder>
</Document></kml>
