<?xml version="1.0" encoding="utf-8" ?>
<kml xmlns="http://www.opengis.net/kml/2.2">
<Document id="root_doc">
<Schema name="b449ab70" id="b449ab70">
	<SimpleField name="type" type="string"></SimpleField>
	<SimpleField name="view" type="string"></SimpleField>
	<SimpleField name="leveling_order" type="string"></SimpleField>
	<SimpleField name="leveling_height" type="string"></SimpleField>
	<SimpleField name="control_height" type="string"></SimpleField>
	<SimpleField name="benchmark_number" type="string"></SimpleField>
	<SimpleField name="control_location" type="string"></SimpleField>
	<SimpleField name="benchmark_type" type="string"></SimpleField>
	<SimpleField name="leveling_line_section" type="string"></SimpleField>
	<SimpleField name="location_description" type="string"></SimpleField>
	<SimpleField name="status" type="string"></SimpleField>
	<SimpleField name="guid" type="string"></SimpleField>
	<SimpleField name="kml" type="string"></SimpleField>
	<SimpleField name="kml_link" type="string"></SimpleField>
</Schema>
<Folder><name>b449ab70</name>
  <Placemark id="b449ab70.1">
	<name>281</name>
	<description>грунт.реп</description>
	<ExtendedData><SchemaData schemaUrl="#b449ab70">
		<SimpleData name="type">1</SimpleData>
		<SimpleData name="view">193083</SimpleData>
		<SimpleData name="leveling_order">192084</SimpleData>
		<SimpleData name="leveling_height">Контрольный репер в трубе</SimpleData>
		<SimpleData name="benchmark_number">107</SimpleData>
		<SimpleData name="control_location">Линия №1: Звермноголовское - Семиозерный, I класс (I); Участок: марка 1216 - грунт.реп.548</SimpleData>
		<SimpleData name="benchmark_type">Талапкер, с., в 5.6 км к юго-вост.от него, в 0.1 км к зап.от тлф.стб. № №63/282, в 30 м к вост.от оси дороги гор.Кустанай - с.Семиозерное</SimpleData>
		<SimpleData name="leveling_line_section">утрачен</SimpleData>
		<SimpleData name="location_description">b449ab70-9a69-452e-908f-46d181ea583d</SimpleData>
		<SimpleData name="status">data/stations/b449ab70.kml</SimpleData>
		<SimpleData name="guid">&lt;a href='data/stations/b449ab70.kml' target='_blank'&gt;Download KML&lt;/a&gt;</SimpleData>
	</SchemaData></ExtendedData>
      <Point><coordinates>63.7615468005698,53.0031020659283</coordinates></Point>
  </Placemark>
</Folder>
</Document></kml>
