<?xml version="1.0" encoding="utf-8" ?>
<kml xmlns="http://www.opengis.net/kml/2.2">
<Document id="root_doc">
<Schema name="b47c08ea" id="b47c08ea">
	<SimpleField name="type" type="string"></SimpleField>
	<SimpleField name="view" type="string"></SimpleField>
	<SimpleField name="leveling_order" type="string"></SimpleField>
	<SimpleField name="leveling_height" type="string"></SimpleField>
	<SimpleField name="control_height" type="string"></SimpleField>
	<SimpleField name="benchmark_number" type="string"></SimpleField>
	<SimpleField name="control_location" type="string"></SimpleField>
	<SimpleField name="benchmark_type" type="string"></SimpleField>
	<SimpleField name="leveling_line_section" type="string"></SimpleField>
	<SimpleField name="location_description" type="string"></SimpleField>
	<SimpleField name="status" type="string"></SimpleField>
	<SimpleField name="guid" type="string"></SimpleField>
	<SimpleField name="kml" type="string"></SimpleField>
	<SimpleField name="kml_link" type="string"></SimpleField>
</Schema>
<Folder><name>b47c08ea</name>
  <Placemark id="b47c08ea.1">
	<name>4929</name>
	<name>грунт,реп</name>
	<ExtendedData><SchemaData schemaUrl="#b47c08ea">
		<SimpleData name="type">1</SimpleData>
		<SimpleData name="view">212.788</SimpleData>
		<SimpleData name="benchmark_number">160оп</SimpleData>
		<SimpleData name="control_location">Линия № 1: Аральск (аральское море)-Арысь, 1 класс (1), Участок:грунт,реп, 1144-грунт,реп, 996</SimpleData>
		<SimpleData name="benchmark_type">Раз,№ 32, в 4,2 км к сев-зап, От него, на 6-ом ПК 3092 км жел,дор,, в 28 м к юго-зап, От жел,-дор,полотка</SimpleData>
		<SimpleData name="leveling_line_section"></SimpleData>
		<SimpleData name="location_description">b47c08ea-7b7b-47b0-9e0f-2464e3d26050</SimpleData>
		<SimpleData name="status">data/stations/b47c08ea.kml</SimpleData>
		<SimpleData name="guid">&lt;a href='data/stations/b47c08ea.kml' target='_blank'&gt;Download KML&lt;/a&gt;</SimpleData>
	</SchemaData></ExtendedData>
      <Point><coordinates>68.0827376787852,43.3546786215624</coordinates></Point>
  </Placemark>
</Folder>
</Document></kml>
