<?xml version="1.0" encoding="utf-8" ?>
<kml xmlns="http://www.opengis.net/kml/2.2">
<Document id="root_doc">
<Schema name="b4985a32" id="b4985a32">
	<SimpleField name="title" type="string"></SimpleField>
	<SimpleField name="type" type="string"></SimpleField>
	<SimpleField name="ext_sign" type="string"></SimpleField>
	<SimpleField name="class_lvl" type="string"></SimpleField>
	<SimpleField name="height_lvl" type="string"></SimpleField>
	<SimpleField name="height_ctrl" type="string"></SimpleField>
	<SimpleField name="ctrl_place" type="string"></SimpleField>
	<SimpleField name="mark_num" type="string"></SimpleField>
	<SimpleField name="center_type" type="string"></SimpleField>
	<SimpleField name="lvl_line" type="string"></SimpleField>
	<SimpleField name="guid" type="string"></SimpleField>
</Schema>
<Folder><name>b4985a32</name>
  <Placemark id="b4985a32.1">
	<name>8169</name>
	<description>грунтовый репер</description>
	<ExtendedData><SchemaData schemaUrl="#b4985a32">
		<SimpleData name="type">1</SimpleData>
		<SimpleData name="ext_sign">127.452</SimpleData>
		<SimpleData name="ctrl_place">160 оп</SimpleData>
		<SimpleData name="mark_num">Линия 241: Аральск-Семиозерное, 1 класс№ Участок: грунт. реп. 3304 - грунт.реп. 1378</SimpleData>
		<SimpleData name="center_type">Наурзум, с., в 9,4 км к юго вост. от него, в 0,7 км к юго-вост. от поворотного стб.линии связи, в 22 м к сев.-вост.от 11го стб.линии связи</SimpleData>
		<SimpleData name="lvl_line">b4985a32-15d2-4aa2-a8a8-c7dc85b1f3b4</SimpleData>
	</SchemaData></ExtendedData>
      <Point><coordinates>64.5865809295452,51.4373675946454</coordinates></Point>
  </Placemark>
</Folder>
</Document></kml>
