<?xml version="1.0" encoding="utf-8" ?>
<kml xmlns="http://www.opengis.net/kml/2.2">
<Document id="root_doc">
<Schema name="b4a5f2e1" id="b4a5f2e1">
	<SimpleField name="type" type="string"></SimpleField>
	<SimpleField name="view" type="string"></SimpleField>
	<SimpleField name="leveling_order" type="string"></SimpleField>
	<SimpleField name="leveling_height" type="string"></SimpleField>
	<SimpleField name="control_height" type="string"></SimpleField>
	<SimpleField name="benchmark_number" type="string"></SimpleField>
	<SimpleField name="control_location" type="string"></SimpleField>
	<SimpleField name="benchmark_type" type="string"></SimpleField>
	<SimpleField name="leveling_line_section" type="string"></SimpleField>
	<SimpleField name="location_description" type="string"></SimpleField>
	<SimpleField name="status" type="string"></SimpleField>
	<SimpleField name="guid" type="string"></SimpleField>
	<SimpleField name="kml" type="string"></SimpleField>
	<SimpleField name="kml_link" type="string"></SimpleField>
</Schema>
<Folder><name>b4a5f2e1</name>
  <Placemark id="b4a5f2e1.1">
	<name>4477</name>
	<name>грунт.реп.</name>
	<description>грунт.реп.</description>
	<ExtendedData><SchemaData schemaUrl="#b4a5f2e1">
		<SimpleData name="type">II</SimpleData>
		<SimpleData name="view">411,068</SimpleData>
		<SimpleData name="benchmark_number">160 оп.знак</SimpleData>
		<SimpleData name="control_location">Линия № 1: Качагай-Акколь, II класс. Участок: грунт.реп. 4477-грунт.реп. 8600</SimpleData>
		<SimpleData name="benchmark_type">Бакбакты,с.,в 15,4км к сев.-зап. от него, в 42 м к сев.-вост. от км.стб.192/72 шоссе с.Баканас-гор.Алматы, в 25 м к сев.-вост. От тлгр.стб.68/516</SimpleData>
		<SimpleData name="location_description">b4a5f2e1-87dd-45c9-a276-420e75871977</SimpleData>
		<SimpleData name="status">data/stations/b4a5f2e1.kml</SimpleData>
		<SimpleData name="guid">&lt;a href='data/stations/b4a5f2e1.kml' target='_blank'&gt;Download KML&lt;/a&gt;</SimpleData>
	</SchemaData></ExtendedData>
      <Point><coordinates>76.5643385391889,44.6660082033901</coordinates></Point>
  </Placemark>
</Folder>
</Document></kml>
