<?xml version="1.0" encoding="utf-8" ?>
<kml xmlns="http://www.opengis.net/kml/2.2">
<Document id="root_doc">
<Schema name="b4ee02eb" id="b4ee02eb">
	<SimpleField name="title" type="string"></SimpleField>
	<SimpleField name="type" type="string"></SimpleField>
	<SimpleField name="ext_sign" type="string"></SimpleField>
	<SimpleField name="class_lvl" type="string"></SimpleField>
	<SimpleField name="height_lvl" type="string"></SimpleField>
	<SimpleField name="height_ctrl" type="string"></SimpleField>
	<SimpleField name="ctrl_place" type="string"></SimpleField>
	<SimpleField name="mark_num" type="string"></SimpleField>
	<SimpleField name="center_type" type="string"></SimpleField>
	<SimpleField name="lvl_line" type="string"></SimpleField>
	<SimpleField name="guid" type="string"></SimpleField>
</Schema>
<Folder><name>b4ee02eb</name>
  <Placemark id="b4ee02eb.1">
	<description>Фундаментальный репер</description>
	<ExtendedData><SchemaData schemaUrl="#b4ee02eb">
		<SimpleData name="type">1</SimpleData>
		<SimpleData name="ctrl_place">161</SimpleData>
		<SimpleData name="lvl_line">b4ee02eb-90d1-404b-85e0-aa0de328ca53</SimpleData>
	</SchemaData></ExtendedData>
      <Point><coordinates>69.7835113333333,48.3207586666667</coordinates></Point>
  </Placemark>
</Folder>
</Document></kml>
