<?xml version="1.0" encoding="utf-8" ?>
<kml xmlns="http://www.opengis.net/kml/2.2">
<Document id="root_doc">
<Schema name="b575f183" id="b575f183">
	<SimpleField name="title" type="string"></SimpleField>
	<SimpleField name="type" type="string"></SimpleField>
	<SimpleField name="ext_sign" type="string"></SimpleField>
	<SimpleField name="class_lvl" type="string"></SimpleField>
	<SimpleField name="height_lvl" type="string"></SimpleField>
	<SimpleField name="height_ctrl" type="string"></SimpleField>
	<SimpleField name="ctrl_place" type="string"></SimpleField>
	<SimpleField name="mark_num" type="string"></SimpleField>
	<SimpleField name="center_type" type="string"></SimpleField>
	<SimpleField name="lvl_line" type="string"></SimpleField>
	<SimpleField name="guid" type="string"></SimpleField>
</Schema>
<Folder><name>b575f183</name>
  <Placemark id="b575f183.1">
	<name>7258</name>
	<ExtendedData><SchemaData schemaUrl="#b575f183">
		<SimpleData name="title">грунт.реп.</SimpleData>
		<SimpleData name="type">II</SimpleData>
		<SimpleData name="ext_sign">366.17</SimpleData>
		<SimpleData name="height_lvl">160 оп.знак</SimpleData>
		<SimpleData name="height_ctrl">Линия № 5: Кызыл-Джар - фунд.реп. 2723 II класс (4) Участок: фунд.реп. 498 - грунт.реп.0088</SimpleData>
		<SimpleData name="ctrl_place">Кызылжар, станция, в 11.9 км к юго-вост. от нее, в 4.2 км к югу от жел.дор., в 40 м к зап. от полевой дороги</SimpleData>
		<SimpleData name="mark_num">M-42-XXXIV</SimpleData>
		<SimpleData name="center_type">12</SimpleData>
		<SimpleData name="lvl_line">b575f183-d33f-465e-8aca-4bb5f7ccf2bd</SimpleData>
	</SchemaData></ExtendedData>
      <Point><coordinates>69.8060538333333,48.2882133333333</coordinates></Point>
  </Placemark>
</Folder>
</Document></kml>
