<?xml version="1.0" encoding="utf-8" ?>
<kml xmlns="http://www.opengis.net/kml/2.2">
<Document id="root_doc">
<Schema name="b59d918c" id="b59d918c">
	<SimpleField name="title" type="string"></SimpleField>
	<SimpleField name="type" type="string"></SimpleField>
	<SimpleField name="ext_sign" type="string"></SimpleField>
	<SimpleField name="class_lvl" type="string"></SimpleField>
	<SimpleField name="height_lvl" type="string"></SimpleField>
	<SimpleField name="height_ctrl" type="string"></SimpleField>
	<SimpleField name="ctrl_place" type="string"></SimpleField>
	<SimpleField name="mark_num" type="string"></SimpleField>
	<SimpleField name="center_type" type="string"></SimpleField>
	<SimpleField name="lvl_line" type="string"></SimpleField>
	<SimpleField name="guid" type="string"></SimpleField>
</Schema>
<Folder><name>b59d918c</name>
  <Placemark id="b59d918c.1">
	<name>3398</name>
	<description>фундаментальный репер</description>
	<ExtendedData><SchemaData schemaUrl="#b59d918c">
		<SimpleData name="type">1</SimpleData>
		<SimpleData name="ext_sign">884.220</SimpleData>
		<SimpleData name="ctrl_place">В</SimpleData>
		<SimpleData name="center_type">Кокшетау, с., в 18.3 км к югу от него, в 4.5 км к вост. от г.Акбюрат, в 2.0 км к юго-зап. от разв.Майозек.</SimpleData>
		<SimpleData name="lvl_line">b59d918c-e59e-4a1c-9a18-bb5eae5793aa</SimpleData>
	</SchemaData></ExtendedData>
      <Point><coordinates>76.8859286978584,48.8131982713658</coordinates></Point>
  </Placemark>
</Folder>
</Document></kml>
