<?xml version="1.0" encoding="utf-8" ?>
<kml xmlns="http://www.opengis.net/kml/2.2">
<Document id="root_doc">
<Schema name="b5fd1a40" id="b5fd1a40">
	<SimpleField name="type" type="string"></SimpleField>
	<SimpleField name="view" type="string"></SimpleField>
	<SimpleField name="leveling_order" type="string"></SimpleField>
	<SimpleField name="leveling_height" type="string"></SimpleField>
	<SimpleField name="control_height" type="string"></SimpleField>
	<SimpleField name="benchmark_number" type="string"></SimpleField>
	<SimpleField name="control_location" type="string"></SimpleField>
	<SimpleField name="benchmark_type" type="string"></SimpleField>
	<SimpleField name="leveling_line_section" type="string"></SimpleField>
	<SimpleField name="location_description" type="string"></SimpleField>
	<SimpleField name="status" type="string"></SimpleField>
	<SimpleField name="guid" type="string"></SimpleField>
	<SimpleField name="kml" type="string"></SimpleField>
	<SimpleField name="kml_link" type="string"></SimpleField>
</Schema>
<Folder><name>b5fd1a40</name>
  <Placemark id="b5fd1a40.1">
	<name>8898</name>
	<name>грунтовый репер</name>
	<ExtendedData><SchemaData schemaUrl="#b5fd1a40">
		<SimpleData name="type">2</SimpleData>
		<SimpleData name="view">375,303</SimpleData>
		<SimpleData name="control_location">Линия № 4: Жезказган (фунд, реп. 495) - Древний Курган (фунд, реп. 1377), 2 класс (5)</SimpleData>
		<SimpleData name="benchmark_type">Перевалочная, станц,, в 8,1 км            к югу от неё, в 3,1 км к сев,                от кладб, Сарыбас, в 34 м к вост, от грунт. дороги с, Жезказган - разв, Ески Талап</SimpleData>
		<SimpleData name="location_description">b5fd1a40-2be4-4e4d-abea-0be40834b9b6</SimpleData>
		<SimpleData name="status">data/stations/b5fd1a40.kml</SimpleData>
		<SimpleData name="guid">&lt;a href='data/stations/b5fd1a40.kml' target='_blank'&gt;Download KML&lt;/a&gt;</SimpleData>
	</SchemaData></ExtendedData>
      <Point><coordinates>67.4586311400101,47.7785921059714</coordinates></Point>
  </Placemark>
</Folder>
</Document></kml>
