<?xml version="1.0" encoding="utf-8" ?>
<kml xmlns="http://www.opengis.net/kml/2.2">
<Document id="root_doc">
<Schema name="b6346e5a" id="b6346e5a">
	<SimpleField name="title" type="string"></SimpleField>
	<SimpleField name="type" type="string"></SimpleField>
	<SimpleField name="ext_sign" type="string"></SimpleField>
	<SimpleField name="class_lvl" type="string"></SimpleField>
	<SimpleField name="height_lvl" type="string"></SimpleField>
	<SimpleField name="height_ctrl" type="string"></SimpleField>
	<SimpleField name="ctrl_place" type="string"></SimpleField>
	<SimpleField name="mark_num" type="string"></SimpleField>
	<SimpleField name="center_type" type="string"></SimpleField>
	<SimpleField name="lvl_line" type="string"></SimpleField>
	<SimpleField name="guid" type="string"></SimpleField>
</Schema>
<Folder><name>b6346e5a</name>
  <Placemark id="b6346e5a.1">
	<name>624 (закладка)</name>
	<description>Грунтовых репер</description>
	<ExtendedData><SchemaData schemaUrl="#b6346e5a">
		<SimpleData name="title">160 оп знак</SimpleData>
		<SimpleData name="lvl_line">b6346e5a-7e25-4dad-9485-756cc0960c10</SimpleData>
	</SchemaData></ExtendedData>
      <Point><coordinates>72.80524,50.574605</coordinates></Point>
  </Placemark>
</Folder>
</Document></kml>
