<?xml version="1.0" encoding="utf-8" ?>
<kml xmlns="http://www.opengis.net/kml/2.2">
<Document id="root_doc">
<Schema name="b6b5db49" id="b6b5db49">
	<SimpleField name="type" type="string"></SimpleField>
	<SimpleField name="view" type="string"></SimpleField>
	<SimpleField name="leveling_order" type="string"></SimpleField>
	<SimpleField name="leveling_height" type="string"></SimpleField>
	<SimpleField name="control_height" type="string"></SimpleField>
	<SimpleField name="benchmark_number" type="string"></SimpleField>
	<SimpleField name="control_location" type="string"></SimpleField>
	<SimpleField name="benchmark_type" type="string"></SimpleField>
	<SimpleField name="leveling_line_section" type="string"></SimpleField>
	<SimpleField name="location_description" type="string"></SimpleField>
	<SimpleField name="status" type="string"></SimpleField>
	<SimpleField name="guid" type="string"></SimpleField>
	<SimpleField name="kml" type="string"></SimpleField>
	<SimpleField name="kml_link" type="string"></SimpleField>
</Schema>
<Folder><name>b6b5db49</name>
  <Placemark id="b6b5db49.1">
	<name>9251</name>
	<description>грунт. реп.</description>
	<ExtendedData><SchemaData schemaUrl="#b6b5db49">
		<SimpleData name="type">1</SimpleData>
		<SimpleData name="view">809.923</SimpleData>
		<SimpleData name="benchmark_number">160 оп</SimpleData>
		<SimpleData name="control_location">Линия №1: Каркаралинск - Аягуз, I класс (1) Участок: грунт. реп. 2886 - ск. реп. 0686</SimpleData>
		<SimpleData name="benchmark_type">Корешты, г., в 10,8 км к сев.-вост. от нее, в 5,2 км к юго-вост. от мог. Сартымбект, в 20 м от пол. дороги</SimpleData>
		<SimpleData name="location_description">b6b5db49-ce11-40cd-be6a-a9f2c9e6b785</SimpleData>
		<SimpleData name="status">data/stations/b6b5db49.kml</SimpleData>
		<SimpleData name="guid">&lt;a href='data/stations/b6b5db49.kml' target='_blank'&gt;Download KML&lt;/a&gt;</SimpleData>
	</SchemaData></ExtendedData>
      <Point><coordinates>77.2569873272672,48.6336604976326</coordinates></Point>
  </Placemark>
</Folder>
</Document></kml>
