<?xml version="1.0" encoding="utf-8" ?>
<kml xmlns="http://www.opengis.net/kml/2.2">
<Document id="root_doc">
<Schema name="b7ae056b" id="b7ae056b">
	<SimpleField name="type" type="string"></SimpleField>
	<SimpleField name="view" type="string"></SimpleField>
	<SimpleField name="leveling_order" type="string"></SimpleField>
	<SimpleField name="leveling_height" type="string"></SimpleField>
	<SimpleField name="control_height" type="string"></SimpleField>
	<SimpleField name="benchmark_number" type="string"></SimpleField>
	<SimpleField name="control_location" type="string"></SimpleField>
	<SimpleField name="benchmark_type" type="string"></SimpleField>
	<SimpleField name="leveling_line_section" type="string"></SimpleField>
	<SimpleField name="location_description" type="string"></SimpleField>
	<SimpleField name="status" type="string"></SimpleField>
	<SimpleField name="guid" type="string"></SimpleField>
	<SimpleField name="kml" type="string"></SimpleField>
	<SimpleField name="kml_link" type="string"></SimpleField>
</Schema>
<Folder><name>b7ae056b</name>
  <Placemark id="b7ae056b.1">
	<name>28</name>
	<name>грунт.реп.</name>
	<ExtendedData><SchemaData schemaUrl="#b7ae056b">
		<SimpleData name="type">2</SimpleData>
		<SimpleData name="view">121,502</SimpleData>
		<SimpleData name="leveling_order">119,965</SimpleData>
		<SimpleData name="benchmark_number">131 оп</SimpleData>
		<SimpleData name="control_location">Линия№1: Тургай-Кызылуй, II класс. Участок: грунт.реп. 4830-грунт.реп. 9154</SimpleData>
		<SimpleData name="benchmark_type">свх. Аккульский, в 24.6 км к сев.-вост. от него, в 8.2 км к сев.-зап. от солончака Каратуз, в 27 м к сев.-зап. от дороги в с. Байконур</SimpleData>
		<SimpleData name="location_description">b7ae056b-8cba-4266-a57f-f376b3b28b4a</SimpleData>
		<SimpleData name="status">data/stations/b7ae056b.kml</SimpleData>
		<SimpleData name="guid">&lt;a href='data/stations/b7ae056b.kml' target='_blank'&gt;Download KML&lt;/a&gt;</SimpleData>
	</SchemaData></ExtendedData>
      <Point><coordinates>64.0238845583122,49.128629088445</coordinates></Point>
  </Placemark>
</Folder>
</Document></kml>
