<?xml version="1.0" encoding="utf-8" ?>
<kml xmlns="http://www.opengis.net/kml/2.2">
<Document id="root_doc">
<Schema name="b7c309f8" id="b7c309f8">
	<SimpleField name="title" type="string"></SimpleField>
	<SimpleField name="type" type="string"></SimpleField>
	<SimpleField name="ext_sign" type="string"></SimpleField>
	<SimpleField name="class_lvl" type="string"></SimpleField>
	<SimpleField name="height_lvl" type="string"></SimpleField>
	<SimpleField name="height_ctrl" type="string"></SimpleField>
	<SimpleField name="ctrl_place" type="string"></SimpleField>
	<SimpleField name="mark_num" type="string"></SimpleField>
	<SimpleField name="center_type" type="string"></SimpleField>
	<SimpleField name="lvl_line" type="string"></SimpleField>
	<SimpleField name="guid" type="string"></SimpleField>
</Schema>
<Folder><name>b7c309f8</name>
  <Placemark id="b7c309f8.1">
	<name>8367</name>
	<description>грунтовый репер</description>
	<ExtendedData><SchemaData schemaUrl="#b7c309f8">
		<SimpleData name="type">1</SimpleData>
		<SimpleData name="ext_sign">268,417</SimpleData>
		<SimpleData name="ctrl_place">160 оп, знак</SimpleData>
		<SimpleData name="mark_num">Линия № 1: Торыустаган - Бирлик, I класс (1) Участок: грунт, реп, 237 - грунт, реп, 1530</SimpleData>
		<SimpleData name="center_type">Уланбель, с, в 12,2 км к юго-вост, от него, в 1,3 км к зап, от пир, 2 кл, Жаланаш, в 0,2 км к юго-вост, от км, стб, № 12/209</SimpleData>
		<SimpleData name="lvl_line">b7c309f8-8e60-42eb-97ce-1cc82afea753</SimpleData>
	</SchemaData></ExtendedData>
      <Point><coordinates>71.2293244023182,44.7339652228301</coordinates></Point>
  </Placemark>
</Folder>
</Document></kml>
