<?xml version="1.0" encoding="utf-8" ?>
<kml xmlns="http://www.opengis.net/kml/2.2">
<Document id="root_doc">
<Schema name="b7e86eaa" id="b7e86eaa">
	<SimpleField name="type" type="string"></SimpleField>
	<SimpleField name="view" type="string"></SimpleField>
	<SimpleField name="leveling_order" type="string"></SimpleField>
	<SimpleField name="leveling_height" type="string"></SimpleField>
	<SimpleField name="control_height" type="string"></SimpleField>
	<SimpleField name="benchmark_number" type="string"></SimpleField>
	<SimpleField name="control_location" type="string"></SimpleField>
	<SimpleField name="benchmark_type" type="string"></SimpleField>
	<SimpleField name="leveling_line_section" type="string"></SimpleField>
	<SimpleField name="location_description" type="string"></SimpleField>
	<SimpleField name="status" type="string"></SimpleField>
	<SimpleField name="guid" type="string"></SimpleField>
	<SimpleField name="kml" type="string"></SimpleField>
	<SimpleField name="kml_link" type="string"></SimpleField>
</Schema>
<Folder><name>b7e86eaa</name>
  <Placemark id="b7e86eaa.1">
	<name>3909</name>
	<name>фундаментальный репер</name>
	<ExtendedData><SchemaData schemaUrl="#b7e86eaa">
		<SimpleData name="type">II</SimpleData>
		<SimpleData name="view">708,632</SimpleData>
		<SimpleData name="benchmark_number">99оп</SimpleData>
		<SimpleData name="control_location">Линия № 2: Спасск - Каркаралинск, II класс (2) Участок: грунт.реп. 428 -ск.реп. 0131</SimpleData>
		<SimpleData name="benchmark_type">Кызылту, с., в 2,3 км к зап.от него, в 0,3 км к сев.-зап.от мог.Байгельды, в 35 м к юго-вост.от вод.-поста на р. Акбастау</SimpleData>
		<SimpleData name="location_description">b7e86eaa-4003-4f6b-92b3-c667ed2a990a</SimpleData>
		<SimpleData name="status">data/stations/b7e86eaa.kml</SimpleData>
		<SimpleData name="guid">&lt;a href='data/stations/b7e86eaa.kml' target='_blank'&gt;Download KML&lt;/a&gt;</SimpleData>
	</SchemaData></ExtendedData>
      <Point><coordinates>74.1956270360506,49.3435613937094</coordinates></Point>
  </Placemark>
</Folder>
</Document></kml>
