<?xml version="1.0" encoding="utf-8" ?>
<kml xmlns="http://www.opengis.net/kml/2.2">
<Document id="root_doc">
<Schema name="b7fc59d8" id="b7fc59d8">
	<SimpleField name="title" type="string"></SimpleField>
	<SimpleField name="type" type="string"></SimpleField>
	<SimpleField name="ext_sign" type="string"></SimpleField>
	<SimpleField name="class_lvl" type="string"></SimpleField>
	<SimpleField name="height_lvl" type="string"></SimpleField>
	<SimpleField name="height_ctrl" type="string"></SimpleField>
	<SimpleField name="ctrl_place" type="string"></SimpleField>
	<SimpleField name="mark_num" type="string"></SimpleField>
	<SimpleField name="center_type" type="string"></SimpleField>
	<SimpleField name="lvl_line" type="string"></SimpleField>
	<SimpleField name="guid" type="string"></SimpleField>
</Schema>
<Folder><name>b7fc59d8</name>
  <Placemark id="b7fc59d8.1">
	<name>5826</name>
	<description>фундаментальный репер</description>
	<ExtendedData><SchemaData schemaUrl="#b7fc59d8">
		<SimpleData name="type">1</SimpleData>
		<SimpleData name="ext_sign">325,093</SimpleData>
		<SimpleData name="class_lvl">323,555</SimpleData>
		<SimpleData name="height_lvl">в фундаментной плите</SimpleData>
		<SimpleData name="height_ctrl">5748</SimpleData>
		<SimpleData name="ctrl_place">161 оп, знак</SimpleData>
		<SimpleData name="mark_num">Линия № 1: Тюемойнак - Торетоган, 1 класс (1) Участок: грунт, реп, 5812 - грунт,реп, 8871</SimpleData>
		<SimpleData name="center_type">Туйемойнак, с,, в 20,0 км к юго-вост, от него, в 6,1 км к сев,-зап, от к, Акколь, в 10 м к вост, от полевой дороги</SimpleData>
		<SimpleData name="lvl_line">b7fc59d8-7d43-42ad-baa7-51d41fcb1651</SimpleData>
	</SchemaData></ExtendedData>
      <Point><coordinates>69.1487547785415,47.6858667782062</coordinates></Point>
  </Placemark>
</Folder>
</Document></kml>
