<?xml version="1.0" encoding="utf-8" ?>
<kml xmlns="http://www.opengis.net/kml/2.2">
<Document id="root_doc">
<Schema name="b8029ab4" id="b8029ab4">
	<SimpleField name="type" type="string"></SimpleField>
	<SimpleField name="view" type="string"></SimpleField>
	<SimpleField name="leveling_order" type="string"></SimpleField>
	<SimpleField name="leveling_height" type="string"></SimpleField>
	<SimpleField name="control_height" type="string"></SimpleField>
	<SimpleField name="benchmark_number" type="string"></SimpleField>
	<SimpleField name="control_location" type="string"></SimpleField>
	<SimpleField name="benchmark_type" type="string"></SimpleField>
	<SimpleField name="leveling_line_section" type="string"></SimpleField>
	<SimpleField name="location_description" type="string"></SimpleField>
	<SimpleField name="status" type="string"></SimpleField>
	<SimpleField name="guid" type="string"></SimpleField>
	<SimpleField name="kml" type="string"></SimpleField>
	<SimpleField name="kml_link" type="string"></SimpleField>
</Schema>
<Folder><name>b8029ab4</name>
  <Placemark id="b8029ab4.1">
	<name>532</name>
	<name>грунт.реп.</name>
	<ExtendedData><SchemaData schemaUrl="#b8029ab4">
		<SimpleData name="type">II</SimpleData>
		<SimpleData name="view">129.632</SimpleData>
		<SimpleData name="benchmark_number">121 оп.знак</SimpleData>
		<SimpleData name="control_location">Линия № 3: Золоторунное - Чистовское. II класс Участок: грунт, реп. б/№ - марка 3139</SimpleData>
		<SimpleData name="benchmark_type">Косколь, с., в 3.0 км к югу от него с. в 16 м к зап. от улучшенной грунт. дороги г. Булаево - с. Узынколь, на сев. краю кустарника </SimpleData>
		<SimpleData name="location_description">b8029ab4-bb56-4eb0-8341-cf607f75d140</SimpleData>
		<SimpleData name="status">data/stations/b8029ab4.kml</SimpleData>
		<SimpleData name="guid">&lt;a href='data/stations/b8029ab4.kml' target='_blank'&gt;Download KML&lt;/a&gt;</SimpleData>
	</SchemaData></ExtendedData>
      <Point><coordinates>70.6660304231693,54.6750406621776</coordinates></Point>
  </Placemark>
</Folder>
</Document></kml>
