<?xml version="1.0" encoding="utf-8" ?>
<kml xmlns="http://www.opengis.net/kml/2.2">
<Document id="root_doc">
<Schema name="b816f7d1" id="b816f7d1">
	<SimpleField name="type" type="string"></SimpleField>
	<SimpleField name="view" type="string"></SimpleField>
	<SimpleField name="leveling_order" type="string"></SimpleField>
	<SimpleField name="leveling_height" type="string"></SimpleField>
	<SimpleField name="control_height" type="string"></SimpleField>
	<SimpleField name="benchmark_number" type="string"></SimpleField>
	<SimpleField name="control_location" type="string"></SimpleField>
	<SimpleField name="benchmark_type" type="string"></SimpleField>
	<SimpleField name="leveling_line_section" type="string"></SimpleField>
	<SimpleField name="location_description" type="string"></SimpleField>
	<SimpleField name="status" type="string"></SimpleField>
	<SimpleField name="guid" type="string"></SimpleField>
	<SimpleField name="kml" type="string"></SimpleField>
	<SimpleField name="kml_link" type="string"></SimpleField>
</Schema>
<Folder><name>b816f7d1</name>
  <Placemark id="b816f7d1.1">
	<name>7492</name>
	<name>грунтовый репер</name>
	<ExtendedData><SchemaData schemaUrl="#b816f7d1">
		<SimpleData name="type">2</SimpleData>
		<SimpleData name="view">377,276</SimpleData>
		<SimpleData name="control_location">Линия № 2: Созак -               Туркистан, II класс (2) Участок: фунд. реп. 6972 - грунт. реп. 8059</SimpleData>
		<SimpleData name="benchmark_type">Созак, с., в 5.5 км к юго-зап. от него,                          в 0.4 км к сев.-вост. от развалин и зимовки,                       в 33 м к сев.-зап. от полевой дороги</SimpleData>
		<SimpleData name="location_description">b816f7d1-bcfb-4fc5-b5e9-302c74860b1f</SimpleData>
		<SimpleData name="status">data/stations/b816f7d1.kml</SimpleData>
		<SimpleData name="guid">&lt;a href='data/stations/b816f7d1.kml' target='_blank'&gt;Download KML&lt;/a&gt;</SimpleData>
	</SchemaData></ExtendedData>
      <Point><coordinates>68.3984366532269,44.1065757280464</coordinates></Point>
  </Placemark>
</Folder>
</Document></kml>
