<?xml version="1.0" encoding="utf-8" ?>
<kml xmlns="http://www.opengis.net/kml/2.2">
<Document id="root_doc">
<Schema name="b82bd781" id="b82bd781">
	<SimpleField name="title" type="string"></SimpleField>
	<SimpleField name="type" type="string"></SimpleField>
	<SimpleField name="ext_sign" type="string"></SimpleField>
	<SimpleField name="class_lvl" type="string"></SimpleField>
	<SimpleField name="height_lvl" type="string"></SimpleField>
	<SimpleField name="height_ctrl" type="string"></SimpleField>
	<SimpleField name="ctrl_place" type="string"></SimpleField>
	<SimpleField name="mark_num" type="string"></SimpleField>
	<SimpleField name="center_type" type="string"></SimpleField>
	<SimpleField name="lvl_line" type="string"></SimpleField>
	<SimpleField name="guid" type="string"></SimpleField>
</Schema>
<Folder><name>b82bd781</name>
  <Placemark id="b82bd781.1">
	<name>7808</name>
	<ExtendedData><SchemaData schemaUrl="#b82bd781">
		<SimpleData name="title">гр. реп.</SimpleData>
		<SimpleData name="type">2</SimpleData>
		<SimpleData name="ext_sign">1,049</SimpleData>
		<SimpleData name="ctrl_place">160 оп. знак</SimpleData>
		<SimpleData name="mark_num">Линия:  Русская Таловка - Керей</SimpleData>
		<SimpleData name="center_type">Жанакала, с., в 1,0 км к юго-вост. от него, в 0,3 км к сев-вост. от моста между озерами, в 12 м к югу от поворотного стб. ЛЭП</SimpleData>
		<SimpleData name="lvl_line">b82bd781-a227-416f-a042-62c9b0348b7e</SimpleData>
	</SchemaData></ExtendedData>
      <Point><coordinates>50.3256534970604,49.2014354746847</coordinates></Point>
  </Placemark>
</Folder>
</Document></kml>
