<?xml version="1.0" encoding="utf-8" ?>
<kml xmlns="http://www.opengis.net/kml/2.2">
<Document id="root_doc">
<Schema name="b82c3c8d" id="b82c3c8d">
	<SimpleField name="title" type="string"></SimpleField>
	<SimpleField name="type" type="string"></SimpleField>
	<SimpleField name="ext_sign" type="string"></SimpleField>
	<SimpleField name="class_lvl" type="string"></SimpleField>
	<SimpleField name="height_lvl" type="string"></SimpleField>
	<SimpleField name="height_ctrl" type="string"></SimpleField>
	<SimpleField name="ctrl_place" type="string"></SimpleField>
	<SimpleField name="mark_num" type="string"></SimpleField>
	<SimpleField name="center_type" type="string"></SimpleField>
	<SimpleField name="lvl_line" type="string"></SimpleField>
	<SimpleField name="guid" type="string"></SimpleField>
</Schema>
<Folder><name>b82c3c8d</name>
  <Placemark id="b82c3c8d.1">
	<name>3023</name>
	<description>грунтовый репер</description>
	<ExtendedData><SchemaData schemaUrl="#b82c3c8d">
		<SimpleData name="type">1</SimpleData>
		<SimpleData name="ext_sign">275.162</SimpleData>
		<SimpleData name="height_lvl">160 оп</SimpleData>
		<SimpleData name="mark_num">Линия № 1: Сергеевка-Терсаккан. І класс </SimpleData>
		<SimpleData name="center_type">Шалгай.с..в 2.7 км к сев.-зап.от него.в 0.8 км к юго-зап.от мог.Бостбай.в 0.4 км к зап.от р.Терисаккан</SimpleData>
		<SimpleData name="lvl_line">b82c3c8d-f209-4e26-bc54-c17100d6fdaa</SimpleData>
	</SchemaData></ExtendedData>
      <Point><coordinates>67.7699944569013,50.7544861769922</coordinates></Point>
  </Placemark>
</Folder>
</Document></kml>
