<?xml version="1.0" encoding="utf-8" ?>
<kml xmlns="http://www.opengis.net/kml/2.2">
<Document id="root_doc">
<Schema name="b863a0e5" id="b863a0e5">
	<SimpleField name="type" type="string"></SimpleField>
	<SimpleField name="view" type="string"></SimpleField>
	<SimpleField name="leveling_order" type="string"></SimpleField>
	<SimpleField name="leveling_height" type="string"></SimpleField>
	<SimpleField name="control_height" type="string"></SimpleField>
	<SimpleField name="benchmark_number" type="string"></SimpleField>
	<SimpleField name="control_location" type="string"></SimpleField>
	<SimpleField name="benchmark_type" type="string"></SimpleField>
	<SimpleField name="leveling_line_section" type="string"></SimpleField>
	<SimpleField name="location_description" type="string"></SimpleField>
	<SimpleField name="status" type="string"></SimpleField>
	<SimpleField name="guid" type="string"></SimpleField>
	<SimpleField name="kml" type="string"></SimpleField>
	<SimpleField name="kml_link" type="string"></SimpleField>
</Schema>
<Folder><name>b863a0e5</name>
  <Placemark id="b863a0e5.1">
	<name>8105</name>
	<description>грунт. реп.</description>
	<ExtendedData><SchemaData schemaUrl="#b863a0e5">
		<SimpleData name="type">1</SimpleData>
		<SimpleData name="view">143.945</SimpleData>
		<SimpleData name="leveling_height">Линия №1: Целиноград - Кулунда I класс Участок:  фунд. реп. 1015-грунт. реп. 7312</SimpleData>
		<SimpleData name="control_height">146 оп</SimpleData>
		<SimpleData name="benchmark_number">Маралды, станц.,  в 7.5 км к сев.-вост. от нее, в 30 м к сев.-зап.от км стб. 502/503, в 20 м к  сев.от ж/д        </SimpleData>
		<SimpleData name="benchmark_type">13</SimpleData>
		<SimpleData name="location_description">b863a0e5-13ea-45ec-ab11-f91ed61dd3a5</SimpleData>
		<SimpleData name="status">data/stations/b863a0e5.kml</SimpleData>
		<SimpleData name="guid">&lt;a href='data/stations/b863a0e5.kml' target='_blank'&gt;Download KML&lt;/a&gt;</SimpleData>
	</SchemaData></ExtendedData>
      <Point><coordinates>77.8776455473154,52.4440478665263</coordinates></Point>
  </Placemark>
</Folder>
</Document></kml>
