<?xml version="1.0" encoding="utf-8" ?>
<kml xmlns="http://www.opengis.net/kml/2.2">
<Document id="root_doc">
<Schema name="b88bf82d" id="b88bf82d">
	<SimpleField name="title" type="string"></SimpleField>
	<SimpleField name="type" type="string"></SimpleField>
	<SimpleField name="ext_sign" type="string"></SimpleField>
	<SimpleField name="class_lvl" type="string"></SimpleField>
	<SimpleField name="height_lvl" type="string"></SimpleField>
	<SimpleField name="height_ctrl" type="string"></SimpleField>
	<SimpleField name="ctrl_place" type="string"></SimpleField>
	<SimpleField name="mark_num" type="string"></SimpleField>
	<SimpleField name="center_type" type="string"></SimpleField>
	<SimpleField name="lvl_line" type="string"></SimpleField>
	<SimpleField name="guid" type="string"></SimpleField>
</Schema>
<Folder><name>b88bf82d</name>
  <Placemark id="b88bf82d.1">
	<name>897</name>
	<description>грунт.реп.</description>
	<ExtendedData><SchemaData schemaUrl="#b88bf82d">
		<SimpleData name="type">2</SimpleData>
		<SimpleData name="ext_sign">106.208</SimpleData>
		<SimpleData name="class_lvl">104.87</SimpleData>
		<SimpleData name="height_lvl">Контрольный репер в фундаментальной плите</SimpleData>
		<SimpleData name="ctrl_place">116оп</SimpleData>
		<SimpleData name="mark_num">Линия №3: Жаркамыс - Казбек II класс (1) Участок: фунд.реп. 119 - фунд.реп. 11</SimpleData>
		<SimpleData name="center_type">с. Каражар в 7.0 км к юго-зап. От него в 3.5 км к сев.-вост.от с. Тасаудан в 0.4 км к сев.-зап. От р. Эмба в 22 м к юго-вост. от дороги с. Каражар - с. Тасаудан</SimpleData>
		<SimpleData name="lvl_line">b88bf82d-954d-4bd4-a83d-bba986d2a855</SimpleData>
	</SchemaData></ExtendedData>
      <Point><coordinates>56.1258605947148,47.7961156711975</coordinates></Point>
  </Placemark>
</Folder>
</Document></kml>
