<?xml version="1.0" encoding="utf-8" ?>
<kml xmlns="http://www.opengis.net/kml/2.2">
<Document id="root_doc">
<Schema name="b8cb5d4c" id="b8cb5d4c">
	<SimpleField name="title" type="string"></SimpleField>
	<SimpleField name="type" type="string"></SimpleField>
	<SimpleField name="ext_sign" type="string"></SimpleField>
	<SimpleField name="class_lvl" type="string"></SimpleField>
	<SimpleField name="height_lvl" type="string"></SimpleField>
	<SimpleField name="height_ctrl" type="string"></SimpleField>
	<SimpleField name="ctrl_place" type="string"></SimpleField>
	<SimpleField name="mark_num" type="string"></SimpleField>
	<SimpleField name="center_type" type="string"></SimpleField>
	<SimpleField name="lvl_line" type="string"></SimpleField>
	<SimpleField name="guid" type="string"></SimpleField>
</Schema>
<Folder><name>b8cb5d4c</name>
  <Placemark id="b8cb5d4c.1">
	<name>153</name>
	<ExtendedData><SchemaData schemaUrl="#b8cb5d4c">
		<SimpleData name="title">грунт.реп</SimpleData>
		<SimpleData name="type">2</SimpleData>
		<SimpleData name="ext_sign">394.532</SimpleData>
		<SimpleData name="class_lvl">393.404</SimpleData>
		<SimpleData name="height_lvl">репер  в верхней плоскости монолити</SimpleData>
		<SimpleData name="ctrl_place">121</SimpleData>
		<SimpleData name="mark_num">Линия № 4: Коскызыл-Джамбул, II класс (2). Ход от грунт.реп. 142 до грунт.реп. 173, II класс (4)</SimpleData>
		<SimpleData name="center_type">Акколь, с., в 11.0 км к сев.-вост.от него, в 0.3 км к юго-зап.от кошары, в 0.2 км к сев.от развилки полевой дороги</SimpleData>
		<SimpleData name="lvl_line">b8cb5d4c-5204-4b16-b335-dae9b3558d98</SimpleData>
	</SchemaData></ExtendedData>
      <Point><coordinates>70.8061866666667,43.5341183333333</coordinates></Point>
  </Placemark>
</Folder>
</Document></kml>
