<?xml version="1.0" encoding="utf-8" ?>
<kml xmlns="http://www.opengis.net/kml/2.2">
<Document id="root_doc">
<Schema name="b8f957b1" id="b8f957b1">
	<SimpleField name="title" type="string"></SimpleField>
	<SimpleField name="type" type="string"></SimpleField>
	<SimpleField name="ext_sign" type="string"></SimpleField>
	<SimpleField name="class_lvl" type="string"></SimpleField>
	<SimpleField name="height_lvl" type="string"></SimpleField>
	<SimpleField name="height_ctrl" type="string"></SimpleField>
	<SimpleField name="ctrl_place" type="string"></SimpleField>
	<SimpleField name="mark_num" type="string"></SimpleField>
	<SimpleField name="center_type" type="string"></SimpleField>
	<SimpleField name="lvl_line" type="string"></SimpleField>
	<SimpleField name="guid" type="string"></SimpleField>
</Schema>
<Folder><name>b8f957b1</name>
  <Placemark id="b8f957b1.1">
	<name>18023</name>
	<ExtendedData><SchemaData schemaUrl="#b8f957b1">
		<SimpleData name="title">грунт.реп.</SimpleData>
		<SimpleData name="type">2</SimpleData>
		<SimpleData name="ext_sign">104.399</SimpleData>
		<SimpleData name="class_lvl">103.071</SimpleData>
		<SimpleData name="height_lvl">Контрольный репер №1566 в верхней плоскости монолита</SimpleData>
		<SimpleData name="ctrl_place">121</SimpleData>
		<SimpleData name="mark_num">Линия №4: Озинки-Казахстан, 2 кл.(4,8) Участок: стен.реп.887-марка 4096</SimpleData>
		<SimpleData name="center_type">Яик, станц., в 1.5 км к зап.от нее, на 10 пикете 380 км , в 24 м к сев-зап.от км.стб.1326, в 14 м к сев-зап.от жел.-дор. Полотна</SimpleData>
		<SimpleData name="lvl_line">b8f957b1-89f8-48c5-9cbe-437f3af29545</SimpleData>
	</SchemaData></ExtendedData>
      <Point><coordinates>51.851181005733,51.1949675125525</coordinates></Point>
  </Placemark>
</Folder>
</Document></kml>
