<?xml version="1.0" encoding="utf-8" ?>
<kml xmlns="http://www.opengis.net/kml/2.2">
<Document id="root_doc">
<Schema name="b9b9dc86" id="b9b9dc86">
	<SimpleField name="title" type="string"></SimpleField>
	<SimpleField name="type" type="string"></SimpleField>
	<SimpleField name="ext_sign" type="string"></SimpleField>
	<SimpleField name="class_lvl" type="string"></SimpleField>
	<SimpleField name="height_lvl" type="string"></SimpleField>
	<SimpleField name="height_ctrl" type="string"></SimpleField>
	<SimpleField name="ctrl_place" type="string"></SimpleField>
	<SimpleField name="mark_num" type="string"></SimpleField>
	<SimpleField name="center_type" type="string"></SimpleField>
	<SimpleField name="lvl_line" type="string"></SimpleField>
	<SimpleField name="guid" type="string"></SimpleField>
</Schema>
<Folder><name>b9b9dc86</name>
  <Placemark id="b9b9dc86.1">
	<name>13550</name>
	<ExtendedData><SchemaData schemaUrl="#b9b9dc86">
		<SimpleData name="title">грунтовый репер</SimpleData>
		<SimpleData name="type">II</SimpleData>
		<SimpleData name="ext_sign">281.444</SimpleData>
		<SimpleData name="class_lvl">279,806</SimpleData>
		<SimpleData name="height_lvl">Контрольный репер №9889 в верхней плоскости монолита</SimpleData>
		<SimpleData name="ctrl_place">121оп</SimpleData>
		<SimpleData name="mark_num">Линия №3: Байлюсты - Нецветаевка, II класс (3) Участок: грунт. реп. 14158 - фунд. реп. 5</SimpleData>
		<SimpleData name="center_type">Бестогай, с., в 16,5 км к сев.-зап. от него, в 4,7 км к сев.-зап. от разв. станц. Нецветаевка в 0,3 км к сев.-зап. от п.тр. Сухой в 10 м к сев.-вост. от дороги</SimpleData>
		<SimpleData name="lvl_line">b9b9dc86-b8ca-45e0-837b-2b8a9cceea2a</SimpleData>
	</SchemaData></ExtendedData>
      <Point><coordinates>72.394606602014,51.9925453577298</coordinates></Point>
  </Placemark>
</Folder>
</Document></kml>
