<?xml version="1.0" encoding="utf-8" ?>
<kml xmlns="http://www.opengis.net/kml/2.2">
<Document id="root_doc">
<Schema name="b9ba5bce" id="b9ba5bce">
	<SimpleField name="type" type="string"></SimpleField>
	<SimpleField name="view" type="string"></SimpleField>
	<SimpleField name="leveling_order" type="string"></SimpleField>
	<SimpleField name="leveling_height" type="string"></SimpleField>
	<SimpleField name="control_height" type="string"></SimpleField>
	<SimpleField name="benchmark_number" type="string"></SimpleField>
	<SimpleField name="control_location" type="string"></SimpleField>
	<SimpleField name="benchmark_type" type="string"></SimpleField>
	<SimpleField name="leveling_line_section" type="string"></SimpleField>
	<SimpleField name="location_description" type="string"></SimpleField>
	<SimpleField name="status" type="string"></SimpleField>
	<SimpleField name="guid" type="string"></SimpleField>
	<SimpleField name="kml" type="string"></SimpleField>
	<SimpleField name="kml_link" type="string"></SimpleField>
</Schema>
<Folder><name>b9ba5bce</name>
  <Placemark id="b9ba5bce.1">
	<name>4Г</name>
	<name>грунт.реп.</name>
	<ExtendedData><SchemaData schemaUrl="#b9ba5bce">
		<SimpleData name="type">II</SimpleData>
		<SimpleData name="view">312.199</SimpleData>
		<SimpleData name="leveling_order">284.192</SimpleData>
		<SimpleData name="benchmark_number">146 оп</SimpleData>
		<SimpleData name="control_location">Линия №2: Терсаккан=Бала-Терсаккан, II класс (1) Участок: грунт.реп.3371 - грунт.реп.2910</SimpleData>
		<SimpleData name="benchmark_type">Матросово,с.,в 17.0 км к сев.-вост.от него,в 0.3 км к югу от кладбища,в 0.2 км к юго-вост.от р.Терисаккан</SimpleData>
		<SimpleData name="location_description">b9ba5bce-0ba9-48ab-b8fd-e21cb9ef498d</SimpleData>
		<SimpleData name="status">data/stations/b9ba5bce.kml</SimpleData>
		<SimpleData name="guid">&lt;a href='data/stations/b9ba5bce.kml' target='_blank'&gt;Download KML&lt;/a&gt;</SimpleData>
	</SchemaData></ExtendedData>
      <Point><coordinates>67.8503031358032,50.2894475815473</coordinates></Point>
  </Placemark>
</Folder>
</Document></kml>
