<?xml version="1.0" encoding="utf-8" ?>
<kml xmlns="http://www.opengis.net/kml/2.2">
<Document id="root_doc">
<Schema name="ba0162ae" id="ba0162ae">
	<SimpleField name="title" type="string"></SimpleField>
	<SimpleField name="type" type="string"></SimpleField>
	<SimpleField name="ext_sign" type="string"></SimpleField>
	<SimpleField name="class_lvl" type="string"></SimpleField>
	<SimpleField name="height_lvl" type="string"></SimpleField>
	<SimpleField name="height_ctrl" type="string"></SimpleField>
	<SimpleField name="ctrl_place" type="string"></SimpleField>
	<SimpleField name="mark_num" type="string"></SimpleField>
	<SimpleField name="center_type" type="string"></SimpleField>
	<SimpleField name="lvl_line" type="string"></SimpleField>
	<SimpleField name="guid" type="string"></SimpleField>
</Schema>
<Folder><name>ba0162ae</name>
  <Placemark id="ba0162ae.1">
	<name>7521</name>
	<description>грунтовый репер</description>
	<ExtendedData><SchemaData schemaUrl="#ba0162ae">
		<SimpleData name="type">1</SimpleData>
		<SimpleData name="ext_sign">273.393</SimpleData>
		<SimpleData name="height_lvl">160 оп. знак</SimpleData>
		<SimpleData name="mark_num">Линия № 1: Сергеевка-Терсаккан. І класс </SimpleData>
		<SimpleData name="center_type">Шалгай. с.. в 5.8 км к сев-зап. от него. в 0.4 км к вост. от р. Терисаккан. в 18 м. к вост. от пол. дор.. в пойме реки</SimpleData>
		<SimpleData name="lvl_line">ba0162ae-f96a-42b1-9da9-6b436ef64e0f</SimpleData>
	</SchemaData></ExtendedData>
      <Point><coordinates>67.7556542244759,50.7856619983082</coordinates></Point>
  </Placemark>
</Folder>
</Document></kml>
