<?xml version="1.0" encoding="utf-8" ?>
<kml xmlns="http://www.opengis.net/kml/2.2">
<Document id="root_doc">
<Schema name="ba67f553" id="ba67f553">
	<SimpleField name="title" type="string"></SimpleField>
	<SimpleField name="type" type="string"></SimpleField>
	<SimpleField name="ext_sign" type="string"></SimpleField>
	<SimpleField name="class_lvl" type="string"></SimpleField>
	<SimpleField name="height_lvl" type="string"></SimpleField>
	<SimpleField name="height_ctrl" type="string"></SimpleField>
	<SimpleField name="ctrl_place" type="string"></SimpleField>
	<SimpleField name="mark_num" type="string"></SimpleField>
	<SimpleField name="center_type" type="string"></SimpleField>
	<SimpleField name="lvl_line" type="string"></SimpleField>
	<SimpleField name="guid" type="string"></SimpleField>
</Schema>
<Folder><name>ba67f553</name>
  <Placemark id="ba67f553.1">
	<name>Х28</name>
	<ExtendedData><SchemaData schemaUrl="#ba67f553">
		<SimpleData name="lvl_line">ba67f553-38c1-406d-ae96-30b556d89fe3</SimpleData>
	</SchemaData></ExtendedData>
      <Point><coordinates>54.87281765,49.59848204</coordinates></Point>
  </Placemark>
</Folder>
</Document></kml>
