<?xml version="1.0" encoding="utf-8" ?>
<kml xmlns="http://www.opengis.net/kml/2.2">
<Document id="root_doc">
<Schema name="ba6f68e7" id="ba6f68e7">
	<SimpleField name="type" type="string"></SimpleField>
	<SimpleField name="view" type="string"></SimpleField>
	<SimpleField name="leveling_order" type="string"></SimpleField>
	<SimpleField name="leveling_height" type="string"></SimpleField>
	<SimpleField name="control_height" type="string"></SimpleField>
	<SimpleField name="benchmark_number" type="string"></SimpleField>
	<SimpleField name="control_location" type="string"></SimpleField>
	<SimpleField name="benchmark_type" type="string"></SimpleField>
	<SimpleField name="leveling_line_section" type="string"></SimpleField>
	<SimpleField name="location_description" type="string"></SimpleField>
	<SimpleField name="status" type="string"></SimpleField>
	<SimpleField name="guid" type="string"></SimpleField>
	<SimpleField name="kml" type="string"></SimpleField>
	<SimpleField name="kml_link" type="string"></SimpleField>
</Schema>
<Folder><name>ba6f68e7</name>
  <Placemark id="ba6f68e7.1">
	<name>68</name>
	<description>фунд.реп.</description>
	<ExtendedData><SchemaData schemaUrl="#ba6f68e7">
		<SimpleData name="type">1</SimpleData>
		<SimpleData name="view">104.635</SimpleData>
		<SimpleData name="leveling_order">103.414</SimpleData>
		<SimpleData name="leveling_height">Контрольный репер № 180 в фундаментной плите</SimpleData>
		<SimpleData name="benchmark_number">104</SimpleData>
		<SimpleData name="control_location">Линия № 2 : Звериноголовское - Кустанай, I класс                        Участок : грунт.реп.2682 - грунт.реп.1198</SimpleData>
		<SimpleData name="benchmark_type">Итсары, с., в 5.0 км к сев.от него, в 0.2 км к сев.от дороги с.Аксуат - с.Миролоюбовка, в 0.1 км к югу от линии связи</SimpleData>
		<SimpleData name="location_description">ba6f68e7-31c8-41d6-8ca6-77e7baf8c01c</SimpleData>
		<SimpleData name="status">data/stations/ba6f68e7.kml</SimpleData>
		<SimpleData name="guid">&lt;a href='data/stations/ba6f68e7.kml' target='_blank'&gt;Download KML&lt;/a&gt;</SimpleData>
	</SchemaData></ExtendedData>
      <Point><coordinates>64.8922651648388,53.951146948594</coordinates></Point>
  </Placemark>
</Folder>
</Document></kml>
