<?xml version="1.0" encoding="utf-8" ?>
<kml xmlns="http://www.opengis.net/kml/2.2">
<Document id="root_doc">
<Schema name="bac4c802" id="bac4c802">
	<SimpleField name="type" type="string"></SimpleField>
	<SimpleField name="view" type="string"></SimpleField>
	<SimpleField name="leveling_order" type="string"></SimpleField>
	<SimpleField name="leveling_height" type="string"></SimpleField>
	<SimpleField name="control_height" type="string"></SimpleField>
	<SimpleField name="benchmark_number" type="string"></SimpleField>
	<SimpleField name="control_location" type="string"></SimpleField>
	<SimpleField name="benchmark_type" type="string"></SimpleField>
	<SimpleField name="leveling_line_section" type="string"></SimpleField>
	<SimpleField name="location_description" type="string"></SimpleField>
	<SimpleField name="status" type="string"></SimpleField>
	<SimpleField name="guid" type="string"></SimpleField>
	<SimpleField name="kml" type="string"></SimpleField>
	<SimpleField name="kml_link" type="string"></SimpleField>
</Schema>
<Folder><name>bac4c802</name>
  <Placemark id="bac4c802.1">
	<name>4773</name>
	<name>грунт.реп</name>
	<ExtendedData><SchemaData schemaUrl="#bac4c802">
		<SimpleData name="type">2</SimpleData>
		<SimpleData name="view">329.594</SimpleData>
		<SimpleData name="control_location">Линия № 1:Сузак- Коскызыл, 2 класс (1), Участок: грунт.реп.7355-грунт.реп.б/№ (202)</SimpleData>
		<SimpleData name="benchmark_type">Байкадам, с., в 3.5 км к зап.от него, в 0.7 км к югу от р.Шабакты, в 66 м к югу от шоссе с.чулаккурган-с.Байкадам</SimpleData>
		<SimpleData name="leveling_line_section"></SimpleData>
		<SimpleData name="location_description">bac4c802-d6ef-4bb1-9019-26a43032b070</SimpleData>
		<SimpleData name="status">data/stations/bac4c802.kml</SimpleData>
		<SimpleData name="guid">&lt;a href='data/stations/bac4c802.kml' target='_blank'&gt;Download KML&lt;/a&gt;</SimpleData>
	</SchemaData></ExtendedData>
      <Point><coordinates>69.9091081953998,43.7304049650899</coordinates></Point>
  </Placemark>
</Folder>
</Document></kml>
