<?xml version="1.0" encoding="UTF-8"?>
<kml xmlns="http://www.opengis.net/kml/2.2">
  <Document id="root_doc">
    <Schema id="bb579013" name="bb579013">
      <SimpleField name="title" type="string"/>
      <SimpleField name="type" type="string"/>
      <SimpleField name="ext_sign" type="string"/>
      <SimpleField name="class_lvl" type="string"/>
      <SimpleField name="height_lvl" type="string"/>
      <SimpleField name="height_ctrl" type="string"/>
      <SimpleField name="ctrl_place" type="string"/>
      <SimpleField name="mark_num" type="string"/>
      <SimpleField name="center_type" type="string"/>
      <SimpleField name="lvl_line" type="string"/>
      <SimpleField name="guid" type="string"/>
    </Schema>
    <Schema id="bb579013.schema">
      <SimpleField name="title" type="string"/>
      <SimpleField name="type" type="string"/>
      <SimpleField name="ext_sign" type="string"/>
      <SimpleField name="class_lvl" type="string"/>
      <SimpleField name="height_lvl" type="string"/>
      <SimpleField name="height_ctrl" type="string"/>
      <SimpleField name="ctrl_place" type="string"/>
      <SimpleField name="mark_num" type="string"/>
      <SimpleField name="center_type" type="string"/>
      <SimpleField name="lvl_line" type="string"/>
      <SimpleField name="guid" type="string"/>
    </Schema>
    <Document id="bb579013">
      <name>bb579013</name>
      <Placemark id="bb579013.1">
        <description>№15,раз., в 2,3 км к вост. от него, в 40 м к юго-вост. от жел-дор. полотна, в 6 м к сев-зап. от полевой дороги</description>
        <ExtendedData>
          <SchemaData schemaUrl="#bb579013.schema">
            <SimpleData name="title">141</SimpleData>
            <SimpleData name="type">грунтовый репер</SimpleData>
            <SimpleData name="class_lvl">1</SimpleData>
            <SimpleData name="height_lvl">56,148</SimpleData>
            <SimpleData name="center_type">160</SimpleData>
            <SimpleData name="lvl_line">ЛинияБейнеу-Актау (Шевченко), 1 класс</SimpleData>
            <SimpleData name="guid">bb579013-2544-4300-9456-99eabbf613ea</SimpleData>
          </SchemaData>
        </ExtendedData>
        <Point>
          <coordinates>
            51.7798882056028,43.9822767578888,0
          </coordinates>
        </Point>
      </Placemark>
    </Document>
  </Document>
</kml>
