<?xml version="1.0" encoding="utf-8" ?>
<kml xmlns="http://www.opengis.net/kml/2.2">
<Document id="root_doc">
<Schema name="bbd4654c" id="bbd4654c">
	<SimpleField name="title" type="string"></SimpleField>
	<SimpleField name="type" type="string"></SimpleField>
	<SimpleField name="ext_sign" type="string"></SimpleField>
	<SimpleField name="class_lvl" type="string"></SimpleField>
	<SimpleField name="height_lvl" type="string"></SimpleField>
	<SimpleField name="height_ctrl" type="string"></SimpleField>
	<SimpleField name="ctrl_place" type="string"></SimpleField>
	<SimpleField name="mark_num" type="string"></SimpleField>
	<SimpleField name="center_type" type="string"></SimpleField>
	<SimpleField name="lvl_line" type="string"></SimpleField>
	<SimpleField name="guid" type="string"></SimpleField>
</Schema>
<Folder><name>bbd4654c</name>
  <Placemark id="bbd4654c.1">
	<name>4Г</name>
	<ExtendedData><SchemaData schemaUrl="#bbd4654c">
		<SimpleData name="title">грунт.реп.</SimpleData>
		<SimpleData name="type">2</SimpleData>
		<SimpleData name="ext_sign">375.350</SimpleData>
		<SimpleData name="ctrl_place">160 оп</SimpleData>
		<SimpleData name="mark_num">Линия №3: Тасты=Бала=Терсаккан, II класс (1) Участок:фунд.реп.2608- грунт.реп.5382</SimpleData>
		<SimpleData name="center_type">Ащутасты,гор.,в 23.0 км к юго-зап.от вкз.,в 2.1 км к юго-вост.от зернотока Алюминьстрой,в 42 м к сев.-зап.от развилки пол.дорог,в 19 м к зап.от пол.дороги,в 4 м к сев.-зап.от опорной ноги 3-сногого бет.стб. Недействующей ЛЭП на краю пашни.Имеет координаты</SimpleData>
		<SimpleData name="lvl_line">bbd4654c-00fd-41ae-b9e2-eadb163823b9</SimpleData>
	</SchemaData></ExtendedData>
      <Point><coordinates>66.8711045597276,50.0372672888919</coordinates></Point>
  </Placemark>
</Folder>
</Document></kml>
