<?xml version="1.0" encoding="utf-8" ?>
<kml xmlns="http://www.opengis.net/kml/2.2">
<Document id="root_doc">
<Schema name="bbd781b5" id="bbd781b5">
	<SimpleField name="title" type="string"></SimpleField>
	<SimpleField name="type" type="string"></SimpleField>
	<SimpleField name="ext_sign" type="string"></SimpleField>
	<SimpleField name="class_lvl" type="string"></SimpleField>
	<SimpleField name="height_lvl" type="string"></SimpleField>
	<SimpleField name="height_ctrl" type="string"></SimpleField>
	<SimpleField name="ctrl_place" type="string"></SimpleField>
	<SimpleField name="mark_num" type="string"></SimpleField>
	<SimpleField name="center_type" type="string"></SimpleField>
	<SimpleField name="lvl_line" type="string"></SimpleField>
	<SimpleField name="guid" type="string"></SimpleField>
</Schema>
<Folder><name>bbd781b5</name>
  <Placemark id="bbd781b5.1">
	<name>39</name>
	<ExtendedData><SchemaData schemaUrl="#bbd781b5">
		<SimpleData name="title">грунт. реп.</SimpleData>
		<SimpleData name="type">2</SimpleData>
		<SimpleData name="ext_sign">192.538</SimpleData>
		<SimpleData name="class_lvl">191.472</SimpleData>
		<SimpleData name="height_lvl">Контрольный репер в верхней плоскости монолита</SimpleData>
		<SimpleData name="ctrl_place">131 оп</SimpleData>
		<SimpleData name="mark_num">Линия №3: Кызылуй - Байконур, II класс. Участок: фунд. реп. 16 - грунт. реп. 9203</SimpleData>
		<SimpleData name="center_type">Кызылуй, с., в 3.8 км к югу от него, в 0.1 км к сев. от р. Киякты, в 30 м к сев. от дороги с. Тургай - с. Байконур</SimpleData>
		<SimpleData name="lvl_line">bbd781b5-3eaa-4382-96e7-4b9c21a96a76</SimpleData>
	</SchemaData></ExtendedData>
      <Point><coordinates>65.3400507366509,48.0886745926297</coordinates></Point>
  </Placemark>
</Folder>
</Document></kml>
