<?xml version="1.0" encoding="utf-8" ?>
<kml xmlns="http://www.opengis.net/kml/2.2">
<Document id="root_doc">
<Schema name="bc02be59" id="bc02be59">
	<SimpleField name="title" type="string"></SimpleField>
	<SimpleField name="type" type="string"></SimpleField>
	<SimpleField name="ext_sign" type="string"></SimpleField>
	<SimpleField name="class_lvl" type="string"></SimpleField>
	<SimpleField name="height_lvl" type="string"></SimpleField>
	<SimpleField name="height_ctrl" type="string"></SimpleField>
	<SimpleField name="ctrl_place" type="string"></SimpleField>
	<SimpleField name="mark_num" type="string"></SimpleField>
	<SimpleField name="center_type" type="string"></SimpleField>
	<SimpleField name="lvl_line" type="string"></SimpleField>
	<SimpleField name="guid" type="string"></SimpleField>
</Schema>
<Folder><name>bc02be59</name>
  <Placemark id="bc02be59.1">
	<name>3035</name>
	<description>грунтовый репер</description>
	<ExtendedData><SchemaData schemaUrl="#bc02be59">
		<SimpleData name="type">1</SimpleData>
		<SimpleData name="ext_sign">115.621</SimpleData>
		<SimpleData name="class_lvl">114.466</SimpleData>
		<SimpleData name="height_lvl">контрольный репер № 568 в верхней плоскости монолита</SimpleData>
		<SimpleData name="ctrl_place">121 оп. знак</SimpleData>
		<SimpleData name="mark_num">Линия №1 : Аральск - Тактайконыр, I класс. Участок: грунт. реп. 9144 - грунт. реп. 8047</SimpleData>
		<SimpleData name="center_type">Байкара, г., в 4.7 км к юго-вост. от нее, в 1.6 км к зап. от зим. Баскудык, в 42 м к зап. от полевой дороги</SimpleData>
		<SimpleData name="lvl_line">bc02be59-d306-4ec1-b74f-beb542a3b135</SimpleData>
	</SchemaData></ExtendedData>
      <Point><coordinates>61.3566805691959,47.7451086447038</coordinates></Point>
  </Placemark>
</Folder>
</Document></kml>
