<?xml version="1.0" encoding="utf-8" ?>
<kml xmlns="http://www.opengis.net/kml/2.2">
<Document id="root_doc">
<Schema name="bc6eb062" id="bc6eb062">
	<SimpleField name="type" type="string"></SimpleField>
	<SimpleField name="view" type="string"></SimpleField>
	<SimpleField name="leveling_order" type="string"></SimpleField>
	<SimpleField name="leveling_height" type="string"></SimpleField>
	<SimpleField name="control_height" type="string"></SimpleField>
	<SimpleField name="benchmark_number" type="string"></SimpleField>
	<SimpleField name="control_location" type="string"></SimpleField>
	<SimpleField name="benchmark_type" type="string"></SimpleField>
	<SimpleField name="leveling_line_section" type="string"></SimpleField>
	<SimpleField name="location_description" type="string"></SimpleField>
	<SimpleField name="status" type="string"></SimpleField>
	<SimpleField name="guid" type="string"></SimpleField>
	<SimpleField name="kml" type="string"></SimpleField>
	<SimpleField name="kml_link" type="string"></SimpleField>
</Schema>
<Folder><name>bc6eb062</name>
  <Placemark id="bc6eb062.1">
	<name>6488</name>
	<description>грунт. реп.</description>
	<ExtendedData><SchemaData schemaUrl="#bc6eb062">
		<SimpleData name="type">1</SimpleData>
		<SimpleData name="view">397.227</SimpleData>
		<SimpleData name="benchmark_number">160оп</SimpleData>
		<SimpleData name="control_location">Линия №1: Целиноград - Кулунда, I класс (I) Участок: грунт.реп. 2986 - грунт.реп. 9165</SimpleData>
		<SimpleData name="benchmark_type">Сарыоба, станц., в 4,2 км к юго-зап. от нее, в 0,7 км к сев. - зап. от разв. Жаканколь,  30 м к сев. от км. Стб. 50/51 и жел. - дор. полотна</SimpleData>
		<SimpleData name="location_description">bc6eb062-8764-4409-8c8a-cc0ef2976396</SimpleData>
		<SimpleData name="status">data/stations/bc6eb062.kml</SimpleData>
		<SimpleData name="guid">&lt;a href='data/stations/bc6eb062.kml' target='_blank'&gt;Download KML&lt;/a&gt;</SimpleData>
	</SchemaData></ExtendedData>
      <Point><coordinates>72.0583187906904,51.2358241888563</coordinates></Point>
  </Placemark>
</Folder>
</Document></kml>
