<?xml version="1.0" encoding="utf-8" ?>
<kml xmlns="http://www.opengis.net/kml/2.2">
<Document id="root_doc">
<Schema name="bc7e52cf" id="bc7e52cf">
	<SimpleField name="title" type="string"></SimpleField>
	<SimpleField name="type" type="string"></SimpleField>
	<SimpleField name="ext_sign" type="string"></SimpleField>
	<SimpleField name="class_lvl" type="string"></SimpleField>
	<SimpleField name="height_lvl" type="string"></SimpleField>
	<SimpleField name="height_ctrl" type="string"></SimpleField>
	<SimpleField name="ctrl_place" type="string"></SimpleField>
	<SimpleField name="mark_num" type="string"></SimpleField>
	<SimpleField name="center_type" type="string"></SimpleField>
	<SimpleField name="lvl_line" type="string"></SimpleField>
	<SimpleField name="guid" type="string"></SimpleField>
</Schema>
<Folder><name>bc7e52cf</name>
  <Placemark id="bc7e52cf.1">
	<name>Караулкельды</name>
	<description>пирамида</description>
	<ExtendedData><SchemaData schemaUrl="#bc7e52cf">
		<SimpleData name="type">1</SimpleData>
		<SimpleData name="ext_sign">237.009</SimpleData>
		<SimpleData name="ctrl_place">1</SimpleData>
		<SimpleData name="lvl_line">bc7e52cf-7a4c-4a2e-859b-0e8de2868f72</SimpleData>
	</SchemaData></ExtendedData>
      <Point><coordinates>55.92880943,48.69487363</coordinates></Point>
  </Placemark>
</Folder>
</Document></kml>
