<?xml version="1.0" encoding="utf-8" ?>
<kml xmlns="http://www.opengis.net/kml/2.2">
<Document id="root_doc">
<Schema name="bca5fa45" id="bca5fa45">
	<SimpleField name="title" type="string"></SimpleField>
	<SimpleField name="type" type="string"></SimpleField>
	<SimpleField name="ext_sign" type="string"></SimpleField>
	<SimpleField name="class_lvl" type="string"></SimpleField>
	<SimpleField name="height_lvl" type="string"></SimpleField>
	<SimpleField name="height_ctrl" type="string"></SimpleField>
	<SimpleField name="ctrl_place" type="string"></SimpleField>
	<SimpleField name="mark_num" type="string"></SimpleField>
	<SimpleField name="center_type" type="string"></SimpleField>
	<SimpleField name="lvl_line" type="string"></SimpleField>
	<SimpleField name="guid" type="string"></SimpleField>
</Schema>
<Folder><name>bca5fa45</name>
  <Placemark id="bca5fa45.1">
	<name>2407</name>
	<description>Грунтовый репер </description>
	<ExtendedData><SchemaData schemaUrl="#bca5fa45">
		<SimpleData name="title">Опознавательный знак </SimpleData>
		<SimpleData name="type">І</SimpleData>
		<SimpleData name="height_ctrl">2407</SimpleData>
		<SimpleData name="ctrl_place">162</SimpleData>
		<SimpleData name="mark_num">Линия нивелирования І класса #102 &quot;Петропавловск-Павлодар&quot;</SimpleData>
		<SimpleData name="center_type">Поселок Кишкенеколь 6 км к востоку от него, 65 м к северу от разобранного железнодорожного переезда, 60 м к востоку от ближайшего угла загона, 34 м к востоку от шоссе г.Кокшетау - п.Кишкенеколь - с.Бидайык</SimpleData>
		<SimpleData name="lvl_line">bca5fa45-545f-4658-be6e-797338f3a464</SimpleData>
	</SchemaData></ExtendedData>
      <Point><coordinates>72.44712,53.6483066666667</coordinates></Point>
  </Placemark>
</Folder>
</Document></kml>
