<?xml version="1.0" encoding="utf-8" ?>
<kml xmlns="http://www.opengis.net/kml/2.2">
<Document id="root_doc">
<Schema name="bd33357e" id="bd33357e">
	<SimpleField name="type" type="string"></SimpleField>
	<SimpleField name="view" type="string"></SimpleField>
	<SimpleField name="leveling_order" type="string"></SimpleField>
	<SimpleField name="leveling_height" type="string"></SimpleField>
	<SimpleField name="control_height" type="string"></SimpleField>
	<SimpleField name="benchmark_number" type="string"></SimpleField>
	<SimpleField name="control_location" type="string"></SimpleField>
	<SimpleField name="benchmark_type" type="string"></SimpleField>
	<SimpleField name="leveling_line_section" type="string"></SimpleField>
	<SimpleField name="location_description" type="string"></SimpleField>
	<SimpleField name="status" type="string"></SimpleField>
	<SimpleField name="guid" type="string"></SimpleField>
	<SimpleField name="kml" type="string"></SimpleField>
	<SimpleField name="kml_link" type="string"></SimpleField>
</Schema>
<Folder><name>bd33357e</name>
  <Placemark id="bd33357e.1">
	<name>295</name>
	<name>грунт. реп.</name>
	<ExtendedData><SchemaData schemaUrl="#bd33357e">
		<SimpleData name="type">2</SimpleData>
		<SimpleData name="view">453,421</SimpleData>
		<SimpleData name="leveling_order">452,276</SimpleData>
		<SimpleData name="control_height">репер в верхней плоскости монолита</SimpleData>
		<SimpleData name="benchmark_number">121</SimpleData>
		<SimpleData name="control_location">Линия № 1: Каракас - Буран, II класс (2) Участок: грунт. реп. 1436 - фунд. реп. 2290</SimpleData>
		<SimpleData name="benchmark_type">Буран, с., в 11.0 км к сев.-зап. от него, в 65 м к сев.-вост. от дороги с. Такыр - с. Буран</SimpleData>
		<SimpleData name="location_description">bd33357e-a86d-4f28-a87a-1dd63c1b59e9</SimpleData>
		<SimpleData name="status">data/stations/bd33357e.kml</SimpleData>
		<SimpleData name="guid">&lt;a href='data/stations/bd33357e.kml' target='_blank'&gt;Download KML&lt;/a&gt;</SimpleData>
	</SchemaData></ExtendedData>
      <Point><coordinates>85.0840616625326,48.0903978723894</coordinates></Point>
  </Placemark>
</Folder>
</Document></kml>
