<?xml version="1.0" encoding="utf-8" ?>
<kml xmlns="http://www.opengis.net/kml/2.2">
<Document id="root_doc">
<Schema name="bd53c3b9" id="bd53c3b9">
	<SimpleField name="title" type="string"></SimpleField>
	<SimpleField name="type" type="string"></SimpleField>
	<SimpleField name="ext_sign" type="string"></SimpleField>
	<SimpleField name="class_lvl" type="string"></SimpleField>
	<SimpleField name="height_lvl" type="string"></SimpleField>
	<SimpleField name="height_ctrl" type="string"></SimpleField>
	<SimpleField name="ctrl_place" type="string"></SimpleField>
	<SimpleField name="mark_num" type="string"></SimpleField>
	<SimpleField name="center_type" type="string"></SimpleField>
	<SimpleField name="lvl_line" type="string"></SimpleField>
	<SimpleField name="guid" type="string"></SimpleField>
</Schema>
<Folder><name>bd53c3b9</name>
  <Placemark id="bd53c3b9.1">
	<name>126</name>
	<description>грунтовый репер</description>
	<ExtendedData><SchemaData schemaUrl="#bd53c3b9">
		<SimpleData name="title">грунт.реп.</SimpleData>
		<SimpleData name="type">2</SimpleData>
		<SimpleData name="ext_sign">297.623</SimpleData>
		<SimpleData name="class_lvl">295.721</SimpleData>
		<SimpleData name="height_lvl">Контрольный репер в верхней плоскости монолита</SimpleData>
		<SimpleData name="ctrl_place">118 оп</SimpleData>
		<SimpleData name="mark_num">Линия №1: Челкар-Сарысай. II класс. Участок: грунт.реп. 3516-фунд.реп. 7680</SimpleData>
		<SimpleData name="center_type">Шалкар. станц.. в 47.0 км к сев.-вост. от неё. в 1.0 км к юго-зап. от с. Кызылколь. в 0.1 км к сев.-зап. от пол.дороги станц.Шалкар-зим.Кызылколь</SimpleData>
		<SimpleData name="lvl_line">bd53c3b9-bdb7-428b-8f11-f0c462c02590</SimpleData>
	</SchemaData></ExtendedData>
      <Point><coordinates>60.03320176,48.10635907</coordinates></Point>
  </Placemark>
</Folder>
</Document></kml>
