<?xml version="1.0" encoding="utf-8" ?>
<kml xmlns="http://www.opengis.net/kml/2.2">
<Document id="root_doc">
<Schema name="bd83f923" id="bd83f923">
	<SimpleField name="type" type="string"></SimpleField>
	<SimpleField name="view" type="string"></SimpleField>
	<SimpleField name="leveling_order" type="string"></SimpleField>
	<SimpleField name="leveling_height" type="string"></SimpleField>
	<SimpleField name="control_height" type="string"></SimpleField>
	<SimpleField name="benchmark_number" type="string"></SimpleField>
	<SimpleField name="control_location" type="string"></SimpleField>
	<SimpleField name="benchmark_type" type="string"></SimpleField>
	<SimpleField name="leveling_line_section" type="string"></SimpleField>
	<SimpleField name="location_description" type="string"></SimpleField>
	<SimpleField name="status" type="string"></SimpleField>
	<SimpleField name="guid" type="string"></SimpleField>
	<SimpleField name="kml" type="string"></SimpleField>
	<SimpleField name="kml_link" type="string"></SimpleField>
</Schema>
<Folder><name>bd83f923</name>
  <Placemark id="bd83f923.1">
	<name>17941</name>
	<name>грунтовый репер</name>
	<ExtendedData><SchemaData schemaUrl="#bd83f923">
		<SimpleData name="type">2</SimpleData>
		<SimpleData name="view">112.103</SimpleData>
		<SimpleData name="benchmark_number">121</SimpleData>
		<SimpleData name="control_location">Линия №5:  Айбас - Чапаевский, II класс. Участок:  грунт. реп. 16085 - грунт. реп. 17223</SimpleData>
		<SimpleData name="benchmark_type">Аккудык, а., в 30.4км к вост.от него, в 8.0км к юго-зап.от мог. Жартогай, в 2.2км к сев.от п.тр., в 200м к югу от р.Шолаксай</SimpleData>
		<SimpleData name="location_description">bd83f923-17a5-4c4a-8fe4-050f786a887d</SimpleData>
		<SimpleData name="status">data/stations/bd83f923.kml</SimpleData>
		<SimpleData name="guid">&lt;a href='data/stations/bd83f923.kml' target='_blank'&gt;Download KML&lt;/a&gt;</SimpleData>
	</SchemaData></ExtendedData>
      <Point><coordinates>72.7913428606137,53.074976618474</coordinates></Point>
  </Placemark>
</Folder>
</Document></kml>
