<?xml version="1.0" encoding="utf-8" ?>
<kml xmlns="http://www.opengis.net/kml/2.2">
<Document id="root_doc">
<Schema name="bdda545a" id="bdda545a">
	<SimpleField name="type" type="string"></SimpleField>
	<SimpleField name="view" type="string"></SimpleField>
	<SimpleField name="leveling_order" type="string"></SimpleField>
	<SimpleField name="leveling_height" type="string"></SimpleField>
	<SimpleField name="control_height" type="string"></SimpleField>
	<SimpleField name="benchmark_number" type="string"></SimpleField>
	<SimpleField name="control_location" type="string"></SimpleField>
	<SimpleField name="benchmark_type" type="string"></SimpleField>
	<SimpleField name="leveling_line_section" type="string"></SimpleField>
	<SimpleField name="location_description" type="string"></SimpleField>
	<SimpleField name="status" type="string"></SimpleField>
	<SimpleField name="guid" type="string"></SimpleField>
	<SimpleField name="kml" type="string"></SimpleField>
	<SimpleField name="kml_link" type="string"></SimpleField>
</Schema>
<Folder><name>bdda545a</name>
  <Placemark id="bdda545a.1">
	<name>4041</name>
	<name>грунт.реп.</name>
	<ExtendedData><SchemaData schemaUrl="#bdda545a">
		<SimpleData name="type">1</SimpleData>
		<SimpleData name="view">579,208</SimpleData>
		<SimpleData name="leveling_order">578,209</SimpleData>
		<SimpleData name="control_height">Контрольный репер в трубе</SimpleData>
		<SimpleData name="benchmark_number">А  оп. знак</SimpleData>
		<SimpleData name="control_location">Линия № 1: Каркаралинск – Аягоз, I класс. Участок: ск.реп.  2895 – грунт.реп. 6724</SimpleData>
		<SimpleData name="benchmark_type">Батпак, с., в 7.0 км к юго-зап. от него, в 0.9 км к юго-зап. от ретранслятора, в 0.2 км к югу от грунт. дороги гор. Аягоз – с. Баршатас</SimpleData>
		<SimpleData name="location_description">bdda545a-efb4-426c-ae0a-d1dcc86afaaa</SimpleData>
		<SimpleData name="status">data/stations/bdda545a.kml</SimpleData>
		<SimpleData name="guid">&lt;a href='data/stations/bdda545a.kml' target='_blank'&gt;Download KML&lt;/a&gt;</SimpleData>
	</SchemaData></ExtendedData>
      <Point><coordinates>79.9893993798838,47.8367349711633</coordinates></Point>
  </Placemark>
</Folder>
</Document></kml>
