<?xml version="1.0" encoding="utf-8" ?>
<kml xmlns="http://www.opengis.net/kml/2.2">
<Document id="root_doc">
<Schema name="bde9cd13" id="bde9cd13">
	<SimpleField name="title" type="string"></SimpleField>
	<SimpleField name="type" type="string"></SimpleField>
	<SimpleField name="ext_sign" type="string"></SimpleField>
	<SimpleField name="class_lvl" type="string"></SimpleField>
	<SimpleField name="height_lvl" type="string"></SimpleField>
	<SimpleField name="height_ctrl" type="string"></SimpleField>
	<SimpleField name="ctrl_place" type="string"></SimpleField>
	<SimpleField name="mark_num" type="string"></SimpleField>
	<SimpleField name="center_type" type="string"></SimpleField>
	<SimpleField name="lvl_line" type="string"></SimpleField>
	<SimpleField name="guid" type="string"></SimpleField>
</Schema>
<Folder><name>bde9cd13</name>
  <Placemark id="bde9cd13.1">
	<name>Закладка 31</name>
	<ExtendedData><SchemaData schemaUrl="#bde9cd13">
		<SimpleData name="center_type">В 30 м к западу от юго-западного угла кладбища</SimpleData>
		<SimpleData name="lvl_line">bde9cd13-4360-479a-a8c2-294325316061</SimpleData>
	</SchemaData></ExtendedData>
      <Point><coordinates>63.8885219374955,52.7998251340186</coordinates></Point>
  </Placemark>
</Folder>
</Document></kml>
