<?xml version="1.0" encoding="utf-8" ?>
<kml xmlns="http://www.opengis.net/kml/2.2">
<Document id="root_doc">
<Schema name="be0bee2f" id="be0bee2f">
	<SimpleField name="type" type="string"></SimpleField>
	<SimpleField name="view" type="string"></SimpleField>
	<SimpleField name="leveling_order" type="string"></SimpleField>
	<SimpleField name="leveling_height" type="string"></SimpleField>
	<SimpleField name="control_height" type="string"></SimpleField>
	<SimpleField name="benchmark_number" type="string"></SimpleField>
	<SimpleField name="control_location" type="string"></SimpleField>
	<SimpleField name="benchmark_type" type="string"></SimpleField>
	<SimpleField name="leveling_line_section" type="string"></SimpleField>
	<SimpleField name="location_description" type="string"></SimpleField>
	<SimpleField name="status" type="string"></SimpleField>
	<SimpleField name="guid" type="string"></SimpleField>
	<SimpleField name="kml" type="string"></SimpleField>
	<SimpleField name="kml_link" type="string"></SimpleField>
</Schema>
<Folder><name>be0bee2f</name>
  <Placemark id="be0bee2f.1">
	<name>1289</name>
	<name>ск,реп,</name>
	<ExtendedData><SchemaData schemaUrl="#be0bee2f">
		<SimpleData name="type">I</SimpleData>
		<SimpleData name="view">415.297</SimpleData>
		<SimpleData name="benchmark_number">9</SimpleData>
		<SimpleData name="control_location">Линия №1: Петропавловск -Астана (Целиноград), I класса (1) Участок: грунт,реп,92009 - грунт,реп,91306 Ход от грунт,реп, 91494 до грунт,реп, 1357, I класс (2)</SimpleData>
		<SimpleData name="benchmark_type">Бозайгыр, раз,, в 3,3 км к сев,от него, на 1 пк 439 км, в 32 м к вост,от жел,-дор, полотна</SimpleData>
		<SimpleData name="leveling_line_section">уничтожен</SimpleData>
		<SimpleData name="location_description">be0bee2f-7277-4637-9a93-cb53959f7ef0</SimpleData>
		<SimpleData name="status">data/stations/be0bee2f.kml</SimpleData>
		<SimpleData name="guid">&lt;a href='data/stations/be0bee2f.kml' target='_blank'&gt;Download KML&lt;/a&gt;</SimpleData>
	</SchemaData></ExtendedData>
      <Point><coordinates>71.0971398149181,51.588488631044</coordinates></Point>
  </Placemark>
</Folder>
</Document></kml>
