<?xml version="1.0" encoding="utf-8" ?>
<kml xmlns="http://www.opengis.net/kml/2.2">
<Document id="root_doc">
<Schema name="be376612" id="be376612">
	<SimpleField name="title" type="string"></SimpleField>
	<SimpleField name="type" type="string"></SimpleField>
	<SimpleField name="ext_sign" type="string"></SimpleField>
	<SimpleField name="class_lvl" type="string"></SimpleField>
	<SimpleField name="height_lvl" type="string"></SimpleField>
	<SimpleField name="height_ctrl" type="string"></SimpleField>
	<SimpleField name="ctrl_place" type="string"></SimpleField>
	<SimpleField name="mark_num" type="string"></SimpleField>
	<SimpleField name="center_type" type="string"></SimpleField>
	<SimpleField name="lvl_line" type="string"></SimpleField>
	<SimpleField name="guid" type="string"></SimpleField>
</Schema>
<Folder><name>be376612</name>
  <Placemark id="be376612.1">
	<name>443</name>
	<description>грунтовый репер</description>
	<ExtendedData><SchemaData schemaUrl="#be376612">
		<SimpleData name="type">2</SimpleData>
		<SimpleData name="ext_sign">108.310</SimpleData>
		<SimpleData name="class_lvl">106.897</SimpleData>
		<SimpleData name="height_lvl">в верхней плоскости монолита</SimpleData>
		<SimpleData name="ctrl_place">121 оп знак</SimpleData>
		<SimpleData name="mark_num">Линия № 1: Золоторунное - Чистовское, II класс Участок: фунд. реп. 7Б-грунт. реп. 690</SimpleData>
		<SimpleData name="center_type">Шункырколь, с., в 3.7 км к сев.-зап.от него,  в 4,1 км к югу от с.Тихоокеанское, в 46 м к вост. от дор.  с. Тихоокеанское-с. Шункырколь, в 1,08 м к юго-зап. от оп. знака</SimpleData>
		<SimpleData name="lvl_line">be376612-a332-405a-a371-57d1a85bd170</SimpleData>
	</SchemaData></ExtendedData>
      <Point><coordinates>70.80739732,53.89149105</coordinates></Point>
  </Placemark>
</Folder>
</Document></kml>
