<?xml version="1.0" encoding="utf-8" ?>
<kml xmlns="http://www.opengis.net/kml/2.2">
<Document id="root_doc">
<Schema name="bf5a2e04" id="bf5a2e04">
	<SimpleField name="type" type="string"></SimpleField>
	<SimpleField name="view" type="string"></SimpleField>
	<SimpleField name="leveling_order" type="string"></SimpleField>
	<SimpleField name="leveling_height" type="string"></SimpleField>
	<SimpleField name="control_height" type="string"></SimpleField>
	<SimpleField name="benchmark_number" type="string"></SimpleField>
	<SimpleField name="control_location" type="string"></SimpleField>
	<SimpleField name="benchmark_type" type="string"></SimpleField>
	<SimpleField name="leveling_line_section" type="string"></SimpleField>
	<SimpleField name="location_description" type="string"></SimpleField>
	<SimpleField name="status" type="string"></SimpleField>
	<SimpleField name="guid" type="string"></SimpleField>
	<SimpleField name="kml" type="string"></SimpleField>
	<SimpleField name="kml_link" type="string"></SimpleField>
</Schema>
<Folder><name>bf5a2e04</name>
  <Placemark id="bf5a2e04.1">
	<name>4797</name>
	<description>грунт.реп.</description>
	<ExtendedData><SchemaData schemaUrl="#bf5a2e04">
		<SimpleData name="type">2</SimpleData>
		<SimpleData name="view">221.061</SimpleData>
		<SimpleData name="leveling_order">220.098</SimpleData>
		<SimpleData name="benchmark_number">107</SimpleData>
		<SimpleData name="control_location">Линия № 1: Уричкое-Койбаган, II класс             Участок : фунд.реп.7920 - фунд.реп.3706</SimpleData>
		<SimpleData name="benchmark_type">Корниловка, с., в 0.4 км к сев.от него, в 35 м к вост.от дороги с.Корниловка-с.Новосовка, между тлф.стб .№ 16 и № 17</SimpleData>
		<SimpleData name="location_description">bf5a2e04-a3b8-459e-9290-041435a8b595</SimpleData>
		<SimpleData name="status">data/stations/bf5a2e04.kml</SimpleData>
		<SimpleData name="guid">&lt;a href='data/stations/bf5a2e04.kml' target='_blank'&gt;Download KML&lt;/a&gt;</SimpleData>
	</SchemaData></ExtendedData>
      <Point><coordinates>65.3298341012011,52.4119541791682</coordinates></Point>
  </Placemark>
</Folder>
</Document></kml>
