<?xml version="1.0" encoding="utf-8" ?>
<kml xmlns="http://www.opengis.net/kml/2.2">
<Document id="root_doc">
<Schema name="bfc18644" id="bfc18644">
	<SimpleField name="type" type="string"></SimpleField>
	<SimpleField name="view" type="string"></SimpleField>
	<SimpleField name="leveling_order" type="string"></SimpleField>
	<SimpleField name="leveling_height" type="string"></SimpleField>
	<SimpleField name="control_height" type="string"></SimpleField>
	<SimpleField name="benchmark_number" type="string"></SimpleField>
	<SimpleField name="control_location" type="string"></SimpleField>
	<SimpleField name="benchmark_type" type="string"></SimpleField>
	<SimpleField name="leveling_line_section" type="string"></SimpleField>
	<SimpleField name="location_description" type="string"></SimpleField>
	<SimpleField name="status" type="string"></SimpleField>
	<SimpleField name="guid" type="string"></SimpleField>
	<SimpleField name="kml" type="string"></SimpleField>
	<SimpleField name="kml_link" type="string"></SimpleField>
</Schema>
<Folder><name>bfc18644</name>
  <Placemark id="bfc18644.1">
	<name>138</name>
	<description>грунт.реп.</description>
	<ExtendedData><SchemaData schemaUrl="#bfc18644">
		<SimpleData name="type">2</SimpleData>
		<SimpleData name="view">252,042</SimpleData>
		<SimpleData name="leveling_order">250.429</SimpleData>
		<SimpleData name="benchmark_number">121</SimpleData>
		<SimpleData name="control_location">Линия №3: Карабутак-Жанатурмыс,II класс Участок: грунт.реп.138-грунт.реп.1440</SimpleData>
		<SimpleData name="benchmark_type">Талдыколь, оз.,в 115м к югу от юго-вост.берега его,в 0,1 км к югу от дороги 3-,в 0,3 км к сев.от кладбища </SimpleData>
		<SimpleData name="location_description">bfc18644-32d0-466a-8835-b7922041e679</SimpleData>
		<SimpleData name="status">data/stations/bfc18644.kml</SimpleData>
		<SimpleData name="guid">&lt;a href='data/stations/bfc18644.kml' target='_blank'&gt;Download KML&lt;/a&gt;</SimpleData>
	</SchemaData></ExtendedData>
      <Point><coordinates>61.9716497189158,51.3923406685144</coordinates></Point>
  </Placemark>
</Folder>
</Document></kml>
