<?xml version="1.0" encoding="utf-8" ?>
<kml xmlns="http://www.opengis.net/kml/2.2">
<Document id="root_doc">
<Schema name="c0469edd" id="c0469edd">
	<SimpleField name="title" type="string"></SimpleField>
	<SimpleField name="type" type="string"></SimpleField>
	<SimpleField name="ext_sign" type="string"></SimpleField>
	<SimpleField name="class_lvl" type="string"></SimpleField>
	<SimpleField name="height_lvl" type="string"></SimpleField>
	<SimpleField name="height_ctrl" type="string"></SimpleField>
	<SimpleField name="ctrl_place" type="string"></SimpleField>
	<SimpleField name="mark_num" type="string"></SimpleField>
	<SimpleField name="center_type" type="string"></SimpleField>
	<SimpleField name="lvl_line" type="string"></SimpleField>
	<SimpleField name="guid" type="string"></SimpleField>
</Schema>
<Folder><name>c0469edd</name>
  <Placemark id="c0469edd.1">
	<name>556</name>
	<description>Грунт. реп </description>
	<ExtendedData><SchemaData schemaUrl="#c0469edd">
		<SimpleData name="lvl_line">c0469edd-e5b9-4a55-8dbd-cb08cdd4c954</SimpleData>
	</SchemaData></ExtendedData>
      <Point><coordinates>62.201,50.4798883333333</coordinates></Point>
  </Placemark>
</Folder>
</Document></kml>
