<?xml version="1.0" encoding="utf-8" ?>
<kml xmlns="http://www.opengis.net/kml/2.2">
<Document id="root_doc">
<Schema name="c05a9b99" id="c05a9b99">
	<SimpleField name="title" type="string"></SimpleField>
	<SimpleField name="type" type="string"></SimpleField>
	<SimpleField name="ext_sign" type="string"></SimpleField>
	<SimpleField name="class_lvl" type="string"></SimpleField>
	<SimpleField name="height_lvl" type="string"></SimpleField>
	<SimpleField name="height_ctrl" type="string"></SimpleField>
	<SimpleField name="ctrl_place" type="string"></SimpleField>
	<SimpleField name="mark_num" type="string"></SimpleField>
	<SimpleField name="center_type" type="string"></SimpleField>
	<SimpleField name="lvl_line" type="string"></SimpleField>
	<SimpleField name="guid" type="string"></SimpleField>
</Schema>
<Folder><name>c05a9b99</name>
  <Placemark id="c05a9b99.1">
	<name>519</name>
	<ExtendedData><SchemaData schemaUrl="#c05a9b99">
		<SimpleData name="title">скальный репер</SimpleData>
		<SimpleData name="type">II</SimpleData>
		<SimpleData name="ext_sign">964,038</SimpleData>
		<SimpleData name="ctrl_place">99оп</SimpleData>
		<SimpleData name="mark_num">Линия №2: Карааул - Акбулак, II класс (2) Участок: грунт. реп. 5242 - грунт. реп. 5248</SimpleData>
		<SimpleData name="center_type">Кайнар, с., в 13,4 км к юго-зап. от его центра, в 7,4 км к юго-вост. от зим. Акбулак, в 2,5 км к сев.-вост. от п.тр. Озерный, в 0,4 км к сев.-зап. от пол. дороги, в 80 м к сев.-вост. от гравийной дороги гор. Каркаралы - с.Кайнар</SimpleData>
		<SimpleData name="lvl_line">c05a9b99-89b7-45af-9b41-7feb9a55de71</SimpleData>
	</SchemaData></ExtendedData>
      <Point><coordinates>77.2261121272376,49.1334110268244</coordinates></Point>
  </Placemark>
</Folder>
</Document></kml>
