<?xml version="1.0" encoding="utf-8" ?>
<kml xmlns="http://www.opengis.net/kml/2.2">
<Document id="root_doc">
<Schema name="c05a9127" id="c05a9127">
	<SimpleField name="type" type="string"></SimpleField>
	<SimpleField name="view" type="string"></SimpleField>
	<SimpleField name="leveling_order" type="string"></SimpleField>
	<SimpleField name="leveling_height" type="string"></SimpleField>
	<SimpleField name="control_height" type="string"></SimpleField>
	<SimpleField name="benchmark_number" type="string"></SimpleField>
	<SimpleField name="control_location" type="string"></SimpleField>
	<SimpleField name="benchmark_type" type="string"></SimpleField>
	<SimpleField name="leveling_line_section" type="string"></SimpleField>
	<SimpleField name="location_description" type="string"></SimpleField>
	<SimpleField name="status" type="string"></SimpleField>
	<SimpleField name="guid" type="string"></SimpleField>
	<SimpleField name="kml" type="string"></SimpleField>
	<SimpleField name="kml_link" type="string"></SimpleField>
</Schema>
<Folder><name>c05a9127</name>
  <Placemark id="c05a9127.1">
	<name>576</name>
	<name>грунт.реп.</name>
	<ExtendedData><SchemaData schemaUrl="#c05a9127">
		<SimpleData name="type">2</SimpleData>
		<SimpleData name="view">514,506</SimpleData>
		<SimpleData name="leveling_order">513,386</SimpleData>
		<SimpleData name="control_height">в верхней плоскости монолита</SimpleData>
		<SimpleData name="benchmark_number">121</SimpleData>
		<SimpleData name="control_location">Линия № 1 :       Каракас - Буран,              II класс(2);  Участок : грунт.реп. 1 - грунт.реп. 15</SimpleData>
		<SimpleData name="benchmark_type">Сарыкамыс с., в 6,5 км к югу от него, в 4,0 км к сев.-зап. от зим. Атымтай, в 25 м к югу от дороги с. Курчум-с. Буран</SimpleData>
		<SimpleData name="leveling_line_section">утрачен</SimpleData>
		<SimpleData name="location_description">c05a9127-f83c-480b-9a53-c9afe9633eba</SimpleData>
		<SimpleData name="status">data/stations/c05a9127.kml</SimpleData>
		<SimpleData name="guid">&lt;a href='data/stations/c05a9127.kml' target='_blank'&gt;Download KML&lt;/a&gt;</SimpleData>
	</SchemaData></ExtendedData>
      <Point><coordinates>84.5956476935894,48.228716517142</coordinates></Point>
  </Placemark>
</Folder>
</Document></kml>
