<?xml version="1.0" encoding="utf-8" ?>
<kml xmlns="http://www.opengis.net/kml/2.2">
<Document id="root_doc">
<Schema name="c05a5e76" id="c05a5e76">
	<SimpleField name="title" type="string"></SimpleField>
	<SimpleField name="type" type="string"></SimpleField>
	<SimpleField name="ext_sign" type="string"></SimpleField>
	<SimpleField name="class_lvl" type="string"></SimpleField>
	<SimpleField name="height_lvl" type="string"></SimpleField>
	<SimpleField name="height_ctrl" type="string"></SimpleField>
	<SimpleField name="ctrl_place" type="string"></SimpleField>
	<SimpleField name="mark_num" type="string"></SimpleField>
	<SimpleField name="center_type" type="string"></SimpleField>
	<SimpleField name="lvl_line" type="string"></SimpleField>
	<SimpleField name="guid" type="string"></SimpleField>
</Schema>
<Folder><name>c05a5e76</name>
  <Placemark id="c05a5e76.1">
	<name>Закладка</name>
	<description>Грунтовый репер</description>
	<ExtendedData><SchemaData schemaUrl="#c05a5e76">
		<SimpleData name="height_ctrl">8959</SimpleData>
		<SimpleData name="lvl_line">c05a5e76-dc66-4ebc-84b6-051d9b6282e6</SimpleData>
	</SchemaData></ExtendedData>
      <Point><coordinates>85.1455916666667,48.0422683333333</coordinates></Point>
  </Placemark>
</Folder>
</Document></kml>
