<?xml version="1.0" encoding="utf-8" ?>
<kml xmlns="http://www.opengis.net/kml/2.2">
<Document id="root_doc">
<Schema name="c0ab9735" id="c0ab9735">
	<SimpleField name="type" type="string"></SimpleField>
	<SimpleField name="view" type="string"></SimpleField>
	<SimpleField name="leveling_order" type="string"></SimpleField>
	<SimpleField name="leveling_height" type="string"></SimpleField>
	<SimpleField name="control_height" type="string"></SimpleField>
	<SimpleField name="benchmark_number" type="string"></SimpleField>
	<SimpleField name="control_location" type="string"></SimpleField>
	<SimpleField name="benchmark_type" type="string"></SimpleField>
	<SimpleField name="leveling_line_section" type="string"></SimpleField>
	<SimpleField name="location_description" type="string"></SimpleField>
	<SimpleField name="status" type="string"></SimpleField>
	<SimpleField name="guid" type="string"></SimpleField>
	<SimpleField name="kml" type="string"></SimpleField>
	<SimpleField name="kml_link" type="string"></SimpleField>
</Schema>
<Folder><name>c0ab9735</name>
  <Placemark id="c0ab9735.1">
	<name>1669</name>
	<name>грунт.реп</name>
	<ExtendedData><SchemaData schemaUrl="#c0ab9735">
		<SimpleData name="type">2</SimpleData>
		<SimpleData name="view">190126</SimpleData>
		<SimpleData name="benchmark_number">160 оп </SimpleData>
		<SimpleData name="control_location">Линия №187: Кустанай-Урицкое, II класс (19); Участок: марка 3197 - грунт.реп.3377</SimpleData>
		<SimpleData name="benchmark_type">Затобольск, с., в 12.5 км к вост.от него, в 38 м к сев. от км.стб. 561/1929 дороги гор.Кустанай - гор. Кокчетау, в 26 м к сев. от края асф. дороги, в 16 м к юго-зап. от выемкиямы</SimpleData>
		<SimpleData name="location_description">c0ab9735-7fe9-4eda-a0a2-e1bec1a7e873</SimpleData>
		<SimpleData name="status">data/stations/c0ab9735.kml</SimpleData>
		<SimpleData name="guid">&lt;a href='data/stations/c0ab9735.kml' target='_blank'&gt;Download KML&lt;/a&gt;</SimpleData>
	</SchemaData></ExtendedData>
      <Point><coordinates>63.8841388669021,53.1702917442181</coordinates></Point>
  </Placemark>
</Folder>
</Document></kml>
