<?xml version="1.0" encoding="utf-8" ?>
<kml xmlns="http://www.opengis.net/kml/2.2">
<Document id="root_doc">
<Schema name="c154b653" id="c154b653">
	<SimpleField name="title" type="string"></SimpleField>
	<SimpleField name="type" type="string"></SimpleField>
	<SimpleField name="ext_sign" type="string"></SimpleField>
	<SimpleField name="class_lvl" type="string"></SimpleField>
	<SimpleField name="height_lvl" type="string"></SimpleField>
	<SimpleField name="height_ctrl" type="string"></SimpleField>
	<SimpleField name="ctrl_place" type="string"></SimpleField>
	<SimpleField name="mark_num" type="string"></SimpleField>
	<SimpleField name="center_type" type="string"></SimpleField>
	<SimpleField name="lvl_line" type="string"></SimpleField>
	<SimpleField name="guid" type="string"></SimpleField>
</Schema>
<Folder><name>c154b653</name>
  <Placemark id="c154b653.1">
	<name>2412</name>
	<ExtendedData><SchemaData schemaUrl="#c154b653">
		<SimpleData name="title">грунт.реп.</SimpleData>
		<SimpleData name="type">II</SimpleData>
		<SimpleData name="ctrl_place">160 оп.знак</SimpleData>
		<SimpleData name="mark_num">Линия № 3:  Максимовка - Макинск, II класс 
Участок: фунд. реп. 2883 - грунт. реп. 3490</SimpleData>
		<SimpleData name="center_type">Богословка, с., в 2.3 км к сев. от него, в 10 м к зап. от
трубы, к зап. от грунт, дороги с. Зиновеевка -
с. Богословка</SimpleData>
		<SimpleData name="lvl_line">c154b653-cbc5-4da3-bf7d-59cc26f157ac</SimpleData>
	</SchemaData></ExtendedData>
      <Point><coordinates>68.8169477252501,52.3692493291456</coordinates></Point>
  </Placemark>
</Folder>
</Document></kml>
