<?xml version="1.0" encoding="utf-8" ?>
<kml xmlns="http://www.opengis.net/kml/2.2">
<Document id="root_doc">
<Schema name="c18fac28" id="c18fac28">
	<SimpleField name="type" type="string"></SimpleField>
	<SimpleField name="view" type="string"></SimpleField>
	<SimpleField name="leveling_order" type="string"></SimpleField>
	<SimpleField name="leveling_height" type="string"></SimpleField>
	<SimpleField name="control_height" type="string"></SimpleField>
	<SimpleField name="benchmark_number" type="string"></SimpleField>
	<SimpleField name="control_location" type="string"></SimpleField>
	<SimpleField name="benchmark_type" type="string"></SimpleField>
	<SimpleField name="leveling_line_section" type="string"></SimpleField>
	<SimpleField name="location_description" type="string"></SimpleField>
	<SimpleField name="status" type="string"></SimpleField>
	<SimpleField name="guid" type="string"></SimpleField>
	<SimpleField name="kml" type="string"></SimpleField>
	<SimpleField name="kml_link" type="string"></SimpleField>
</Schema>
<Folder><name>c18fac28</name>
  <Placemark id="c18fac28.1">
	<name>1684</name>
	<name>грунт.реп.</name>
	<ExtendedData><SchemaData schemaUrl="#c18fac28">
		<SimpleData name="type">2</SimpleData>
		<SimpleData name="view">268,823</SimpleData>
		<SimpleData name="leveling_order">267,458</SimpleData>
		<SimpleData name="control_height">репер № 5034                    в фундаментной плите</SimpleData>
		<SimpleData name="benchmark_number">116</SimpleData>
		<SimpleData name="control_location">Линия № 5 :       Карабас-Туз - Кара-Аул,  2 класс (1) Участок : фунд.реп. 86-А - грунт.реп. 5043</SimpleData>
		<SimpleData name="benchmark_type">Карабастуз, соляной промысел, в 11,0 км к юго-зап. от него, в 6,0 км к зап. от оз.Шуга, в 1,4 км к югу от дороги свх.им.Абая - с.Иса</SimpleData>
		<SimpleData name="leveling_line_section">утрачен</SimpleData>
		<SimpleData name="location_description">c18fac28-11ee-4da4-9feb-65feb4ae1c13</SimpleData>
		<SimpleData name="status">data/stations/c18fac28.kml</SimpleData>
		<SimpleData name="guid">&lt;a href='data/stations/c18fac28.kml' target='_blank'&gt;Download KML&lt;/a&gt;</SimpleData>
	</SchemaData></ExtendedData>
      <Point><coordinates>79.0518081837538,50.2183668215486</coordinates></Point>
  </Placemark>
</Folder>
</Document></kml>
