<?xml version="1.0" encoding="utf-8" ?>
<kml xmlns="http://www.opengis.net/kml/2.2">
<Document id="root_doc">
<Schema name="c2134d0f" id="c2134d0f">
	<SimpleField name="type" type="string"></SimpleField>
	<SimpleField name="view" type="string"></SimpleField>
	<SimpleField name="leveling_order" type="string"></SimpleField>
	<SimpleField name="leveling_height" type="string"></SimpleField>
	<SimpleField name="control_height" type="string"></SimpleField>
	<SimpleField name="benchmark_number" type="string"></SimpleField>
	<SimpleField name="control_location" type="string"></SimpleField>
	<SimpleField name="benchmark_type" type="string"></SimpleField>
	<SimpleField name="leveling_line_section" type="string"></SimpleField>
	<SimpleField name="location_description" type="string"></SimpleField>
	<SimpleField name="status" type="string"></SimpleField>
	<SimpleField name="guid" type="string"></SimpleField>
	<SimpleField name="kml" type="string"></SimpleField>
	<SimpleField name="kml_link" type="string"></SimpleField>
</Schema>
<Folder><name>c2134d0f</name>
  <Placemark id="c2134d0f.1">
	<name>5652</name>
	<name>фунд. реп.</name>
	<ExtendedData><SchemaData schemaUrl="#c2134d0f">
		<SimpleData name="type">1</SimpleData>
		<SimpleData name="view">345.157</SimpleData>
		<SimpleData name="leveling_order">343.899</SimpleData>
		<SimpleData name="benchmark_number">154</SimpleData>
		<SimpleData name="control_location">Линия №2 : Карталы-Кандагач, I класс . Участок : грунт. реп. 8626-фунд. реп. 142.  </SimpleData>
		<SimpleData name="benchmark_type">Разъезд №311, в 2,0 км к юго-зап. от него, на 3 пк. 193 км, в 40 м к зап. от жел.-дор. полотна, в 10 м к зап. от линии связи</SimpleData>
		<SimpleData name="location_description">c2134d0f-c1c7-4534-ba05-077ce36432b3</SimpleData>
		<SimpleData name="status">data/stations/c2134d0f.kml</SimpleData>
		<SimpleData name="guid">&lt;a href='data/stations/c2134d0f.kml' target='_blank'&gt;Download KML&lt;/a&gt;</SimpleData>
	</SchemaData></ExtendedData>
      <Point><coordinates>57.8382670925889,49.6659605441488</coordinates></Point>
  </Placemark>
</Folder>
</Document></kml>
