<?xml version="1.0" encoding="utf-8" ?>
<kml xmlns="http://www.opengis.net/kml/2.2">
<Document id="root_doc">
<Schema name="c250e24f" id="c250e24f">
	<SimpleField name="title" type="string"></SimpleField>
	<SimpleField name="type" type="string"></SimpleField>
	<SimpleField name="ext_sign" type="string"></SimpleField>
	<SimpleField name="class_lvl" type="string"></SimpleField>
	<SimpleField name="height_lvl" type="string"></SimpleField>
	<SimpleField name="height_ctrl" type="string"></SimpleField>
	<SimpleField name="ctrl_place" type="string"></SimpleField>
	<SimpleField name="mark_num" type="string"></SimpleField>
	<SimpleField name="center_type" type="string"></SimpleField>
	<SimpleField name="lvl_line" type="string"></SimpleField>
	<SimpleField name="guid" type="string"></SimpleField>
</Schema>
<Folder><name>c250e24f</name>
  <Placemark id="c250e24f.1">
	<name>702</name>
	<ExtendedData><SchemaData schemaUrl="#c250e24f">
		<SimpleData name="title">стен.реп.</SimpleData>
		<SimpleData name="type">2</SimpleData>
		<SimpleData name="ext_sign">9,411</SimpleData>
		<SimpleData name="ctrl_place">143</SimpleData>
		<SimpleData name="mark_num">Линия № 8 Русская Таловка - Керей</SimpleData>
		<SimpleData name="center_type">Караозен, а в стене здания средней школы, влево от главного входа, в 0,8 м выше уровня земли</SimpleData>
		<SimpleData name="lvl_line">c250e24f-7fbb-4fde-88de-0280a6a9a06e</SimpleData>
	</SchemaData></ExtendedData>
      <Point><coordinates>49.503674572249,49.6589538925602</coordinates></Point>
  </Placemark>
</Folder>
</Document></kml>
