<?xml version="1.0" encoding="utf-8" ?>
<kml xmlns="http://www.opengis.net/kml/2.2">
<Document id="root_doc">
<Schema name="c252aad1" id="c252aad1">
	<SimpleField name="type" type="string"></SimpleField>
	<SimpleField name="view" type="string"></SimpleField>
	<SimpleField name="leveling_order" type="string"></SimpleField>
	<SimpleField name="leveling_height" type="string"></SimpleField>
	<SimpleField name="control_height" type="string"></SimpleField>
	<SimpleField name="benchmark_number" type="string"></SimpleField>
	<SimpleField name="control_location" type="string"></SimpleField>
	<SimpleField name="benchmark_type" type="string"></SimpleField>
	<SimpleField name="leveling_line_section" type="string"></SimpleField>
	<SimpleField name="location_description" type="string"></SimpleField>
	<SimpleField name="status" type="string"></SimpleField>
	<SimpleField name="guid" type="string"></SimpleField>
	<SimpleField name="kml" type="string"></SimpleField>
	<SimpleField name="kml_link" type="string"></SimpleField>
</Schema>
<Folder><name>c252aad1</name>
  <Placemark id="c252aad1.1">
	<name>4978</name>
	<name>грунт,реп,</name>
	<ExtendedData><SchemaData schemaUrl="#c252aad1">
		<SimpleData name="type">1</SimpleData>
		<SimpleData name="view">578.601</SimpleData>
		<SimpleData name="leveling_order">577,461</SimpleData>
		<SimpleData name="leveling_height">5047</SimpleData>
		<SimpleData name="control_height">репер в верхней
плоскости монолита</SimpleData>
		<SimpleData name="benchmark_number">121</SimpleData>
		<SimpleData name="control_location">Линия №1: Арысь-Сарыозек, I класс</SimpleData>
		<SimpleData name="benchmark_type">Чимкент, станц,, в 4,5 км к сев,-вост,от нее, на 7 ПК 3296 км, в 36 м к сев,от жел,-дор,полотна</SimpleData>
		<SimpleData name="location_description">c252aad1-e9bd-4e7a-98d1-1146b49bd49c</SimpleData>
		<SimpleData name="status">data/stations/c252aad1.kml</SimpleData>
		<SimpleData name="guid">&lt;a href='data/stations/c252aad1.kml' target='_blank'&gt;Download KML&lt;/a&gt;</SimpleData>
	</SchemaData></ExtendedData>
      <Point><coordinates>69.6567317190182,42.3195470130398</coordinates></Point>
  </Placemark>
</Folder>
</Document></kml>
