<?xml version="1.0" encoding="utf-8" ?>
<kml xmlns="http://www.opengis.net/kml/2.2">
<Document id="root_doc">
<Schema name="c28a7b18" id="c28a7b18">
	<SimpleField name="type" type="string"></SimpleField>
	<SimpleField name="view" type="string"></SimpleField>
	<SimpleField name="leveling_order" type="string"></SimpleField>
	<SimpleField name="leveling_height" type="string"></SimpleField>
	<SimpleField name="control_height" type="string"></SimpleField>
	<SimpleField name="benchmark_number" type="string"></SimpleField>
	<SimpleField name="control_location" type="string"></SimpleField>
	<SimpleField name="benchmark_type" type="string"></SimpleField>
	<SimpleField name="leveling_line_section" type="string"></SimpleField>
	<SimpleField name="location_description" type="string"></SimpleField>
	<SimpleField name="status" type="string"></SimpleField>
	<SimpleField name="guid" type="string"></SimpleField>
	<SimpleField name="kml" type="string"></SimpleField>
	<SimpleField name="kml_link" type="string"></SimpleField>
</Schema>
<Folder><name>c28a7b18</name>
  <Placemark id="c28a7b18.1">
	<name>4112</name>
	<name>фунд.реп.</name>
	<ExtendedData><SchemaData schemaUrl="#c28a7b18">
		<SimpleData name="type">1</SimpleData>
		<SimpleData name="view">366.658</SimpleData>
		<SimpleData name="leveling_order">365.563</SimpleData>
		<SimpleData name="control_height">Контрольный репер № 2326 в фундаментной плите </SimpleData>
		<SimpleData name="benchmark_number">161 оп</SimpleData>
		<SimpleData name="control_location">Линия № 1: Каратас - Аягоз, I класс 
Участок: фунд.реп.  3000 – грунт.реп. 4998
</SimpleData>
		<SimpleData name="benchmark_type">Актогай, станц., в 2.7 км к сев.-вост. от нее, в 1.0 км к сев. от жел.-дор. склада, между полевыми дорогами</SimpleData>
		<SimpleData name="location_description">c28a7b18-d235-43e7-90ea-a0e3c53c3dd0</SimpleData>
		<SimpleData name="status">data/stations/c28a7b18.kml</SimpleData>
		<SimpleData name="guid">&lt;a href='data/stations/c28a7b18.kml' target='_blank'&gt;Download KML&lt;/a&gt;</SimpleData>
	</SchemaData></ExtendedData>
      <Point><coordinates>79.6997340078582,46.9755565622303</coordinates></Point>
  </Placemark>
</Folder>
</Document></kml>
