<?xml version="1.0" encoding="utf-8" ?>
<kml xmlns="http://www.opengis.net/kml/2.2">
<Document id="root_doc">
<Schema name="c29368bd" id="c29368bd">
	<SimpleField name="title" type="string"></SimpleField>
	<SimpleField name="type" type="string"></SimpleField>
	<SimpleField name="ext_sign" type="string"></SimpleField>
	<SimpleField name="class_lvl" type="string"></SimpleField>
	<SimpleField name="height_lvl" type="string"></SimpleField>
	<SimpleField name="height_ctrl" type="string"></SimpleField>
	<SimpleField name="ctrl_place" type="string"></SimpleField>
	<SimpleField name="mark_num" type="string"></SimpleField>
	<SimpleField name="center_type" type="string"></SimpleField>
	<SimpleField name="lvl_line" type="string"></SimpleField>
	<SimpleField name="guid" type="string"></SimpleField>
</Schema>
<Folder><name>c29368bd</name>
  <Placemark id="c29368bd.1">
	<name>540</name>
	<description>грунтовый репер</description>
	<ExtendedData><SchemaData schemaUrl="#c29368bd">
		<SimpleData name="type">2</SimpleData>
		<SimpleData name="ext_sign">438.501</SimpleData>
		<SimpleData name="class_lvl">437.314</SimpleData>
		<SimpleData name="height_lvl">Контрольный репер в верхней плоскости монолита</SimpleData>
		<SimpleData name="ctrl_place">121</SimpleData>
		<SimpleData name="mark_num">Линия № 1: Буран - Белая Школа, II класс. Участок: грунт. реп. 1507 - грунт. реп. 22</SimpleData>
		<SimpleData name="center_type">Мужиксу, с., в 2.3 км к юго-зап. от него, в 25 м к вост. от дороги, с. Мужиксу-гор.Зайсан, в 17 м к югу от полевой дороги </SimpleData>
		<SimpleData name="lvl_line">c29368bd-0675-4bfe-8535-303af591a197</SimpleData>
	</SchemaData></ExtendedData>
      <Point><coordinates>84.9211023144784,47.6351783046934</coordinates></Point>
  </Placemark>
</Folder>
</Document></kml>
