<?xml version="1.0" encoding="utf-8" ?>
<kml xmlns="http://www.opengis.net/kml/2.2">
<Document id="root_doc">
<Schema name="c295e3ee" id="c295e3ee">
	<SimpleField name="type" type="string"></SimpleField>
	<SimpleField name="view" type="string"></SimpleField>
	<SimpleField name="leveling_order" type="string"></SimpleField>
	<SimpleField name="leveling_height" type="string"></SimpleField>
	<SimpleField name="control_height" type="string"></SimpleField>
	<SimpleField name="benchmark_number" type="string"></SimpleField>
	<SimpleField name="control_location" type="string"></SimpleField>
	<SimpleField name="benchmark_type" type="string"></SimpleField>
	<SimpleField name="leveling_line_section" type="string"></SimpleField>
	<SimpleField name="location_description" type="string"></SimpleField>
	<SimpleField name="status" type="string"></SimpleField>
	<SimpleField name="guid" type="string"></SimpleField>
	<SimpleField name="kml" type="string"></SimpleField>
	<SimpleField name="kml_link" type="string"></SimpleField>
</Schema>
<Folder><name>c295e3ee</name>
  <Placemark id="c295e3ee.1">
	<name>6940</name>
	<name>ск. реп.</name>
	<ExtendedData><SchemaData schemaUrl="#c295e3ee">
		<SimpleData name="type">2</SimpleData>
		<SimpleData name="view">389.522</SimpleData>
		<SimpleData name="benchmark_number">99 оп</SimpleData>
		<SimpleData name="control_location">Линия № 2: Баршатас - Катбар, II класс 
Участок: ск.реп. 12247 – фунд.реп. 521
</SimpleData>
		<SimpleData name="benchmark_type">Шолькыкыл, станц., в 7.7 км к юго-вост. от нее, в 4.8 км к юго-зап. от могилы и двух родников, в 0.3 км к югу от дороги с. Саяк – с. Каратас</SimpleData>
		<SimpleData name="location_description">c295e3ee-bd34-4161-9f02-d75eed59499c</SimpleData>
		<SimpleData name="status">data/stations/c295e3ee.kml</SimpleData>
		<SimpleData name="guid">&lt;a href='data/stations/c295e3ee.kml' target='_blank'&gt;Download KML&lt;/a&gt;</SimpleData>
	</SchemaData></ExtendedData>
      <Point><coordinates>78.2883485658185,46.7746845599361</coordinates></Point>
  </Placemark>
</Folder>
</Document></kml>
