<?xml version="1.0" encoding="utf-8" ?>
<kml xmlns="http://www.opengis.net/kml/2.2">
<Document id="root_doc">
<Schema name="c2c1f36c" id="c2c1f36c">
	<SimpleField name="type" type="string"></SimpleField>
	<SimpleField name="view" type="string"></SimpleField>
	<SimpleField name="leveling_order" type="string"></SimpleField>
	<SimpleField name="leveling_height" type="string"></SimpleField>
	<SimpleField name="control_height" type="string"></SimpleField>
	<SimpleField name="benchmark_number" type="string"></SimpleField>
	<SimpleField name="control_location" type="string"></SimpleField>
	<SimpleField name="benchmark_type" type="string"></SimpleField>
	<SimpleField name="leveling_line_section" type="string"></SimpleField>
	<SimpleField name="location_description" type="string"></SimpleField>
	<SimpleField name="status" type="string"></SimpleField>
	<SimpleField name="guid" type="string"></SimpleField>
	<SimpleField name="kml" type="string"></SimpleField>
	<SimpleField name="kml_link" type="string"></SimpleField>
</Schema>
<Folder><name>c2c1f36c</name>
  <Placemark id="c2c1f36c.1">
	<name>1898</name>
	<name>грунтовый репер</name>
	<ExtendedData><SchemaData schemaUrl="#c2c1f36c">
		<SimpleData name="type">2</SimpleData>
		<SimpleData name="view">361,372</SimpleData>
		<SimpleData name="leveling_height">360</SimpleData>
		<SimpleData name="benchmark_number">в фундаментной плите</SimpleData>
		<SimpleData name="control_location">Линия № 2: Древний Курган - Сасыккудык. 2 класс (1,2) Участок: пир. 3 кл. Жамансу - фунд. реп. 3245</SimpleData>
		<SimpleData name="benchmark_type">Байтык, мог., в 5.2 км к юго-вост, от неё, в 2.5 км к юго­ зап. от мог. Кушик. в 0.3 км к сев.-вост, от кладб. Таскор </SimpleData>
		<SimpleData name="location_description">c2c1f36c-ba75-4d2f-a532-eb18a24366f6</SimpleData>
		<SimpleData name="status">data/stations/c2c1f36c.kml</SimpleData>
		<SimpleData name="guid">&lt;a href='data/stations/c2c1f36c.kml' target='_blank'&gt;Download KML&lt;/a&gt;</SimpleData>
	</SchemaData></ExtendedData>
      <Point><coordinates>69.066910676795,47.37978456621</coordinates></Point>
  </Placemark>
</Folder>
</Document></kml>
