<?xml version="1.0" encoding="utf-8" ?>
<kml xmlns="http://www.opengis.net/kml/2.2">
<Document id="root_doc">
<Schema name="c3259a07" id="c3259a07">
	<SimpleField name="title" type="string"></SimpleField>
	<SimpleField name="type" type="string"></SimpleField>
	<SimpleField name="ext_sign" type="string"></SimpleField>
	<SimpleField name="class_lvl" type="string"></SimpleField>
	<SimpleField name="height_lvl" type="string"></SimpleField>
	<SimpleField name="height_ctrl" type="string"></SimpleField>
	<SimpleField name="ctrl_place" type="string"></SimpleField>
	<SimpleField name="mark_num" type="string"></SimpleField>
	<SimpleField name="center_type" type="string"></SimpleField>
	<SimpleField name="lvl_line" type="string"></SimpleField>
	<SimpleField name="guid" type="string"></SimpleField>
</Schema>
<Folder><name>c3259a07</name>
  <Placemark id="c3259a07.1">
	<name>Закладка M052</name>
	<ExtendedData><SchemaData schemaUrl="#c3259a07">
		<SimpleData name="center_type">Жанааул с.,з 1.5км к юго-востоку от него,к 100м к югу грунтовая дорога с.Кызылту-с.Суыксу.</SimpleData>
		<SimpleData name="lvl_line">c3259a07-9ee5-43b2-86dd-ab06c1f31b5b</SimpleData>
	</SchemaData></ExtendedData>
      <Point><coordinates>74.25401223,49.33827995</coordinates></Point>
  </Placemark>
</Folder>
</Document></kml>
