<?xml version="1.0" encoding="utf-8" ?>
<kml xmlns="http://www.opengis.net/kml/2.2">
<Document id="root_doc">
<Schema name="c346df62" id="c346df62">
	<SimpleField name="type" type="string"></SimpleField>
	<SimpleField name="view" type="string"></SimpleField>
	<SimpleField name="leveling_order" type="string"></SimpleField>
	<SimpleField name="leveling_height" type="string"></SimpleField>
	<SimpleField name="control_height" type="string"></SimpleField>
	<SimpleField name="benchmark_number" type="string"></SimpleField>
	<SimpleField name="control_location" type="string"></SimpleField>
	<SimpleField name="benchmark_type" type="string"></SimpleField>
	<SimpleField name="leveling_line_section" type="string"></SimpleField>
	<SimpleField name="location_description" type="string"></SimpleField>
	<SimpleField name="status" type="string"></SimpleField>
	<SimpleField name="guid" type="string"></SimpleField>
	<SimpleField name="kml" type="string"></SimpleField>
	<SimpleField name="kml_link" type="string"></SimpleField>
</Schema>
<Folder><name>c346df62</name>
  <Placemark id="c346df62.1">
	<name>91671</name>
	<name>грунт,реп,</name>
	<ExtendedData><SchemaData schemaUrl="#c346df62">
		<SimpleData name="type">I</SimpleData>
		<SimpleData name="view">233.418</SimpleData>
		<SimpleData name="leveling_order">231,548</SimpleData>
		<SimpleData name="control_height">репер №367 в верхней плоскости монолита</SimpleData>
		<SimpleData name="benchmark_number">121</SimpleData>
		<SimpleData name="control_location">Линия №1: Петропавловск - Астана (Целиноград), I класс, Участок: грунт,реп, 5013 - марка 7227</SimpleData>
		<SimpleData name="benchmark_type">Жаманащы, станц,, в0,7 км к сев,от нее, на 2 пк175 км жел,дор,,в 36 м к сев,-вост,от жел,-дор,переезда,в 31 м к вост,от жел,дор,полотна,в 21 м к юго-зап,от тлф,стб, №72/1073,в 21 м к сев,от полевой дороги,в 17 м к юго-вост,от тлф,стб,№ 938, на поляне</SimpleData>
		<SimpleData name="location_description">c346df62-5119-45fe-aad8-99f0216524ae</SimpleData>
		<SimpleData name="status">data/stations/c346df62.kml</SimpleData>
		<SimpleData name="guid">&lt;a href='data/stations/c346df62.kml' target='_blank'&gt;Download KML&lt;/a&gt;</SimpleData>
	</SchemaData></ExtendedData>
      <Point><coordinates>69.4840558415529,53.4470675956453</coordinates></Point>
  </Placemark>
</Folder>
</Document></kml>
