<?xml version="1.0" encoding="utf-8" ?>
<kml xmlns="http://www.opengis.net/kml/2.2">
<Document id="root_doc">
<Schema name="c377b9a2" id="c377b9a2">
	<SimpleField name="title" type="string"></SimpleField>
	<SimpleField name="type" type="string"></SimpleField>
	<SimpleField name="ext_sign" type="string"></SimpleField>
	<SimpleField name="class_lvl" type="string"></SimpleField>
	<SimpleField name="height_lvl" type="string"></SimpleField>
	<SimpleField name="height_ctrl" type="string"></SimpleField>
	<SimpleField name="ctrl_place" type="string"></SimpleField>
	<SimpleField name="mark_num" type="string"></SimpleField>
	<SimpleField name="center_type" type="string"></SimpleField>
	<SimpleField name="lvl_line" type="string"></SimpleField>
	<SimpleField name="guid" type="string"></SimpleField>
</Schema>
<Folder><name>c377b9a2</name>
  <Placemark id="c377b9a2.1">
	<name>320</name>
	<ExtendedData><SchemaData schemaUrl="#c377b9a2">
		<SimpleData name="title">грунтовый репер</SimpleData>
		<SimpleData name="type">2</SimpleData>
		<SimpleData name="ext_sign">496.206</SimpleData>
		<SimpleData name="class_lvl">495,12</SimpleData>
		<SimpleData name="height_lvl">в верхней плоскости монолита </SimpleData>
		<SimpleData name="ctrl_place">121 оп. знак</SimpleData>
		<SimpleData name="mark_num">Линия № 2: Аркарлы - Актас. 2 класс ( 2 ) Участок: фунд. реп. 23 - фунд. реп. 3010</SimpleData>
		<SimpleData name="center_type">Шалгинский, с., в 10.7 км к юго-вост, от него, в 0.2 км к юго-зап. от род. Сагантайбулак, в 25 м к зап. от полевой дороги</SimpleData>
		<SimpleData name="lvl_line">c377b9a2-ff94-4ea5-b4f4-543346cd5213</SimpleData>
	</SchemaData></ExtendedData>
      <Point><coordinates>70.7889564914814,47.2846391837361</coordinates></Point>
  </Placemark>
</Folder>
</Document></kml>
