<?xml version="1.0" encoding="utf-8" ?>
<kml xmlns="http://www.opengis.net/kml/2.2">
<Document id="root_doc">
<Schema name="c39713fe" id="c39713fe">
	<SimpleField name="type" type="string"></SimpleField>
	<SimpleField name="view" type="string"></SimpleField>
	<SimpleField name="leveling_order" type="string"></SimpleField>
	<SimpleField name="leveling_height" type="string"></SimpleField>
	<SimpleField name="control_height" type="string"></SimpleField>
	<SimpleField name="benchmark_number" type="string"></SimpleField>
	<SimpleField name="control_location" type="string"></SimpleField>
	<SimpleField name="benchmark_type" type="string"></SimpleField>
	<SimpleField name="leveling_line_section" type="string"></SimpleField>
	<SimpleField name="location_description" type="string"></SimpleField>
	<SimpleField name="status" type="string"></SimpleField>
	<SimpleField name="guid" type="string"></SimpleField>
	<SimpleField name="kml" type="string"></SimpleField>
	<SimpleField name="kml_link" type="string"></SimpleField>
</Schema>
<Folder><name>c39713fe</name>
  <Placemark id="c39713fe.1">
	<name>3520</name>
	<name>грунтовый репер</name>
	<ExtendedData><SchemaData schemaUrl="#c39713fe">
		<SimpleData name="type">2</SimpleData>
		<SimpleData name="view">50.732</SimpleData>
		<SimpleData name="benchmark_number">121</SimpleData>
		<SimpleData name="control_location">Линия: Славгородское- Айбас, II класс (2). Участок:  гр. рп. 10390-гр. рп. 92804</SimpleData>
		<SimpleData name="benchmark_type">Кобенсай, а, в 7,2 км к сев.- зап.от него, в 4,8 к зап.от  оз. Теке, в 35м к вост.от дор.а. Кобенсай - с. Озексай, в сев.- вост.углу пересечения этой дор.с пол.дор.</SimpleData>
		<SimpleData name="location_description">c39713fe-6738-4353-a1d8-76f10d9d2979</SimpleData>
		<SimpleData name="status">data/stations/c39713fe.kml</SimpleData>
		<SimpleData name="guid">&lt;a href='data/stations/c39713fe.kml' target='_blank'&gt;Download KML&lt;/a&gt;</SimpleData>
	</SchemaData></ExtendedData>
      <Point><coordinates>72.7505318035926,53.8126908049931</coordinates></Point>
  </Placemark>
</Folder>
</Document></kml>
