<?xml version="1.0" encoding="utf-8" ?>
<kml xmlns="http://www.opengis.net/kml/2.2">
<Document id="root_doc">
<Schema name="c3a02c30" id="c3a02c30">
	<SimpleField name="type" type="string"></SimpleField>
	<SimpleField name="view" type="string"></SimpleField>
	<SimpleField name="leveling_order" type="string"></SimpleField>
	<SimpleField name="leveling_height" type="string"></SimpleField>
	<SimpleField name="control_height" type="string"></SimpleField>
	<SimpleField name="benchmark_number" type="string"></SimpleField>
	<SimpleField name="control_location" type="string"></SimpleField>
	<SimpleField name="benchmark_type" type="string"></SimpleField>
	<SimpleField name="leveling_line_section" type="string"></SimpleField>
	<SimpleField name="location_description" type="string"></SimpleField>
	<SimpleField name="status" type="string"></SimpleField>
	<SimpleField name="guid" type="string"></SimpleField>
	<SimpleField name="kml" type="string"></SimpleField>
	<SimpleField name="kml_link" type="string"></SimpleField>
</Schema>
<Folder><name>c3a02c30</name>
  <Placemark id="c3a02c30.1">
	<name>1329</name>
	<name>фунд. реп. </name>
	<ExtendedData><SchemaData schemaUrl="#c3a02c30">
		<SimpleData name="type">1</SimpleData>
		<SimpleData name="view">200,516</SimpleData>
		<SimpleData name="leveling_order">198,499</SimpleData>
		<SimpleData name="control_height">репер № 1557 в пилоне</SimpleData>
		<SimpleData name="benchmark_number">104</SimpleData>
		<SimpleData name="control_location">Ход от марка 20210 - грунт. реп. 6363, I класс (5) </SimpleData>
		<SimpleData name="benchmark_type">Жана-Семей, станц., здание вокзала.</SimpleData>
		<SimpleData name="location_description">c3a02c30-10a1-4758-9f93-4f4b17d6a899</SimpleData>
		<SimpleData name="status">data/stations/c3a02c30.kml</SimpleData>
		<SimpleData name="guid">&lt;a href='data/stations/c3a02c30.kml' target='_blank'&gt;Download KML&lt;/a&gt;</SimpleData>
	</SchemaData></ExtendedData>
      <Point><coordinates>80.2217587548848,50.393919974064</coordinates></Point>
  </Placemark>
</Folder>
</Document></kml>
