<?xml version="1.0" encoding="utf-8" ?>
<kml xmlns="http://www.opengis.net/kml/2.2">
<Document id="root_doc">
<Schema name="c4549572" id="c4549572">
	<SimpleField name="title" type="string"></SimpleField>
	<SimpleField name="type" type="string"></SimpleField>
	<SimpleField name="ext_sign" type="string"></SimpleField>
	<SimpleField name="class_lvl" type="string"></SimpleField>
	<SimpleField name="height_lvl" type="string"></SimpleField>
	<SimpleField name="height_ctrl" type="string"></SimpleField>
	<SimpleField name="ctrl_place" type="string"></SimpleField>
	<SimpleField name="mark_num" type="string"></SimpleField>
	<SimpleField name="center_type" type="string"></SimpleField>
	<SimpleField name="lvl_line" type="string"></SimpleField>
	<SimpleField name="guid" type="string"></SimpleField>
</Schema>
<Folder><name>c4549572</name>
  <Placemark id="c4549572.1">
	<name>6294</name>
	<description>грунтовый репер</description>
	<ExtendedData><SchemaData schemaUrl="#c4549572">
		<SimpleData name="type">1</SimpleData>
		<SimpleData name="ext_sign">128.738</SimpleData>
		<SimpleData name="ctrl_place">160 оп. знак</SimpleData>
		<SimpleData name="mark_num">Линия № 2: Кызылор-да - Торыустаган, I класс. Участок: фунд.реп. 3047 - грунт.реп. 300</SimpleData>
		<SimpleData name="center_type">Жангызжар, разв., в 6.3 км к сев.-зап.от них,в 2.7 км к сев.-вост.от зим. Ногайкара, в треугольнике развилки полевых дорог</SimpleData>
		<SimpleData name="lvl_line">c4549572-8ffc-4c8e-b93c-c67d922eb201</SimpleData>
	</SchemaData></ExtendedData>
      <Point><coordinates>65.9822702716139,44.8521780660717</coordinates></Point>
  </Placemark>
</Folder>
</Document></kml>
