<?xml version="1.0" encoding="utf-8" ?>
<kml xmlns="http://www.opengis.net/kml/2.2">
<Document id="root_doc">
<Schema name="c458c627" id="c458c627">
	<SimpleField name="type" type="string"></SimpleField>
	<SimpleField name="view" type="string"></SimpleField>
	<SimpleField name="leveling_order" type="string"></SimpleField>
	<SimpleField name="leveling_height" type="string"></SimpleField>
	<SimpleField name="control_height" type="string"></SimpleField>
	<SimpleField name="benchmark_number" type="string"></SimpleField>
	<SimpleField name="control_location" type="string"></SimpleField>
	<SimpleField name="benchmark_type" type="string"></SimpleField>
	<SimpleField name="leveling_line_section" type="string"></SimpleField>
	<SimpleField name="location_description" type="string"></SimpleField>
	<SimpleField name="status" type="string"></SimpleField>
	<SimpleField name="guid" type="string"></SimpleField>
	<SimpleField name="kml" type="string"></SimpleField>
	<SimpleField name="kml_link" type="string"></SimpleField>
</Schema>
<Folder><name>c458c627</name>
  <Placemark id="c458c627.1">
	<name>445</name>
	<name>грунт. реп.</name>
	<ExtendedData><SchemaData schemaUrl="#c458c627">
		<SimpleData name="type">2</SimpleData>
		<SimpleData name="view">454,814</SimpleData>
		<SimpleData name="leveling_order">453,37</SimpleData>
		<SimpleData name="control_height">репер № 179 в фундаментной плите</SimpleData>
		<SimpleData name="benchmark_number">116</SimpleData>
		<SimpleData name="control_location">Линия: № 1: Эмбек-Берёзовка, II класс (1) Участок: грунт. реп. 280-грунт. реп. 340</SimpleData>
		<SimpleData name="benchmark_type">Жулдуз, с., в 2.5 км к сев. от него, в 10 м к югу от поворота дороги с. Большенарымское-с. Катон-Карагай</SimpleData>
		<SimpleData name="location_description">c458c627-40bb-42f8-9746-a46f31c381bd</SimpleData>
		<SimpleData name="status">data/stations/c458c627.kml</SimpleData>
		<SimpleData name="guid">&lt;a href='data/stations/c458c627.kml' target='_blank'&gt;Download KML&lt;/a&gt;</SimpleData>
	</SchemaData></ExtendedData>
      <Point><coordinates>84.5910795047057,49.2071193530881</coordinates></Point>
  </Placemark>
</Folder>
</Document></kml>
