<?xml version="1.0" encoding="utf-8" ?>
<kml xmlns="http://www.opengis.net/kml/2.2">
<Document id="root_doc">
<Schema name="c45a35f5" id="c45a35f5">
	<SimpleField name="title" type="string"></SimpleField>
	<SimpleField name="type" type="string"></SimpleField>
	<SimpleField name="ext_sign" type="string"></SimpleField>
	<SimpleField name="class_lvl" type="string"></SimpleField>
	<SimpleField name="height_lvl" type="string"></SimpleField>
	<SimpleField name="height_ctrl" type="string"></SimpleField>
	<SimpleField name="ctrl_place" type="string"></SimpleField>
	<SimpleField name="mark_num" type="string"></SimpleField>
	<SimpleField name="center_type" type="string"></SimpleField>
	<SimpleField name="lvl_line" type="string"></SimpleField>
	<SimpleField name="guid" type="string"></SimpleField>
</Schema>
<Folder><name>c45a35f5</name>
  <Placemark id="c45a35f5.1">
	<name>4301</name>
	<description>грунт.реп.</description>
	<ExtendedData><SchemaData schemaUrl="#c45a35f5">
		<SimpleData name="title">грунт.реп.</SimpleData>
		<SimpleData name="type">II</SimpleData>
		<SimpleData name="ext_sign">389.896</SimpleData>
		<SimpleData name="ctrl_place">160оп.знак</SimpleData>
		<SimpleData name="mark_num">Линия № 1: Качагай-Акколь, II класс. Участок: грунт.реп. 4477-грунт.реп. 8600</SimpleData>
		<SimpleData name="center_type">Баканас,с.,в 11,3 км к сев.-зап. от него, в 96 м к югу от км.стб.224/41 шоссе с.Караой-с.Баканас, в 47 м к юго.-зап. От тлгр.стб.73/242</SimpleData>
		<SimpleData name="lvl_line">c45a35f5-8b55-48c5-a0c5-c4de48e86c7c</SimpleData>
	</SchemaData></ExtendedData>
      <Point><coordinates>76.1307021075051,44.8710136923767</coordinates></Point>
  </Placemark>
</Folder>
</Document></kml>
