<?xml version="1.0" encoding="utf-8" ?>
<kml xmlns="http://www.opengis.net/kml/2.2">
<Document id="root_doc">
<Schema name="c462a791" id="c462a791">
	<SimpleField name="title" type="string"></SimpleField>
	<SimpleField name="type" type="string"></SimpleField>
	<SimpleField name="ext_sign" type="string"></SimpleField>
	<SimpleField name="class_lvl" type="string"></SimpleField>
	<SimpleField name="height_lvl" type="string"></SimpleField>
	<SimpleField name="height_ctrl" type="string"></SimpleField>
	<SimpleField name="ctrl_place" type="string"></SimpleField>
	<SimpleField name="mark_num" type="string"></SimpleField>
	<SimpleField name="center_type" type="string"></SimpleField>
	<SimpleField name="lvl_line" type="string"></SimpleField>
	<SimpleField name="guid" type="string"></SimpleField>
</Schema>
<Folder><name>c462a791</name>
  <Placemark id="c462a791.1">
	<name>8162</name>
	<ExtendedData><SchemaData schemaUrl="#c462a791">
		<SimpleData name="title">грунтовый репер</SimpleData>
		<SimpleData name="type">2</SimpleData>
		<SimpleData name="ext_sign">344,149</SimpleData>
		<SimpleData name="ctrl_place">160 оп. знак</SimpleData>
		<SimpleData name="mark_num">Линия № 2: Созак -               Туркистан, II класс (2) Участок: фунд. реп. 6972 - грунт. реп. 8059</SimpleData>
		<SimpleData name="center_type">Созак, с., в 3.0 км к зап. от него, в 0.3 км к югу от с. Коктюбе, в 41 м к сев.-зап. от шоссе с. Каратау - с. Созак</SimpleData>
		<SimpleData name="lvl_line">c462a791-d53a-44ad-bb8f-39f9aa14fdb0</SimpleData>
	</SchemaData></ExtendedData>
      <Point><coordinates>68.4209293399397,44.1310196200877</coordinates></Point>
  </Placemark>
</Folder>
</Document></kml>
