<?xml version="1.0" encoding="utf-8" ?>
<kml xmlns="http://www.opengis.net/kml/2.2">
<Document id="root_doc">
<Schema name="c4911fcd" id="c4911fcd">
	<SimpleField name="title" type="string"></SimpleField>
	<SimpleField name="type" type="string"></SimpleField>
	<SimpleField name="ext_sign" type="string"></SimpleField>
	<SimpleField name="class_lvl" type="string"></SimpleField>
	<SimpleField name="height_lvl" type="string"></SimpleField>
	<SimpleField name="height_ctrl" type="string"></SimpleField>
	<SimpleField name="ctrl_place" type="string"></SimpleField>
	<SimpleField name="mark_num" type="string"></SimpleField>
	<SimpleField name="center_type" type="string"></SimpleField>
	<SimpleField name="lvl_line" type="string"></SimpleField>
	<SimpleField name="guid" type="string"></SimpleField>
</Schema>
<Folder><name>c4911fcd</name>
  <Placemark id="c4911fcd.1">
	<name>057 (закладка)</name>
	<description>Грунтовый репер </description>
	<ExtendedData><SchemaData schemaUrl="#c4911fcd">
		<SimpleData name="lvl_line">c4911fcd-acd0-45ab-b374-34e10b92e37c</SimpleData>
	</SchemaData></ExtendedData>
      <Point><coordinates>73.8173816666667,50.6955666666667</coordinates></Point>
  </Placemark>
</Folder>
</Document></kml>
