<?xml version="1.0" encoding="utf-8" ?>
<kml xmlns="http://www.opengis.net/kml/2.2">
<Document id="root_doc">
<Schema name="c4dba4c6" id="c4dba4c6">
	<SimpleField name="title" type="string"></SimpleField>
	<SimpleField name="type" type="string"></SimpleField>
	<SimpleField name="ext_sign" type="string"></SimpleField>
	<SimpleField name="class_lvl" type="string"></SimpleField>
	<SimpleField name="height_lvl" type="string"></SimpleField>
	<SimpleField name="height_ctrl" type="string"></SimpleField>
	<SimpleField name="ctrl_place" type="string"></SimpleField>
	<SimpleField name="mark_num" type="string"></SimpleField>
	<SimpleField name="center_type" type="string"></SimpleField>
	<SimpleField name="lvl_line" type="string"></SimpleField>
	<SimpleField name="guid" type="string"></SimpleField>
</Schema>
<Folder><name>c4dba4c6</name>
  <Placemark id="c4dba4c6.1">
	<name>392</name>
	<ExtendedData><SchemaData schemaUrl="#c4dba4c6">
		<SimpleData name="title">Грунт. Реп.</SimpleData>
		<SimpleData name="height_ctrl">392</SimpleData>
		<SimpleData name="ctrl_place">160</SimpleData>
		<SimpleData name="lvl_line">c4dba4c6-6199-4083-a36b-94d41a62e5ab</SimpleData>
	</SchemaData></ExtendedData>
      <Point><coordinates>52.07950122,50.6561246</coordinates></Point>
  </Placemark>
</Folder>
</Document></kml>
