<?xml version="1.0" encoding="utf-8" ?>
<kml xmlns="http://www.opengis.net/kml/2.2">
<Document id="root_doc">
<Schema name="c502e0ad" id="c502e0ad">
	<SimpleField name="title" type="string"></SimpleField>
	<SimpleField name="type" type="string"></SimpleField>
	<SimpleField name="ext_sign" type="string"></SimpleField>
	<SimpleField name="class_lvl" type="string"></SimpleField>
	<SimpleField name="height_lvl" type="string"></SimpleField>
	<SimpleField name="height_ctrl" type="string"></SimpleField>
	<SimpleField name="ctrl_place" type="string"></SimpleField>
	<SimpleField name="mark_num" type="string"></SimpleField>
	<SimpleField name="center_type" type="string"></SimpleField>
	<SimpleField name="lvl_line" type="string"></SimpleField>
	<SimpleField name="guid" type="string"></SimpleField>
</Schema>
<Folder><name>c502e0ad</name>
  <Placemark id="c502e0ad.1">
	<name>2466</name>
	<description>Грунтовый репер </description>
	<ExtendedData><SchemaData schemaUrl="#c502e0ad">
		<SimpleData name="title">Опознавательный знак </SimpleData>
		<SimpleData name="type">І</SimpleData>
		<SimpleData name="height_ctrl">2466</SimpleData>
		<SimpleData name="ctrl_place">162</SimpleData>
		<SimpleData name="mark_num">Линия нивелирования І класса #102 &quot;Петропавловск-Павлодар&quot;</SimpleData>
		<SimpleData name="center_type">Село Акжаркын 7,5 км к югу от него, 33 м к северу от жд Кокшетау-Кишкенеколь, 23 м к востоку от отдельно стоящего здания, 20 м к северо-западу от стб. #309 ЛЭП 0,4 кВ</SimpleData>
		<SimpleData name="lvl_line">c502e0ad-f7bc-41a4-b2db-72b2a9136e97</SimpleData>
	</SchemaData></ExtendedData>
      <Point><coordinates>71.3421083333333,53.6045516666667</coordinates></Point>
  </Placemark>
</Folder>
</Document></kml>
