<?xml version="1.0" encoding="utf-8" ?>
<kml xmlns="http://www.opengis.net/kml/2.2">
<Document id="root_doc">
<Schema name="c5389e3c" id="c5389e3c">
	<SimpleField name="title" type="string"></SimpleField>
	<SimpleField name="type" type="string"></SimpleField>
	<SimpleField name="ext_sign" type="string"></SimpleField>
	<SimpleField name="class_lvl" type="string"></SimpleField>
	<SimpleField name="height_lvl" type="string"></SimpleField>
	<SimpleField name="height_ctrl" type="string"></SimpleField>
	<SimpleField name="ctrl_place" type="string"></SimpleField>
	<SimpleField name="mark_num" type="string"></SimpleField>
	<SimpleField name="center_type" type="string"></SimpleField>
	<SimpleField name="lvl_line" type="string"></SimpleField>
	<SimpleField name="guid" type="string"></SimpleField>
</Schema>
<Folder><name>c5389e3c</name>
  <Placemark id="c5389e3c.1">
	<name>5371</name>
	<description>грунтовый репер</description>
	<ExtendedData><SchemaData schemaUrl="#c5389e3c">
		<SimpleData name="title">грунт. реп.</SimpleData>
		<SimpleData name="type">2</SimpleData>
		<SimpleData name="ext_sign">200,616</SimpleData>
		<SimpleData name="ctrl_place">160</SimpleData>
		<SimpleData name="mark_num">Линия № 2 Иргиз (фунд.реп.7707) - Толыбай (фунд.реп.3780)</SimpleData>
		<SimpleData name="center_type">Амангельды (Толыбай),с,,в 19,5км к
юго-вост.от него,в 4,2км к югу от п.тр.Сопка, в 18м к юго-вост.                от пол.дороги.</SimpleData>
		<SimpleData name="lvl_line">c5389e3c-8ca6-46d4-b448-c27f3a7c05c3</SimpleData>
	</SchemaData></ExtendedData>
      <Point><coordinates>62.3454685,50.3805192</coordinates></Point>
  </Placemark>
</Folder>
</Document></kml>
