<?xml version="1.0" encoding="utf-8" ?>
<kml xmlns="http://www.opengis.net/kml/2.2">
<Document id="root_doc">
<Schema name="c56a6b4d" id="c56a6b4d">
	<SimpleField name="type" type="string"></SimpleField>
	<SimpleField name="view" type="string"></SimpleField>
	<SimpleField name="leveling_order" type="string"></SimpleField>
	<SimpleField name="leveling_height" type="string"></SimpleField>
	<SimpleField name="control_height" type="string"></SimpleField>
	<SimpleField name="benchmark_number" type="string"></SimpleField>
	<SimpleField name="control_location" type="string"></SimpleField>
	<SimpleField name="benchmark_type" type="string"></SimpleField>
	<SimpleField name="leveling_line_section" type="string"></SimpleField>
	<SimpleField name="location_description" type="string"></SimpleField>
	<SimpleField name="status" type="string"></SimpleField>
	<SimpleField name="guid" type="string"></SimpleField>
	<SimpleField name="kml" type="string"></SimpleField>
	<SimpleField name="kml_link" type="string"></SimpleField>
</Schema>
<Folder><name>c56a6b4d</name>
  <Placemark id="c56a6b4d.1">
	<name>2468</name>
	<name>ск. реп.</name>
	<ExtendedData><SchemaData schemaUrl="#c56a6b4d">
		<SimpleData name="type">2</SimpleData>
		<SimpleData name="view">767,699</SimpleData>
		<SimpleData name="benchmark_number">99 оп</SimpleData>
		<SimpleData name="control_location">Линия № 1: Жангиз-Тобе-Ак-Булак, II класс (1) Участок: грунт. реп. 7833-грунт. реп. 2545</SimpleData>
		<SimpleData name="benchmark_type">Каримжан, зим., в 4.5 км к сев.-зап. от нее, в 4.2 км к юго-вост. от зим. Кызылту, в 2.2 км к зап. от зим. Бозомбай</SimpleData>
		<SimpleData name="location_description">c56a6b4d-4e18-4ed4-ba1c-f4a026679beb</SimpleData>
		<SimpleData name="status">data/stations/c56a6b4d.kml</SimpleData>
		<SimpleData name="guid">&lt;a href='data/stations/c56a6b4d.kml' target='_blank'&gt;Download KML&lt;/a&gt;</SimpleData>
	</SchemaData></ExtendedData>
      <Point><coordinates>78.5639147206115,49.1696414619134</coordinates></Point>
  </Placemark>
</Folder>
</Document></kml>
