<?xml version="1.0" encoding="utf-8" ?>
<kml xmlns="http://www.opengis.net/kml/2.2">
<Document id="root_doc">
<Schema name="c59a3aad" id="c59a3aad">
	<SimpleField name="type" type="string"></SimpleField>
	<SimpleField name="view" type="string"></SimpleField>
	<SimpleField name="leveling_order" type="string"></SimpleField>
	<SimpleField name="leveling_height" type="string"></SimpleField>
	<SimpleField name="control_height" type="string"></SimpleField>
	<SimpleField name="benchmark_number" type="string"></SimpleField>
	<SimpleField name="control_location" type="string"></SimpleField>
	<SimpleField name="benchmark_type" type="string"></SimpleField>
	<SimpleField name="leveling_line_section" type="string"></SimpleField>
	<SimpleField name="location_description" type="string"></SimpleField>
	<SimpleField name="status" type="string"></SimpleField>
	<SimpleField name="guid" type="string"></SimpleField>
	<SimpleField name="kml" type="string"></SimpleField>
	<SimpleField name="kml_link" type="string"></SimpleField>
</Schema>
<Folder><name>c59a3aad</name>
  <Placemark id="c59a3aad.1">
	<name>9460</name>
	<name>грунтовый репер</name>
	<ExtendedData><SchemaData schemaUrl="#c59a3aad">
		<SimpleData name="type">2</SimpleData>
		<SimpleData name="view">148,116</SimpleData>
		<SimpleData name="control_location">Линия № 1: Кичиктай - Созак, 2 класс (2)               Участок: грунт. реп. 266 - фунд. реп. 6972</SimpleData>
		<SimpleData name="benchmark_type">Дауит, арт. к., в 13.8 км к юго-вост. от него,            в 1.0 км к сев. от арт. к. Шапан,                                в 16 м к вост. от грунт. дороги                              гор. Жезказган - с. Созак</SimpleData>
		<SimpleData name="location_description">c59a3aad-f8aa-4084-9ba2-173559035ccc</SimpleData>
		<SimpleData name="status">data/stations/c59a3aad.kml</SimpleData>
		<SimpleData name="guid">&lt;a href='data/stations/c59a3aad.kml' target='_blank'&gt;Download KML&lt;/a&gt;</SimpleData>
	</SchemaData></ExtendedData>
      <Point><coordinates>68.3775762328441,44.6635217517635</coordinates></Point>
  </Placemark>
</Folder>
</Document></kml>
