<?xml version="1.0" encoding="utf-8" ?>
<kml xmlns="http://www.opengis.net/kml/2.2">
<Document id="root_doc">
<Schema name="c5e046d8" id="c5e046d8">
	<SimpleField name="type" type="string"></SimpleField>
	<SimpleField name="view" type="string"></SimpleField>
	<SimpleField name="leveling_order" type="string"></SimpleField>
	<SimpleField name="leveling_height" type="string"></SimpleField>
	<SimpleField name="control_height" type="string"></SimpleField>
	<SimpleField name="benchmark_number" type="string"></SimpleField>
	<SimpleField name="control_location" type="string"></SimpleField>
	<SimpleField name="benchmark_type" type="string"></SimpleField>
	<SimpleField name="leveling_line_section" type="string"></SimpleField>
	<SimpleField name="location_description" type="string"></SimpleField>
	<SimpleField name="status" type="string"></SimpleField>
	<SimpleField name="guid" type="string"></SimpleField>
	<SimpleField name="kml" type="string"></SimpleField>
	<SimpleField name="kml_link" type="string"></SimpleField>
</Schema>
<Folder><name>c5e046d8</name>
  <Placemark id="c5e046d8.1">
	<name>3388</name>
	<name>грунт. реп.</name>
	<ExtendedData><SchemaData schemaUrl="#c5e046d8">
		<SimpleData name="type">2</SimpleData>
		<SimpleData name="view">111.016</SimpleData>
		<SimpleData name="benchmark_number">160</SimpleData>
		<SimpleData name="control_location">Линия № 4:  Коккабат-Жосалы.  Участок:           грунт. реп. 6005-фунд.реп. 153.                II класс   </SimpleData>
		<SimpleData name="benchmark_type">Боранбай. мог..  в 8.6 км юго-вост. от неё. в 8.6 км к югу от к.Уялы. в 0.2 км к зап. От такыра.от  полевой дороги</SimpleData>
		<SimpleData name="location_description">c5e046d8-9de9-4fbb-b996-680ef8db873b</SimpleData>
		<SimpleData name="status">data/stations/c5e046d8.kml</SimpleData>
		<SimpleData name="guid">&lt;a href='data/stations/c5e046d8.kml' target='_blank'&gt;Download KML&lt;/a&gt;</SimpleData>
	</SchemaData></ExtendedData>
      <Point><coordinates>64.1486134861039,45.9171201185599</coordinates></Point>
  </Placemark>
</Folder>
</Document></kml>
