<?xml version="1.0" encoding="utf-8" ?>
<kml xmlns="http://www.opengis.net/kml/2.2">
<Document id="root_doc">
<Schema name="c6424a13" id="c6424a13">
	<SimpleField name="title" type="string"></SimpleField>
	<SimpleField name="type" type="string"></SimpleField>
	<SimpleField name="ext_sign" type="string"></SimpleField>
	<SimpleField name="class_lvl" type="string"></SimpleField>
	<SimpleField name="height_lvl" type="string"></SimpleField>
	<SimpleField name="height_ctrl" type="string"></SimpleField>
	<SimpleField name="ctrl_place" type="string"></SimpleField>
	<SimpleField name="mark_num" type="string"></SimpleField>
	<SimpleField name="center_type" type="string"></SimpleField>
	<SimpleField name="lvl_line" type="string"></SimpleField>
	<SimpleField name="guid" type="string"></SimpleField>
</Schema>
<Folder><name>c6424a13</name>
  <Placemark id="c6424a13.1">
	<name>7</name>
	<description>грунтовый репер</description>
	<ExtendedData><SchemaData schemaUrl="#c6424a13">
		<SimpleData name="type">1</SimpleData>
		<SimpleData name="ext_sign">116.298</SimpleData>
		<SimpleData name="class_lvl">115.011</SimpleData>
		<SimpleData name="height_ctrl">3265</SimpleData>
		<SimpleData name="ctrl_place">131</SimpleData>
		<SimpleData name="center_type">Карасу, м., в 1.5 км к югу от него, в 0.4 км к юго-зап. от мусульм. кладб., в 167 м к вост. от оз.Бол.Коскопа, в 47 м к юго-зап. от п.тр. Коскопа.</SimpleData>
		<SimpleData name="lvl_line">c6424a13-70bc-4646-8c0f-5b1498025aa7</SimpleData>
	</SchemaData></ExtendedData>
      <Point><coordinates>64.5965292903703,50.7293114486919</coordinates></Point>
  </Placemark>
</Folder>
</Document></kml>
