<?xml version="1.0" encoding="utf-8" ?>
<kml xmlns="http://www.opengis.net/kml/2.2">
<Document id="root_doc">
<Schema name="c674e690" id="c674e690">
	<SimpleField name="title" type="string"></SimpleField>
	<SimpleField name="type" type="string"></SimpleField>
	<SimpleField name="ext_sign" type="string"></SimpleField>
	<SimpleField name="class_lvl" type="string"></SimpleField>
	<SimpleField name="height_lvl" type="string"></SimpleField>
	<SimpleField name="height_ctrl" type="string"></SimpleField>
	<SimpleField name="ctrl_place" type="string"></SimpleField>
	<SimpleField name="mark_num" type="string"></SimpleField>
	<SimpleField name="center_type" type="string"></SimpleField>
	<SimpleField name="lvl_line" type="string"></SimpleField>
	<SimpleField name="guid" type="string"></SimpleField>
</Schema>
<Folder><name>c674e690</name>
  <Placemark id="c674e690.1">
	<name>157 закладка </name>
	<ExtendedData><SchemaData schemaUrl="#c674e690">
		<SimpleData name="ctrl_place">149</SimpleData>
		<SimpleData name="center_type">От поселка Кулайгыр 164 метра к северу, от трассы Караганда Жезказган 64 метра к северу от полевой дороги 10 метров к югу </SimpleData>
		<SimpleData name="lvl_line">c674e690-3222-4ac2-a6bc-3cc528611b85</SimpleData>
	</SchemaData></ExtendedData>
      <Point><coordinates>72.909125,49.4234983333333</coordinates></Point>
  </Placemark>
</Folder>
</Document></kml>
