<?xml version="1.0" encoding="utf-8" ?>
<kml xmlns="http://www.opengis.net/kml/2.2">
<Document id="root_doc">
<Schema name="c687e5f0" id="c687e5f0">
	<SimpleField name="type" type="string"></SimpleField>
	<SimpleField name="view" type="string"></SimpleField>
	<SimpleField name="leveling_order" type="string"></SimpleField>
	<SimpleField name="leveling_height" type="string"></SimpleField>
	<SimpleField name="control_height" type="string"></SimpleField>
	<SimpleField name="benchmark_number" type="string"></SimpleField>
	<SimpleField name="control_location" type="string"></SimpleField>
	<SimpleField name="benchmark_type" type="string"></SimpleField>
	<SimpleField name="leveling_line_section" type="string"></SimpleField>
	<SimpleField name="location_description" type="string"></SimpleField>
	<SimpleField name="status" type="string"></SimpleField>
	<SimpleField name="guid" type="string"></SimpleField>
	<SimpleField name="kml" type="string"></SimpleField>
	<SimpleField name="kml_link" type="string"></SimpleField>
</Schema>
<Folder><name>c687e5f0</name>
  <Placemark id="c687e5f0.1">
	<name>311</name>
	<name>грунтовый репер</name>
	<ExtendedData><SchemaData schemaUrl="#c687e5f0">
		<SimpleData name="type">2</SimpleData>
		<SimpleData name="view">113.756</SimpleData>
		<SimpleData name="benchmark_number">131</SimpleData>
		<SimpleData name="control_location">Линия:Урлютюп-Качиры, II класс (3) Участок: фнд.рп.310-гр.рп.341</SimpleData>
		<SimpleData name="benchmark_type">Моисеевка, с., в 4 км к юго - вост.от него, в 38 м влево от дороги с.Моисеевка - с.Пятирыжск</SimpleData>
		<SimpleData name="location_description">c687e5f0-41ce-46c9-bfbd-6e8e8a73bdc6</SimpleData>
		<SimpleData name="status">data/stations/c687e5f0.kml</SimpleData>
		<SimpleData name="guid">&lt;a href='data/stations/c687e5f0.kml' target='_blank'&gt;Download KML&lt;/a&gt;</SimpleData>
	</SchemaData></ExtendedData>
      <Point><coordinates>75.4955233186602,53.4152589439333</coordinates></Point>
  </Placemark>
</Folder>
</Document></kml>
