<?xml version="1.0" encoding="utf-8" ?>
<kml xmlns="http://www.opengis.net/kml/2.2">
<Document id="root_doc">
<Schema name="c68c6211" id="c68c6211">
	<SimpleField name="title" type="string"></SimpleField>
	<SimpleField name="type" type="string"></SimpleField>
	<SimpleField name="ext_sign" type="string"></SimpleField>
	<SimpleField name="class_lvl" type="string"></SimpleField>
	<SimpleField name="height_lvl" type="string"></SimpleField>
	<SimpleField name="height_ctrl" type="string"></SimpleField>
	<SimpleField name="ctrl_place" type="string"></SimpleField>
	<SimpleField name="mark_num" type="string"></SimpleField>
	<SimpleField name="center_type" type="string"></SimpleField>
	<SimpleField name="lvl_line" type="string"></SimpleField>
	<SimpleField name="guid" type="string"></SimpleField>
</Schema>
<Folder><name>c68c6211</name>
  <Placemark id="c68c6211.1">
	<name>Санкибай</name>
	<ExtendedData><SchemaData schemaUrl="#c68c6211">
		<SimpleData name="title">пир.</SimpleData>
		<SimpleData name="type">2</SimpleData>
		<SimpleData name="ext_sign">153.462</SimpleData>
		<SimpleData name="height_ctrl">816</SimpleData>
		<SimpleData name="ctrl_place">1</SimpleData>
		<SimpleData name="mark_num">Линия №2: Сарысай-Чурук.Нивелирование 2 класса, 1988 г. Предприятие №6. Работа №1</SimpleData>
		<SimpleData name="center_type">Туруш, с., в 141 км к сев-вост.от него, в 5.0 км к сев.-вост.от кладб.Жетымола, в 4.9 км к юго-зап.от лет Санкибай , в 0,3 км к сев-зап.от могилы</SimpleData>
		<SimpleData name="lvl_line">c68c6211-195e-4ac5-b750-e39f7c59629c</SimpleData>
	</SchemaData></ExtendedData>
      <Point><coordinates>57.188041824787,46.1399581102475</coordinates></Point>
  </Placemark>
</Folder>
</Document></kml>
