<?xml version="1.0" encoding="utf-8" ?>
<kml xmlns="http://www.opengis.net/kml/2.2">
<Document id="root_doc">
<Schema name="c69651c4" id="c69651c4">
	<SimpleField name="title" type="string"></SimpleField>
	<SimpleField name="type" type="string"></SimpleField>
	<SimpleField name="ext_sign" type="string"></SimpleField>
	<SimpleField name="class_lvl" type="string"></SimpleField>
	<SimpleField name="height_lvl" type="string"></SimpleField>
	<SimpleField name="height_ctrl" type="string"></SimpleField>
	<SimpleField name="ctrl_place" type="string"></SimpleField>
	<SimpleField name="mark_num" type="string"></SimpleField>
	<SimpleField name="center_type" type="string"></SimpleField>
	<SimpleField name="lvl_line" type="string"></SimpleField>
	<SimpleField name="guid" type="string"></SimpleField>
</Schema>
<Folder><name>c69651c4</name>
  <Placemark id="c69651c4.1">
	<name>715</name>
	<ExtendedData><SchemaData schemaUrl="#c69651c4">
		<SimpleData name="title">Грунт.реп.</SimpleData>
		<SimpleData name="height_ctrl">715</SimpleData>
		<SimpleData name="ctrl_place">121</SimpleData>
		<SimpleData name="center_type">Караой. с., 5.1 км к сев-зап. от него, в 25 м к зап. от полевой дороги.</SimpleData>
		<SimpleData name="lvl_line">c69651c4-9548-4b23-bc1b-acd5a2147538</SimpleData>
	</SchemaData></ExtendedData>
      <Point><coordinates>53.98440376,49.53172868</coordinates></Point>
  </Placemark>
</Folder>
</Document></kml>
