<?xml version="1.0" encoding="utf-8" ?>
<kml xmlns="http://www.opengis.net/kml/2.2">
<Document id="root_doc">
<Schema name="c6d0b9a2" id="c6d0b9a2">
	<SimpleField name="type" type="string"></SimpleField>
	<SimpleField name="view" type="string"></SimpleField>
	<SimpleField name="leveling_order" type="string"></SimpleField>
	<SimpleField name="leveling_height" type="string"></SimpleField>
	<SimpleField name="control_height" type="string"></SimpleField>
	<SimpleField name="benchmark_number" type="string"></SimpleField>
	<SimpleField name="control_location" type="string"></SimpleField>
	<SimpleField name="benchmark_type" type="string"></SimpleField>
	<SimpleField name="leveling_line_section" type="string"></SimpleField>
	<SimpleField name="location_description" type="string"></SimpleField>
	<SimpleField name="status" type="string"></SimpleField>
	<SimpleField name="guid" type="string"></SimpleField>
	<SimpleField name="kml" type="string"></SimpleField>
	<SimpleField name="kml_link" type="string"></SimpleField>
</Schema>
<Folder><name>c6d0b9a2</name>
  <Placemark id="c6d0b9a2.1">
	<name>6648</name>
	<name>грунт. реп. </name>
	<ExtendedData><SchemaData schemaUrl="#c6d0b9a2">
		<SimpleData name="type">2</SimpleData>
		<SimpleData name="view">208,892</SimpleData>
		<SimpleData name="benchmark_number">146 оп</SimpleData>
		<SimpleData name="control_location">Линия № 4: Семипалатинск - Каркаралинск, II класс (1,3) Участок: фунд. реп. 2906 - грунт. реп. 1731</SimpleData>
		<SimpleData name="benchmark_type">Семей, гор., в 13.0 км к юго-зап. от него, в 26 м к сев.-зап. от шоссе гор. Семей - с. Знаменка, у км стб. № 257/3</SimpleData>
		<SimpleData name="location_description">c6d0b9a2-ddee-4ae9-abfd-1a6d551f897f</SimpleData>
		<SimpleData name="status">data/stations/c6d0b9a2.kml</SimpleData>
		<SimpleData name="guid">&lt;a href='data/stations/c6d0b9a2.kml' target='_blank'&gt;Download KML&lt;/a&gt;</SimpleData>
	</SchemaData></ExtendedData>
      <Point><coordinates>80.0628771839443,50.3208272104963</coordinates></Point>
  </Placemark>
</Folder>
</Document></kml>
