<?xml version="1.0" encoding="utf-8" ?>
<kml xmlns="http://www.opengis.net/kml/2.2">
<Document id="root_doc">
<Schema name="c6d523f1" id="c6d523f1">
	<SimpleField name="title" type="string"></SimpleField>
	<SimpleField name="type" type="string"></SimpleField>
	<SimpleField name="ext_sign" type="string"></SimpleField>
	<SimpleField name="class_lvl" type="string"></SimpleField>
	<SimpleField name="height_lvl" type="string"></SimpleField>
	<SimpleField name="height_ctrl" type="string"></SimpleField>
	<SimpleField name="ctrl_place" type="string"></SimpleField>
	<SimpleField name="mark_num" type="string"></SimpleField>
	<SimpleField name="center_type" type="string"></SimpleField>
	<SimpleField name="lvl_line" type="string"></SimpleField>
	<SimpleField name="guid" type="string"></SimpleField>
</Schema>
<Folder><name>c6d523f1</name>
  <Placemark id="c6d523f1.1">
	<name>12-127</name>
	<description>грунтовый репер</description>
	<ExtendedData><SchemaData schemaUrl="#c6d523f1">
		<SimpleData name="type">1</SimpleData>
		<SimpleData name="ext_sign">14.959</SimpleData>
		<SimpleData name="ctrl_place">146</SimpleData>
		<SimpleData name="mark_num">Линия №1:        Участок: грунт.реп.12-2245-грунт.реп.12-458</SimpleData>
		<SimpleData name="center_type">Кульсары, с., в 9.5 км к сев.-вост.от него, в 80 м к вост.от дороги с.Кульсары - с.Косчагыл, у тлгр.стб.№193/63</SimpleData>
		<SimpleData name="lvl_line">c6d523f1-60c9-4442-9faa-b2fd0d3b3ce0</SimpleData>
	</SchemaData></ExtendedData>
      <Point><coordinates>53.846733455544,46.9265736000608</coordinates></Point>
  </Placemark>
</Folder>
</Document></kml>
