<?xml version="1.0" encoding="utf-8" ?>
<kml xmlns="http://www.opengis.net/kml/2.2">
<Document id="root_doc">
<Schema name="c6db458e" id="c6db458e">
	<SimpleField name="title" type="string"></SimpleField>
	<SimpleField name="type" type="string"></SimpleField>
	<SimpleField name="ext_sign" type="string"></SimpleField>
	<SimpleField name="class_lvl" type="string"></SimpleField>
	<SimpleField name="height_lvl" type="string"></SimpleField>
	<SimpleField name="height_ctrl" type="string"></SimpleField>
	<SimpleField name="ctrl_place" type="string"></SimpleField>
	<SimpleField name="mark_num" type="string"></SimpleField>
	<SimpleField name="center_type" type="string"></SimpleField>
	<SimpleField name="lvl_line" type="string"></SimpleField>
	<SimpleField name="guid" type="string"></SimpleField>
</Schema>
<Folder><name>c6db458e</name>
  <Placemark id="c6db458e.1">
	<name>3010</name>
	<ExtendedData><SchemaData schemaUrl="#c6db458e">
		<SimpleData name="title">фундаментальный репер</SimpleData>
		<SimpleData name="type">2</SimpleData>
		<SimpleData name="ext_sign">492,242</SimpleData>
		<SimpleData name="class_lvl">490,974</SimpleData>
		<SimpleData name="height_lvl">141 оп. знак</SimpleData>
		<SimpleData name="height_ctrl">Линия № 2: Аркарлы - Актас. 2 класс (1) Участок: грунт, реп. 5365 - грунт.реп. 4779</SimpleData>
		<SimpleData name="ctrl_place">Пыстан . г., в 8.3 км к юго-вост, от нее, в 0.7 км к югу от к. Узынтас. в 0.1 км к зап. от перекрестка полевых дорог</SimpleData>
		<SimpleData name="mark_num">L-42-58-Б</SimpleData>
		<SimpleData name="center_type">12</SimpleData>
		<SimpleData name="lvl_line">c6db458e-0681-4eed-945b-e9b8ede68a80</SimpleData>
	</SchemaData></ExtendedData>
      <Point><coordinates>70.8827168157037,46.6453494520729</coordinates></Point>
  </Placemark>
</Folder>
</Document></kml>
