<?xml version="1.0" encoding="utf-8" ?>
<kml xmlns="http://www.opengis.net/kml/2.2">
<Document id="root_doc">
<Schema name="c77e1f7e" id="c77e1f7e">
	<SimpleField name="title" type="string"></SimpleField>
	<SimpleField name="type" type="string"></SimpleField>
	<SimpleField name="ext_sign" type="string"></SimpleField>
	<SimpleField name="class_lvl" type="string"></SimpleField>
	<SimpleField name="height_lvl" type="string"></SimpleField>
	<SimpleField name="height_ctrl" type="string"></SimpleField>
	<SimpleField name="ctrl_place" type="string"></SimpleField>
	<SimpleField name="mark_num" type="string"></SimpleField>
	<SimpleField name="center_type" type="string"></SimpleField>
	<SimpleField name="lvl_line" type="string"></SimpleField>
	<SimpleField name="guid" type="string"></SimpleField>
</Schema>
<Folder><name>c77e1f7e</name>
  <Placemark id="c77e1f7e.1">
	<name>2320</name>
	<description>грунтовый репер</description>
	<ExtendedData><SchemaData schemaUrl="#c77e1f7e">
		<SimpleData name="type">1</SimpleData>
		<SimpleData name="ext_sign">167.386</SimpleData>
		<SimpleData name="ctrl_place">160 оп</SimpleData>
		<SimpleData name="center_type">Каражар, с., в 5.6 км к сев. от него, в 2.4 км к юго-зап. от п. тр. Каражар, в 1.0 км к сев. от зим.Кызылжар, в 0.7 км к зап. от р.Карынсалды, в 57 м к зап. от развилки пол.дорог.</SimpleData>
		<SimpleData name="lvl_line">c77e1f7e-4fe3-46cc-93a4-a05c6ad1cadb</SimpleData>
	</SchemaData></ExtendedData>
      <Point><coordinates>65.7510007178034,50.5187176525926</coordinates></Point>
  </Placemark>
</Folder>
</Document></kml>
