<?xml version="1.0" encoding="utf-8" ?>
<kml xmlns="http://www.opengis.net/kml/2.2">
<Document id="root_doc">
<Schema name="c7a8d8b8" id="c7a8d8b8">
	<SimpleField name="title" type="string"></SimpleField>
	<SimpleField name="type" type="string"></SimpleField>
	<SimpleField name="ext_sign" type="string"></SimpleField>
	<SimpleField name="class_lvl" type="string"></SimpleField>
	<SimpleField name="height_lvl" type="string"></SimpleField>
	<SimpleField name="height_ctrl" type="string"></SimpleField>
	<SimpleField name="ctrl_place" type="string"></SimpleField>
	<SimpleField name="mark_num" type="string"></SimpleField>
	<SimpleField name="center_type" type="string"></SimpleField>
	<SimpleField name="lvl_line" type="string"></SimpleField>
	<SimpleField name="guid" type="string"></SimpleField>
</Schema>
<Folder><name>c7a8d8b8</name>
  <Placemark id="c7a8d8b8.1">
	<name>5507</name>
	<description>грунт.реп.</description>
	<ExtendedData><SchemaData schemaUrl="#c7a8d8b8">
		<SimpleData name="type">2</SimpleData>
		<SimpleData name="ext_sign">-13.183</SimpleData>
		<SimpleData name="ctrl_place">160 оп</SimpleData>
		<SimpleData name="mark_num">Линия нивелирования II класса на объекте &quot;Баван-Зелёный, Актонук-Баван, Баван-Керей&quot; 06.03.1751</SimpleData>
		<SimpleData name="center_type">с. Мынтобе, в 12,7 км к сев.-вост. от него, в 3,5 км к сев.-зап. от п. трианг. Наролген, в 1,5 км к вост. от зимовки, что у развилки пол. Дорог, в 56 м к юго-вост. от солончака, в 40 м к сев от белого сыпучего бархана, в 20 м к сев.-вост. от пол. дороги, на бархане.</SimpleData>
		<SimpleData name="lvl_line">c7a8d8b8-4c37-43fa-871e-3660bdb4902b</SimpleData>
	</SchemaData></ExtendedData>
      <Point><coordinates>49.9285686759347,47.5820989049064</coordinates></Point>
  </Placemark>
</Folder>
</Document></kml>
