<?xml version="1.0" encoding="utf-8" ?>
<kml xmlns="http://www.opengis.net/kml/2.2">
<Document id="root_doc">
<Schema name="c7c2a4c6" id="c7c2a4c6">
	<SimpleField name="type" type="string"></SimpleField>
	<SimpleField name="view" type="string"></SimpleField>
	<SimpleField name="leveling_order" type="string"></SimpleField>
	<SimpleField name="leveling_height" type="string"></SimpleField>
	<SimpleField name="control_height" type="string"></SimpleField>
	<SimpleField name="benchmark_number" type="string"></SimpleField>
	<SimpleField name="control_location" type="string"></SimpleField>
	<SimpleField name="benchmark_type" type="string"></SimpleField>
	<SimpleField name="leveling_line_section" type="string"></SimpleField>
	<SimpleField name="location_description" type="string"></SimpleField>
	<SimpleField name="status" type="string"></SimpleField>
	<SimpleField name="guid" type="string"></SimpleField>
	<SimpleField name="kml" type="string"></SimpleField>
	<SimpleField name="kml_link" type="string"></SimpleField>
</Schema>
<Folder><name>c7c2a4c6</name>
  <Placemark id="c7c2a4c6.1">
	<name>524</name>
	<description>фундаментальный реп.</description>
	<ExtendedData><SchemaData schemaUrl="#c7c2a4c6">
		<SimpleData name="type">1</SimpleData>
		<SimpleData name="view">966.617</SimpleData>
		<SimpleData name="leveling_order">966,435</SimpleData>
		<SimpleData name="control_height">Контрольный репер № 10 в скале</SimpleData>
		<SimpleData name="benchmark_number">114 оп</SimpleData>
		<SimpleData name="control_location">Линия № I: Каркаралиннск-Аягуз, I класс (1) Участок: грунт.реп.3998 - ск.реп.3442</SimpleData>
		<SimpleData name="benchmark_type">Бельдеутас, с., в 9.6 км к сев.-вост. от него, в 0.2 км к воет, от зим. Жомарт, в 12 м к югу от грунтовой дороги с. Акбай-
Кызылбай - шоссе с. Бакты - с. Тотан </SimpleData>
		<SimpleData name="location_description">c7c2a4c6-eaaf-4bf4-8cc5-47bf4a12c3c4</SimpleData>
		<SimpleData name="status">data/stations/c7c2a4c6.kml</SimpleData>
		<SimpleData name="guid">&lt;a href='data/stations/c7c2a4c6.kml' target='_blank'&gt;Download KML&lt;/a&gt;</SimpleData>
	</SchemaData></ExtendedData>
      <Point><coordinates>76.3492027674447,49.1069737705334</coordinates></Point>
  </Placemark>
</Folder>
</Document></kml>
