<?xml version="1.0" encoding="UTF-8"?>
<kml xmlns="http://www.opengis.net/kml/2.2">
  <Document id="root_doc">
    <Schema id="c7d70574" name="c7d70574">
      <SimpleField name="title" type="string"/>
      <SimpleField name="type" type="string"/>
      <SimpleField name="ext_sign" type="string"/>
      <SimpleField name="class_lvl" type="string"/>
      <SimpleField name="height_lvl" type="string"/>
      <SimpleField name="height_ctrl" type="string"/>
      <SimpleField name="ctrl_place" type="string"/>
      <SimpleField name="mark_num" type="string"/>
      <SimpleField name="center_type" type="string"/>
      <SimpleField name="lvl_line" type="string"/>
      <SimpleField name="guid" type="string"/>
    </Schema>
    <Schema id="c7d70574.schema">
      <SimpleField name="title" type="string"/>
      <SimpleField name="type" type="string"/>
      <SimpleField name="ext_sign" type="string"/>
      <SimpleField name="class_lvl" type="string"/>
      <SimpleField name="height_lvl" type="string"/>
      <SimpleField name="height_ctrl" type="string"/>
      <SimpleField name="ctrl_place" type="string"/>
      <SimpleField name="mark_num" type="string"/>
      <SimpleField name="center_type" type="string"/>
      <SimpleField name="lvl_line" type="string"/>
      <SimpleField name="guid" type="string"/>
    </Schema>
    <Document id="c7d70574">
      <name>c7d70574</name>
      <Placemark id="c7d70574.1">
        <description>Кладбище, в 1.6 км к сев. от него, в 1.4 км к сев.-зап. от р. Сарысу, в 40 м к вост. от дороги гор. Жезказган - гор.Кызылорда, на 175 км</description>
        <ExtendedData>
          <SchemaData schemaUrl="#c7d70574.schema">
            <SimpleData name="title">9261</SimpleData>
            <SimpleData name="type">грунтовый репер</SimpleData>
            <SimpleData name="ext_sign">грунтовый репер</SimpleData>
            <SimpleData name="class_lvl">2</SimpleData>
            <SimpleData name="height_lvl">259,251</SimpleData>
            <SimpleData name="lvl_line">Линия № 1: Жезказган - Caрысу. ІІ класс (2) Участок: - грунт реп. 730 - грунт.реп. 9470</SimpleData>
            <SimpleData name="guid">c7d70574-542d-4da9-89f2-ac0620225148</SimpleData>
          </SchemaData>
        </ExtendedData>
        <Point>
          <coordinates>
            67.2048931911309,46.3866324964072,0
          </coordinates>
        </Point>
      </Placemark>
    </Document>
  </Document>
</kml>
