<?xml version="1.0" encoding="utf-8" ?>
<kml xmlns="http://www.opengis.net/kml/2.2">
<Document id="root_doc">
<Schema name="c7ebaae2" id="c7ebaae2">
	<SimpleField name="type" type="string"></SimpleField>
	<SimpleField name="view" type="string"></SimpleField>
	<SimpleField name="leveling_order" type="string"></SimpleField>
	<SimpleField name="leveling_height" type="string"></SimpleField>
	<SimpleField name="control_height" type="string"></SimpleField>
	<SimpleField name="benchmark_number" type="string"></SimpleField>
	<SimpleField name="control_location" type="string"></SimpleField>
	<SimpleField name="benchmark_type" type="string"></SimpleField>
	<SimpleField name="leveling_line_section" type="string"></SimpleField>
	<SimpleField name="location_description" type="string"></SimpleField>
	<SimpleField name="status" type="string"></SimpleField>
	<SimpleField name="guid" type="string"></SimpleField>
	<SimpleField name="kml" type="string"></SimpleField>
	<SimpleField name="kml_link" type="string"></SimpleField>
</Schema>
<Folder><name>c7ebaae2</name>
  <Placemark id="c7ebaae2.1">
	<name>8059</name>
	<name>фунд.реп.</name>
	<ExtendedData><SchemaData schemaUrl="#c7ebaae2">
		<SimpleData name="type">2</SimpleData>
		<SimpleData name="view">1533.515</SimpleData>
		<SimpleData name="benchmark_number">113 оп</SimpleData>
		<SimpleData name="control_location">Линия № 7: Кольбастау-Асы, II класс, Участок: фунд. реп. 8059-грун. реп. 39</SimpleData>
		<SimpleData name="benchmark_type">Асы, метеостанция, вОблатком, зим., в 2.2 км к сев.-зап. от него, в 0.2 км к зап. от дороги с. Жаланаш-пер. Турайгыр, в 50 м к зап. от грунт. реп. 15993</SimpleData>
		<SimpleData name="location_description">c7ebaae2-fc36-448e-a21c-5612b0afd924</SimpleData>
		<SimpleData name="status">data/stations/c7ebaae2.kml</SimpleData>
		<SimpleData name="guid">&lt;a href='data/stations/c7ebaae2.kml' target='_blank'&gt;Download KML&lt;/a&gt;</SimpleData>
	</SchemaData></ExtendedData>
      <Point><coordinates>78.6794091228869,43.2557517889783</coordinates></Point>
  </Placemark>
</Folder>
</Document></kml>
