<?xml version="1.0" encoding="utf-8" ?>
<kml xmlns="http://www.opengis.net/kml/2.2">
<Document id="root_doc">
<Schema name="c7f87749" id="c7f87749">
	<SimpleField name="title" type="string"></SimpleField>
	<SimpleField name="type" type="string"></SimpleField>
	<SimpleField name="ext_sign" type="string"></SimpleField>
	<SimpleField name="class_lvl" type="string"></SimpleField>
	<SimpleField name="height_lvl" type="string"></SimpleField>
	<SimpleField name="height_ctrl" type="string"></SimpleField>
	<SimpleField name="ctrl_place" type="string"></SimpleField>
	<SimpleField name="mark_num" type="string"></SimpleField>
	<SimpleField name="center_type" type="string"></SimpleField>
	<SimpleField name="lvl_line" type="string"></SimpleField>
	<SimpleField name="guid" type="string"></SimpleField>
</Schema>
<Folder><name>c7f87749</name>
  <Placemark id="c7f87749.1">
	<name>5186 (4)</name>
	<ExtendedData><SchemaData schemaUrl="#c7f87749">
		<SimpleData name="title">гр. реп.</SimpleData>
		<SimpleData name="type">2</SimpleData>
		<SimpleData name="ext_sign">4,543</SimpleData>
		<SimpleData name="ctrl_place">нет данных</SimpleData>
		<SimpleData name="mark_num">Линия № 8 Русская Таловка - Керей</SimpleData>
		<SimpleData name="center_type">Карашакобик, а нежил. в 6,1  км к юго-зап. от него, в 0,2 км к югу от вдхр. Хасанкобик</SimpleData>
		<SimpleData name="lvl_line">c7f87749-8640-4926-ba80-f8ee693e835a</SimpleData>
	</SchemaData></ExtendedData>
      <Point><coordinates>49.7946628941252,49.6176639085871</coordinates></Point>
  </Placemark>
</Folder>
</Document></kml>
