<?xml version="1.0" encoding="utf-8" ?>
<kml xmlns="http://www.opengis.net/kml/2.2">
<Document id="root_doc">
<Schema name="c8e65ce3" id="c8e65ce3">
	<SimpleField name="title" type="string"></SimpleField>
	<SimpleField name="type" type="string"></SimpleField>
	<SimpleField name="ext_sign" type="string"></SimpleField>
	<SimpleField name="class_lvl" type="string"></SimpleField>
	<SimpleField name="height_lvl" type="string"></SimpleField>
	<SimpleField name="height_ctrl" type="string"></SimpleField>
	<SimpleField name="ctrl_place" type="string"></SimpleField>
	<SimpleField name="mark_num" type="string"></SimpleField>
	<SimpleField name="center_type" type="string"></SimpleField>
	<SimpleField name="lvl_line" type="string"></SimpleField>
	<SimpleField name="guid" type="string"></SimpleField>
</Schema>
<Folder><name>c8e65ce3</name>
  <Placemark id="c8e65ce3.1">
	<name>15351</name>
	<description>грунтовый репер</description>
	<ExtendedData><SchemaData schemaUrl="#c8e65ce3">
		<SimpleData name="title">грунт.реп.</SimpleData>
		<SimpleData name="type">2</SimpleData>
		<SimpleData name="ext_sign">509.923</SimpleData>
		<SimpleData name="class_lvl">508.З81*</SimpleData>
		<SimpleData name="height_lvl">верхней
плоскости монолита</SimpleData>
		<SimpleData name="ctrl_place">121 оп</SimpleData>
		<SimpleData name="mark_num">Линия № 2; Акозек - Сарыкамыс, II класс.Участок: грунт.реп.3811 - грунт.реп.16484</SimpleData>
		<SimpleData name="center_type">Бугубай, род. ,в 14.2 км к юго-зап.от него,в 11.1 км к юго-зап.от мог.Акыжан, в 0.1 км к зап.от пересыхающего русла р.Ащыозек</SimpleData>
		<SimpleData name="lvl_line">c8e65ce3-5e68-455a-b6ec-ea03d64eb6a5</SimpleData>
	</SchemaData></ExtendedData>
      <Point><coordinates>77.0159233333333,47.246835</coordinates></Point>
  </Placemark>
</Folder>
</Document></kml>
