<?xml version="1.0" encoding="utf-8" ?>
<kml xmlns="http://www.opengis.net/kml/2.2">
<Document id="root_doc">
<Schema name="c8f3d01d" id="c8f3d01d">
	<SimpleField name="title" type="string"></SimpleField>
	<SimpleField name="type" type="string"></SimpleField>
	<SimpleField name="ext_sign" type="string"></SimpleField>
	<SimpleField name="class_lvl" type="string"></SimpleField>
	<SimpleField name="height_lvl" type="string"></SimpleField>
	<SimpleField name="height_ctrl" type="string"></SimpleField>
	<SimpleField name="ctrl_place" type="string"></SimpleField>
	<SimpleField name="mark_num" type="string"></SimpleField>
	<SimpleField name="center_type" type="string"></SimpleField>
	<SimpleField name="lvl_line" type="string"></SimpleField>
	<SimpleField name="guid" type="string"></SimpleField>
</Schema>
<Folder><name>c8f3d01d</name>
  <Placemark id="c8f3d01d.1">
	<name>2209</name>
	<description>грунтовый репер</description>
	<ExtendedData><SchemaData schemaUrl="#c8f3d01d">
		<SimpleData name="ctrl_place">160 оп</SimpleData>
		<SimpleData name="center_type">Караултобе, село, в 1.8 км к вост. от сев.-вост. окраины его, в 0,6 км к юго-вост. от крест. хоз-ва, в 0.6 км к юго-зап. от поворота канала, в 70 м к вост. от дороги с. Досан-с. Абай
</SimpleData>
		<SimpleData name="lvl_line">c8f3d01d-4fb0-457b-a4c8-814e53546623</SimpleData>
	</SchemaData></ExtendedData>
      <Point><coordinates>65.5564913888888,44.91997</coordinates></Point>
  </Placemark>
</Folder>
</Document></kml>
