<?xml version="1.0" encoding="utf-8" ?>
<kml xmlns="http://www.opengis.net/kml/2.2">
<Document id="root_doc">
<Schema name="c8fddbfe" id="c8fddbfe">
	<SimpleField name="type" type="string"></SimpleField>
	<SimpleField name="view" type="string"></SimpleField>
	<SimpleField name="leveling_order" type="string"></SimpleField>
	<SimpleField name="leveling_height" type="string"></SimpleField>
	<SimpleField name="control_height" type="string"></SimpleField>
	<SimpleField name="benchmark_number" type="string"></SimpleField>
	<SimpleField name="control_location" type="string"></SimpleField>
	<SimpleField name="benchmark_type" type="string"></SimpleField>
	<SimpleField name="leveling_line_section" type="string"></SimpleField>
	<SimpleField name="location_description" type="string"></SimpleField>
	<SimpleField name="status" type="string"></SimpleField>
	<SimpleField name="guid" type="string"></SimpleField>
	<SimpleField name="kml" type="string"></SimpleField>
	<SimpleField name="kml_link" type="string"></SimpleField>
</Schema>
<Folder><name>c8fddbfe</name>
  <Placemark id="c8fddbfe.1">
	<name>1186</name>
	<name>ск. реп.</name>
	<ExtendedData><SchemaData schemaUrl="#c8fddbfe">
		<SimpleData name="type">II</SimpleData>
		<SimpleData name="view">489,105</SimpleData>
		<SimpleData name="benchmark_number">99</SimpleData>
		<SimpleData name="control_location">Линия № 6: Коржунколь-Степное, II класс (2)    Участок: ск. реп. 1-грунт. реп. 1231</SimpleData>
		<SimpleData name="benchmark_type">Алгабас, с., в 11,6 км к вост. от него,  в 0,2 км к югу от разв. зим. Каратау, в 0,1 км к югу от р. Караагаш, к зап. от кладбища</SimpleData>
		<SimpleData name="location_description">c8fddbfe-8807-4a5e-9ab7-00bff85aa259</SimpleData>
		<SimpleData name="status">data/stations/c8fddbfe.kml</SimpleData>
		<SimpleData name="guid">&lt;a href='data/stations/c8fddbfe.kml' target='_blank'&gt;Download KML&lt;/a&gt;</SimpleData>
	</SchemaData></ExtendedData>
      <Point><coordinates>73.3505401230237,51.3578975182342</coordinates></Point>
  </Placemark>
</Folder>
</Document></kml>
