<?xml version="1.0" encoding="utf-8" ?>
<kml xmlns="http://www.opengis.net/kml/2.2">
<Document id="root_doc">
<Schema name="c90a8fb4" id="c90a8fb4">
	<SimpleField name="type" type="string"></SimpleField>
	<SimpleField name="view" type="string"></SimpleField>
	<SimpleField name="leveling_order" type="string"></SimpleField>
	<SimpleField name="leveling_height" type="string"></SimpleField>
	<SimpleField name="control_height" type="string"></SimpleField>
	<SimpleField name="benchmark_number" type="string"></SimpleField>
	<SimpleField name="control_location" type="string"></SimpleField>
	<SimpleField name="benchmark_type" type="string"></SimpleField>
	<SimpleField name="leveling_line_section" type="string"></SimpleField>
	<SimpleField name="location_description" type="string"></SimpleField>
	<SimpleField name="status" type="string"></SimpleField>
	<SimpleField name="guid" type="string"></SimpleField>
	<SimpleField name="kml" type="string"></SimpleField>
	<SimpleField name="kml_link" type="string"></SimpleField>
</Schema>
<Folder><name>c90a8fb4</name>
  <Placemark id="c90a8fb4.1">
	<name>7843</name>
	<name>грунт.реп.</name>
	<ExtendedData><SchemaData schemaUrl="#c90a8fb4">
		<SimpleData name="type">ІІ</SimpleData>
		<SimpleData name="view">286.514</SimpleData>
		<SimpleData name="benchmark_number">121</SimpleData>
		<SimpleData name="control_location">Ход от грунт.реп. 8171 до грунт.реп, 125, ІІ класс (2)</SimpleData>
		<SimpleData name="benchmark_type">Заресенка, с., в 3.5 км к юго-вост.от него, в 1.2 км к сев.ст.жел.-дор.полотна, в 38 м к юго-вост.от дороги с.Зареченка-с.Жалтыр</SimpleData>
		<SimpleData name="location_description">c90a8fb4-e317-4d3c-a133-8fac94791703</SimpleData>
		<SimpleData name="status">data/stations/c90a8fb4.kml</SimpleData>
		<SimpleData name="guid">&lt;a href='data/stations/c90a8fb4.kml' target='_blank'&gt;Download KML&lt;/a&gt;</SimpleData>
	</SchemaData></ExtendedData>
      <Point><coordinates>69.4868491577065,51.7302486058386</coordinates></Point>
  </Placemark>
</Folder>
</Document></kml>
