<?xml version="1.0" encoding="utf-8" ?>
<kml xmlns="http://www.opengis.net/kml/2.2">
<Document id="root_doc">
<Schema name="c92c8105" id="c92c8105">
	<SimpleField name="title" type="string"></SimpleField>
	<SimpleField name="type" type="string"></SimpleField>
	<SimpleField name="ext_sign" type="string"></SimpleField>
	<SimpleField name="class_lvl" type="string"></SimpleField>
	<SimpleField name="height_lvl" type="string"></SimpleField>
	<SimpleField name="height_ctrl" type="string"></SimpleField>
	<SimpleField name="ctrl_place" type="string"></SimpleField>
	<SimpleField name="mark_num" type="string"></SimpleField>
	<SimpleField name="center_type" type="string"></SimpleField>
	<SimpleField name="lvl_line" type="string"></SimpleField>
	<SimpleField name="guid" type="string"></SimpleField>
</Schema>
<Folder><name>c92c8105</name>
  <Placemark id="c92c8105.1">
	<name>392</name>
	<ExtendedData><SchemaData schemaUrl="#c92c8105">
		<SimpleData name="title">ск.реп</SimpleData>
		<SimpleData name="type">2</SimpleData>
		<SimpleData name="ext_sign">733318</SimpleData>
		<SimpleData name="class_lvl">707355</SimpleData>
		<SimpleData name="mark_num">Линия № 31: Каркаралинск - Чурбай-Нура, II класс (4)
Участок: грунт.реп. 429 грунт..реп. 323</SimpleData>
		<SimpleData name="center_type">Кызылту,с,,в 14,0 км к сев-зап.от него,в 5,0 км к сев.-вост.от г.Наршокы.в 0,1 км к сев.от  дороги с.Суыксу-с.Кызылту.на выходе коренных пород</SimpleData>
		<SimpleData name="lvl_line">c92c8105-d90a-4b21-b554-f819ebd487f3</SimpleData>
	</SchemaData></ExtendedData>
      <Point><coordinates>74.0461320872416,49.3865131584082</coordinates></Point>
  </Placemark>
</Folder>
</Document></kml>
