<?xml version="1.0" encoding="utf-8" ?>
<kml xmlns="http://www.opengis.net/kml/2.2">
<Document id="root_doc">
<Schema name="c93a8bc9" id="c93a8bc9">
	<SimpleField name="type" type="string"></SimpleField>
	<SimpleField name="view" type="string"></SimpleField>
	<SimpleField name="leveling_order" type="string"></SimpleField>
	<SimpleField name="leveling_height" type="string"></SimpleField>
	<SimpleField name="control_height" type="string"></SimpleField>
	<SimpleField name="benchmark_number" type="string"></SimpleField>
	<SimpleField name="control_location" type="string"></SimpleField>
	<SimpleField name="benchmark_type" type="string"></SimpleField>
	<SimpleField name="leveling_line_section" type="string"></SimpleField>
	<SimpleField name="location_description" type="string"></SimpleField>
	<SimpleField name="status" type="string"></SimpleField>
	<SimpleField name="guid" type="string"></SimpleField>
	<SimpleField name="kml" type="string"></SimpleField>
	<SimpleField name="kml_link" type="string"></SimpleField>
</Schema>
<Folder><name>c93a8bc9</name>
  <Placemark id="c93a8bc9.1">
	<name>3864</name>
	<name>фунд.реп.</name>
	<ExtendedData><SchemaData schemaUrl="#c93a8bc9">
		<SimpleData name="type">II</SimpleData>
		<SimpleData name="view">519.959</SimpleData>
		<SimpleData name="leveling_order">518.703*</SimpleData>
		<SimpleData name="leveling_height">№ 0966</SimpleData>
		<SimpleData name="control_height">В фундаментной плите</SimpleData>
		<SimpleData name="benchmark_number">161 оп.знак</SimpleData>
		<SimpleData name="control_location">Линия № 2:Акозек - Кaрacу. II класс                         </SimpleData>
		<SimpleData name="benchmark_type">Жанаорталык,с., в 6.0км к юго-вост. от него, в 3.7км к вост. от мог. Мусабай, в 80м к вост. от куполообразного мазара, на терр. кладб., восточнее грунт. реп. 5074</SimpleData>
		<SimpleData name="location_description">c93a8bc9-55d0-447f-87d6-dea07136f8bc</SimpleData>
		<SimpleData name="status">data/stations/c93a8bc9.kml</SimpleData>
		<SimpleData name="guid">&lt;a href='data/stations/c93a8bc9.kml' target='_blank'&gt;Download KML&lt;/a&gt;</SimpleData>
	</SchemaData></ExtendedData>
      <Point><coordinates>75.6788746397841,47.5386912199451</coordinates></Point>
  </Placemark>
</Folder>
</Document></kml>
