<?xml version="1.0" encoding="utf-8" ?>
<kml xmlns="http://www.opengis.net/kml/2.2">
<Document id="root_doc">
<Schema name="c9453d16" id="c9453d16">
	<SimpleField name="title" type="string"></SimpleField>
	<SimpleField name="type" type="string"></SimpleField>
	<SimpleField name="ext_sign" type="string"></SimpleField>
	<SimpleField name="class_lvl" type="string"></SimpleField>
	<SimpleField name="height_lvl" type="string"></SimpleField>
	<SimpleField name="height_ctrl" type="string"></SimpleField>
	<SimpleField name="ctrl_place" type="string"></SimpleField>
	<SimpleField name="mark_num" type="string"></SimpleField>
	<SimpleField name="center_type" type="string"></SimpleField>
	<SimpleField name="lvl_line" type="string"></SimpleField>
	<SimpleField name="guid" type="string"></SimpleField>
</Schema>
<Folder><name>c9453d16</name>
  <Placemark id="c9453d16.1">
	<name>4226</name>
	<description>грунт.реп.</description>
	<ExtendedData><SchemaData schemaUrl="#c9453d16">
		<SimpleData name="type">2</SimpleData>
		<SimpleData name="ext_sign">-10.388</SimpleData>
		<SimpleData name="ctrl_place">15 оп</SimpleData>
		<SimpleData name="mark_num">Линия нивелирования II класса на объекте &quot;Баван-Зелёный, Актонук-Баван, Баван-Керей&quot; 06.03.1751</SimpleData>
		<SimpleData name="center_type">кладб. Избасар, в 7,0 км к сев.-вост. от него, в 2,5 км к юго-вост. от кладбища Уркумбай, в 65 м к сев.-зап. от солончака, в 22 м к вост. от старой полевой дороги.</SimpleData>
		<SimpleData name="lvl_line">c9453d16-5dcd-496b-afef-d83d0ce2c407</SimpleData>
	</SchemaData></ExtendedData>
      <Point><coordinates>49.9736295726189,47.8604312272215</coordinates></Point>
  </Placemark>
</Folder>
</Document></kml>
