<?xml version="1.0" encoding="utf-8" ?>
<kml xmlns="http://www.opengis.net/kml/2.2">
<Document id="root_doc">
<Schema name="c967c185" id="c967c185">
	<SimpleField name="type" type="string"></SimpleField>
	<SimpleField name="view" type="string"></SimpleField>
	<SimpleField name="leveling_order" type="string"></SimpleField>
	<SimpleField name="leveling_height" type="string"></SimpleField>
	<SimpleField name="control_height" type="string"></SimpleField>
	<SimpleField name="benchmark_number" type="string"></SimpleField>
	<SimpleField name="control_location" type="string"></SimpleField>
	<SimpleField name="benchmark_type" type="string"></SimpleField>
	<SimpleField name="leveling_line_section" type="string"></SimpleField>
	<SimpleField name="location_description" type="string"></SimpleField>
	<SimpleField name="status" type="string"></SimpleField>
	<SimpleField name="guid" type="string"></SimpleField>
	<SimpleField name="kml" type="string"></SimpleField>
	<SimpleField name="kml_link" type="string"></SimpleField>
</Schema>
<Folder><name>c967c185</name>
  <Placemark id="c967c185.1">
	<name>0504</name>
	<name>грунтовый репер</name>
	<ExtendedData><SchemaData schemaUrl="#c967c185">
		<SimpleData name="type">II</SimpleData>
		<SimpleData name="view">492,008</SimpleData>
		<SimpleData name="benchmark_number">160оп</SimpleData>
		<SimpleData name="control_location">Линия № 1:Каржунколь-Степное,  II класс (1) Участок : ск.реп.1186-ск.реп.1207</SimpleData>
		<SimpleData name="benchmark_type">Ахметаул, с., в 3,6 км к юго-вост. от него, в 0,3 км к вост. от дороги с. Ахметаул-с.Молодежный, к югу от бригады № 3 свх. им. Тельмана</SimpleData>
		<SimpleData name="location_description">c967c185-981d-4d15-b0df-2369b6864b2c</SimpleData>
		<SimpleData name="status">data/stations/c967c185.kml</SimpleData>
		<SimpleData name="guid">&lt;a href='data/stations/c967c185.kml' target='_blank'&gt;Download KML&lt;/a&gt;</SimpleData>
	</SchemaData></ExtendedData>
      <Point><coordinates>73.2453716040333,50.9676034502758</coordinates></Point>
  </Placemark>
</Folder>
</Document></kml>
