<?xml version="1.0" encoding="utf-8" ?>
<kml xmlns="http://www.opengis.net/kml/2.2">
<Document id="root_doc">
<Schema name="c9b9b217" id="c9b9b217">
	<SimpleField name="title" type="string"></SimpleField>
	<SimpleField name="type" type="string"></SimpleField>
	<SimpleField name="ext_sign" type="string"></SimpleField>
	<SimpleField name="class_lvl" type="string"></SimpleField>
	<SimpleField name="height_lvl" type="string"></SimpleField>
	<SimpleField name="height_ctrl" type="string"></SimpleField>
	<SimpleField name="ctrl_place" type="string"></SimpleField>
	<SimpleField name="mark_num" type="string"></SimpleField>
	<SimpleField name="center_type" type="string"></SimpleField>
	<SimpleField name="lvl_line" type="string"></SimpleField>
	<SimpleField name="guid" type="string"></SimpleField>
</Schema>
<Folder><name>c9b9b217</name>
  <Placemark id="c9b9b217.1">
	<name>7670</name>
	<description>грунтовый репер</description>
	<ExtendedData><SchemaData schemaUrl="#c9b9b217">
		<SimpleData name="type">1</SimpleData>
		<SimpleData name="ext_sign">444.911</SimpleData>
		<SimpleData name="ctrl_place">160оп</SimpleData>
		<SimpleData name="mark_num">Линия №1: Торетоган - Берлик, 1 класс  Участок: грунт.реп.9706-фунд.реп.512</SimpleData>
		<SimpleData name="center_type">Мойынкум, с ., в 4,0 км к юго-вост. от него, в 1,7 км к юго-вост. от с. им. Кирова, в 0,1 км к юго-зап. от км. стб.124</SimpleData>
		<SimpleData name="lvl_line">c9b9b217-cabf-46c0-869b-be10cb871d3c</SimpleData>
	</SchemaData></ExtendedData>
      <Point><coordinates>73.7371499163065,43.7878360904282</coordinates></Point>
  </Placemark>
</Folder>
</Document></kml>
