<?xml version="1.0" encoding="utf-8" ?>
<kml xmlns="http://www.opengis.net/kml/2.2">
<Document id="root_doc">
<Schema name="ca2e3fa3" id="ca2e3fa3">
	<SimpleField name="type" type="string"></SimpleField>
	<SimpleField name="view" type="string"></SimpleField>
	<SimpleField name="leveling_order" type="string"></SimpleField>
	<SimpleField name="leveling_height" type="string"></SimpleField>
	<SimpleField name="control_height" type="string"></SimpleField>
	<SimpleField name="benchmark_number" type="string"></SimpleField>
	<SimpleField name="control_location" type="string"></SimpleField>
	<SimpleField name="benchmark_type" type="string"></SimpleField>
	<SimpleField name="leveling_line_section" type="string"></SimpleField>
	<SimpleField name="location_description" type="string"></SimpleField>
	<SimpleField name="status" type="string"></SimpleField>
	<SimpleField name="guid" type="string"></SimpleField>
	<SimpleField name="kml" type="string"></SimpleField>
	<SimpleField name="kml_link" type="string"></SimpleField>
</Schema>
<Folder><name>ca2e3fa3</name>
  <Placemark id="ca2e3fa3.1">
	<name>1382</name>
	<description>грунт.реп.</description>
	<ExtendedData><SchemaData schemaUrl="#ca2e3fa3">
		<SimpleData name="type">1</SimpleData>
		<SimpleData name="view">273.223</SimpleData>
		<SimpleData name="leveling_order">271.977</SimpleData>
		<SimpleData name="benchmark_number">104 оп</SimpleData>
		<SimpleData name="control_location">Линия № 1 : Челкар - Изембет, I класс          Участок : грунт.реп.3419 - марка 4212</SimpleData>
		<SimpleData name="benchmark_type">Кыргыз, станц., в 0.8 км к сев.-зап.от нее, на 10 пикете 858 км, в 90 м к юго-зап.от жел.-дор.полотна</SimpleData>
		<SimpleData name="location_description">ca2e3fa3-114f-4042-b13f-e5191b853845</SimpleData>
		<SimpleData name="status">data/stations/ca2e3fa3.kml</SimpleData>
		<SimpleData name="guid">&lt;a href='data/stations/ca2e3fa3.kml' target='_blank'&gt;Download KML&lt;/a&gt;</SimpleData>
	</SchemaData></ExtendedData>
      <Point><coordinates>58.2881053415163,48.7005818570443</coordinates></Point>
  </Placemark>
</Folder>
</Document></kml>
