<?xml version="1.0" encoding="utf-8" ?>
<kml xmlns="http://www.opengis.net/kml/2.2">
<Document id="root_doc">
<Schema name="ca8fcb7e" id="ca8fcb7e">
	<SimpleField name="type" type="string"></SimpleField>
	<SimpleField name="view" type="string"></SimpleField>
	<SimpleField name="leveling_order" type="string"></SimpleField>
	<SimpleField name="leveling_height" type="string"></SimpleField>
	<SimpleField name="control_height" type="string"></SimpleField>
	<SimpleField name="benchmark_number" type="string"></SimpleField>
	<SimpleField name="control_location" type="string"></SimpleField>
	<SimpleField name="benchmark_type" type="string"></SimpleField>
	<SimpleField name="leveling_line_section" type="string"></SimpleField>
	<SimpleField name="location_description" type="string"></SimpleField>
	<SimpleField name="status" type="string"></SimpleField>
	<SimpleField name="guid" type="string"></SimpleField>
	<SimpleField name="kml" type="string"></SimpleField>
	<SimpleField name="kml_link" type="string"></SimpleField>
</Schema>
<Folder><name>ca8fcb7e</name>
  <Placemark id="ca8fcb7e.1">
	<name>12</name>
	<description>грунт. реп.</description>
	<ExtendedData><SchemaData schemaUrl="#ca8fcb7e">
		<SimpleData name="type">1</SimpleData>
		<SimpleData name="view">106.243</SimpleData>
		<SimpleData name="leveling_order">105.235</SimpleData>
		<SimpleData name="leveling_height">контрольный репер №1515 в верхней плоскости монолита</SimpleData>
		<SimpleData name="benchmark_number">131</SimpleData>
		<SimpleData name="control_location">Линия №2 : Аральск - Семиозерное, I класс. Участок : грунт. реп. 9 - грунт. реп. 3254</SimpleData>
		<SimpleData name="benchmark_type">Сага, с., в 11.4 км к сев.-вост. от него, в 0.7 км к сев.-зап. от р. Сарыозен, в 80 м к югу от арыка</SimpleData>
		<SimpleData name="location_description">ca8fcb7e-cc35-493a-8941-dc0a8ff7b55f</SimpleData>
		<SimpleData name="status">data/stations/ca8fcb7e.kml</SimpleData>
		<SimpleData name="guid">&lt;a href='data/stations/ca8fcb7e.kml' target='_blank'&gt;Download KML&lt;/a&gt;</SimpleData>
	</SchemaData></ExtendedData>
      <Point><coordinates>64.3762744035364,50.55815000701</coordinates></Point>
  </Placemark>
</Folder>
</Document></kml>
