<?xml version="1.0" encoding="utf-8" ?>
<kml xmlns="http://www.opengis.net/kml/2.2">
<Document id="root_doc">
<Schema name="cad6e76b" id="cad6e76b">
	<SimpleField name="type" type="string"></SimpleField>
	<SimpleField name="view" type="string"></SimpleField>
	<SimpleField name="leveling_order" type="string"></SimpleField>
	<SimpleField name="leveling_height" type="string"></SimpleField>
	<SimpleField name="control_height" type="string"></SimpleField>
	<SimpleField name="benchmark_number" type="string"></SimpleField>
	<SimpleField name="control_location" type="string"></SimpleField>
	<SimpleField name="benchmark_type" type="string"></SimpleField>
	<SimpleField name="leveling_line_section" type="string"></SimpleField>
	<SimpleField name="location_description" type="string"></SimpleField>
	<SimpleField name="status" type="string"></SimpleField>
	<SimpleField name="guid" type="string"></SimpleField>
	<SimpleField name="kml" type="string"></SimpleField>
	<SimpleField name="kml_link" type="string"></SimpleField>
</Schema>
<Folder><name>cad6e76b</name>
  <Placemark id="cad6e76b.1">
	<name>2707</name>
	<name>грунт.реп.</name>
	<ExtendedData><SchemaData schemaUrl="#cad6e76b">
		<SimpleData name="type">II</SimpleData>
		<SimpleData name="view">312.174</SimpleData>
		<SimpleData name="benchmark_number">146 оп.знак</SimpleData>
		<SimpleData name="control_location">Линия №1: Кзыл-Сенгир = Жумай, II класса (1) Участок: фунд.реп.5003 - гркнт.реп.2940</SimpleData>
		<SimpleData name="benchmark_type">Актубек,с.,в 9.0 км к сев.-вост.от него, в 3.5 км к юго-зап.от мог.Истембет, в 25 м к вост.от полевой дороги</SimpleData>
		<SimpleData name="location_description">cad6e76b-4627-4f21-9854-d296b402bdb3</SimpleData>
		<SimpleData name="status">data/stations/cad6e76b.kml</SimpleData>
		<SimpleData name="guid">&lt;a href='data/stations/cad6e76b.kml' target='_blank'&gt;Download KML&lt;/a&gt;</SimpleData>
	</SchemaData></ExtendedData>
      <Point><coordinates>69.5853290846875,50.2618892214485</coordinates></Point>
  </Placemark>
</Folder>
</Document></kml>
