<?xml version="1.0" encoding="utf-8" ?>
<kml xmlns="http://www.opengis.net/kml/2.2">
<Document id="root_doc">
<Schema name="caff2aba" id="caff2aba">
	<SimpleField name="title" type="string"></SimpleField>
	<SimpleField name="type" type="string"></SimpleField>
	<SimpleField name="ext_sign" type="string"></SimpleField>
	<SimpleField name="class_lvl" type="string"></SimpleField>
	<SimpleField name="height_lvl" type="string"></SimpleField>
	<SimpleField name="height_ctrl" type="string"></SimpleField>
	<SimpleField name="ctrl_place" type="string"></SimpleField>
	<SimpleField name="mark_num" type="string"></SimpleField>
	<SimpleField name="center_type" type="string"></SimpleField>
	<SimpleField name="lvl_line" type="string"></SimpleField>
	<SimpleField name="guid" type="string"></SimpleField>
</Schema>
<Folder><name>caff2aba</name>
  <Placemark id="caff2aba.1">
	<name>2152</name>
	<description>грунтовый репер</description>
	<ExtendedData><SchemaData schemaUrl="#caff2aba">
		<SimpleData name="ctrl_place">160 оп</SimpleData>
		<SimpleData name="center_type">Досан,село, сев. окраина его, в 0.1 км к сев. от автомобильного моста через канал, в 0.1 км к зап. от канала, в 25 м квост. от шоссе с.Досан- с. Абай  </SimpleData>
		<SimpleData name="lvl_line">caff2aba-ec0f-4b24-8ebf-df6f922f2a2c</SimpleData>
	</SchemaData></ExtendedData>
      <Point><coordinates>65.5636775,44.9024475</coordinates></Point>
  </Placemark>
</Folder>
</Document></kml>
