<?xml version="1.0" encoding="utf-8" ?>
<kml xmlns="http://www.opengis.net/kml/2.2">
<Document id="root_doc">
<Schema name="cb5ffea2" id="cb5ffea2">
	<SimpleField name="type" type="string"></SimpleField>
	<SimpleField name="view" type="string"></SimpleField>
	<SimpleField name="leveling_order" type="string"></SimpleField>
	<SimpleField name="leveling_height" type="string"></SimpleField>
	<SimpleField name="control_height" type="string"></SimpleField>
	<SimpleField name="benchmark_number" type="string"></SimpleField>
	<SimpleField name="control_location" type="string"></SimpleField>
	<SimpleField name="benchmark_type" type="string"></SimpleField>
	<SimpleField name="leveling_line_section" type="string"></SimpleField>
	<SimpleField name="location_description" type="string"></SimpleField>
	<SimpleField name="status" type="string"></SimpleField>
	<SimpleField name="guid" type="string"></SimpleField>
	<SimpleField name="kml" type="string"></SimpleField>
	<SimpleField name="kml_link" type="string"></SimpleField>
</Schema>
<Folder><name>cb5ffea2</name>
  <Placemark id="cb5ffea2.1">
	<name>9-п</name>
	<description>грунт.реп.</description>
	<ExtendedData><SchemaData schemaUrl="#cb5ffea2">
		<SimpleData name="type">1</SimpleData>
		<SimpleData name="view">351.733</SimpleData>
		<SimpleData name="control_height"></SimpleData>
		<SimpleData name="benchmark_number">А</SimpleData>
		<SimpleData name="control_location">Линия № 1:Сарышаган-Каратас I класс                            Участок: фунд. реп.  0708 - грунт. реп.141</SimpleData>
		<SimpleData name="benchmark_type">Гульшад, с. , в 20. 5 км к юго-зап. от него,в 0.4 км к сев.-зап.от шоссе 
Балхаш-Алматы, в 0.1 км к юго-вост.от 
ЛЭП </SimpleData>
		<SimpleData name="location_description">cb5ffea2-ea63-4d05-9750-50f456cf7ca0</SimpleData>
		<SimpleData name="status">data/stations/cb5ffea2.kml</SimpleData>
		<SimpleData name="guid">&lt;a href='data/stations/cb5ffea2.kml' target='_blank'&gt;Download KML&lt;/a&gt;</SimpleData>
	</SchemaData></ExtendedData>
      <Point><coordinates>74.1208930761638,46.5261468995979</coordinates></Point>
  </Placemark>
</Folder>
</Document></kml>
