<?xml version="1.0" encoding="utf-8" ?>
<kml xmlns="http://www.opengis.net/kml/2.2">
<Document id="root_doc">
<Schema name="cb65622d" id="cb65622d">
	<SimpleField name="type" type="string"></SimpleField>
	<SimpleField name="view" type="string"></SimpleField>
	<SimpleField name="leveling_order" type="string"></SimpleField>
	<SimpleField name="leveling_height" type="string"></SimpleField>
	<SimpleField name="control_height" type="string"></SimpleField>
	<SimpleField name="benchmark_number" type="string"></SimpleField>
	<SimpleField name="control_location" type="string"></SimpleField>
	<SimpleField name="benchmark_type" type="string"></SimpleField>
	<SimpleField name="leveling_line_section" type="string"></SimpleField>
	<SimpleField name="location_description" type="string"></SimpleField>
	<SimpleField name="status" type="string"></SimpleField>
	<SimpleField name="guid" type="string"></SimpleField>
	<SimpleField name="kml" type="string"></SimpleField>
	<SimpleField name="kml_link" type="string"></SimpleField>
</Schema>
<Folder><name>cb65622d</name>
  <Placemark id="cb65622d.1">
	<name>1482</name>
	<name>грунтовый репер</name>
	<ExtendedData><SchemaData schemaUrl="#cb65622d">
		<SimpleData name="type">2</SimpleData>
		<SimpleData name="view">403.786</SimpleData>
		<SimpleData name="benchmark_number">119</SimpleData>
		<SimpleData name="control_location">Линия № 98: Жангиз-Тобе- Зайсан, II класс. Участок: грунт. реп. 22- грунт. реп. 65</SimpleData>
		<SimpleData name="benchmark_type">Тополев Мыс, с., в 4.5 км к югу от него, в 8.6 км к сев.-вост. от пикета Тайжузген, в 1.0 км к зап. от дороги с. Тополев Мыс-гор. Зайсан</SimpleData>
		<SimpleData name="location_description">cb65622d-4490-476d-af90-6d72e8cfb54e</SimpleData>
		<SimpleData name="status">data/stations/cb65622d.kml</SimpleData>
		<SimpleData name="guid">&lt;a href='data/stations/cb65622d.kml' target='_blank'&gt;Download KML&lt;/a&gt;</SimpleData>
	</SchemaData></ExtendedData>
      <Point><coordinates>84.0725503228412,47.7929202862049</coordinates></Point>
  </Placemark>
</Folder>
</Document></kml>
