<?xml version="1.0" encoding="utf-8" ?>
<kml xmlns="http://www.opengis.net/kml/2.2">
<Document id="root_doc">
<Schema name="cc4f40b4" id="cc4f40b4">
	<SimpleField name="title" type="string"></SimpleField>
	<SimpleField name="type" type="string"></SimpleField>
	<SimpleField name="ext_sign" type="string"></SimpleField>
	<SimpleField name="class_lvl" type="string"></SimpleField>
	<SimpleField name="height_lvl" type="string"></SimpleField>
	<SimpleField name="height_ctrl" type="string"></SimpleField>
	<SimpleField name="ctrl_place" type="string"></SimpleField>
	<SimpleField name="mark_num" type="string"></SimpleField>
	<SimpleField name="center_type" type="string"></SimpleField>
	<SimpleField name="lvl_line" type="string"></SimpleField>
	<SimpleField name="guid" type="string"></SimpleField>
</Schema>
<Folder><name>cc4f40b4</name>
  <Placemark id="cc4f40b4.1">
	<name>523</name>
	<description>грунтовый репер</description>
	<ExtendedData><SchemaData schemaUrl="#cc4f40b4">
		<SimpleData name="title">грунт. реп.</SimpleData>
		<SimpleData name="type">2</SimpleData>
		<SimpleData name="ext_sign">193.914</SimpleData>
		<SimpleData name="ctrl_place">160 оп</SimpleData>
		<SimpleData name="mark_num">Линия №1: Берчогур (фунд,реп.3723 - Акшкола (фуид.реп.5280)</SimpleData>
		<SimpleData name="center_type">Талдык, с.,в 5.5 км к юго-зап. от него, 
в 25.0 км от дамбы через руч.Ащисай, в 0.5 км к от развилки дорог, в 40 м к югу от пол. дороги</SimpleData>
		<SimpleData name="lvl_line">cc4f40b4-c97e-4720-92ea-f6a75db6058f</SimpleData>
	</SchemaData></ExtendedData>
      <Point><coordinates>59.7038002240314,48.9800142811433</coordinates></Point>
  </Placemark>
</Folder>
</Document></kml>
