<?xml version="1.0" encoding="utf-8" ?>
<kml xmlns="http://www.opengis.net/kml/2.2">
<Document id="root_doc">
<Schema name="cce1b9dd" id="cce1b9dd">
	<SimpleField name="title" type="string"></SimpleField>
	<SimpleField name="type" type="string"></SimpleField>
	<SimpleField name="ext_sign" type="string"></SimpleField>
	<SimpleField name="class_lvl" type="string"></SimpleField>
	<SimpleField name="height_lvl" type="string"></SimpleField>
	<SimpleField name="height_ctrl" type="string"></SimpleField>
	<SimpleField name="ctrl_place" type="string"></SimpleField>
	<SimpleField name="mark_num" type="string"></SimpleField>
	<SimpleField name="center_type" type="string"></SimpleField>
	<SimpleField name="lvl_line" type="string"></SimpleField>
	<SimpleField name="guid" type="string"></SimpleField>
</Schema>
<Folder><name>cce1b9dd</name>
  <Placemark id="cce1b9dd.1">
	<name>263</name>
	<ExtendedData><SchemaData schemaUrl="#cce1b9dd">
		<SimpleData name="title">грунт.реп.</SimpleData>
		<SimpleData name="type">2</SimpleData>
		<SimpleData name="ext_sign">240,902</SimpleData>
		<SimpleData name="class_lvl">239,334</SimpleData>
		<SimpleData name="height_lvl">Контрольный репер №426 в верхней плоскости монолита</SimpleData>
		<SimpleData name="ctrl_place">121</SimpleData>
		<SimpleData name="mark_num">Линия №1: Наурзум(Аксуат)-Жанатурмыс, II класс. Участок: грунт.реп. 415-фунд.реп. 1336</SimpleData>
		<SimpleData name="center_type">Косколь, болото, в 2,0 км к зап.от него, в 1,9 км к вост.от оз. Сокырколь, в 50 м к сев.от полевой дороги</SimpleData>
		<SimpleData name="lvl_line">cce1b9dd-72bb-48b7-a4c5-81f13b91e6b7</SimpleData>
	</SchemaData></ExtendedData>
      <Point><coordinates>63.2639696253371,51.2743275607736</coordinates></Point>
  </Placemark>
</Folder>
</Document></kml>
