<?xml version="1.0" encoding="utf-8" ?>
<kml xmlns="http://www.opengis.net/kml/2.2">
<Document id="root_doc">
<Schema name="cd19bed7" id="cd19bed7">
	<SimpleField name="type" type="string"></SimpleField>
	<SimpleField name="view" type="string"></SimpleField>
	<SimpleField name="leveling_order" type="string"></SimpleField>
	<SimpleField name="leveling_height" type="string"></SimpleField>
	<SimpleField name="control_height" type="string"></SimpleField>
	<SimpleField name="benchmark_number" type="string"></SimpleField>
	<SimpleField name="control_location" type="string"></SimpleField>
	<SimpleField name="benchmark_type" type="string"></SimpleField>
	<SimpleField name="leveling_line_section" type="string"></SimpleField>
	<SimpleField name="location_description" type="string"></SimpleField>
	<SimpleField name="status" type="string"></SimpleField>
	<SimpleField name="guid" type="string"></SimpleField>
	<SimpleField name="kml" type="string"></SimpleField>
	<SimpleField name="kml_link" type="string"></SimpleField>
</Schema>
<Folder><name>cd19bed7</name>
  <Placemark id="cd19bed7.1">
	<name>9255</name>
	<name>грунтовый репер</name>
	<ExtendedData><SchemaData schemaUrl="#cd19bed7">
		<SimpleData name="type">2</SimpleData>
		<SimpleData name="view">61,767</SimpleData>
		<SimpleData name="control_location">Линия № 1: Развалины Пикета № 8 - Сарысу,2 класс (1) Участок: фунд. реп. 701 - пир. 3 кл. Жарлыкас ЮВ</SimpleData>
		<SimpleData name="benchmark_type">Таскара, арт. к., в 3.8 км к югу от него, в 3.0 км к сев.- вост. от род. Камысбулак, в 0.3 км к зап. от сухого русла, на небольшом бугре</SimpleData>
		<SimpleData name="location_description">cd19bed7-be16-4d8a-8c25-fbdcb5aa1183</SimpleData>
		<SimpleData name="status">data/stations/cd19bed7.kml</SimpleData>
		<SimpleData name="guid">&lt;a href='data/stations/cd19bed7.kml' target='_blank'&gt;Download KML&lt;/a&gt;</SimpleData>
	</SchemaData></ExtendedData>
      <Point><coordinates>66.292090458248,46.0057382865669</coordinates></Point>
  </Placemark>
</Folder>
</Document></kml>
