<?xml version="1.0" encoding="utf-8" ?>
<kml xmlns="http://www.opengis.net/kml/2.2">
<Document id="root_doc">
<Schema name="cd2f8799" id="cd2f8799">
	<SimpleField name="title" type="string"></SimpleField>
	<SimpleField name="type" type="string"></SimpleField>
	<SimpleField name="ext_sign" type="string"></SimpleField>
	<SimpleField name="class_lvl" type="string"></SimpleField>
	<SimpleField name="height_lvl" type="string"></SimpleField>
	<SimpleField name="height_ctrl" type="string"></SimpleField>
	<SimpleField name="ctrl_place" type="string"></SimpleField>
	<SimpleField name="mark_num" type="string"></SimpleField>
	<SimpleField name="center_type" type="string"></SimpleField>
	<SimpleField name="lvl_line" type="string"></SimpleField>
	<SimpleField name="guid" type="string"></SimpleField>
</Schema>
<Folder><name>cd2f8799</name>
  <Placemark id="cd2f8799.1">
	<name>б/№</name>
	<description>стенной репер</description>
	<ExtendedData><SchemaData schemaUrl="#cd2f8799">
		<SimpleData name="type">1</SimpleData>
		<SimpleData name="ext_sign">439.338</SimpleData>
		<SimpleData name="center_type">Анар ,станция., здание вокзала.</SimpleData>
		<SimpleData name="lvl_line">cd2f8799-e681-4b55-8c24-e22c6e1c47bb</SimpleData>
	</SchemaData></ExtendedData>
      <Point><coordinates>72.3992586005108,50.6579499376013</coordinates></Point>
  </Placemark>
</Folder>
</Document></kml>
