<?xml version="1.0" encoding="utf-8" ?>
<kml xmlns="http://www.opengis.net/kml/2.2">
<Document id="root_doc">
<Schema name="cd39e588" id="cd39e588">
	<SimpleField name="title" type="string"></SimpleField>
	<SimpleField name="type" type="string"></SimpleField>
	<SimpleField name="ext_sign" type="string"></SimpleField>
	<SimpleField name="class_lvl" type="string"></SimpleField>
	<SimpleField name="height_lvl" type="string"></SimpleField>
	<SimpleField name="height_ctrl" type="string"></SimpleField>
	<SimpleField name="ctrl_place" type="string"></SimpleField>
	<SimpleField name="mark_num" type="string"></SimpleField>
	<SimpleField name="center_type" type="string"></SimpleField>
	<SimpleField name="lvl_line" type="string"></SimpleField>
	<SimpleField name="guid" type="string"></SimpleField>
</Schema>
<Folder><name>cd39e588</name>
  <Placemark id="cd39e588.1">
	<name>6988</name>
	<description>грунтовый репер</description>
	<ExtendedData><SchemaData schemaUrl="#cd39e588">
		<SimpleData name="type">1</SimpleData>
		<SimpleData name="ext_sign">439.46</SimpleData>
		<SimpleData name="height_lvl">160 оп.знак</SimpleData>
		<SimpleData name="height_ctrl">6988</SimpleData>
		<SimpleData name="mark_num">Линия № 5: Талдысай - Тюемойнак. І класс </SimpleData>
		<SimpleData name="center_type">Соркулак. зим.. в 1.0 км к югу от нее. в 1.1 км к вост. от  оз. Мешкейсор . в 55 м к зап. от пол дороги</SimpleData>
		<SimpleData name="lvl_line">cd39e588-39de-47e4-8c5b-3f6b7e5dda4a</SimpleData>
	</SchemaData></ExtendedData>
      <Point><coordinates>68.7849929654039,48.6559143946633</coordinates></Point>
  </Placemark>
</Folder>
</Document></kml>
