<?xml version="1.0" encoding="utf-8" ?>
<kml xmlns="http://www.opengis.net/kml/2.2">
<Document id="root_doc">
<Schema name="cd5d1b92" id="cd5d1b92">
	<SimpleField name="type" type="string"></SimpleField>
	<SimpleField name="view" type="string"></SimpleField>
	<SimpleField name="leveling_order" type="string"></SimpleField>
	<SimpleField name="leveling_height" type="string"></SimpleField>
	<SimpleField name="control_height" type="string"></SimpleField>
	<SimpleField name="benchmark_number" type="string"></SimpleField>
	<SimpleField name="control_location" type="string"></SimpleField>
	<SimpleField name="benchmark_type" type="string"></SimpleField>
	<SimpleField name="leveling_line_section" type="string"></SimpleField>
	<SimpleField name="location_description" type="string"></SimpleField>
	<SimpleField name="status" type="string"></SimpleField>
	<SimpleField name="guid" type="string"></SimpleField>
	<SimpleField name="kml" type="string"></SimpleField>
	<SimpleField name="kml_link" type="string"></SimpleField>
</Schema>
<Folder><name>cd5d1b92</name>
  <Placemark id="cd5d1b92.1">
	<name>6717</name>
	<name>грунт,реп</name>
	<ExtendedData><SchemaData schemaUrl="#cd5d1b92">
		<SimpleData name="type">1</SimpleData>
		<SimpleData name="view">1040.246</SimpleData>
		<SimpleData name="leveling_order">1039,152</SimpleData>
		<SimpleData name="leveling_height">№ 77 </SimpleData>
		<SimpleData name="control_height">репер в верхней
плоскости монолита</SimpleData>
		<SimpleData name="benchmark_number">121</SimpleData>
		<SimpleData name="control_location">Линия №1: Арысь=Сары-Озек, I класс </SimpleData>
		<SimpleData name="benchmark_type">Казбастау, раз,, в 4,9 км к юго-зап, от него, на 2 ПК 3446 км, в 36 м к юго-вост,от жел,-дор,полотна</SimpleData>
		<SimpleData name="location_description">cd5d1b92-85f2-47b8-a260-d369b4c9e33b</SimpleData>
		<SimpleData name="status">data/stations/cd5d1b92.kml</SimpleData>
		<SimpleData name="guid">&lt;a href='data/stations/cd5d1b92.kml' target='_blank'&gt;Download KML&lt;/a&gt;</SimpleData>
	</SchemaData></ExtendedData>
      <Point><coordinates>70.8279839253111,42.6345277336068</coordinates></Point>
  </Placemark>
</Folder>
</Document></kml>
