<?xml version="1.0" encoding="utf-8" ?>
<kml xmlns="http://www.opengis.net/kml/2.2">
<Document id="root_doc">
<Schema name="cdb78841" id="cdb78841">
	<SimpleField name="title" type="string"></SimpleField>
	<SimpleField name="type" type="string"></SimpleField>
	<SimpleField name="ext_sign" type="string"></SimpleField>
	<SimpleField name="class_lvl" type="string"></SimpleField>
	<SimpleField name="height_lvl" type="string"></SimpleField>
	<SimpleField name="height_ctrl" type="string"></SimpleField>
	<SimpleField name="ctrl_place" type="string"></SimpleField>
	<SimpleField name="mark_num" type="string"></SimpleField>
	<SimpleField name="center_type" type="string"></SimpleField>
	<SimpleField name="lvl_line" type="string"></SimpleField>
	<SimpleField name="guid" type="string"></SimpleField>
</Schema>
<Folder><name>cdb78841</name>
  <Placemark id="cdb78841.1">
	<name>R076</name>
	<description>Грун.реп.</description>
	<ExtendedData><SchemaData schemaUrl="#cdb78841">
		<SimpleData name="height_ctrl">R076</SimpleData>
		<SimpleData name="ctrl_place">162</SimpleData>
		<SimpleData name="lvl_line">cdb78841-a0c6-440b-a042-a19d66aee742</SimpleData>
	</SchemaData></ExtendedData>
      <Point><coordinates>54.8175446482652,44.2563757212485</coordinates></Point>
  </Placemark>
</Folder>
</Document></kml>
