<?xml version="1.0" encoding="utf-8" ?>
<kml xmlns="http://www.opengis.net/kml/2.2">
<Document id="root_doc">
<Schema name="ce63a207" id="ce63a207">
	<SimpleField name="type" type="string"></SimpleField>
	<SimpleField name="view" type="string"></SimpleField>
	<SimpleField name="leveling_order" type="string"></SimpleField>
	<SimpleField name="leveling_height" type="string"></SimpleField>
	<SimpleField name="control_height" type="string"></SimpleField>
	<SimpleField name="benchmark_number" type="string"></SimpleField>
	<SimpleField name="control_location" type="string"></SimpleField>
	<SimpleField name="benchmark_type" type="string"></SimpleField>
	<SimpleField name="leveling_line_section" type="string"></SimpleField>
	<SimpleField name="location_description" type="string"></SimpleField>
	<SimpleField name="status" type="string"></SimpleField>
	<SimpleField name="guid" type="string"></SimpleField>
	<SimpleField name="kml" type="string"></SimpleField>
	<SimpleField name="kml_link" type="string"></SimpleField>
</Schema>
<Folder><name>ce63a207</name>
  <Placemark id="ce63a207.1">
	<name>5010</name>
	<name>грунт.реп.</name>
	<ExtendedData><SchemaData schemaUrl="#ce63a207">
		<SimpleData name="type">II</SimpleData>
		<SimpleData name="view">360.941</SimpleData>
		<SimpleData name="leveling_order">359.473</SimpleData>
		<SimpleData name="benchmark_number">116 оп.знак</SimpleData>
		<SimpleData name="control_location">Линия №1: Ивановка-р.Кон, ll класс (1). Участок: грунт.реп. 5354-грунт.реп.1719(151)</SimpleData>
		<SimpleData name="benchmark_type">Соналы с., в 3,9 км к вост. От него, в 1,2 км к вост. От р.Соналы, в 25 м к сев. От дороги с.Соналы-с.Кенжарык</SimpleData>
		<SimpleData name="location_description">ce63a207-ecfa-4064-969a-1494b154fbf8</SimpleData>
		<SimpleData name="status">data/stations/ce63a207.kml</SimpleData>
		<SimpleData name="guid">&lt;a href='data/stations/ce63a207.kml' target='_blank'&gt;Download KML&lt;/a&gt;</SimpleData>
	</SchemaData></ExtendedData>
      <Point><coordinates>70.3342825245756,49.9342516261791</coordinates></Point>
  </Placemark>
</Folder>
</Document></kml>
