<?xml version="1.0" encoding="utf-8" ?>
<kml xmlns="http://www.opengis.net/kml/2.2">
<Document id="root_doc">
<Schema name="cfb1f746" id="cfb1f746">
	<SimpleField name="title" type="string"></SimpleField>
	<SimpleField name="type" type="string"></SimpleField>
	<SimpleField name="ext_sign" type="string"></SimpleField>
	<SimpleField name="class_lvl" type="string"></SimpleField>
	<SimpleField name="height_lvl" type="string"></SimpleField>
	<SimpleField name="height_ctrl" type="string"></SimpleField>
	<SimpleField name="ctrl_place" type="string"></SimpleField>
	<SimpleField name="mark_num" type="string"></SimpleField>
	<SimpleField name="center_type" type="string"></SimpleField>
	<SimpleField name="lvl_line" type="string"></SimpleField>
	<SimpleField name="guid" type="string"></SimpleField>
</Schema>
<Folder><name>cfb1f746</name>
  <Placemark id="cfb1f746.1">
	<name>16</name>
	<ExtendedData><SchemaData schemaUrl="#cfb1f746">
		<SimpleData name="title">фунд. реп.</SimpleData>
		<SimpleData name="type">2</SimpleData>
		<SimpleData name="ext_sign">179.348</SimpleData>
		<SimpleData name="class_lvl">178.163</SimpleData>
		<SimpleData name="height_lvl">Контрольный репер в верхней плоскости монолита</SimpleData>
		<SimpleData name="ctrl_place">140 оп</SimpleData>
		<SimpleData name="mark_num">Линия №1: Тургай - Кзылуй, II класс. Участок: грунт. реп. 46 - фунд. реп. 16</SimpleData>
		<SimpleData name="center_type">Кызылуй, с., в 7.6 км к юго-зап. от него, в 1.0 км к югу от р. Каргалы, в 45 м к югу от дороги с. Тургай - с. Байконур</SimpleData>
		<SimpleData name="lvl_line">cfb1f746-2bb0-4cf3-9372-9f9990f1ef77</SimpleData>
	</SchemaData></ExtendedData>
      <Point><coordinates>65.2385029968599,48.0996925913943</coordinates></Point>
  </Placemark>
</Folder>
</Document></kml>
