<?xml version="1.0" encoding="utf-8" ?>
<kml xmlns="http://www.opengis.net/kml/2.2">
<Document id="root_doc">
<Schema name="d0333209" id="d0333209">
	<SimpleField name="title" type="string"></SimpleField>
	<SimpleField name="type" type="string"></SimpleField>
	<SimpleField name="ext_sign" type="string"></SimpleField>
	<SimpleField name="class_lvl" type="string"></SimpleField>
	<SimpleField name="height_lvl" type="string"></SimpleField>
	<SimpleField name="height_ctrl" type="string"></SimpleField>
	<SimpleField name="ctrl_place" type="string"></SimpleField>
	<SimpleField name="mark_num" type="string"></SimpleField>
	<SimpleField name="center_type" type="string"></SimpleField>
	<SimpleField name="lvl_line" type="string"></SimpleField>
	<SimpleField name="guid" type="string"></SimpleField>
</Schema>
<Folder><name>d0333209</name>
  <Placemark id="d0333209.1">
	<name>7930</name>
	<ExtendedData><SchemaData schemaUrl="#d0333209">
		<SimpleData name="title">ск.реп.</SimpleData>
		<SimpleData name="type">2</SimpleData>
		<SimpleData name="ext_sign">1570.575</SimpleData>
		<SimpleData name="ctrl_place">99 оп</SimpleData>
		<SimpleData name="mark_num">Участок: ск. реп. 1213-фунд. реп. 8659</SimpleData>
		<SimpleData name="center_type">Бартогай, с., в 8.5 км к зап. от него, в 0.4 км к вост. от зимовки, в 0.2 км к зап. от развилки дорог с. Бартогай-с. Асы-с. Сарыбулак</SimpleData>
		<SimpleData name="lvl_line">d0333209-8cd5-4768-ad13-da2bb1752bea</SimpleData>
	</SchemaData></ExtendedData>
      <Point><coordinates>78.4059238133366,43.3165030457935</coordinates></Point>
  </Placemark>
</Folder>
</Document></kml>
