<?xml version="1.0" encoding="utf-8" ?>
<kml xmlns="http://www.opengis.net/kml/2.2">
<Document id="root_doc">
<Schema name="d04f5433" id="d04f5433">
	<SimpleField name="title" type="string"></SimpleField>
	<SimpleField name="type" type="string"></SimpleField>
	<SimpleField name="ext_sign" type="string"></SimpleField>
	<SimpleField name="class_lvl" type="string"></SimpleField>
	<SimpleField name="height_lvl" type="string"></SimpleField>
	<SimpleField name="height_ctrl" type="string"></SimpleField>
	<SimpleField name="ctrl_place" type="string"></SimpleField>
	<SimpleField name="mark_num" type="string"></SimpleField>
	<SimpleField name="center_type" type="string"></SimpleField>
	<SimpleField name="lvl_line" type="string"></SimpleField>
	<SimpleField name="guid" type="string"></SimpleField>
</Schema>
<Folder><name>d04f5433</name>
  <Placemark id="d04f5433.1">
	<name>30</name>
	<description>грунтовый репер</description>
	<ExtendedData><SchemaData schemaUrl="#d04f5433">
		<SimpleData name="type">1</SimpleData>
		<SimpleData name="ext_sign">437.471</SimpleData>
		<SimpleData name="height_lvl">нет данных (рельс)</SimpleData>
		<SimpleData name="ctrl_place">12</SimpleData>
		<SimpleData name="mark_num">Линия № 4: р. Кон - Талдысай. І класс </SimpleData>
		<SimpleData name="center_type">Нарымбай. оз в 7.4 км к югу от него. в 1.3 км к вост. от отд. № 3 свх. Талдысайский. в 0.4 км к сев. от р. Жаксыкон. в 10 м к юго-зап. от дороги</SimpleData>
		<SimpleData name="lvl_line">d04f5433-e6a7-44de-a236-8dc1b1e65af5</SimpleData>
	</SchemaData></ExtendedData>
      <Point><coordinates>68.8646178670962,49.3483227907224</coordinates></Point>
  </Placemark>
</Folder>
</Document></kml>
