<?xml version="1.0" encoding="utf-8" ?>
<kml xmlns="http://www.opengis.net/kml/2.2">
<Document id="root_doc">
<Schema name="d0929e08" id="d0929e08">
	<SimpleField name="type" type="string"></SimpleField>
	<SimpleField name="view" type="string"></SimpleField>
	<SimpleField name="leveling_order" type="string"></SimpleField>
	<SimpleField name="leveling_height" type="string"></SimpleField>
	<SimpleField name="control_height" type="string"></SimpleField>
	<SimpleField name="benchmark_number" type="string"></SimpleField>
	<SimpleField name="control_location" type="string"></SimpleField>
	<SimpleField name="benchmark_type" type="string"></SimpleField>
	<SimpleField name="leveling_line_section" type="string"></SimpleField>
	<SimpleField name="location_description" type="string"></SimpleField>
	<SimpleField name="status" type="string"></SimpleField>
	<SimpleField name="guid" type="string"></SimpleField>
	<SimpleField name="kml" type="string"></SimpleField>
	<SimpleField name="kml_link" type="string"></SimpleField>
</Schema>
<Folder><name>d0929e08</name>
  <Placemark id="d0929e08.1">
	<name>II</name>
	<description>пирамида</description>
	<ExtendedData><SchemaData schemaUrl="#d0929e08">
		<SimpleData name="type">1</SimpleData>
		<SimpleData name="view">1016.036</SimpleData>
		<SimpleData name="benchmark_number">1</SimpleData>
		<SimpleData name="control_location">Линия № 1: Уштобе – Текели, II класс
Участок: грунт. реп. 2940 – фунд. реп. 7980

</SimpleData>
		<SimpleData name="benchmark_type">Каратальское, с., вост. окраина его, в 0.3 км к сев. от шоссе с. Каратальское – гор. Текели</SimpleData>
		<SimpleData name="location_description">d0929e08-8fef-4ca8-ab49-dad73c71d48d</SimpleData>
		<SimpleData name="status">data/stations/d0929e08.kml</SimpleData>
		<SimpleData name="guid">&lt;a href='data/stations/d0929e08.kml' target='_blank'&gt;Download KML&lt;/a&gt;</SimpleData>
	</SchemaData></ExtendedData>
      <Point><coordinates>78.7361013678467,44.8775331180081</coordinates></Point>
  </Placemark>
</Folder>
</Document></kml>
