<?xml version="1.0" encoding="utf-8" ?>
<kml xmlns="http://www.opengis.net/kml/2.2">
<Document id="root_doc">
<Schema name="d0980192" id="d0980192">
	<SimpleField name="title" type="string"></SimpleField>
	<SimpleField name="type" type="string"></SimpleField>
	<SimpleField name="ext_sign" type="string"></SimpleField>
	<SimpleField name="class_lvl" type="string"></SimpleField>
	<SimpleField name="height_lvl" type="string"></SimpleField>
	<SimpleField name="height_ctrl" type="string"></SimpleField>
	<SimpleField name="ctrl_place" type="string"></SimpleField>
	<SimpleField name="mark_num" type="string"></SimpleField>
	<SimpleField name="center_type" type="string"></SimpleField>
	<SimpleField name="lvl_line" type="string"></SimpleField>
	<SimpleField name="guid" type="string"></SimpleField>
</Schema>
<Folder><name>d0980192</name>
  <Placemark id="d0980192.1">
	<name>D19</name>
	<description>Грунтовый </description>
	<ExtendedData><SchemaData schemaUrl="#d0980192">
		<SimpleData name="lvl_line">d0980192-2484-46e6-892c-165ee7d4a9ea</SimpleData>
	</SchemaData></ExtendedData>
      <Point><coordinates>53.9155165009921,46.6772773844519</coordinates></Point>
  </Placemark>
</Folder>
</Document></kml>
