<?xml version="1.0" encoding="utf-8" ?>
<kml xmlns="http://www.opengis.net/kml/2.2">
<Document id="root_doc">
<Schema name="d0a9ee0c" id="d0a9ee0c">
	<SimpleField name="type" type="string"></SimpleField>
	<SimpleField name="view" type="string"></SimpleField>
	<SimpleField name="leveling_order" type="string"></SimpleField>
	<SimpleField name="leveling_height" type="string"></SimpleField>
	<SimpleField name="control_height" type="string"></SimpleField>
	<SimpleField name="benchmark_number" type="string"></SimpleField>
	<SimpleField name="control_location" type="string"></SimpleField>
	<SimpleField name="benchmark_type" type="string"></SimpleField>
	<SimpleField name="leveling_line_section" type="string"></SimpleField>
	<SimpleField name="location_description" type="string"></SimpleField>
	<SimpleField name="status" type="string"></SimpleField>
	<SimpleField name="guid" type="string"></SimpleField>
	<SimpleField name="kml" type="string"></SimpleField>
	<SimpleField name="kml_link" type="string"></SimpleField>
</Schema>
<Folder><name>d0a9ee0c</name>
  <Placemark id="d0a9ee0c.1">
	<name>6944</name>
	<name>грунтовый репер</name>
	<ExtendedData><SchemaData schemaUrl="#d0a9ee0c">
		<SimpleData name="type">2</SimpleData>
		<SimpleData name="view">308,557</SimpleData>
		<SimpleData name="control_location">Линия № 2: фунд. реп. 9617 - Актас, II класс (2) Участок: грунт. реп. 7995 - грунт.реп. 133</SimpleData>
		<SimpleData name="benchmark_type">Туратсайган, к., в 10.1 км к сев.-зап. от него, в 3.1 км к  юго-вост. от развилки полевой дороги, в 5 м к югу от полевой дороги</SimpleData>
		<SimpleData name="location_description">d0a9ee0c-7c4a-497b-8de0-73c5f33d65b2</SimpleData>
		<SimpleData name="status">data/stations/d0a9ee0c.kml</SimpleData>
		<SimpleData name="guid">&lt;a href='data/stations/d0a9ee0c.kml' target='_blank'&gt;Download KML&lt;/a&gt;</SimpleData>
	</SchemaData></ExtendedData>
      <Point><coordinates>69.5674542235956,46.0013471845202</coordinates></Point>
  </Placemark>
</Folder>
</Document></kml>
