<?xml version="1.0" encoding="utf-8" ?>
<kml xmlns="http://www.opengis.net/kml/2.2">
<Document id="root_doc">
<Schema name="d1e8842c" id="d1e8842c">
	<SimpleField name="type" type="string"></SimpleField>
	<SimpleField name="view" type="string"></SimpleField>
	<SimpleField name="leveling_order" type="string"></SimpleField>
	<SimpleField name="leveling_height" type="string"></SimpleField>
	<SimpleField name="control_height" type="string"></SimpleField>
	<SimpleField name="benchmark_number" type="string"></SimpleField>
	<SimpleField name="control_location" type="string"></SimpleField>
	<SimpleField name="benchmark_type" type="string"></SimpleField>
	<SimpleField name="leveling_line_section" type="string"></SimpleField>
	<SimpleField name="location_description" type="string"></SimpleField>
	<SimpleField name="status" type="string"></SimpleField>
	<SimpleField name="guid" type="string"></SimpleField>
	<SimpleField name="kml" type="string"></SimpleField>
	<SimpleField name="kml_link" type="string"></SimpleField>
</Schema>
<Folder><name>d1e8842c</name>
  <Placemark id="d1e8842c.1">
	<name>8305</name>
	<description>грунт.реп</description>
	<ExtendedData><SchemaData schemaUrl="#d1e8842c">
		<SimpleData name="type">2</SimpleData>
		<SimpleData name="view">226.133</SimpleData>
		<SimpleData name="leveling_order">225.152</SimpleData>
		<SimpleData name="benchmark_number">107</SimpleData>
		<SimpleData name="control_location">Линия № 1: Урицоке - Койбагар, II класс             Участок : грунт.реп.8480 - марка 3079</SimpleData>
		<SimpleData name="benchmark_type">Клещенка, с., в 3.4 км к югу от него, в 150 м к сев.-зап.от отдельно стоящих кустов, в 43 м к вост.от дороги с.Клещенка - с.Былкылдак</SimpleData>
		<SimpleData name="location_description">d1e8842c-af7c-4219-9337-efced92046a0</SimpleData>
		<SimpleData name="status">data/stations/d1e8842c.kml</SimpleData>
		<SimpleData name="guid">&lt;a href='data/stations/d1e8842c.kml' target='_blank'&gt;Download KML&lt;/a&gt;</SimpleData>
	</SchemaData></ExtendedData>
      <Point><coordinates>65.5604732955612,53.0157139841426</coordinates></Point>
  </Placemark>
</Folder>
</Document></kml>
