<?xml version="1.0" encoding="utf-8" ?>
<kml xmlns="http://www.opengis.net/kml/2.2">
<Document id="root_doc">
<Schema name="d264f14d" id="d264f14d">
	<SimpleField name="title" type="string"></SimpleField>
	<SimpleField name="type" type="string"></SimpleField>
	<SimpleField name="ext_sign" type="string"></SimpleField>
	<SimpleField name="class_lvl" type="string"></SimpleField>
	<SimpleField name="height_lvl" type="string"></SimpleField>
	<SimpleField name="height_ctrl" type="string"></SimpleField>
	<SimpleField name="ctrl_place" type="string"></SimpleField>
	<SimpleField name="mark_num" type="string"></SimpleField>
	<SimpleField name="center_type" type="string"></SimpleField>
	<SimpleField name="lvl_line" type="string"></SimpleField>
	<SimpleField name="guid" type="string"></SimpleField>
</Schema>
<Folder><name>d264f14d</name>
  <Placemark id="d264f14d.1">
	<name>1898</name>
	<description>грунт.реп.</description>
	<ExtendedData><SchemaData schemaUrl="#d264f14d">
		<SimpleData name="type">2</SimpleData>
		<SimpleData name="ext_sign">-5.928</SimpleData>
		<SimpleData name="ctrl_place">15 оп</SimpleData>
		<SimpleData name="mark_num">Линия нивелирования II класса на объекте &quot;Баван-Зелёный, Актонук-Баван, Баван-Керей&quot; 06.03.1751</SimpleData>
		<SimpleData name="center_type">кладб. Берлибаймола, в 25.0 км к сев. от него, в 8,3 км к юго-вост. от кладб. Кумбельмола, в 3.5 км к юго-зап. от кладб. Даулетмола, в 1.0 км к зап. от развалин</SimpleData>
		<SimpleData name="lvl_line">d264f14d-75ee-4dbe-b67a-ace9d4ec5cd8</SimpleData>
	</SchemaData></ExtendedData>
      <Point><coordinates>49.9410579377331,48.3421928339838</coordinates></Point>
  </Placemark>
</Folder>
</Document></kml>
