<?xml version="1.0" encoding="utf-8" ?>
<kml xmlns="http://www.opengis.net/kml/2.2">
<Document id="root_doc">
<Schema name="d27e5e79" id="d27e5e79">
	<SimpleField name="title" type="string"></SimpleField>
	<SimpleField name="type" type="string"></SimpleField>
	<SimpleField name="ext_sign" type="string"></SimpleField>
	<SimpleField name="class_lvl" type="string"></SimpleField>
	<SimpleField name="height_lvl" type="string"></SimpleField>
	<SimpleField name="height_ctrl" type="string"></SimpleField>
	<SimpleField name="ctrl_place" type="string"></SimpleField>
	<SimpleField name="mark_num" type="string"></SimpleField>
	<SimpleField name="center_type" type="string"></SimpleField>
	<SimpleField name="lvl_line" type="string"></SimpleField>
	<SimpleField name="guid" type="string"></SimpleField>
</Schema>
<Folder><name>d27e5e79</name>
  <Placemark id="d27e5e79.1">
	<name>0093</name>
	<description>грунтовый репер</description>
	<ExtendedData><SchemaData schemaUrl="#d27e5e79">
		<SimpleData name="type">1</SimpleData>
		<SimpleData name="ext_sign">12.857</SimpleData>
		<SimpleData name="ctrl_place">160</SimpleData>
		<SimpleData name="mark_num">Линия нивелирования 1 класса Уральск-Жанибек</SimpleData>
		<SimpleData name="lvl_line">d27e5e79-5ba4-4737-b2f5-2fe0cfb6d846</SimpleData>
	</SchemaData></ExtendedData>
      <Point><coordinates>49.1748747101811,50.0293710279958</coordinates></Point>
  </Placemark>
</Folder>
</Document></kml>
