<?xml version="1.0" encoding="utf-8" ?>
<kml xmlns="http://www.opengis.net/kml/2.2">
<Document id="root_doc">
<Schema name="d2808754" id="d2808754">
	<SimpleField name="title" type="string"></SimpleField>
	<SimpleField name="type" type="string"></SimpleField>
	<SimpleField name="ext_sign" type="string"></SimpleField>
	<SimpleField name="class_lvl" type="string"></SimpleField>
	<SimpleField name="height_lvl" type="string"></SimpleField>
	<SimpleField name="height_ctrl" type="string"></SimpleField>
	<SimpleField name="ctrl_place" type="string"></SimpleField>
	<SimpleField name="mark_num" type="string"></SimpleField>
	<SimpleField name="center_type" type="string"></SimpleField>
	<SimpleField name="lvl_line" type="string"></SimpleField>
	<SimpleField name="guid" type="string"></SimpleField>
</Schema>
<Folder><name>d2808754</name>
  <Placemark id="d2808754.1">
	<name>4703</name>
	<description>Грунт. реп </description>
	<ExtendedData><SchemaData schemaUrl="#d2808754">
		<SimpleData name="ctrl_place">160 оп</SimpleData>
		<SimpleData name="center_type">Амангельды, с. , в 7.6  км к сев.-вост. от него, в 1.1 км к зап. от зим. Агайдар, в 250 м к сев-вост.от кладбища, в 30 м к югу от шоссе гор. Аркалык-гор. Торгай, в 5 м к сев. от полевой дороги</SimpleData>
		<SimpleData name="lvl_line">d2808754-a7ca-4b9d-bf57-a60b3c64c127</SimpleData>
	</SchemaData></ExtendedData>
      <Point><coordinates>65.270385,50.2443818</coordinates></Point>
  </Placemark>
</Folder>
</Document></kml>
