<?xml version="1.0" encoding="utf-8" ?>
<kml xmlns="http://www.opengis.net/kml/2.2">
<Document id="root_doc">
<Schema name="d2a575e0" id="d2a575e0">
	<SimpleField name="type" type="string"></SimpleField>
	<SimpleField name="view" type="string"></SimpleField>
	<SimpleField name="leveling_order" type="string"></SimpleField>
	<SimpleField name="leveling_height" type="string"></SimpleField>
	<SimpleField name="control_height" type="string"></SimpleField>
	<SimpleField name="benchmark_number" type="string"></SimpleField>
	<SimpleField name="control_location" type="string"></SimpleField>
	<SimpleField name="benchmark_type" type="string"></SimpleField>
	<SimpleField name="leveling_line_section" type="string"></SimpleField>
	<SimpleField name="location_description" type="string"></SimpleField>
	<SimpleField name="status" type="string"></SimpleField>
	<SimpleField name="guid" type="string"></SimpleField>
	<SimpleField name="kml" type="string"></SimpleField>
	<SimpleField name="kml_link" type="string"></SimpleField>
</Schema>
<Folder><name>d2a575e0</name>
  <Placemark id="d2a575e0.1">
	<name>4460</name>
	<name>грунтовый репер</name>
	<ExtendedData><SchemaData schemaUrl="#d2a575e0">
		<SimpleData name="type">II</SimpleData>
		<SimpleData name="view">125,155</SimpleData>
		<SimpleData name="benchmark_number">160оп</SimpleData>
		<SimpleData name="control_location">Линия № 6: фунд. Реп. 3401 - стен. Реп. 796, II класс (3)                  Участок: фунд. реп. 3401 - фунд. реп. 2769</SimpleData>
		<SimpleData name="benchmark_type">Путь Ильича, с., в 5,7 км к юго-зап. от него, в 2,8 км к вост. от полевого стана, к сев.-зап. от перекрестка полевых дорог</SimpleData>
		<SimpleData name="leveling_line_section">утрачен</SimpleData>
		<SimpleData name="location_description">d2a575e0-6bcb-41a6-b310-d3a754694ab0</SimpleData>
		<SimpleData name="status">data/stations/d2a575e0.kml</SimpleData>
		<SimpleData name="guid">&lt;a href='data/stations/d2a575e0.kml' target='_blank'&gt;Download KML&lt;/a&gt;</SimpleData>
	</SchemaData></ExtendedData>
      <Point><coordinates>76.8933627337825,51.9269076993452</coordinates></Point>
  </Placemark>
</Folder>
</Document></kml>
