<?xml version="1.0" encoding="utf-8" ?>
<kml xmlns="http://www.opengis.net/kml/2.2">
<Document id="root_doc">
<Schema name="d2d67877" id="d2d67877">
	<SimpleField name="type" type="string"></SimpleField>
	<SimpleField name="view" type="string"></SimpleField>
	<SimpleField name="leveling_order" type="string"></SimpleField>
	<SimpleField name="leveling_height" type="string"></SimpleField>
	<SimpleField name="control_height" type="string"></SimpleField>
	<SimpleField name="benchmark_number" type="string"></SimpleField>
	<SimpleField name="control_location" type="string"></SimpleField>
	<SimpleField name="benchmark_type" type="string"></SimpleField>
	<SimpleField name="leveling_line_section" type="string"></SimpleField>
	<SimpleField name="location_description" type="string"></SimpleField>
	<SimpleField name="status" type="string"></SimpleField>
	<SimpleField name="guid" type="string"></SimpleField>
	<SimpleField name="kml" type="string"></SimpleField>
	<SimpleField name="kml_link" type="string"></SimpleField>
</Schema>
<Folder><name>d2d67877</name>
  <Placemark id="d2d67877.1">
	<name>4256</name>
	<description>грунт. реп.</description>
	<ExtendedData><SchemaData schemaUrl="#d2d67877">
		<SimpleData name="type">2</SimpleData>
		<SimpleData name="view">109.151</SimpleData>
		<SimpleData name="benchmark_number">121 оп</SimpleData>
		<SimpleData name="control_location">Линия № 2: грунт.реп. 65 - грунт.реп. 4788, III класс </SimpleData>
		<SimpleData name="benchmark_type">Шалдыбай, кладб., в 5.1 км к сев. от него, в 4.8 км к юго-зап. от оз. Даулетпике, в 2.5 км к зап. от дороги с. Кокаалат - с. Байтас</SimpleData>
		<SimpleData name="location_description">d2d67877-4db7-47c5-ae9b-f06cd91c6842</SimpleData>
		<SimpleData name="status">data/stations/d2d67877.kml</SimpleData>
		<SimpleData name="guid">&lt;a href='data/stations/d2d67877.kml' target='_blank'&gt;Download KML&lt;/a&gt;</SimpleData>
	</SchemaData></ExtendedData>
      <Point><coordinates>64.2053871283859,49.7176279960229</coordinates></Point>
  </Placemark>
</Folder>
</Document></kml>
