<?xml version="1.0" encoding="utf-8" ?>
<kml xmlns="http://www.opengis.net/kml/2.2">
<Document id="root_doc">
<Schema name="d2e7f3b4" id="d2e7f3b4">
	<SimpleField name="type" type="string"></SimpleField>
	<SimpleField name="view" type="string"></SimpleField>
	<SimpleField name="leveling_order" type="string"></SimpleField>
	<SimpleField name="leveling_height" type="string"></SimpleField>
	<SimpleField name="control_height" type="string"></SimpleField>
	<SimpleField name="benchmark_number" type="string"></SimpleField>
	<SimpleField name="control_location" type="string"></SimpleField>
	<SimpleField name="benchmark_type" type="string"></SimpleField>
	<SimpleField name="leveling_line_section" type="string"></SimpleField>
	<SimpleField name="location_description" type="string"></SimpleField>
	<SimpleField name="status" type="string"></SimpleField>
	<SimpleField name="guid" type="string"></SimpleField>
	<SimpleField name="kml" type="string"></SimpleField>
	<SimpleField name="kml_link" type="string"></SimpleField>
</Schema>
<Folder><name>d2e7f3b4</name>
  <Placemark id="d2e7f3b4.1">
	<name>14</name>
	<name>ск.реп.</name>
	<ExtendedData><SchemaData schemaUrl="#d2e7f3b4">
		<SimpleData name="type">II</SimpleData>
		<SimpleData name="view">612.077</SimpleData>
		<SimpleData name="benchmark_number">99 оп.знак</SimpleData>
		<SimpleData name="control_location">Линия № 3:Акозек - Кaрacу. II класс                         Участок: фунд. реп. 124 -  фунд. реп. 39</SimpleData>
		<SimpleData name="benchmark_type">Жанаорталык,с.,в 25.0 км к сев.-вост. от него,в 11.0 км к сев.-вост.от к.Аркарбай,в 2.1 км к вост.от полевой дороги </SimpleData>
		<SimpleData name="leveling_line_section">уничтожен</SimpleData>
		<SimpleData name="location_description">d2e7f3b4-4598-4b91-88bf-45a6ccf35f8f</SimpleData>
		<SimpleData name="status">data/stations/d2e7f3b4.kml</SimpleData>
		<SimpleData name="guid">&lt;a href='data/stations/d2e7f3b4.kml' target='_blank'&gt;Download KML&lt;/a&gt;</SimpleData>
	</SchemaData></ExtendedData>
      <Point><coordinates>75.9898728343852,47.6622335140234</coordinates></Point>
  </Placemark>
</Folder>
</Document></kml>
