<?xml version="1.0" encoding="utf-8" ?>
<kml xmlns="http://www.opengis.net/kml/2.2">
<Document id="root_doc">
<Schema name="d3066a78" id="d3066a78">
	<SimpleField name="type" type="string"></SimpleField>
	<SimpleField name="view" type="string"></SimpleField>
	<SimpleField name="leveling_order" type="string"></SimpleField>
	<SimpleField name="leveling_height" type="string"></SimpleField>
	<SimpleField name="control_height" type="string"></SimpleField>
	<SimpleField name="benchmark_number" type="string"></SimpleField>
	<SimpleField name="control_location" type="string"></SimpleField>
	<SimpleField name="benchmark_type" type="string"></SimpleField>
	<SimpleField name="leveling_line_section" type="string"></SimpleField>
	<SimpleField name="location_description" type="string"></SimpleField>
	<SimpleField name="status" type="string"></SimpleField>
	<SimpleField name="guid" type="string"></SimpleField>
	<SimpleField name="kml" type="string"></SimpleField>
	<SimpleField name="kml_link" type="string"></SimpleField>
</Schema>
<Folder><name>d3066a78</name>
  <Placemark id="d3066a78.1">
	<name>502</name>
	<description>фунд. реп.</description>
	<ExtendedData><SchemaData schemaUrl="#d3066a78">
		<SimpleData name="type">1</SimpleData>
		<SimpleData name="view">549.219</SimpleData>
		<SimpleData name="leveling_order">548,637</SimpleData>
		<SimpleData name="control_height">Контрольный репер №12 в фундаментальной плите</SimpleData>
		<SimpleData name="benchmark_number">104 тип</SimpleData>
		<SimpleData name="control_location">Линия №4: Тюемойнак-Жарык, I класс (1) Участок: грунт. реп. 4017-фунд.реп. 89</SimpleData>
		<SimpleData name="benchmark_type">Коктенколи, станц., в 6.0 км к вост. от неё, на 7 ПК 45 км,в 0.1 км к югу от ж.д. полотна</SimpleData>
		<SimpleData name="location_description">d3066a78-9441-4d6d-bc6f-767787c67634</SimpleData>
		<SimpleData name="status">data/stations/d3066a78.kml</SimpleData>
		<SimpleData name="guid">&lt;a href='data/stations/d3066a78.kml' target='_blank'&gt;Download KML&lt;/a&gt;</SimpleData>
	</SchemaData></ExtendedData>
      <Point><coordinates>72.2821011745205,48.7310522975613</coordinates></Point>
  </Placemark>
</Folder>
</Document></kml>
