<?xml version="1.0" encoding="utf-8" ?>
<kml xmlns="http://www.opengis.net/kml/2.2">
<Document id="root_doc">
<Schema name="d3229552" id="d3229552">
	<SimpleField name="title" type="string"></SimpleField>
	<SimpleField name="type" type="string"></SimpleField>
	<SimpleField name="ext_sign" type="string"></SimpleField>
	<SimpleField name="class_lvl" type="string"></SimpleField>
	<SimpleField name="height_lvl" type="string"></SimpleField>
	<SimpleField name="height_ctrl" type="string"></SimpleField>
	<SimpleField name="ctrl_place" type="string"></SimpleField>
	<SimpleField name="mark_num" type="string"></SimpleField>
	<SimpleField name="center_type" type="string"></SimpleField>
	<SimpleField name="lvl_line" type="string"></SimpleField>
	<SimpleField name="guid" type="string"></SimpleField>
</Schema>
<Folder><name>d3229552</name>
  <Placemark id="d3229552.1">
	<name>2347</name>
	<description>грунтовый репер</description>
	<ExtendedData><SchemaData schemaUrl="#d3229552">
		<SimpleData name="type">1</SimpleData>
		<SimpleData name="ext_sign">91.107</SimpleData>
		<SimpleData name="ctrl_place">160 оп</SimpleData>
		<SimpleData name="mark_num">линия №1: Аральск - Семиозерное, I класс Участок: грунт.реп. 114 - грунт.реп. 11</SimpleData>
		<SimpleData name="center_type">Торгай, с., в 28,0 км к сев.-зап.от него, в 10 м к сев.от полевой дороги, в 5,6 км к сев.-вост.от оз. Соркаска</SimpleData>
		<SimpleData name="lvl_line">d3229552-e331-4533-b078-d9e2829c6b87</SimpleData>
	</SchemaData></ExtendedData>
      <Point><coordinates>63.3231850985661,49.4770916760433</coordinates></Point>
  </Placemark>
</Folder>
</Document></kml>
