<?xml version="1.0" encoding="utf-8" ?>
<kml xmlns="http://www.opengis.net/kml/2.2">
<Document id="root_doc">
<Schema name="d3ec9d38" id="d3ec9d38">
	<SimpleField name="type" type="string"></SimpleField>
	<SimpleField name="view" type="string"></SimpleField>
	<SimpleField name="leveling_order" type="string"></SimpleField>
	<SimpleField name="leveling_height" type="string"></SimpleField>
	<SimpleField name="control_height" type="string"></SimpleField>
	<SimpleField name="benchmark_number" type="string"></SimpleField>
	<SimpleField name="control_location" type="string"></SimpleField>
	<SimpleField name="benchmark_type" type="string"></SimpleField>
	<SimpleField name="leveling_line_section" type="string"></SimpleField>
	<SimpleField name="location_description" type="string"></SimpleField>
	<SimpleField name="status" type="string"></SimpleField>
	<SimpleField name="guid" type="string"></SimpleField>
	<SimpleField name="kml" type="string"></SimpleField>
	<SimpleField name="kml_link" type="string"></SimpleField>
</Schema>
<Folder><name>d3ec9d38</name>
  <Placemark id="d3ec9d38.1">
	<name>522</name>
	<description>скальный реп.</description>
	<ExtendedData><SchemaData schemaUrl="#d3ec9d38">
		<SimpleData name="type">1</SimpleData>
		<SimpleData name="view">845.703</SimpleData>
		<SimpleData name="benchmark_number">99оп.</SimpleData>
		<SimpleData name="control_location">Линия № 2: Каркаралинск-Аягуз, I класс (I) Участок: фундаментальный репер 7349-грунтовый репер 9933</SimpleData>
		<SimpleData name="benchmark_type">Каркаралинск, гор., в 12,5 км к вост. от него, в 0,3 км к юго-зап. от км. стб. 217/157, в 0,2 км кюгу от перекрестка дорог</SimpleData>
		<SimpleData name="location_description">d3ec9d38-a280-450b-b956-9e327bec68cc</SimpleData>
		<SimpleData name="status">data/stations/d3ec9d38.kml</SimpleData>
		<SimpleData name="guid">&lt;a href='data/stations/d3ec9d38.kml' target='_blank'&gt;Download KML&lt;/a&gt;</SimpleData>
	</SchemaData></ExtendedData>
      <Point><coordinates>75.6636308234729,49.4199919431348</coordinates></Point>
  </Placemark>
</Folder>
</Document></kml>
