<?xml version="1.0" encoding="utf-8" ?>
<kml xmlns="http://www.opengis.net/kml/2.2">
<Document id="root_doc">
<Schema name="d3f2bcc7" id="d3f2bcc7">
	<SimpleField name="type" type="string"></SimpleField>
	<SimpleField name="view" type="string"></SimpleField>
	<SimpleField name="leveling_order" type="string"></SimpleField>
	<SimpleField name="leveling_height" type="string"></SimpleField>
	<SimpleField name="control_height" type="string"></SimpleField>
	<SimpleField name="benchmark_number" type="string"></SimpleField>
	<SimpleField name="control_location" type="string"></SimpleField>
	<SimpleField name="benchmark_type" type="string"></SimpleField>
	<SimpleField name="leveling_line_section" type="string"></SimpleField>
	<SimpleField name="location_description" type="string"></SimpleField>
	<SimpleField name="status" type="string"></SimpleField>
	<SimpleField name="guid" type="string"></SimpleField>
	<SimpleField name="kml" type="string"></SimpleField>
	<SimpleField name="kml_link" type="string"></SimpleField>
</Schema>
<Folder><name>d3f2bcc7</name>
  <Placemark id="d3f2bcc7.1">
	<name>189</name>
	<name>фундаментальный репер</name>
	<ExtendedData><SchemaData schemaUrl="#d3f2bcc7">
		<SimpleData name="type">2</SimpleData>
		<SimpleData name="view">74.409</SimpleData>
		<SimpleData name="benchmark_number">141</SimpleData>
		<SimpleData name="control_location">Линия №1: Айбас-Чапаевский, II класс. Участок:  грунт. реп. 14492-фунд. реп. 156 </SimpleData>
		<SimpleData name="benchmark_type">Жамантуз, сол.оз., в 1.2км к югу от него, в 2.8км к сев.-вост.от асфальтированной дороги, в 0.9км к юго-вост.от кладбища </SimpleData>
		<SimpleData name="location_description">d3f2bcc7-e4cc-4e0f-9423-61c3027abe05</SimpleData>
		<SimpleData name="status">data/stations/d3f2bcc7.kml</SimpleData>
		<SimpleData name="guid">&lt;a href='data/stations/d3f2bcc7.kml' target='_blank'&gt;Download KML&lt;/a&gt;</SimpleData>
	</SchemaData></ExtendedData>
      <Point><coordinates>73.1414961459741,52.9287280581074</coordinates></Point>
  </Placemark>
</Folder>
</Document></kml>
