<?xml version="1.0" encoding="utf-8" ?>
<kml xmlns="http://www.opengis.net/kml/2.2">
<Document id="root_doc">
<Schema name="d43ff7d6" id="d43ff7d6">
	<SimpleField name="type" type="string"></SimpleField>
	<SimpleField name="view" type="string"></SimpleField>
	<SimpleField name="leveling_order" type="string"></SimpleField>
	<SimpleField name="leveling_height" type="string"></SimpleField>
	<SimpleField name="control_height" type="string"></SimpleField>
	<SimpleField name="benchmark_number" type="string"></SimpleField>
	<SimpleField name="control_location" type="string"></SimpleField>
	<SimpleField name="benchmark_type" type="string"></SimpleField>
	<SimpleField name="leveling_line_section" type="string"></SimpleField>
	<SimpleField name="location_description" type="string"></SimpleField>
	<SimpleField name="status" type="string"></SimpleField>
	<SimpleField name="guid" type="string"></SimpleField>
	<SimpleField name="kml" type="string"></SimpleField>
	<SimpleField name="kml_link" type="string"></SimpleField>
</Schema>
<Folder><name>d43ff7d6</name>
  <Placemark id="d43ff7d6.1">
	<name>XVIII</name>
	<name>грунт. реп.</name>
	<ExtendedData><SchemaData schemaUrl="#d43ff7d6">
		<SimpleData name="type">2</SimpleData>
		<SimpleData name="view">63.23</SimpleData>
		<SimpleData name="leveling_order">61.221</SimpleData>
		<SimpleData name="benchmark_number">120</SimpleData>
		<SimpleData name="control_location">Линия №1: Айтеке Би (Новоказалинск) - Ащылысай, 2 класс. Участок: грунт.реп. 0921 - фунд.реп. 3917</SimpleData>
		<SimpleData name="benchmark_type">Кожамколь, арт.к., в 3,9 км к югу от него, в 2,0 км к сев.-вост.от мог. Нарымбай, в 50 м к сев.от полевой дороги</SimpleData>
		<SimpleData name="location_description">d43ff7d6-54ca-4d1f-87b8-27cd469af3d1</SimpleData>
		<SimpleData name="status">data/stations/d43ff7d6.kml</SimpleData>
		<SimpleData name="guid">&lt;a href='data/stations/d43ff7d6.kml' target='_blank'&gt;Download KML&lt;/a&gt;</SimpleData>
	</SchemaData></ExtendedData>
      <Point><coordinates>62.1011005227148,45.0827683690428</coordinates></Point>
  </Placemark>
</Folder>
</Document></kml>
