<?xml version="1.0" encoding="UTF-8"?>
<kml xmlns="http://www.opengis.net/kml/2.2">
  <Document id="root_doc">
    <Schema id="d471d489" name="d471d489">
      <SimpleField name="title" type="string"/>
      <SimpleField name="type" type="string"/>
      <SimpleField name="ext_sign" type="string"/>
      <SimpleField name="class_lvl" type="string"/>
      <SimpleField name="height_lvl" type="string"/>
      <SimpleField name="height_ctrl" type="string"/>
      <SimpleField name="ctrl_place" type="string"/>
      <SimpleField name="mark_num" type="string"/>
      <SimpleField name="center_type" type="string"/>
      <SimpleField name="lvl_line" type="string"/>
      <SimpleField name="guid" type="string"/>
    </Schema>
    <Schema id="d471d489.schema">
      <SimpleField name="title" type="string"/>
      <SimpleField name="type" type="string"/>
      <SimpleField name="ext_sign" type="string"/>
      <SimpleField name="class_lvl" type="string"/>
      <SimpleField name="height_lvl" type="string"/>
      <SimpleField name="height_ctrl" type="string"/>
      <SimpleField name="ctrl_place" type="string"/>
      <SimpleField name="mark_num" type="string"/>
      <SimpleField name="center_type" type="string"/>
      <SimpleField name="lvl_line" type="string"/>
      <SimpleField name="guid" type="string"/>
    </Schema>
    <Document id="d471d489">
      <name>d471d489</name>
      <Placemark id="d471d489.1">
        <description>Женыс, станция, в 11,1 км к сев-вост от нее, на 3 пк 216 км жел дор,, в 83 м к сев-зап от жел дор,, в 17 м к вост от стб, Связи № 0808</description>
        <ExtendedData>
          <SchemaData schemaUrl="#d471d489.schema">
            <SimpleData name="title">8909</SimpleData>
            <SimpleData name="type">грунтовый репер</SimpleData>
            <SimpleData name="class_lvl">1</SimpleData>
            <SimpleData name="height_lvl">389,463</SimpleData>
            <SimpleData name="center_type">160</SimpleData>
            <SimpleData name="lvl_line">Линия № 1: Тюемойнак - Жарык, І класс (1) Участок: грунт,реп, 5222 - грунт,реп, 1644</SimpleData>
            <SimpleData name="guid">d471d489-1fde-4416-b1f2-c9cd1114e1c8</SimpleData>
          </SchemaData>
        </ExtendedData>
        <Point>
          <coordinates>
            70.1229735703781,48.4316981389864,0
          </coordinates>
        </Point>
      </Placemark>
    </Document>
  </Document>
</kml>
