<?xml version="1.0" encoding="utf-8" ?>
<kml xmlns="http://www.opengis.net/kml/2.2">
<Document id="root_doc">
<Schema name="d4ad2924" id="d4ad2924">
	<SimpleField name="type" type="string"></SimpleField>
	<SimpleField name="view" type="string"></SimpleField>
	<SimpleField name="leveling_order" type="string"></SimpleField>
	<SimpleField name="leveling_height" type="string"></SimpleField>
	<SimpleField name="control_height" type="string"></SimpleField>
	<SimpleField name="benchmark_number" type="string"></SimpleField>
	<SimpleField name="control_location" type="string"></SimpleField>
	<SimpleField name="benchmark_type" type="string"></SimpleField>
	<SimpleField name="leveling_line_section" type="string"></SimpleField>
	<SimpleField name="location_description" type="string"></SimpleField>
	<SimpleField name="status" type="string"></SimpleField>
	<SimpleField name="guid" type="string"></SimpleField>
	<SimpleField name="kml" type="string"></SimpleField>
	<SimpleField name="kml_link" type="string"></SimpleField>
</Schema>
<Folder><name>d4ad2924</name>
  <Placemark id="d4ad2924.1">
	<name>8-Д</name>
	<name>грунт.реп.</name>
	<description>грунт.реп.</description>
	<ExtendedData><SchemaData schemaUrl="#d4ad2924">
		<SimpleData name="type">II</SimpleData>
		<SimpleData name="view">495.270</SimpleData>
		<SimpleData name="leveling_order">494,773*</SimpleData>
		<SimpleData name="control_height">В  боковой грани  пилона</SimpleData>
		<SimpleData name="benchmark_number">А</SimpleData>
		<SimpleData name="control_location">Линия № 1: грунт.реп. 11-Д  =  грунт.реп.23-Д, II класс                           Участок:  грунт.реп.13-Д  - грунт.реп.20-Д</SimpleData>
		<SimpleData name="benchmark_type">Мынказан,зим., в 7.9  км  юго-зап..от  нее в 1,3 км к  сев.от  к.Мынказган,в  0.1  км  к вост.от  дороги  с.Дурубайтал-станц.Эспе</SimpleData>
		<SimpleData name="location_description">d4ad2924-006f-4c2c-a13c-0d46840d0b76</SimpleData>
		<SimpleData name="status">data/stations/d4ad2924.kml</SimpleData>
		<SimpleData name="guid">&lt;a href='data/stations/d4ad2924.kml' target='_blank'&gt;Download KML&lt;/a&gt;</SimpleData>
	</SchemaData></ExtendedData>
      <Point><coordinates>74.0828954494837,44.5679908498721</coordinates></Point>
  </Placemark>
</Folder>
</Document></kml>
