<?xml version="1.0" encoding="utf-8" ?>
<kml xmlns="http://www.opengis.net/kml/2.2">
<Document id="root_doc">
<Schema name="d4cfe7bc" id="d4cfe7bc">
	<SimpleField name="title" type="string"></SimpleField>
	<SimpleField name="type" type="string"></SimpleField>
	<SimpleField name="ext_sign" type="string"></SimpleField>
	<SimpleField name="class_lvl" type="string"></SimpleField>
	<SimpleField name="height_lvl" type="string"></SimpleField>
	<SimpleField name="height_ctrl" type="string"></SimpleField>
	<SimpleField name="ctrl_place" type="string"></SimpleField>
	<SimpleField name="mark_num" type="string"></SimpleField>
	<SimpleField name="center_type" type="string"></SimpleField>
	<SimpleField name="lvl_line" type="string"></SimpleField>
	<SimpleField name="guid" type="string"></SimpleField>
</Schema>
<Folder><name>d4cfe7bc</name>
  <Placemark id="d4cfe7bc.1">
	<name>Согласие</name>
	<description>пир.</description>
	<ExtendedData><SchemaData schemaUrl="#d4cfe7bc">
		<SimpleData name="type">3</SimpleData>
		<SimpleData name="ext_sign">1.162</SimpleData>
		<SimpleData name="ctrl_place">1</SimpleData>
		<SimpleData name="mark_num">Линия нивелирования II класса на объекте &quot;Баван-Зелёный, Актонук-Баван, Баван-Керей&quot; 06.03.1751</SimpleData>
		<SimpleData name="center_type">зим. Керей в 4.1 км к югу от неё в 220 м к юго-зап. от газопровода, в 120 м к сев. от  пол.дороги</SimpleData>
		<SimpleData name="lvl_line">d4cfe7bc-2870-41d1-b929-877cd0485672</SimpleData>
	</SchemaData></ExtendedData>
      <Point><coordinates>50.0296152502526,49.4238595732998</coordinates></Point>
  </Placemark>
</Folder>
</Document></kml>
