<?xml version="1.0" encoding="UTF-8"?>
<kml xmlns="http://www.opengis.net/kml/2.2">
  <Document id="root_doc">
    <Schema id="d4deab04" name="d4deab04">
      <SimpleField name="title" type="string"/>
      <SimpleField name="type" type="string"/>
      <SimpleField name="ext_sign" type="string"/>
      <SimpleField name="class_lvl" type="string"/>
      <SimpleField name="height_lvl" type="string"/>
      <SimpleField name="height_ctrl" type="string"/>
      <SimpleField name="ctrl_place" type="string"/>
      <SimpleField name="mark_num" type="string"/>
      <SimpleField name="center_type" type="string"/>
      <SimpleField name="lvl_line" type="string"/>
      <SimpleField name="guid" type="string"/>
    </Schema>
    <Schema id="d4deab04.schema">
      <SimpleField name="title" type="string"/>
      <SimpleField name="type" type="string"/>
      <SimpleField name="ext_sign" type="string"/>
      <SimpleField name="class_lvl" type="string"/>
      <SimpleField name="height_lvl" type="string"/>
      <SimpleField name="height_ctrl" type="string"/>
      <SimpleField name="ctrl_place" type="string"/>
      <SimpleField name="mark_num" type="string"/>
      <SimpleField name="center_type" type="string"/>
      <SimpleField name="lvl_line" type="string"/>
      <SimpleField name="guid" type="string"/>
    </Schema>
    <Document id="d4deab04">
      <name>d4deab04</name>
      <Placemark id="d4deab04.1">
        <description>Тегисмола, мог., в 8.8 км к сев.-зап. от неё, в 5.0 км к югу от мог. Карамола, к югу от полевой дороги</description>
        <ExtendedData>
          <SchemaData schemaUrl="#d4deab04.schema">
            <SimpleData name="title">22</SimpleData>
            <SimpleData name="type">грунтовый репер</SimpleData>
            <SimpleData name="ext_sign">грунтовый репер</SimpleData>
            <SimpleData name="class_lvl">2</SimpleData>
            <SimpleData name="height_lvl">336,667</SimpleData>
            <SimpleData name="center_type">121 оп. знак</SimpleData>
            <SimpleData name="lvl_line">Линия № 2: Древний Курган - Сасыккудык, 2 класс (3) Участок: фунд. реп. 1377-грунт, реп. 1748</SimpleData>
            <SimpleData name="guid">d4deab04-9429-4285-be23-e6c59a711a7b</SimpleData>
          </SchemaData>
        </ExtendedData>
        <Point>
          <coordinates>
            68.1413957310882,47.3679508765247,0
          </coordinates>
        </Point>
      </Placemark>
    </Document>
  </Document>
</kml>
