<?xml version="1.0" encoding="utf-8" ?>
<kml xmlns="http://www.opengis.net/kml/2.2">
<Document id="root_doc">
<Schema name="d52a8d9d" id="d52a8d9d">
	<SimpleField name="type" type="string"></SimpleField>
	<SimpleField name="view" type="string"></SimpleField>
	<SimpleField name="leveling_order" type="string"></SimpleField>
	<SimpleField name="leveling_height" type="string"></SimpleField>
	<SimpleField name="control_height" type="string"></SimpleField>
	<SimpleField name="benchmark_number" type="string"></SimpleField>
	<SimpleField name="control_location" type="string"></SimpleField>
	<SimpleField name="benchmark_type" type="string"></SimpleField>
	<SimpleField name="leveling_line_section" type="string"></SimpleField>
	<SimpleField name="location_description" type="string"></SimpleField>
	<SimpleField name="status" type="string"></SimpleField>
	<SimpleField name="guid" type="string"></SimpleField>
	<SimpleField name="kml" type="string"></SimpleField>
	<SimpleField name="kml_link" type="string"></SimpleField>
</Schema>
<Folder><name>d52a8d9d</name>
  <Placemark id="d52a8d9d.1">
	<name>7900</name>
	<name>грунт. реп.</name>
	<ExtendedData><SchemaData schemaUrl="#d52a8d9d">
		<SimpleData name="type">1</SimpleData>
		<SimpleData name="view">178,075</SimpleData>
		<SimpleData name="benchmark_number">160 оп</SimpleData>
		<SimpleData name="control_location">Линия № 1: Павлодар-Семиярск, I класс (1) Участок: сигн. 2 кл. Подпуск-фунд. реп. 871  </SimpleData>
		<SimpleData name="benchmark_type">Кривинка, с., в 1.2 км к вост. от окраины его, в 35 м к сев. от км. стб. № 1/90, в 1 м к зап. от оп. стб.</SimpleData>
		<SimpleData name="location_description">d52a8d9d-0db3-4e67-8d60-fbe40a6bb3b8</SimpleData>
		<SimpleData name="status">data/stations/d52a8d9d.kml</SimpleData>
		<SimpleData name="guid">&lt;a href='data/stations/d52a8d9d.kml' target='_blank'&gt;Download KML&lt;/a&gt;</SimpleData>
	</SchemaData></ExtendedData>
      <Point><coordinates>78.1019950153778,51.2687290614521</coordinates></Point>
  </Placemark>
</Folder>
</Document></kml>
