<?xml version="1.0" encoding="utf-8" ?>
<kml xmlns="http://www.opengis.net/kml/2.2">
<Document id="root_doc">
<Schema name="d583402a" id="d583402a">
	<SimpleField name="title" type="string"></SimpleField>
	<SimpleField name="type" type="string"></SimpleField>
	<SimpleField name="ext_sign" type="string"></SimpleField>
	<SimpleField name="class_lvl" type="string"></SimpleField>
	<SimpleField name="height_lvl" type="string"></SimpleField>
	<SimpleField name="height_ctrl" type="string"></SimpleField>
	<SimpleField name="ctrl_place" type="string"></SimpleField>
	<SimpleField name="mark_num" type="string"></SimpleField>
	<SimpleField name="center_type" type="string"></SimpleField>
	<SimpleField name="lvl_line" type="string"></SimpleField>
	<SimpleField name="guid" type="string"></SimpleField>
</Schema>
<Folder><name>d583402a</name>
  <Placemark id="d583402a.1">
	<name>154</name>
	<ExtendedData><SchemaData schemaUrl="#d583402a">
		<SimpleData name="title">грунтовый репер</SimpleData>
		<SimpleData name="type">2</SimpleData>
		<SimpleData name="ext_sign">361,604</SimpleData>
		<SimpleData name="class_lvl">360,41</SimpleData>
		<SimpleData name="height_lvl">в верхней плоскости монолита</SimpleData>
		<SimpleData name="ctrl_place">121 оп. знак</SimpleData>
		<SimpleData name="mark_num">Линия № 1: фунд. реп. 9617 - Актас, 2 класс (1) Участок: грунт, реп. 215 - грунт, реп. 0024</SimpleData>
		<SimpleData name="center_type">Кокиирим, к., в 6.5 км к юго-зап. от него, в 3.5 км к сев.- зап. от к. Токымтыккан, в 32 м к югу от грунт, дороги зим. Бетпакдала - с. Мынарал</SimpleData>
		<SimpleData name="lvl_line">d583402a-e650-4fec-a73c-b1527ef29b80</SimpleData>
	</SchemaData></ExtendedData>
      <Point><coordinates>70.584852251748,45.9190158284008</coordinates></Point>
  </Placemark>
</Folder>
</Document></kml>
