<?xml version="1.0" encoding="utf-8" ?>
<kml xmlns="http://www.opengis.net/kml/2.2">
<Document id="root_doc">
<Schema name="d5e026b1" id="d5e026b1">
	<SimpleField name="type" type="string"></SimpleField>
	<SimpleField name="view" type="string"></SimpleField>
	<SimpleField name="leveling_order" type="string"></SimpleField>
	<SimpleField name="leveling_height" type="string"></SimpleField>
	<SimpleField name="control_height" type="string"></SimpleField>
	<SimpleField name="benchmark_number" type="string"></SimpleField>
	<SimpleField name="control_location" type="string"></SimpleField>
	<SimpleField name="benchmark_type" type="string"></SimpleField>
	<SimpleField name="leveling_line_section" type="string"></SimpleField>
	<SimpleField name="location_description" type="string"></SimpleField>
	<SimpleField name="status" type="string"></SimpleField>
	<SimpleField name="guid" type="string"></SimpleField>
	<SimpleField name="kml" type="string"></SimpleField>
	<SimpleField name="kml_link" type="string"></SimpleField>
</Schema>
<Folder><name>d5e026b1</name>
  <Placemark id="d5e026b1.1">
	<name>5383</name>
	<description>грунт. реп.</description>
	<ExtendedData><SchemaData schemaUrl="#d5e026b1">
		<SimpleData name="type">1</SimpleData>
		<SimpleData name="view">74.764</SimpleData>
		<SimpleData name="benchmark_number">160</SimpleData>
		<SimpleData name="control_location">Линия 1: Аральск- Айтеке Би (Новоказалинск)-Жосалы, I класс(1,2). Участок: Грунт. реп. 803-марка 3914</SimpleData>
		<SimpleData name="benchmark_type">Кобек, станц., в 4,7 км к вост. от нее, в 32 м к югу от оси жел.-дор. полотна, в 25 м к югу от км. стб. 2524/2525, в 6 м к сев. от тлф. стб. 85/53</SimpleData>
		<SimpleData name="location_description">d5e026b1-8384-4658-a926-262b6b42f5c0</SimpleData>
		<SimpleData name="status">data/stations/d5e026b1.kml</SimpleData>
		<SimpleData name="guid">&lt;a href='data/stations/d5e026b1.kml' target='_blank'&gt;Download KML&lt;/a&gt;</SimpleData>
	</SchemaData></ExtendedData>
      <Point><coordinates>62.4789706368697,45.8445135832348</coordinates></Point>
  </Placemark>
</Folder>
</Document></kml>
