<?xml version="1.0" encoding="utf-8" ?>
<kml xmlns="http://www.opengis.net/kml/2.2">
<Document id="root_doc">
<Schema name="d5e6764d" id="d5e6764d">
	<SimpleField name="type" type="string"></SimpleField>
	<SimpleField name="view" type="string"></SimpleField>
	<SimpleField name="leveling_order" type="string"></SimpleField>
	<SimpleField name="leveling_height" type="string"></SimpleField>
	<SimpleField name="control_height" type="string"></SimpleField>
	<SimpleField name="benchmark_number" type="string"></SimpleField>
	<SimpleField name="control_location" type="string"></SimpleField>
	<SimpleField name="benchmark_type" type="string"></SimpleField>
	<SimpleField name="leveling_line_section" type="string"></SimpleField>
	<SimpleField name="location_description" type="string"></SimpleField>
	<SimpleField name="status" type="string"></SimpleField>
	<SimpleField name="guid" type="string"></SimpleField>
	<SimpleField name="kml" type="string"></SimpleField>
	<SimpleField name="kml_link" type="string"></SimpleField>
</Schema>
<Folder><name>d5e6764d</name>
  <Placemark id="d5e6764d.1">
	<name>2910</name>
	<description>гр. реп.</description>
	<ExtendedData><SchemaData schemaUrl="#d5e6764d">
		<SimpleData name="type">1</SimpleData>
		<SimpleData name="view">315.501</SimpleData>
		<SimpleData name="benchmark_number">160 оп.знак</SimpleData>
		<SimpleData name="control_location">Линия № 1:Торетоган-Берлик, I класс                            Участок: гр.реп. 1446-гр.реп. 2653</SimpleData>
		<SimpleData name="benchmark_type">Кумузек,с. , в 0.2км к югу от него, в 0.2 км к юго-зап. От электростанции, в 22м к юго-зап. от жел.-бет. Стб. 800/73 ЛЭП</SimpleData>
		<SimpleData name="location_description">d5e6764d-4796-45c7-94f7-1a93f62c01a1</SimpleData>
		<SimpleData name="status">data/stations/d5e6764d.kml</SimpleData>
		<SimpleData name="guid">&lt;a href='data/stations/d5e6764d.kml' target='_blank'&gt;Download KML&lt;/a&gt;</SimpleData>
	</SchemaData></ExtendedData>
      <Point><coordinates>72.3792088162715,44.4457350582447</coordinates></Point>
  </Placemark>
</Folder>
</Document></kml>
