<?xml version="1.0" encoding="utf-8" ?>
<kml xmlns="http://www.opengis.net/kml/2.2">
<Document id="root_doc">
<Schema name="d5eaf255" id="d5eaf255">
	<SimpleField name="type" type="string"></SimpleField>
	<SimpleField name="view" type="string"></SimpleField>
	<SimpleField name="leveling_order" type="string"></SimpleField>
	<SimpleField name="leveling_height" type="string"></SimpleField>
	<SimpleField name="control_height" type="string"></SimpleField>
	<SimpleField name="benchmark_number" type="string"></SimpleField>
	<SimpleField name="control_location" type="string"></SimpleField>
	<SimpleField name="benchmark_type" type="string"></SimpleField>
	<SimpleField name="leveling_line_section" type="string"></SimpleField>
	<SimpleField name="location_description" type="string"></SimpleField>
	<SimpleField name="status" type="string"></SimpleField>
	<SimpleField name="guid" type="string"></SimpleField>
	<SimpleField name="kml" type="string"></SimpleField>
	<SimpleField name="kml_link" type="string"></SimpleField>
</Schema>
<Folder><name>d5eaf255</name>
  <Placemark id="d5eaf255.1">
	<name>1827</name>
	<name>грунт.реп.</name>
	<ExtendedData><SchemaData schemaUrl="#d5eaf255">
		<SimpleData name="type">II</SimpleData>
		<SimpleData name="view">301.247</SimpleData>
		<SimpleData name="leveling_order">291.041</SimpleData>
		<SimpleData name="benchmark_number">160 оп</SimpleData>
		<SimpleData name="control_location">Линия №2: Терсаккан = Кзыл-Сенгир, II класс (2) Участок: фунд.реп.6116 - грунт.реп.б/№</SimpleData>
		<SimpleData name="benchmark_type">Майлыколь, бугор, в 4.6 км к зап.от него, в 1.4 км к юго-вост.от оз.Майлыколь, в 30 м к зап.от полевой дороги</SimpleData>
		<SimpleData name="location_description">d5eaf255-3b3b-45cd-9f12-7ceee4a697a8</SimpleData>
		<SimpleData name="status">data/stations/d5eaf255.kml</SimpleData>
		<SimpleData name="guid">&lt;a href='data/stations/d5eaf255.kml' target='_blank'&gt;Download KML&lt;/a&gt;</SimpleData>
	</SchemaData></ExtendedData>
      <Point><coordinates>68.3065304067554,50.3946708367298</coordinates></Point>
  </Placemark>
</Folder>
</Document></kml>
