<?xml version="1.0" encoding="utf-8" ?>
<kml xmlns="http://www.opengis.net/kml/2.2">
<Document id="root_doc">
<Schema name="d61fa5f7" id="d61fa5f7">
	<SimpleField name="title" type="string"></SimpleField>
	<SimpleField name="type" type="string"></SimpleField>
	<SimpleField name="ext_sign" type="string"></SimpleField>
	<SimpleField name="class_lvl" type="string"></SimpleField>
	<SimpleField name="height_lvl" type="string"></SimpleField>
	<SimpleField name="height_ctrl" type="string"></SimpleField>
	<SimpleField name="ctrl_place" type="string"></SimpleField>
	<SimpleField name="mark_num" type="string"></SimpleField>
	<SimpleField name="center_type" type="string"></SimpleField>
	<SimpleField name="lvl_line" type="string"></SimpleField>
	<SimpleField name="guid" type="string"></SimpleField>
</Schema>
<Folder><name>d61fa5f7</name>
  <Placemark id="d61fa5f7.1">
	<name>2409</name>
	<description>грунтовый репер</description>
	<ExtendedData><SchemaData schemaUrl="#d61fa5f7">
		<SimpleData name="type">1</SimpleData>
		<SimpleData name="ext_sign">96.064</SimpleData>
		<SimpleData name="ctrl_place">160</SimpleData>
		<SimpleData name="mark_num">Линия №248 Аральск -Семиозёрное Участок грунт.реп.0667 -грунт.реп.114</SimpleData>
		<SimpleData name="center_type">Акшиганак,с.,в 3.4 км к зап.от него,в 2.1 км к зап.от плавного поворота р.Тургай,в 29 м к сев.от дороги с.Иргиз -с.Тургай</SimpleData>
		<SimpleData name="lvl_line">d61fa5f7-ec69-4e16-b782-4dbabb2371f1</SimpleData>
	</SchemaData></ExtendedData>
      <Point><coordinates>62.659428759129,49.2828241783607</coordinates></Point>
  </Placemark>
</Folder>
</Document></kml>
