<?xml version="1.0" encoding="utf-8" ?>
<kml xmlns="http://www.opengis.net/kml/2.2">
<Document id="root_doc">
<Schema name="d62553eb" id="d62553eb">
	<SimpleField name="type" type="string"></SimpleField>
	<SimpleField name="view" type="string"></SimpleField>
	<SimpleField name="leveling_order" type="string"></SimpleField>
	<SimpleField name="leveling_height" type="string"></SimpleField>
	<SimpleField name="control_height" type="string"></SimpleField>
	<SimpleField name="benchmark_number" type="string"></SimpleField>
	<SimpleField name="control_location" type="string"></SimpleField>
	<SimpleField name="benchmark_type" type="string"></SimpleField>
	<SimpleField name="leveling_line_section" type="string"></SimpleField>
	<SimpleField name="location_description" type="string"></SimpleField>
	<SimpleField name="status" type="string"></SimpleField>
	<SimpleField name="guid" type="string"></SimpleField>
	<SimpleField name="kml" type="string"></SimpleField>
	<SimpleField name="kml_link" type="string"></SimpleField>
</Schema>
<Folder><name>d62553eb</name>
  <Placemark id="d62553eb.1">
	<name>9218</name>
	<name>грунт. реп.</name>
	<ExtendedData><SchemaData schemaUrl="#d62553eb">
		<SimpleData name="type">2</SimpleData>
		<SimpleData name="view">84.081</SimpleData>
		<SimpleData name="benchmark_number">160 оп. знак</SimpleData>
		<SimpleData name="control_location">Линия № 3 : Аральск - Коккабак, II класс. Участок: грунт. реп. 9276 - фунд. реп. 2</SimpleData>
		<SimpleData name="benchmark_type">Жаршагыл, разв., в 3.5 км к юго-вост. от них, в 7.5 км к сев. от мог. Актай, в 5 м к вост. от развилки полевой дороги</SimpleData>
		<SimpleData name="location_description">d62553eb-c8ab-4597-a4e8-b43d2e41cba0</SimpleData>
		<SimpleData name="status">data/stations/d62553eb.kml</SimpleData>
		<SimpleData name="guid">&lt;a href='data/stations/d62553eb.kml' target='_blank'&gt;Download KML&lt;/a&gt;</SimpleData>
	</SchemaData></ExtendedData>
      <Point><coordinates>63.4376710692279,47.4182329681093</coordinates></Point>
  </Placemark>
</Folder>
</Document></kml>
