<?xml version="1.0" encoding="utf-8" ?>
<kml xmlns="http://www.opengis.net/kml/2.2">
<Document id="root_doc">
<Schema name="d62ed6c3" id="d62ed6c3">
	<SimpleField name="type" type="string"></SimpleField>
	<SimpleField name="view" type="string"></SimpleField>
	<SimpleField name="leveling_order" type="string"></SimpleField>
	<SimpleField name="leveling_height" type="string"></SimpleField>
	<SimpleField name="control_height" type="string"></SimpleField>
	<SimpleField name="benchmark_number" type="string"></SimpleField>
	<SimpleField name="control_location" type="string"></SimpleField>
	<SimpleField name="benchmark_type" type="string"></SimpleField>
	<SimpleField name="leveling_line_section" type="string"></SimpleField>
	<SimpleField name="location_description" type="string"></SimpleField>
	<SimpleField name="status" type="string"></SimpleField>
	<SimpleField name="guid" type="string"></SimpleField>
	<SimpleField name="kml" type="string"></SimpleField>
	<SimpleField name="kml_link" type="string"></SimpleField>
</Schema>
<Folder><name>d62ed6c3</name>
  <Placemark id="d62ed6c3.1">
	<name>4137</name>
	<description>грунт.реп.</description>
	<ExtendedData><SchemaData schemaUrl="#d62ed6c3">
		<SimpleData name="type">1</SimpleData>
		<SimpleData name="view">425.531</SimpleData>
		<SimpleData name="benchmark_number">121</SimpleData>
		<SimpleData name="control_location">Линия №1 Карталы -Кандагач Участок фунд.реп.95 -грунт.реп.5595</SimpleData>
		<SimpleData name="benchmark_type">Никель-Тау,станц.,южн.окраина её,на 2-ом пк.106 км жел.дор.,в 72 м к зап.от жел.-дор.полотна</SimpleData>
		<SimpleData name="leveling_line_section">Утрачен</SimpleData>
		<SimpleData name="location_description">d62ed6c3-ce8c-43da-a86e-f8f7019fd87b</SimpleData>
		<SimpleData name="status">data/stations/d62ed6c3.kml</SimpleData>
		<SimpleData name="guid">&lt;a href='data/stations/d62ed6c3.kml' target='_blank'&gt;Download KML&lt;/a&gt;</SimpleData>
	</SchemaData></ExtendedData>
      <Point><coordinates>58.2211617989561,50.3494510140581</coordinates></Point>
  </Placemark>
</Folder>
</Document></kml>
