<?xml version="1.0" encoding="utf-8" ?>
<kml xmlns="http://www.opengis.net/kml/2.2">
<Document id="root_doc">
<Schema name="d6b821fe" id="d6b821fe">
	<SimpleField name="title" type="string"></SimpleField>
	<SimpleField name="type" type="string"></SimpleField>
	<SimpleField name="ext_sign" type="string"></SimpleField>
	<SimpleField name="class_lvl" type="string"></SimpleField>
	<SimpleField name="height_lvl" type="string"></SimpleField>
	<SimpleField name="height_ctrl" type="string"></SimpleField>
	<SimpleField name="ctrl_place" type="string"></SimpleField>
	<SimpleField name="mark_num" type="string"></SimpleField>
	<SimpleField name="center_type" type="string"></SimpleField>
	<SimpleField name="lvl_line" type="string"></SimpleField>
	<SimpleField name="guid" type="string"></SimpleField>
</Schema>
<Folder><name>d6b821fe</name>
  <Placemark id="d6b821fe.1">
	<name>1806</name>
	<description>фундаментальный репер</description>
	<ExtendedData><SchemaData schemaUrl="#d6b821fe">
		<SimpleData name="class_lvl">1875</SimpleData>
		<SimpleData name="height_ctrl">1806</SimpleData>
		<SimpleData name="ctrl_place">161оп</SimpleData>
		<SimpleData name="center_type">1,6 км к северо-востоку от поворота на с. Борисовка, 168 м к востоку от трассы Сауманколь-Атбасар</SimpleData>
		<SimpleData name="lvl_line">d6b821fe-462d-4f6d-93d4-7923b22f9741</SimpleData>
	</SchemaData></ExtendedData>
      <Point><coordinates>68.5061616666667,51.926705</coordinates></Point>
  </Placemark>
</Folder>
</Document></kml>
