<?xml version="1.0" encoding="utf-8" ?>
<kml xmlns="http://www.opengis.net/kml/2.2">
<Document id="root_doc">
<Schema name="d6c2a7e4" id="d6c2a7e4">
	<SimpleField name="title" type="string"></SimpleField>
	<SimpleField name="type" type="string"></SimpleField>
	<SimpleField name="ext_sign" type="string"></SimpleField>
	<SimpleField name="class_lvl" type="string"></SimpleField>
	<SimpleField name="height_lvl" type="string"></SimpleField>
	<SimpleField name="height_ctrl" type="string"></SimpleField>
	<SimpleField name="ctrl_place" type="string"></SimpleField>
	<SimpleField name="mark_num" type="string"></SimpleField>
	<SimpleField name="center_type" type="string"></SimpleField>
	<SimpleField name="lvl_line" type="string"></SimpleField>
	<SimpleField name="guid" type="string"></SimpleField>
</Schema>
<Folder><name>d6c2a7e4</name>
  <Placemark id="d6c2a7e4.1">
	<name>5805</name>
	<description>грунтовый репер</description>
	<ExtendedData><SchemaData schemaUrl="#d6c2a7e4">
		<SimpleData name="title">грунт. реп.</SimpleData>
		<SimpleData name="type">2</SimpleData>
		<SimpleData name="ext_sign">92.324</SimpleData>
		<SimpleData name="ctrl_place">160 оп. знак</SimpleData>
		<SimpleData name="mark_num">Линия №1: Коккабак - Жосалы. 2 класс. Участок: грунт. реп. 4537 - грунт. реп. 5805</SimpleData>
		<SimpleData name="center_type">Калбагай. мог.. в 6.1 км к юго-зап.от нее. в 0.5 км к зап.от арт.к.. в 12 м к югу от полевой дороги</SimpleData>
		<SimpleData name="lvl_line">d6c2a7e4-e807-49b9-bdf2-78e7f2239bca</SimpleData>
	</SchemaData></ExtendedData>
      <Point><coordinates>63.9997907032235,46.2396608959803</coordinates></Point>
  </Placemark>
</Folder>
</Document></kml>
