<?xml version="1.0" encoding="utf-8" ?>
<kml xmlns="http://www.opengis.net/kml/2.2">
<Document id="root_doc">
<Schema name="d79e6236" id="d79e6236">
	<SimpleField name="type" type="string"></SimpleField>
	<SimpleField name="view" type="string"></SimpleField>
	<SimpleField name="leveling_order" type="string"></SimpleField>
	<SimpleField name="leveling_height" type="string"></SimpleField>
	<SimpleField name="control_height" type="string"></SimpleField>
	<SimpleField name="benchmark_number" type="string"></SimpleField>
	<SimpleField name="control_location" type="string"></SimpleField>
	<SimpleField name="benchmark_type" type="string"></SimpleField>
	<SimpleField name="leveling_line_section" type="string"></SimpleField>
	<SimpleField name="location_description" type="string"></SimpleField>
	<SimpleField name="status" type="string"></SimpleField>
	<SimpleField name="guid" type="string"></SimpleField>
	<SimpleField name="kml" type="string"></SimpleField>
	<SimpleField name="kml_link" type="string"></SimpleField>
</Schema>
<Folder><name>d79e6236</name>
  <Placemark id="d79e6236.1">
	<name>5595</name>
	<description>грунт.реп.</description>
	<ExtendedData><SchemaData schemaUrl="#d79e6236">
		<SimpleData name="type">1</SimpleData>
		<SimpleData name="view">392.379</SimpleData>
		<SimpleData name="benchmark_number">146</SimpleData>
		<SimpleData name="control_location">Линия №1 Карталы -Кандагач Участок фунд.реп.95 -грунт.реп.5595</SimpleData>
		<SimpleData name="benchmark_type">№310,раз.,в 4.8 км к сев.от него,на 7-ом пк.157 км жел.дор.,в 30 м к зап.от жел.-дор.полотна</SimpleData>
		<SimpleData name="leveling_line_section">Утрачен</SimpleData>
		<SimpleData name="location_description">d79e6236-289e-4177-9b34-4038ef2525c4</SimpleData>
		<SimpleData name="status">data/stations/d79e6236.kml</SimpleData>
		<SimpleData name="guid">&lt;a href='data/stations/d79e6236.kml' target='_blank'&gt;Download KML&lt;/a&gt;</SimpleData>
	</SchemaData></ExtendedData>
      <Point><coordinates>58.0241940595284,50.0097185453942</coordinates></Point>
  </Placemark>
</Folder>
</Document></kml>
