<?xml version="1.0" encoding="utf-8" ?>
<kml xmlns="http://www.opengis.net/kml/2.2">
<Document id="root_doc">
<Schema name="d81558f5" id="d81558f5">
	<SimpleField name="type" type="string"></SimpleField>
	<SimpleField name="view" type="string"></SimpleField>
	<SimpleField name="leveling_order" type="string"></SimpleField>
	<SimpleField name="leveling_height" type="string"></SimpleField>
	<SimpleField name="control_height" type="string"></SimpleField>
	<SimpleField name="benchmark_number" type="string"></SimpleField>
	<SimpleField name="control_location" type="string"></SimpleField>
	<SimpleField name="benchmark_type" type="string"></SimpleField>
	<SimpleField name="leveling_line_section" type="string"></SimpleField>
	<SimpleField name="location_description" type="string"></SimpleField>
	<SimpleField name="status" type="string"></SimpleField>
	<SimpleField name="guid" type="string"></SimpleField>
	<SimpleField name="kml" type="string"></SimpleField>
	<SimpleField name="kml_link" type="string"></SimpleField>
</Schema>
<Folder><name>d81558f5</name>
  <Placemark id="d81558f5.1">
	<name>2</name>
	<name>грунт. реп.</name>
	<ExtendedData><SchemaData schemaUrl="#d81558f5">
		<SimpleData name="type">2</SimpleData>
		<SimpleData name="view">59.753</SimpleData>
		<SimpleData name="leveling_order">57.729</SimpleData>
		<SimpleData name="benchmark_number">120</SimpleData>
		<SimpleData name="control_location">Линия №3: Ащылысай - Жанадария, 2 класс. Участок: фунд.реп. 3917 - пир. 2 кл. Байту</SimpleData>
		<SimpleData name="benchmark_type">Колдас, мог., в 9,6 км к югу от нее, в 1,3 км к сев.-зап.от колодца, в 0,5 км к вост.от полевой дороги</SimpleData>
		<SimpleData name="location_description">d81558f5-cf96-4f7c-8838-546c2a419536</SimpleData>
		<SimpleData name="status">data/stations/d81558f5.kml</SimpleData>
		<SimpleData name="guid">&lt;a href='data/stations/d81558f5.kml' target='_blank'&gt;Download KML&lt;/a&gt;</SimpleData>
	</SchemaData></ExtendedData>
      <Point><coordinates>62.0630854024582,44.7657190813755</coordinates></Point>
  </Placemark>
</Folder>
</Document></kml>
