<?xml version="1.0" encoding="utf-8" ?>
<kml xmlns="http://www.opengis.net/kml/2.2">
<Document id="root_doc">
<Schema name="d83dde1a" id="d83dde1a">
	<SimpleField name="type" type="string"></SimpleField>
	<SimpleField name="view" type="string"></SimpleField>
	<SimpleField name="leveling_order" type="string"></SimpleField>
	<SimpleField name="leveling_height" type="string"></SimpleField>
	<SimpleField name="control_height" type="string"></SimpleField>
	<SimpleField name="benchmark_number" type="string"></SimpleField>
	<SimpleField name="control_location" type="string"></SimpleField>
	<SimpleField name="benchmark_type" type="string"></SimpleField>
	<SimpleField name="leveling_line_section" type="string"></SimpleField>
	<SimpleField name="location_description" type="string"></SimpleField>
	<SimpleField name="status" type="string"></SimpleField>
	<SimpleField name="guid" type="string"></SimpleField>
	<SimpleField name="kml" type="string"></SimpleField>
	<SimpleField name="kml_link" type="string"></SimpleField>
</Schema>
<Folder><name>d83dde1a</name>
  <Placemark id="d83dde1a.1">
	<name>44-495</name>
	<name>скальный репер</name>
	<ExtendedData><SchemaData schemaUrl="#d83dde1a">
		<SimpleData name="type">II</SimpleData>
		<SimpleData name="view">821,047</SimpleData>
		<SimpleData name="benchmark_number">99 оп</SimpleData>
		<SimpleData name="control_location">Линия № 4: Акбулак - Акозек, II класс (4) Участок: фунд.реп. 3398 - грунт.реп. 15855</SimpleData>
		<SimpleData name="benchmark_type">Татан, с., в 9.6 км к сев.-вост. от его центра, в 6.6 км к юго-зап. от г.Акбуйрат, в 4.6 км к сев.-зап. от мог.Бесалан, в 2.1 км к юго-зап. от разв. и род., в 25 м к сев.-зап. от пол.дороги.</SimpleData>
		<SimpleData name="location_description">d83dde1a-05b8-4564-9104-3b4100a9dcfe</SimpleData>
		<SimpleData name="status">data/stations/d83dde1a.kml</SimpleData>
		<SimpleData name="guid">&lt;a href='data/stations/d83dde1a.kml' target='_blank'&gt;Download KML&lt;/a&gt;</SimpleData>
	</SchemaData></ExtendedData>
      <Point><coordinates>76.8022727457304,48.757389965187</coordinates></Point>
  </Placemark>
</Folder>
</Document></kml>
