<?xml version="1.0" encoding="utf-8" ?>
<kml xmlns="http://www.opengis.net/kml/2.2">
<Document id="root_doc">
<Schema name="d8b14541" id="d8b14541">
	<SimpleField name="type" type="string"></SimpleField>
	<SimpleField name="view" type="string"></SimpleField>
	<SimpleField name="leveling_order" type="string"></SimpleField>
	<SimpleField name="leveling_height" type="string"></SimpleField>
	<SimpleField name="control_height" type="string"></SimpleField>
	<SimpleField name="benchmark_number" type="string"></SimpleField>
	<SimpleField name="control_location" type="string"></SimpleField>
	<SimpleField name="benchmark_type" type="string"></SimpleField>
	<SimpleField name="leveling_line_section" type="string"></SimpleField>
	<SimpleField name="location_description" type="string"></SimpleField>
	<SimpleField name="status" type="string"></SimpleField>
	<SimpleField name="guid" type="string"></SimpleField>
	<SimpleField name="kml" type="string"></SimpleField>
	<SimpleField name="kml_link" type="string"></SimpleField>
</Schema>
<Folder><name>d8b14541</name>
  <Placemark id="d8b14541.1">
	<name>12</name>
	<description>грун.репер</description>
	<ExtendedData><SchemaData schemaUrl="#d8b14541">
		<SimpleData name="type">1</SimpleData>
		<SimpleData name="view">67.811</SimpleData>
		<SimpleData name="benchmark_number">160 оп.</SimpleData>
		<SimpleData name="control_location">Линия №3: Кошкарата-Аральск,             I классУчасток: грунт.реп. б/№-фунд.реп.5059</SimpleData>
		<SimpleData name="benchmark_type">Жаланаш, с., в 7.3 км к сев-зап.от него, в 6.0 км к юго-зап.от мог.Лартобе, в 4 м  к сев.от полевой дороги</SimpleData>
		<SimpleData name="location_description">d8b14541-eec6-4939-9b03-3dbd22ce3da9</SimpleData>
		<SimpleData name="status">data/stations/d8b14541.kml</SimpleData>
		<SimpleData name="guid">&lt;a href='data/stations/d8b14541.kml' target='_blank'&gt;Download KML&lt;/a&gt;</SimpleData>
	</SchemaData></ExtendedData>
      <Point><coordinates>61.0510808562878,46.6912916905812</coordinates></Point>
  </Placemark>
</Folder>
</Document></kml>
