<?xml version="1.0" encoding="utf-8" ?>
<kml xmlns="http://www.opengis.net/kml/2.2">
<Document id="root_doc">
<Schema name="d8e24ad6" id="d8e24ad6">
	<SimpleField name="type" type="string"></SimpleField>
	<SimpleField name="view" type="string"></SimpleField>
	<SimpleField name="leveling_order" type="string"></SimpleField>
	<SimpleField name="leveling_height" type="string"></SimpleField>
	<SimpleField name="control_height" type="string"></SimpleField>
	<SimpleField name="benchmark_number" type="string"></SimpleField>
	<SimpleField name="control_location" type="string"></SimpleField>
	<SimpleField name="benchmark_type" type="string"></SimpleField>
	<SimpleField name="leveling_line_section" type="string"></SimpleField>
	<SimpleField name="location_description" type="string"></SimpleField>
	<SimpleField name="status" type="string"></SimpleField>
	<SimpleField name="guid" type="string"></SimpleField>
	<SimpleField name="kml" type="string"></SimpleField>
	<SimpleField name="kml_link" type="string"></SimpleField>
</Schema>
<Folder><name>d8e24ad6</name>
  <Placemark id="d8e24ad6.1">
	<name>7959</name>
	<name>грунт. реп.</name>
	<ExtendedData><SchemaData schemaUrl="#d8e24ad6">
		<SimpleData name="type">2</SimpleData>
		<SimpleData name="view">127.688</SimpleData>
		<SimpleData name="benchmark_number">15</SimpleData>
		<SimpleData name="control_location">Линия № 6 Белькора-Сазды    II  класс .     Участок : фунд.реп.1772-пир.2 кл. Бархан</SimpleData>
		<SimpleData name="benchmark_type">Коктобе, к., в 7.2  км к вост. от него, в 6.4 км к сев.-вост. от арт.к. Жуантобе , в 1.0 км к юго- вост.от буг.Бесимбай, на бархане </SimpleData>
		<SimpleData name="location_description">d8e24ad6-70a4-4f7e-8381-a31da6c5175e</SimpleData>
		<SimpleData name="status">data/stations/d8e24ad6.kml</SimpleData>
		<SimpleData name="guid">&lt;a href='data/stations/d8e24ad6.kml' target='_blank'&gt;Download KML&lt;/a&gt;</SimpleData>
	</SchemaData></ExtendedData>
      <Point><coordinates>64.2353712546534,44.2654665019161</coordinates></Point>
  </Placemark>
</Folder>
</Document></kml>
