<?xml version="1.0" encoding="utf-8" ?>
<kml xmlns="http://www.opengis.net/kml/2.2">
<Document id="root_doc">
<Schema name="d92da508" id="d92da508">
	<SimpleField name="title" type="string"></SimpleField>
	<SimpleField name="type" type="string"></SimpleField>
	<SimpleField name="ext_sign" type="string"></SimpleField>
	<SimpleField name="class_lvl" type="string"></SimpleField>
	<SimpleField name="height_lvl" type="string"></SimpleField>
	<SimpleField name="height_ctrl" type="string"></SimpleField>
	<SimpleField name="ctrl_place" type="string"></SimpleField>
	<SimpleField name="mark_num" type="string"></SimpleField>
	<SimpleField name="center_type" type="string"></SimpleField>
	<SimpleField name="lvl_line" type="string"></SimpleField>
	<SimpleField name="guid" type="string"></SimpleField>
</Schema>
<Folder><name>d92da508</name>
  <Placemark id="d92da508.1">
	<name>Ащибулак</name>
	<ExtendedData><SchemaData schemaUrl="#d92da508">
		<SimpleData name="title">грунт.реп.</SimpleData>
		<SimpleData name="type">2</SimpleData>
		<SimpleData name="ext_sign">165.01</SimpleData>
		<SimpleData name="ctrl_place">8</SimpleData>
		<SimpleData name="mark_num">Линия №2: Сарысай-Чурук.Нивелирование 2 класса, 1988 г. Предприятие №6. Работа №1</SimpleData>
		<SimpleData name="center_type">Туруш, с., в 200 км к сев-вост.от него , в 8.0 км ксев-зап.от бугра и п.тр.Карашокы, в 4.4 км к юго-зап. от к.Ащибулак, в 0.9км к югу от дор.</SimpleData>
		<SimpleData name="lvl_line">d92da508-0182-4f11-a91a-9ee133345d1d</SimpleData>
	</SchemaData></ExtendedData>
      <Point><coordinates>57.7557199660692,46.4900105565244</coordinates></Point>
  </Placemark>
</Folder>
</Document></kml>
