<?xml version="1.0" encoding="utf-8" ?>
<kml xmlns="http://www.opengis.net/kml/2.2">
<Document id="root_doc">
<Schema name="d96e903f" id="d96e903f">
	<SimpleField name="title" type="string"></SimpleField>
	<SimpleField name="type" type="string"></SimpleField>
	<SimpleField name="ext_sign" type="string"></SimpleField>
	<SimpleField name="class_lvl" type="string"></SimpleField>
	<SimpleField name="height_lvl" type="string"></SimpleField>
	<SimpleField name="height_ctrl" type="string"></SimpleField>
	<SimpleField name="ctrl_place" type="string"></SimpleField>
	<SimpleField name="mark_num" type="string"></SimpleField>
	<SimpleField name="center_type" type="string"></SimpleField>
	<SimpleField name="lvl_line" type="string"></SimpleField>
	<SimpleField name="guid" type="string"></SimpleField>
</Schema>
<Folder><name>d96e903f</name>
  <Placemark id="d96e903f.1">
	<name>1774</name>
	<description>Грунт. реп. </description>
	<ExtendedData><SchemaData schemaUrl="#d96e903f">
		<SimpleData name="ctrl_place">160 оп</SimpleData>
		<SimpleData name="center_type">Тасты, с., в 0.7 км к юго-зап.от него, в 0.1 кмс к сев-зап.от развалины, в 5 м к югу от полевой дороги </SimpleData>
		<SimpleData name="lvl_line">d96e903f-09df-4d39-92ac-53672a0809a8</SimpleData>
	</SchemaData></ExtendedData>
      <Point><coordinates>65.96093276,50.45819825</coordinates></Point>
  </Placemark>
</Folder>
</Document></kml>
