<?xml version="1.0" encoding="utf-8" ?>
<kml xmlns="http://www.opengis.net/kml/2.2">
<Document id="root_doc">
<Schema name="d9a3feae" id="d9a3feae">
	<SimpleField name="title" type="string"></SimpleField>
	<SimpleField name="type" type="string"></SimpleField>
	<SimpleField name="ext_sign" type="string"></SimpleField>
	<SimpleField name="class_lvl" type="string"></SimpleField>
	<SimpleField name="height_lvl" type="string"></SimpleField>
	<SimpleField name="height_ctrl" type="string"></SimpleField>
	<SimpleField name="ctrl_place" type="string"></SimpleField>
	<SimpleField name="mark_num" type="string"></SimpleField>
	<SimpleField name="center_type" type="string"></SimpleField>
	<SimpleField name="lvl_line" type="string"></SimpleField>
	<SimpleField name="guid" type="string"></SimpleField>
</Schema>
<Folder><name>d9a3feae</name>
  <Placemark id="d9a3feae.1">
	<name>закладка фунд. реп. 2</name>
	<ExtendedData><SchemaData schemaUrl="#d9a3feae">
		<SimpleData name="lvl_line">d9a3feae-42a7-4ec3-88cb-c33d6a81b001</SimpleData>
	</SchemaData></ExtendedData>
      <Point><coordinates>64.5575162837553,44.6944700971637</coordinates></Point>
  </Placemark>
</Folder>
</Document></kml>
