<?xml version="1.0" encoding="utf-8" ?>
<kml xmlns="http://www.opengis.net/kml/2.2">
<Document id="root_doc">
<Schema name="da214c4d" id="da214c4d">
	<SimpleField name="type" type="string"></SimpleField>
	<SimpleField name="view" type="string"></SimpleField>
	<SimpleField name="leveling_order" type="string"></SimpleField>
	<SimpleField name="leveling_height" type="string"></SimpleField>
	<SimpleField name="control_height" type="string"></SimpleField>
	<SimpleField name="benchmark_number" type="string"></SimpleField>
	<SimpleField name="control_location" type="string"></SimpleField>
	<SimpleField name="benchmark_type" type="string"></SimpleField>
	<SimpleField name="leveling_line_section" type="string"></SimpleField>
	<SimpleField name="location_description" type="string"></SimpleField>
	<SimpleField name="status" type="string"></SimpleField>
	<SimpleField name="guid" type="string"></SimpleField>
	<SimpleField name="kml" type="string"></SimpleField>
	<SimpleField name="kml_link" type="string"></SimpleField>
</Schema>
<Folder><name>da214c4d</name>
  <Placemark id="da214c4d.1">
	<name>227</name>
	<name>грунт,реп,</name>
	<ExtendedData><SchemaData schemaUrl="#da214c4d">
		<SimpleData name="type">I</SimpleData>
		<SimpleData name="view">188.116</SimpleData>
		<SimpleData name="leveling_order">186,256</SimpleData>
		<SimpleData name="control_height">репер №1024 в верхней плоскости монолита</SimpleData>
		<SimpleData name="benchmark_number">121</SimpleData>
		<SimpleData name="control_location">Линия №1: Петропавловск - Астана (Целиноград), I класс, Участок: грунт,реп, 5013 - марка 7227</SimpleData>
		<SimpleData name="benchmark_type">Раздольное, с,, в 3,8 км к сев,-зап,от него, на 7 пк 151 км жел,дор,, в 41 м к зап,от жел,дор,полотна, в 19 м к сев,-зап,от стб, ЛЭП № Б-86/1966, в 7 м к сев,-вост,от стб, ЛЭП № 167/1979</SimpleData>
		<SimpleData name="location_description">da214c4d-9f11-4c22-b13f-52573bcafaaf</SimpleData>
		<SimpleData name="status">data/stations/da214c4d.kml</SimpleData>
		<SimpleData name="guid">&lt;a href='data/stations/da214c4d.kml' target='_blank'&gt;Download KML&lt;/a&gt;</SimpleData>
	</SchemaData></ExtendedData>
      <Point><coordinates>69.5736132261006,53.6336636934001</coordinates></Point>
  </Placemark>
</Folder>
</Document></kml>
