<?xml version="1.0" encoding="utf-8" ?>
<kml xmlns="http://www.opengis.net/kml/2.2">
<Document id="root_doc">
<Schema name="da574e3d" id="da574e3d">
	<SimpleField name="title" type="string"></SimpleField>
	<SimpleField name="type" type="string"></SimpleField>
	<SimpleField name="ext_sign" type="string"></SimpleField>
	<SimpleField name="class_lvl" type="string"></SimpleField>
	<SimpleField name="height_lvl" type="string"></SimpleField>
	<SimpleField name="height_ctrl" type="string"></SimpleField>
	<SimpleField name="ctrl_place" type="string"></SimpleField>
	<SimpleField name="mark_num" type="string"></SimpleField>
	<SimpleField name="center_type" type="string"></SimpleField>
	<SimpleField name="lvl_line" type="string"></SimpleField>
	<SimpleField name="guid" type="string"></SimpleField>
</Schema>
<Folder><name>da574e3d</name>
  <Placemark id="da574e3d.1">
	<name>17</name>
	<description>скальный репер</description>
	<ExtendedData><SchemaData schemaUrl="#da574e3d">
		<SimpleData name="title">скальный репер</SimpleData>
		<SimpleData name="type">2</SimpleData>
		<SimpleData name="ext_sign">598.498</SimpleData>
		<SimpleData name="ctrl_place">111 оп</SimpleData>
		<SimpleData name="mark_num">Линия № 2: Баршатас - Катбар, II класс. Участок: грунт.реп. 7661 – ск.реп. 44-327</SimpleData>
		<SimpleData name="center_type">Мадениет, с., в 24.0 км к юго-зап. от него, в 3.3 км к вост. от пир. Тасжартас, в 0.5 км к юго-вост. от ЛЭП, на бугре</SimpleData>
		<SimpleData name="lvl_line">da574e3d-bc83-444a-ba5c-288d287f006f</SimpleData>
	</SchemaData></ExtendedData>
      <Point><coordinates>78.4592815739691,47.6844747962667</coordinates></Point>
  </Placemark>
</Folder>
</Document></kml>
