<?xml version="1.0" encoding="utf-8" ?>
<kml xmlns="http://www.opengis.net/kml/2.2">
<Document id="root_doc">
<Schema name="da710373" id="da710373">
	<SimpleField name="type" type="string"></SimpleField>
	<SimpleField name="view" type="string"></SimpleField>
	<SimpleField name="leveling_order" type="string"></SimpleField>
	<SimpleField name="leveling_height" type="string"></SimpleField>
	<SimpleField name="control_height" type="string"></SimpleField>
	<SimpleField name="benchmark_number" type="string"></SimpleField>
	<SimpleField name="control_location" type="string"></SimpleField>
	<SimpleField name="benchmark_type" type="string"></SimpleField>
	<SimpleField name="leveling_line_section" type="string"></SimpleField>
	<SimpleField name="location_description" type="string"></SimpleField>
	<SimpleField name="status" type="string"></SimpleField>
	<SimpleField name="guid" type="string"></SimpleField>
	<SimpleField name="kml" type="string"></SimpleField>
	<SimpleField name="kml_link" type="string"></SimpleField>
</Schema>
<Folder><name>da710373</name>
  <Placemark id="da710373.1">
	<name>6513</name>
	<name>грунт. реп.</name>
	<ExtendedData><SchemaData schemaUrl="#da710373">
		<SimpleData name="type">1</SimpleData>
		<SimpleData name="view">281.003</SimpleData>
		<SimpleData name="leveling_order">279.142</SimpleData>
		<SimpleData name="benchmark_number">116</SimpleData>
		<SimpleData name="control_location">Линия №1 : Каратогай-Кандагач , I класс . Участок : грунт. реп. 7187-грунт. реп. 3579</SimpleData>
		<SimpleData name="benchmark_type">Кандагач, станция, в 5,0 км к сев. от неё, на 8 пк. 1877 км, в 36 м к зап. от жел.-дор. полотна</SimpleData>
		<SimpleData name="location_description">da710373-d88c-4818-9682-2f34be8c2b80</SimpleData>
		<SimpleData name="status">data/stations/da710373.kml</SimpleData>
		<SimpleData name="guid">&lt;a href='data/stations/da710373.kml' target='_blank'&gt;Download KML&lt;/a&gt;</SimpleData>
	</SchemaData></ExtendedData>
      <Point><coordinates>57.4126569676198,49.4605635298375</coordinates></Point>
  </Placemark>
</Folder>
</Document></kml>
