<?xml version="1.0" encoding="utf-8" ?>
<kml xmlns="http://www.opengis.net/kml/2.2">
<Document id="root_doc">
<Schema name="da8f8215" id="da8f8215">
	<SimpleField name="type" type="string"></SimpleField>
	<SimpleField name="view" type="string"></SimpleField>
	<SimpleField name="leveling_order" type="string"></SimpleField>
	<SimpleField name="leveling_height" type="string"></SimpleField>
	<SimpleField name="control_height" type="string"></SimpleField>
	<SimpleField name="benchmark_number" type="string"></SimpleField>
	<SimpleField name="control_location" type="string"></SimpleField>
	<SimpleField name="benchmark_type" type="string"></SimpleField>
	<SimpleField name="leveling_line_section" type="string"></SimpleField>
	<SimpleField name="location_description" type="string"></SimpleField>
	<SimpleField name="status" type="string"></SimpleField>
	<SimpleField name="guid" type="string"></SimpleField>
	<SimpleField name="kml" type="string"></SimpleField>
	<SimpleField name="kml_link" type="string"></SimpleField>
</Schema>
<Folder><name>da8f8215</name>
  <Placemark id="da8f8215.1">
	<name>670</name>
	<name>грунтовый репер</name>
	<ExtendedData><SchemaData schemaUrl="#da8f8215">
		<SimpleData name="type">1</SimpleData>
		<SimpleData name="view">549.533</SimpleData>
		<SimpleData name="leveling_order">548,45</SimpleData>
		<SimpleData name="leveling_height">6351</SimpleData>
		<SimpleData name="control_height">в фундаментной плите</SimpleData>
		<SimpleData name="benchmark_number">116 оп, знак</SimpleData>
		<SimpleData name="control_location">Линия № 3: Жосалы - Карсакбай, 1 класс (1) Участок: грунт, реп, 114 - фунд, реп, 2 </SimpleData>
		<SimpleData name="benchmark_type">Карсакбай, с,, в 9,6 км к юго-зап, от него, в 4,1 км к сев,- вост, от род, Тышканбай, в 33 м к юго-вост, от грунт, дороги с, Карсакбай - с, Жосалы</SimpleData>
		<SimpleData name="location_description">da8f8215-a1c0-46ef-ad47-0f2770dbbce1</SimpleData>
		<SimpleData name="status">data/stations/da8f8215.kml</SimpleData>
		<SimpleData name="guid">&lt;a href='data/stations/da8f8215.kml' target='_blank'&gt;Download KML&lt;/a&gt;</SimpleData>
	</SchemaData></ExtendedData>
      <Point><coordinates>66.5998933102081,47.7974321344345</coordinates></Point>
  </Placemark>
</Folder>
</Document></kml>
