<?xml version="1.0" encoding="utf-8" ?>
<kml xmlns="http://www.opengis.net/kml/2.2">
<Document id="root_doc">
<Schema name="dad1c237" id="dad1c237">
	<SimpleField name="title" type="string"></SimpleField>
	<SimpleField name="type" type="string"></SimpleField>
	<SimpleField name="ext_sign" type="string"></SimpleField>
	<SimpleField name="class_lvl" type="string"></SimpleField>
	<SimpleField name="height_lvl" type="string"></SimpleField>
	<SimpleField name="height_ctrl" type="string"></SimpleField>
	<SimpleField name="ctrl_place" type="string"></SimpleField>
	<SimpleField name="mark_num" type="string"></SimpleField>
	<SimpleField name="center_type" type="string"></SimpleField>
	<SimpleField name="lvl_line" type="string"></SimpleField>
	<SimpleField name="guid" type="string"></SimpleField>
</Schema>
<Folder><name>dad1c237</name>
  <Placemark id="dad1c237.1">
	<name>Айдарлы</name>
	<description>пирамида </description>
	<ExtendedData><SchemaData schemaUrl="#dad1c237">
		<SimpleData name="type">1</SimpleData>
		<SimpleData name="ext_sign">351,976</SimpleData>
		<SimpleData name="ctrl_place">39</SimpleData>
		<SimpleData name="mark_num">Линия №1: Тюемойнак-Торетоган. I класс(1) Участок: фунд.реп. 3245-грунт.реп.1021</SimpleData>
		<SimpleData name="lvl_line">dad1c237-89aa-41e5-87c8-c0e89671fe97</SimpleData>
	</SchemaData></ExtendedData>
      <Point><coordinates>69.4001364107234,47.1185300937966</coordinates></Point>
  </Placemark>
</Folder>
</Document></kml>
