<?xml version="1.0" encoding="utf-8" ?>
<kml xmlns="http://www.opengis.net/kml/2.2">
<Document id="root_doc">
<Schema name="dae76044" id="dae76044">
	<SimpleField name="type" type="string"></SimpleField>
	<SimpleField name="view" type="string"></SimpleField>
	<SimpleField name="leveling_order" type="string"></SimpleField>
	<SimpleField name="leveling_height" type="string"></SimpleField>
	<SimpleField name="control_height" type="string"></SimpleField>
	<SimpleField name="benchmark_number" type="string"></SimpleField>
	<SimpleField name="control_location" type="string"></SimpleField>
	<SimpleField name="benchmark_type" type="string"></SimpleField>
	<SimpleField name="leveling_line_section" type="string"></SimpleField>
	<SimpleField name="location_description" type="string"></SimpleField>
	<SimpleField name="status" type="string"></SimpleField>
	<SimpleField name="guid" type="string"></SimpleField>
	<SimpleField name="kml" type="string"></SimpleField>
	<SimpleField name="kml_link" type="string"></SimpleField>
</Schema>
<Folder><name>dae76044</name>
  <Placemark id="dae76044.1">
	<name>3997</name>
	<description>марка</description>
	<ExtendedData><SchemaData schemaUrl="#dae76044">
		<SimpleData name="type">1</SimpleData>
		<SimpleData name="view">61.101</SimpleData>
		<SimpleData name="control_location">Линия 1: Аральск- Айтеке Би (Новоказалинск)-Жосалы, I класс(1). Участок: Грунт. реп. 803-марка 3997</SimpleData>
		<SimpleData name="benchmark_type">Каракуыс, раз., в здании разъезда</SimpleData>
		<SimpleData name="location_description">dae76044-0ed6-4bac-8847-cf3e26e0017a</SimpleData>
		<SimpleData name="status">data/stations/dae76044.kml</SimpleData>
		<SimpleData name="guid">&lt;a href='data/stations/dae76044.kml' target='_blank'&gt;Download KML&lt;/a&gt;</SimpleData>
	</SchemaData></ExtendedData>
      <Point><coordinates>62.0126220451089,45.9359056886821</coordinates></Point>
  </Placemark>
</Folder>
</Document></kml>
