<?xml version="1.0" encoding="utf-8" ?>
<kml xmlns="http://www.opengis.net/kml/2.2">
<Document id="root_doc">
<Schema name="dafd8dcd" id="dafd8dcd">
	<SimpleField name="title" type="string"></SimpleField>
	<SimpleField name="type" type="string"></SimpleField>
	<SimpleField name="ext_sign" type="string"></SimpleField>
	<SimpleField name="class_lvl" type="string"></SimpleField>
	<SimpleField name="height_lvl" type="string"></SimpleField>
	<SimpleField name="height_ctrl" type="string"></SimpleField>
	<SimpleField name="ctrl_place" type="string"></SimpleField>
	<SimpleField name="mark_num" type="string"></SimpleField>
	<SimpleField name="center_type" type="string"></SimpleField>
	<SimpleField name="lvl_line" type="string"></SimpleField>
	<SimpleField name="guid" type="string"></SimpleField>
</Schema>
<Folder><name>dafd8dcd</name>
  <Placemark id="dafd8dcd.1">
	<name>3744</name>
	<ExtendedData><SchemaData schemaUrl="#dafd8dcd">
		<SimpleData name="title">марка</SimpleData>
		<SimpleData name="type">2</SimpleData>
		<SimpleData name="ext_sign">109.606</SimpleData>
		<SimpleData name="mark_num">Линия №4: Озинки-Казахстан, 2 кл.(4,8) Участок: стен.реп.887-марка 4096</SimpleData>
		<SimpleData name="center_type">Таксай,раз.,в 1.4 км к зап.от него, на 3 пикете 402 км, жел-дор.мост</SimpleData>
		<SimpleData name="lvl_line">dafd8dcd-8949-4dcd-9767-5076e7be96e2</SimpleData>
	</SchemaData></ExtendedData>
      <Point><coordinates>52.1569948743165,51.1701707699648</coordinates></Point>
  </Placemark>
</Folder>
</Document></kml>
