<?xml version="1.0" encoding="utf-8" ?>
<kml xmlns="http://www.opengis.net/kml/2.2">
<Document id="root_doc">
<Schema name="db2b1495" id="db2b1495">
	<SimpleField name="type" type="string"></SimpleField>
	<SimpleField name="view" type="string"></SimpleField>
	<SimpleField name="leveling_order" type="string"></SimpleField>
	<SimpleField name="leveling_height" type="string"></SimpleField>
	<SimpleField name="control_height" type="string"></SimpleField>
	<SimpleField name="benchmark_number" type="string"></SimpleField>
	<SimpleField name="control_location" type="string"></SimpleField>
	<SimpleField name="benchmark_type" type="string"></SimpleField>
	<SimpleField name="leveling_line_section" type="string"></SimpleField>
	<SimpleField name="location_description" type="string"></SimpleField>
	<SimpleField name="status" type="string"></SimpleField>
	<SimpleField name="guid" type="string"></SimpleField>
	<SimpleField name="kml" type="string"></SimpleField>
	<SimpleField name="kml_link" type="string"></SimpleField>
</Schema>
<Folder><name>db2b1495</name>
  <Placemark id="db2b1495.1">
	<name>91338</name>
	<name>грунт, реп,</name>
	<ExtendedData><SchemaData schemaUrl="#db2b1495">
		<SimpleData name="type">I</SimpleData>
		<SimpleData name="view">142.732</SimpleData>
		<SimpleData name="leveling_order">140,873</SimpleData>
		<SimpleData name="control_height">репер № 550 в верхней плоскости монолита</SimpleData>
		<SimpleData name="benchmark_number">121</SimpleData>
		<SimpleData name="control_location">Линия № 1: Петпопавловск - Макинск, I класс
Участок: грунт, реп, 91285 - грунт, реп, 91338</SimpleData>
		<SimpleData name="benchmark_type">Тениз, станц,, в 2,5 км к юго-вост, от нее, на 10 пк 107
км жел, дор,, в 44 м к сев,-вост, от жел,-дор, полотна, в 17 м к вост, от тлф, стб, № 1897/40, в 7 м к вост, от
полевой дороги, на лугу</SimpleData>
		<SimpleData name="location_description">db2b1495-2ab8-4ba4-afeb-806ab41531ad</SimpleData>
		<SimpleData name="status">data/stations/db2b1495.kml</SimpleData>
		<SimpleData name="guid">&lt;a href='data/stations/db2b1495.kml' target='_blank'&gt;Download KML&lt;/a&gt;</SimpleData>
	</SchemaData></ExtendedData>
      <Point><coordinates>69.7485358023214,53.984576003893</coordinates></Point>
  </Placemark>
</Folder>
</Document></kml>
