<?xml version="1.0" encoding="utf-8" ?>
<kml xmlns="http://www.opengis.net/kml/2.2">
<Document id="root_doc">
<Schema name="db5e43f7" id="db5e43f7">
	<SimpleField name="type" type="string"></SimpleField>
	<SimpleField name="view" type="string"></SimpleField>
	<SimpleField name="leveling_order" type="string"></SimpleField>
	<SimpleField name="leveling_height" type="string"></SimpleField>
	<SimpleField name="control_height" type="string"></SimpleField>
	<SimpleField name="benchmark_number" type="string"></SimpleField>
	<SimpleField name="control_location" type="string"></SimpleField>
	<SimpleField name="benchmark_type" type="string"></SimpleField>
	<SimpleField name="leveling_line_section" type="string"></SimpleField>
	<SimpleField name="location_description" type="string"></SimpleField>
	<SimpleField name="status" type="string"></SimpleField>
	<SimpleField name="guid" type="string"></SimpleField>
	<SimpleField name="kml" type="string"></SimpleField>
	<SimpleField name="kml_link" type="string"></SimpleField>
</Schema>
<Folder><name>db5e43f7</name>
  <Placemark id="db5e43f7.1">
	<name>1791</name>
	<name>грунт. реп.</name>
	<ExtendedData><SchemaData schemaUrl="#db5e43f7">
		<SimpleData name="type">2</SimpleData>
		<SimpleData name="view">96.606</SimpleData>
		<SimpleData name="benchmark_number">162 оп</SimpleData>
		<SimpleData name="control_location">Линия №3:  Развалины Пикета №8 - Сарысу. 2 класс. Участок: фунд.реп.. 520 - грунт.реп. 1842</SimpleData>
		<SimpleData name="benchmark_type">Кумколь. вахт.пос.. в 12.7 км к юго-зап.от него. в 0.4 км к вост.от арт.колодца. в 80 м к югу от полевой дороги на бугре</SimpleData>
		<SimpleData name="location_description">db5e43f7-a8e1-464e-a26b-718ddec3621b</SimpleData>
		<SimpleData name="status">data/stations/db5e43f7.kml</SimpleData>
		<SimpleData name="guid">&lt;a href='data/stations/db5e43f7.kml' target='_blank'&gt;Download KML&lt;/a&gt;</SimpleData>
	</SchemaData></ExtendedData>
      <Point><coordinates>65.6575440656068,46.3071429417918</coordinates></Point>
  </Placemark>
</Folder>
</Document></kml>
