<?xml version="1.0" encoding="utf-8" ?>
<kml xmlns="http://www.opengis.net/kml/2.2">
<Document id="root_doc">
<Schema name="dcf13165" id="dcf13165">
	<SimpleField name="type" type="string"></SimpleField>
	<SimpleField name="view" type="string"></SimpleField>
	<SimpleField name="leveling_order" type="string"></SimpleField>
	<SimpleField name="leveling_height" type="string"></SimpleField>
	<SimpleField name="control_height" type="string"></SimpleField>
	<SimpleField name="benchmark_number" type="string"></SimpleField>
	<SimpleField name="control_location" type="string"></SimpleField>
	<SimpleField name="benchmark_type" type="string"></SimpleField>
	<SimpleField name="leveling_line_section" type="string"></SimpleField>
	<SimpleField name="location_description" type="string"></SimpleField>
	<SimpleField name="status" type="string"></SimpleField>
	<SimpleField name="guid" type="string"></SimpleField>
	<SimpleField name="kml" type="string"></SimpleField>
	<SimpleField name="kml_link" type="string"></SimpleField>
</Schema>
<Folder><name>dcf13165</name>
  <Placemark id="dcf13165.1">
	<name>б/№</name>
	<name>грунтовый репер</name>
	<ExtendedData><SchemaData schemaUrl="#dcf13165">
		<SimpleData name="type">1</SimpleData>
		<SimpleData name="view">134.223</SimpleData>
		<SimpleData name="benchmark_number">160 оп, знак</SimpleData>
		<SimpleData name="control_location">Линия № 1: Кызылорда - Торыустаган, 1 класс (11
Участок: грунт, реп, 6294 - грунт, реп, 774</SimpleData>
		<SimpleData name="benchmark_type">Жангызжар, разв,, в 24,4 км к сев,-вост, от них, в 1,8 км к сев,-зап, от вдхр,, в 0,2 км к югу от такьфа, в 15 м к
сев, от полевой дороги </SimpleData>
		<SimpleData name="location_description">dcf13165-9114-4030-9f83-f30a6c2a18ce</SimpleData>
		<SimpleData name="status">data/stations/dcf13165.kml</SimpleData>
		<SimpleData name="guid">&lt;a href='data/stations/dcf13165.kml' target='_blank'&gt;Download KML&lt;/a&gt;</SimpleData>
	</SchemaData></ExtendedData>
      <Point><coordinates>66.3157892000139,44.8856252048882</coordinates></Point>
  </Placemark>
</Folder>
</Document></kml>
