<?xml version="1.0" encoding="utf-8" ?>
<kml xmlns="http://www.opengis.net/kml/2.2">
<Document id="root_doc">
<Schema name="dd370c96" id="dd370c96">
	<SimpleField name="type" type="string"></SimpleField>
	<SimpleField name="view" type="string"></SimpleField>
	<SimpleField name="leveling_order" type="string"></SimpleField>
	<SimpleField name="leveling_height" type="string"></SimpleField>
	<SimpleField name="control_height" type="string"></SimpleField>
	<SimpleField name="benchmark_number" type="string"></SimpleField>
	<SimpleField name="control_location" type="string"></SimpleField>
	<SimpleField name="benchmark_type" type="string"></SimpleField>
	<SimpleField name="leveling_line_section" type="string"></SimpleField>
	<SimpleField name="location_description" type="string"></SimpleField>
	<SimpleField name="status" type="string"></SimpleField>
	<SimpleField name="guid" type="string"></SimpleField>
	<SimpleField name="kml" type="string"></SimpleField>
	<SimpleField name="kml_link" type="string"></SimpleField>
</Schema>
<Folder><name>dd370c96</name>
  <Placemark id="dd370c96.1">
	<name>16578</name>
	<name>грунт.реп.</name>
	<ExtendedData><SchemaData schemaUrl="#dd370c96">
		<SimpleData name="type">2</SimpleData>
		<SimpleData name="view">201.361</SimpleData>
		<SimpleData name="leveling_height">200.221</SimpleData>
		<SimpleData name="benchmark_number">репер в верхней
плоскости монолита</SimpleData>
		<SimpleData name="control_location">Линия № 8: сигн.2 кл. Сулыарык - грунт.реп.16578, II класс</SimpleData>
		<SimpleData name="benchmark_type">Жанкель, с., в 1.7 км к югу от него, в 1.0 км к сев.от зимовки, в 0.4 км к зап. от дороги с.Жанкель-с.Аккум</SimpleData>
		<SimpleData name="location_description">dd370c96-fe93-4a4c-9a6d-08fc42b92ed8</SimpleData>
		<SimpleData name="status">data/stations/dd370c96.kml</SimpleData>
		<SimpleData name="guid">&lt;a href='data/stations/dd370c96.kml' target='_blank'&gt;Download KML&lt;/a&gt;</SimpleData>
	</SchemaData></ExtendedData>
      <Point><coordinates>68.1439972122098,42.5000792135749</coordinates></Point>
  </Placemark>
</Folder>
</Document></kml>
