<?xml version="1.0" encoding="utf-8" ?>
<kml xmlns="http://www.opengis.net/kml/2.2">
<Document id="root_doc">
<Schema name="deac1e58" id="deac1e58">
	<SimpleField name="type" type="string"></SimpleField>
	<SimpleField name="view" type="string"></SimpleField>
	<SimpleField name="leveling_order" type="string"></SimpleField>
	<SimpleField name="leveling_height" type="string"></SimpleField>
	<SimpleField name="control_height" type="string"></SimpleField>
	<SimpleField name="benchmark_number" type="string"></SimpleField>
	<SimpleField name="control_location" type="string"></SimpleField>
	<SimpleField name="benchmark_type" type="string"></SimpleField>
	<SimpleField name="leveling_line_section" type="string"></SimpleField>
	<SimpleField name="location_description" type="string"></SimpleField>
	<SimpleField name="status" type="string"></SimpleField>
	<SimpleField name="guid" type="string"></SimpleField>
	<SimpleField name="kml" type="string"></SimpleField>
	<SimpleField name="kml_link" type="string"></SimpleField>
</Schema>
<Folder><name>deac1e58</name>
  <Placemark id="deac1e58.1">
	<name>4667</name>
	<name>грунт. реп.</name>
	<ExtendedData><SchemaData schemaUrl="#deac1e58">
		<SimpleData name="type">2</SimpleData>
		<SimpleData name="view">61,315</SimpleData>
		<SimpleData name="benchmark_number">160 оп. знак.</SimpleData>
		<SimpleData name="control_location">Ход от грунт.реп. VII до грунт.реп. XV, 2 класс. Участок: грунт.реп. VII - пир. 2 кл. Каратас</SimpleData>
		<SimpleData name="benchmark_type">Арт.колодец, в 10.6км к юго-зап.от него, в 7.6км к сев.-вост.от с.Кызылкум, в 30м к сев.от пол.дороги</SimpleData>
		<SimpleData name="location_description">deac1e58-9f72-4a96-a966-05cb5ec4ee0c</SimpleData>
		<SimpleData name="status">data/stations/deac1e58.kml</SimpleData>
		<SimpleData name="guid">&lt;a href='data/stations/deac1e58.kml' target='_blank'&gt;Download KML&lt;/a&gt;</SimpleData>
	</SchemaData></ExtendedData>
      <Point><coordinates>61.505145407305,44.5759345111556</coordinates></Point>
  </Placemark>
</Folder>
</Document></kml>
