<?xml version="1.0" encoding="utf-8" ?>
<kml xmlns="http://www.opengis.net/kml/2.2">
<Document id="root_doc">
<Schema name="df0bc808" id="df0bc808">
	<SimpleField name="type" type="string"></SimpleField>
	<SimpleField name="view" type="string"></SimpleField>
	<SimpleField name="leveling_order" type="string"></SimpleField>
	<SimpleField name="leveling_height" type="string"></SimpleField>
	<SimpleField name="control_height" type="string"></SimpleField>
	<SimpleField name="benchmark_number" type="string"></SimpleField>
	<SimpleField name="control_location" type="string"></SimpleField>
	<SimpleField name="benchmark_type" type="string"></SimpleField>
	<SimpleField name="leveling_line_section" type="string"></SimpleField>
	<SimpleField name="location_description" type="string"></SimpleField>
	<SimpleField name="status" type="string"></SimpleField>
	<SimpleField name="guid" type="string"></SimpleField>
	<SimpleField name="kml" type="string"></SimpleField>
	<SimpleField name="kml_link" type="string"></SimpleField>
</Schema>
<Folder><name>df0bc808</name>
  <Placemark id="df0bc808.1">
	<name>6966</name>
	<name>грунт. реп.</name>
	<ExtendedData><SchemaData schemaUrl="#df0bc808">
		<SimpleData name="type">2</SimpleData>
		<SimpleData name="view">113.533</SimpleData>
		<SimpleData name="leveling_order">112.008</SimpleData>
		<SimpleData name="benchmark_number">121 оп. знак</SimpleData>
		<SimpleData name="control_location">Линия №2: Коккабак - Жынгылдыкак, II класс. Участок: грунт. реп. 2610 - фунд. реп. 1835</SimpleData>
		<SimpleData name="benchmark_type">Косбармак, с., в 10.7 к вост. от него, в 5.7 км к сев.-зап. от зим. Акбекет 2-й, в 10 м к сев. от полевой дороги</SimpleData>
		<SimpleData name="location_description">df0bc808-3424-4776-9ac4-e4e8f6823380</SimpleData>
		<SimpleData name="status">data/stations/df0bc808.kml</SimpleData>
		<SimpleData name="guid">&lt;a href='data/stations/df0bc808.kml' target='_blank'&gt;Download KML&lt;/a&gt;</SimpleData>
	</SchemaData></ExtendedData>
      <Point><coordinates>64.2092334740776,47.8345308236816</coordinates></Point>
  </Placemark>
</Folder>
</Document></kml>
