<?xml version="1.0" encoding="UTF-8"?>
<kml xmlns="http://www.opengis.net/kml/2.2">
  <Document id="root_doc">
    <Schema id="df2e73ee" name="df2e73ee">
      <SimpleField name="title" type="string"/>
      <SimpleField name="type" type="string"/>
      <SimpleField name="ext_sign" type="string"/>
      <SimpleField name="class_lvl" type="string"/>
      <SimpleField name="height_lvl" type="string"/>
      <SimpleField name="height_ctrl" type="string"/>
      <SimpleField name="ctrl_place" type="string"/>
      <SimpleField name="mark_num" type="string"/>
      <SimpleField name="center_type" type="string"/>
      <SimpleField name="lvl_line" type="string"/>
      <SimpleField name="guid" type="string"/>
    </Schema>
    <Schema id="df2e73ee.schema">
      <SimpleField name="title" type="string"/>
      <SimpleField name="type" type="string"/>
      <SimpleField name="ext_sign" type="string"/>
      <SimpleField name="class_lvl" type="string"/>
      <SimpleField name="height_lvl" type="string"/>
      <SimpleField name="height_ctrl" type="string"/>
      <SimpleField name="ctrl_place" type="string"/>
      <SimpleField name="mark_num" type="string"/>
      <SimpleField name="center_type" type="string"/>
      <SimpleField name="lvl_line" type="string"/>
      <SimpleField name="guid" type="string"/>
    </Schema>
    <Document id="df2e73ee">
      <name>df2e73ee</name>
      <Placemark id="df2e73ee.1">
        <ExtendedData>
          <SchemaData schemaUrl="#df2e73ee.schema">
            <SimpleData name="title">Репер дать с каталога </SimpleData>
            <SimpleData name="guid">df2e73ee-253f-409e-9303-2ea5a822206b</SimpleData>
          </SchemaData>
        </ExtendedData>
        <Point>
          <coordinates>
            51.2713227755174,43.6181411787621,0
          </coordinates>
        </Point>
      </Placemark>
    </Document>
  </Document>
</kml>
