<?xml version="1.0" encoding="utf-8" ?>
<kml xmlns="http://www.opengis.net/kml/2.2">
<Document id="root_doc">
<Schema name="dfbd4ff8" id="dfbd4ff8">
	<SimpleField name="type" type="string"></SimpleField>
	<SimpleField name="view" type="string"></SimpleField>
	<SimpleField name="leveling_order" type="string"></SimpleField>
	<SimpleField name="leveling_height" type="string"></SimpleField>
	<SimpleField name="control_height" type="string"></SimpleField>
	<SimpleField name="benchmark_number" type="string"></SimpleField>
	<SimpleField name="control_location" type="string"></SimpleField>
	<SimpleField name="benchmark_type" type="string"></SimpleField>
	<SimpleField name="leveling_line_section" type="string"></SimpleField>
	<SimpleField name="location_description" type="string"></SimpleField>
	<SimpleField name="status" type="string"></SimpleField>
	<SimpleField name="guid" type="string"></SimpleField>
	<SimpleField name="kml" type="string"></SimpleField>
	<SimpleField name="kml_link" type="string"></SimpleField>
</Schema>
<Folder><name>dfbd4ff8</name>
  <Placemark id="dfbd4ff8.1">
	<name>1329</name>
	<name>фунд. реп. </name>
	<ExtendedData><SchemaData schemaUrl="#dfbd4ff8">
		<SimpleData name="type">1</SimpleData>
		<SimpleData name="view">200,516</SimpleData>
		<SimpleData name="leveling_order">198,499</SimpleData>
		<SimpleData name="control_height">репер № 1557 в пилоне</SimpleData>
		<SimpleData name="benchmark_number">104</SimpleData>
		<SimpleData name="control_location">Ход от марка 20210 - грунт. реп. 6363, I класс (5) </SimpleData>
		<SimpleData name="benchmark_type">Семей, гор., Жана Семей, станц., в 3.0 км к сев.-зап. от нее, в 4 м к югу от котлована бензохранилища, на территории юго-зап. части цементного завода.</SimpleData>
		<SimpleData name="location_description">dfbd4ff8-7cd1-4750-9b44-91975c650397</SimpleData>
		<SimpleData name="status">data/stations/dfbd4ff8.kml</SimpleData>
		<SimpleData name="guid">&lt;a href='data/stations/dfbd4ff8.kml' target='_blank'&gt;Download KML&lt;/a&gt;</SimpleData>
	</SchemaData></ExtendedData>
      <Point><coordinates>80.2217587548848,50.393919974064</coordinates></Point>
  </Placemark>
</Folder>
</Document></kml>
