<?xml version="1.0" encoding="utf-8" ?>
<kml xmlns="http://www.opengis.net/kml/2.2">
<Document id="root_doc">
<Schema name="e07d967c" id="e07d967c">
	<SimpleField name="type" type="string"></SimpleField>
	<SimpleField name="view" type="string"></SimpleField>
	<SimpleField name="leveling_order" type="string"></SimpleField>
	<SimpleField name="leveling_height" type="string"></SimpleField>
	<SimpleField name="control_height" type="string"></SimpleField>
	<SimpleField name="benchmark_number" type="string"></SimpleField>
	<SimpleField name="control_location" type="string"></SimpleField>
	<SimpleField name="benchmark_type" type="string"></SimpleField>
	<SimpleField name="leveling_line_section" type="string"></SimpleField>
	<SimpleField name="location_description" type="string"></SimpleField>
	<SimpleField name="status" type="string"></SimpleField>
	<SimpleField name="guid" type="string"></SimpleField>
	<SimpleField name="kml" type="string"></SimpleField>
	<SimpleField name="kml_link" type="string"></SimpleField>
</Schema>
<Folder><name>e07d967c</name>
  <Placemark id="e07d967c.1">
	<name>759</name>
	<description>грунт.реп.</description>
	<ExtendedData><SchemaData schemaUrl="#e07d967c">
		<SimpleData name="type">2</SimpleData>
		<SimpleData name="view">197.461</SimpleData>
		<SimpleData name="leveling_order">195.879</SimpleData>
		<SimpleData name="benchmark_number">121</SimpleData>
		<SimpleData name="control_location">Линия № 6:  Апановка - Жана-Турмыс(Улькен-Сор), II класс                     Участок : грунт.реп.4165 - грунт.реп.847</SimpleData>
		<SimpleData name="benchmark_type">Каркуга, с., в 1.8 км к сев.от него, в 0.2 км к вост.от дороги с.Каратомар-с.Каракуга, в 30 м к сев.-зап.от озера</SimpleData>
		<SimpleData name="leveling_line_section">утрачен</SimpleData>
		<SimpleData name="location_description">e07d967c-aeb6-4924-9091-a8a6a57a8f3b</SimpleData>
		<SimpleData name="status">data/stations/e07d967c.kml</SimpleData>
		<SimpleData name="guid">&lt;a href='data/stations/e07d967c.kml' target='_blank'&gt;Download KML&lt;/a&gt;</SimpleData>
	</SchemaData></ExtendedData>
      <Point><coordinates>63.2010801904659,52.2792681212922</coordinates></Point>
  </Placemark>
</Folder>
</Document></kml>
