<?xml version="1.0" encoding="utf-8" ?>
<kml xmlns="http://www.opengis.net/kml/2.2">
<Document id="root_doc">
<Schema name="e0808bb2" id="e0808bb2">
	<SimpleField name="title" type="string"></SimpleField>
	<SimpleField name="type" type="string"></SimpleField>
	<SimpleField name="ext_sign" type="string"></SimpleField>
	<SimpleField name="class_lvl" type="string"></SimpleField>
	<SimpleField name="height_lvl" type="string"></SimpleField>
	<SimpleField name="height_ctrl" type="string"></SimpleField>
	<SimpleField name="ctrl_place" type="string"></SimpleField>
	<SimpleField name="mark_num" type="string"></SimpleField>
	<SimpleField name="center_type" type="string"></SimpleField>
	<SimpleField name="lvl_line" type="string"></SimpleField>
	<SimpleField name="guid" type="string"></SimpleField>
</Schema>
<Folder><name>e0808bb2</name>
  <Placemark id="e0808bb2.1">
	<name>7643</name>
	<description>скальный репер</description>
	<ExtendedData><SchemaData schemaUrl="#e0808bb2">
		<SimpleData name="type">1</SimpleData>
		<SimpleData name="ext_sign">1063.948</SimpleData>
		<SimpleData name="ctrl_place">99</SimpleData>
		<SimpleData name="center_type">Акбай-Кызылбай, с., в 13.0 км к сев.-вост.от него, в 1.2 км к западу от могилы, в 50 м к сев. от полевой дороги, в 45 м к югу от линии ЛЭП.</SimpleData>
		<SimpleData name="lvl_line">e0808bb2-de54-4aaf-b1e2-e2210728763a</SimpleData>
	</SchemaData></ExtendedData>
      <Point><coordinates>76.1926344053149,49.0994667651838</coordinates></Point>
  </Placemark>
</Folder>
</Document></kml>
