<?xml version="1.0" encoding="utf-8" ?>
<kml xmlns="http://www.opengis.net/kml/2.2">
<Document id="root_doc">
<Schema name="e0aac9db" id="e0aac9db">
	<SimpleField name="title" type="string"></SimpleField>
	<SimpleField name="type" type="string"></SimpleField>
	<SimpleField name="ext_sign" type="string"></SimpleField>
	<SimpleField name="class_lvl" type="string"></SimpleField>
	<SimpleField name="height_lvl" type="string"></SimpleField>
	<SimpleField name="height_ctrl" type="string"></SimpleField>
	<SimpleField name="ctrl_place" type="string"></SimpleField>
	<SimpleField name="mark_num" type="string"></SimpleField>
	<SimpleField name="center_type" type="string"></SimpleField>
	<SimpleField name="lvl_line" type="string"></SimpleField>
	<SimpleField name="guid" type="string"></SimpleField>
</Schema>
<Folder><name>e0aac9db</name>
  <Placemark id="e0aac9db.1">
	<name>5542</name>
	<description>фунд.реп.</description>
	<ExtendedData><SchemaData schemaUrl="#e0aac9db">
		<SimpleData name="type">2</SimpleData>
		<SimpleData name="ext_sign">-11.499</SimpleData>
		<SimpleData name="ctrl_place">161 оп</SimpleData>
		<SimpleData name="mark_num">Линия №1 : Баван-Зелёный, Нивелирование II класса, 1986 г. Предприятие №6. Работа №1.</SimpleData>
		<SimpleData name="center_type">зим. Тума в 19.7 км к юго-зап. от неё в 3.5 км к юго-зап. от п. трианг. Метель, в 120 м вост. от грунт.реп.5375, в 75 м к сев.-вост. от развалин, в 23 м к сев.-вост. от развилки полеывх дорог.</SimpleData>
		<SimpleData name="lvl_line">e0aac9db-4fb1-4167-8a2c-04d052d43f24</SimpleData>
	</SchemaData></ExtendedData>
      <Point><coordinates>50.5247819820589,48.0933753492887</coordinates></Point>
  </Placemark>
</Folder>
</Document></kml>
