<?xml version="1.0" encoding="utf-8" ?>
<kml xmlns="http://www.opengis.net/kml/2.2">
<Document id="root_doc">
<Schema name="e0e5bd5f" id="e0e5bd5f">
	<SimpleField name="type" type="string"></SimpleField>
	<SimpleField name="view" type="string"></SimpleField>
	<SimpleField name="leveling_order" type="string"></SimpleField>
	<SimpleField name="leveling_height" type="string"></SimpleField>
	<SimpleField name="control_height" type="string"></SimpleField>
	<SimpleField name="benchmark_number" type="string"></SimpleField>
	<SimpleField name="control_location" type="string"></SimpleField>
	<SimpleField name="benchmark_type" type="string"></SimpleField>
	<SimpleField name="leveling_line_section" type="string"></SimpleField>
	<SimpleField name="location_description" type="string"></SimpleField>
	<SimpleField name="status" type="string"></SimpleField>
	<SimpleField name="guid" type="string"></SimpleField>
	<SimpleField name="kml" type="string"></SimpleField>
	<SimpleField name="kml_link" type="string"></SimpleField>
</Schema>
<Folder><name>e0e5bd5f</name>
  <Placemark id="e0e5bd5f.1">
	<name>4779</name>
	<name>грунтовый репер</name>
	<ExtendedData><SchemaData schemaUrl="#e0e5bd5f">
		<SimpleData name="type">2</SimpleData>
		<SimpleData name="view">394,834</SimpleData>
		<SimpleData name="control_location">Участок: грунт. реп. 334 - грунт. реп. 0833 </SimpleData>
		<SimpleData name="benchmark_type">Кызказган, к., в 8.4 км к юго-вост. от него, в 4.9 км к югу от родника и кладбища, в 20 м к вост. от полевой дороги </SimpleData>
		<SimpleData name="location_description">e0e5bd5f-c6ac-468c-a56d-0947161d7c2e</SimpleData>
		<SimpleData name="status">data/stations/e0e5bd5f.kml</SimpleData>
		<SimpleData name="guid">&lt;a href='data/stations/e0e5bd5f.kml' target='_blank'&gt;Download KML&lt;/a&gt;</SimpleData>
	</SchemaData></ExtendedData>
      <Point><coordinates>71.0156934973149,46.0367025040059</coordinates></Point>
  </Placemark>
</Folder>
</Document></kml>
