<?xml version="1.0" encoding="utf-8" ?>
<kml xmlns="http://www.opengis.net/kml/2.2">
<Document id="root_doc">
<Schema name="e166e4d7" id="e166e4d7">
	<SimpleField name="type" type="string"></SimpleField>
	<SimpleField name="view" type="string"></SimpleField>
	<SimpleField name="leveling_order" type="string"></SimpleField>
	<SimpleField name="leveling_height" type="string"></SimpleField>
	<SimpleField name="control_height" type="string"></SimpleField>
	<SimpleField name="benchmark_number" type="string"></SimpleField>
	<SimpleField name="control_location" type="string"></SimpleField>
	<SimpleField name="benchmark_type" type="string"></SimpleField>
	<SimpleField name="leveling_line_section" type="string"></SimpleField>
	<SimpleField name="location_description" type="string"></SimpleField>
	<SimpleField name="status" type="string"></SimpleField>
	<SimpleField name="guid" type="string"></SimpleField>
	<SimpleField name="kml" type="string"></SimpleField>
	<SimpleField name="kml_link" type="string"></SimpleField>
</Schema>
<Folder><name>e166e4d7</name>
  <Placemark id="e166e4d7.1">
	<name>1140</name>
	<description>гр. реп.</description>
	<ExtendedData><SchemaData schemaUrl="#e166e4d7">
		<SimpleData name="type">1</SimpleData>
		<SimpleData name="view">295.978</SimpleData>
		<SimpleData name="benchmark_number">160 оп.знак</SimpleData>
		<SimpleData name="control_location">Висячий ход от грунт. реп. 5415;  I класс</SimpleData>
		<SimpleData name="benchmark_type">Сарыозек, с., в 3,5 км к сев.-зап. от него, в 0,1 км к зап. от зимовки, в 50 м к югу от стб № 62 ЛЭП</SimpleData>
		<SimpleData name="location_description">e166e4d7-5311-4570-acd8-55311fc206fd</SimpleData>
		<SimpleData name="status">data/stations/e166e4d7.kml</SimpleData>
		<SimpleData name="guid">&lt;a href='data/stations/e166e4d7.kml' target='_blank'&gt;Download KML&lt;/a&gt;</SimpleData>
	</SchemaData></ExtendedData>
      <Point><coordinates>72.0870748748994,44.6291330014245</coordinates></Point>
  </Placemark>
</Folder>
</Document></kml>
