<?xml version="1.0" encoding="utf-8" ?>
<kml xmlns="http://www.opengis.net/kml/2.2">
<Document id="root_doc">
<Schema name="e2b5d2f8" id="e2b5d2f8">
	<SimpleField name="title" type="string"></SimpleField>
	<SimpleField name="type" type="string"></SimpleField>
	<SimpleField name="ext_sign" type="string"></SimpleField>
	<SimpleField name="class_lvl" type="string"></SimpleField>
	<SimpleField name="height_lvl" type="string"></SimpleField>
	<SimpleField name="height_ctrl" type="string"></SimpleField>
	<SimpleField name="ctrl_place" type="string"></SimpleField>
	<SimpleField name="mark_num" type="string"></SimpleField>
	<SimpleField name="center_type" type="string"></SimpleField>
	<SimpleField name="lvl_line" type="string"></SimpleField>
	<SimpleField name="guid" type="string"></SimpleField>
</Schema>
<Folder><name>e2b5d2f8</name>
  <Placemark id="e2b5d2f8.1">
	<name>2837</name>
	<ExtendedData><SchemaData schemaUrl="#e2b5d2f8">
		<SimpleData name="title">грунт.реп.</SimpleData>
		<SimpleData name="type">2</SimpleData>
		<SimpleData name="ext_sign">124.906</SimpleData>
		<SimpleData name="ctrl_place">А</SimpleData>
		<SimpleData name="mark_num">Линия №2: Сарысай-Чурук.Нивелирование 2 класса, 1988 г. Предприятие №6. Работа №1</SimpleData>
		<SimpleData name="center_type">Туруш, с., в 110 км к сев-вост.от него, в 3.2 км к вост.от п.тр.Болябай, в 0.4 км к зап..от могилы , в 0.3 км к вост.от п.тр.Могильный, в 15 мк вост.от п.д.</SimpleData>
		<SimpleData name="lvl_line">e2b5d2f8-c209-43fa-9319-4b7cc5ce9a2f</SimpleData>
	</SchemaData></ExtendedData>
      <Point><coordinates>56.9004446200477,45.9169948466959</coordinates></Point>
  </Placemark>
</Folder>
</Document></kml>
