<?xml version="1.0" encoding="utf-8" ?>
<kml xmlns="http://www.opengis.net/kml/2.2">
<Document id="root_doc">
<Schema name="e2ffa38c" id="e2ffa38c">
	<SimpleField name="title" type="string"></SimpleField>
	<SimpleField name="type" type="string"></SimpleField>
	<SimpleField name="ext_sign" type="string"></SimpleField>
	<SimpleField name="class_lvl" type="string"></SimpleField>
	<SimpleField name="height_lvl" type="string"></SimpleField>
	<SimpleField name="height_ctrl" type="string"></SimpleField>
	<SimpleField name="ctrl_place" type="string"></SimpleField>
	<SimpleField name="mark_num" type="string"></SimpleField>
	<SimpleField name="center_type" type="string"></SimpleField>
	<SimpleField name="lvl_line" type="string"></SimpleField>
	<SimpleField name="guid" type="string"></SimpleField>
</Schema>
<Folder><name>e2ffa38c</name>
  <Placemark id="e2ffa38c.1">
	<name>Ушкудук</name>
	<description>пир.</description>
	<ExtendedData><SchemaData schemaUrl="#e2ffa38c">
		<SimpleData name="type">2</SimpleData>
		<SimpleData name="ext_sign">122.399</SimpleData>
		<SimpleData name="ctrl_place">83</SimpleData>
		<SimpleData name="mark_num">Линия: фунд. ск. реп.Б/№ - грунт.реп. 15109, II класс (1,2) Участок:  грунт.реп. 18490 - грунт.реп. 13383 (2)</SimpleData>
		<SimpleData name="center_type">к. Мусреп, в 3,2 км к сев.-вост. от него, у перекрёстка полевых дорог.</SimpleData>
		<SimpleData name="lvl_line">e2ffa38c-5342-4029-a708-ff7d0747151f</SimpleData>
	</SchemaData></ExtendedData>
      <Point><coordinates>55.4302348203544,44.4788251512032</coordinates></Point>
  </Placemark>
</Folder>
</Document></kml>
