<?xml version="1.0" encoding="utf-8" ?>
<kml xmlns="http://www.opengis.net/kml/2.2">
<Document id="root_doc">
<Schema name="e319f723" id="e319f723">
	<SimpleField name="title" type="string"></SimpleField>
	<SimpleField name="type" type="string"></SimpleField>
	<SimpleField name="ext_sign" type="string"></SimpleField>
	<SimpleField name="class_lvl" type="string"></SimpleField>
	<SimpleField name="height_lvl" type="string"></SimpleField>
	<SimpleField name="height_ctrl" type="string"></SimpleField>
	<SimpleField name="ctrl_place" type="string"></SimpleField>
	<SimpleField name="mark_num" type="string"></SimpleField>
	<SimpleField name="center_type" type="string"></SimpleField>
	<SimpleField name="lvl_line" type="string"></SimpleField>
	<SimpleField name="guid" type="string"></SimpleField>
</Schema>
<Folder><name>e319f723</name>
  <Placemark id="e319f723.1">
	<name>Закладка 33</name>
	<ExtendedData><SchemaData schemaUrl="#e319f723">
		<SimpleData name="center_type">Требует закладки, в 70 м к северо-западе от полевой дороги </SimpleData>
		<SimpleData name="lvl_line">e319f723-8c8c-40e5-9a53-a8b2b82414a1</SimpleData>
	</SchemaData></ExtendedData>
      <Point><coordinates>63.7157316666667,44.9019166666667</coordinates></Point>
  </Placemark>
</Folder>
</Document></kml>
