<?xml version="1.0" encoding="utf-8" ?>
<kml xmlns="http://www.opengis.net/kml/2.2">
<Document id="root_doc">
<Schema name="e34bec56" id="e34bec56">
	<SimpleField name="title" type="string"></SimpleField>
	<SimpleField name="type" type="string"></SimpleField>
	<SimpleField name="ext_sign" type="string"></SimpleField>
	<SimpleField name="class_lvl" type="string"></SimpleField>
	<SimpleField name="height_lvl" type="string"></SimpleField>
	<SimpleField name="height_ctrl" type="string"></SimpleField>
	<SimpleField name="ctrl_place" type="string"></SimpleField>
	<SimpleField name="mark_num" type="string"></SimpleField>
	<SimpleField name="center_type" type="string"></SimpleField>
	<SimpleField name="lvl_line" type="string"></SimpleField>
	<SimpleField name="guid" type="string"></SimpleField>
</Schema>
<Folder><name>e34bec56</name>
  <Placemark id="e34bec56.1">
	<name>39</name>
	<description>фундаментальный репер</description>
	<ExtendedData><SchemaData schemaUrl="#e34bec56">
		<SimpleData name="type">2</SimpleData>
		<SimpleData name="ext_sign">491.071</SimpleData>
		<SimpleData name="class_lvl">490.554*
489.881*</SimpleData>
		<SimpleData name="height_lvl">в трубе,  в верхней плоскости                                                                                            </SimpleData>
		<SimpleData name="ctrl_place">141 оп.знак</SimpleData>
		<SimpleData name="mark_num">Линия № 1:Кaрacу - Актогай. II класс                         Участок: фунд. реп. 39 -  ск.реп. 2511</SimpleData>
		<SimpleData name="center_type">Карасу, с., в 2.2 км к зап. oт него,в 0.5км к сев.-зап.от р.Токрау,в 20 м к зап.от пол. дороги</SimpleData>
		<SimpleData name="lvl_line">e34bec56-2749-47b9-b9c5-6f35e9265905</SimpleData>
	</SchemaData></ExtendedData>
      <Point><coordinates>75.552893907314,47.4375055415725</coordinates></Point>
  </Placemark>
</Folder>
</Document></kml>
