<?xml version="1.0" encoding="utf-8" ?>
<kml xmlns="http://www.opengis.net/kml/2.2">
<Document id="root_doc">
<Schema name="e3890e60" id="e3890e60">
	<SimpleField name="type" type="string"></SimpleField>
	<SimpleField name="view" type="string"></SimpleField>
	<SimpleField name="leveling_order" type="string"></SimpleField>
	<SimpleField name="leveling_height" type="string"></SimpleField>
	<SimpleField name="control_height" type="string"></SimpleField>
	<SimpleField name="benchmark_number" type="string"></SimpleField>
	<SimpleField name="control_location" type="string"></SimpleField>
	<SimpleField name="benchmark_type" type="string"></SimpleField>
	<SimpleField name="leveling_line_section" type="string"></SimpleField>
	<SimpleField name="location_description" type="string"></SimpleField>
	<SimpleField name="status" type="string"></SimpleField>
	<SimpleField name="guid" type="string"></SimpleField>
	<SimpleField name="kml" type="string"></SimpleField>
	<SimpleField name="kml_link" type="string"></SimpleField>
</Schema>
<Folder><name>e3890e60</name>
  <Placemark id="e3890e60.1">
	<name>655</name>
	<name>грунт. реп.</name>
	<ExtendedData><SchemaData schemaUrl="#e3890e60">
		<SimpleData name="type">2</SimpleData>
		<SimpleData name="view">357.620</SimpleData>
		<SimpleData name="benchmark_number">118 оп. знак</SimpleData>
		<SimpleData name="control_location">Линия № 1: Учарал - Урджар, II класс. Участок: стен. реп. 8792 – грунт. реп. 2906</SimpleData>
		<SimpleData name="benchmark_type">Рыбачье, с., в 17.5 км к сев.-вост. от него, в 3.0 км к зап. от р. Урджар, в 0.5 км к сев. от перекрестка полевых дорог, в 0.1 км к вост. от полевой дороги</SimpleData>
		<SimpleData name="location_description">e3890e60-1012-4d97-9807-1cd02766d9a7</SimpleData>
		<SimpleData name="status">data/stations/e3890e60.kml</SimpleData>
		<SimpleData name="guid">&lt;a href='data/stations/e3890e60.kml' target='_blank'&gt;Download KML&lt;/a&gt;</SimpleData>
	</SchemaData></ExtendedData>
      <Point><coordinates>81.6378761245407,46.6132483518648</coordinates></Point>
  </Placemark>
</Folder>
</Document></kml>
