<?xml version="1.0" encoding="utf-8" ?>
<kml xmlns="http://www.opengis.net/kml/2.2">
<Document id="root_doc">
<Schema name="e3c88585" id="e3c88585">
	<SimpleField name="title" type="string"></SimpleField>
	<SimpleField name="type" type="string"></SimpleField>
	<SimpleField name="ext_sign" type="string"></SimpleField>
	<SimpleField name="class_lvl" type="string"></SimpleField>
	<SimpleField name="height_lvl" type="string"></SimpleField>
	<SimpleField name="height_ctrl" type="string"></SimpleField>
	<SimpleField name="ctrl_place" type="string"></SimpleField>
	<SimpleField name="mark_num" type="string"></SimpleField>
	<SimpleField name="center_type" type="string"></SimpleField>
	<SimpleField name="lvl_line" type="string"></SimpleField>
	<SimpleField name="guid" type="string"></SimpleField>
</Schema>
<Folder><name>e3c88585</name>
  <Placemark id="e3c88585.1">
	<name>6804</name>
	<description>грунтовый репер</description>
	<ExtendedData><SchemaData schemaUrl="#e3c88585">
		<SimpleData name="type">1</SimpleData>
		<SimpleData name="ext_sign">126.495</SimpleData>
		<SimpleData name="ctrl_place">160 оп. знак</SimpleData>
		<SimpleData name="mark_num">Линия № 4: Кызылорда - Арыс, I класс. Ход от марки б/№ до грунт.реп. 695 Участок: грунт.реп. 1323 - грунт.реп. 1275 (1375)</SimpleData>
		<SimpleData name="center_type">Кызылорда, гор., в 2.0 км к вост.от него, в 40 м к вост.от канала, в 30 м к югу от стб. ЛЭП № 1301/1971</SimpleData>
		<SimpleData name="lvl_line">e3c88585-3a78-4f05-83d9-fb37c4f55f6d</SimpleData>
	</SchemaData></ExtendedData>
      <Point><coordinates>65.5691821582321,44.843237897113</coordinates></Point>
  </Placemark>
</Folder>
</Document></kml>
