<?xml version="1.0" encoding="utf-8" ?>
<kml xmlns="http://www.opengis.net/kml/2.2">
<Document id="root_doc">
<Schema name="e4547de3" id="e4547de3">
	<SimpleField name="type" type="string"></SimpleField>
	<SimpleField name="view" type="string"></SimpleField>
	<SimpleField name="leveling_order" type="string"></SimpleField>
	<SimpleField name="leveling_height" type="string"></SimpleField>
	<SimpleField name="control_height" type="string"></SimpleField>
	<SimpleField name="benchmark_number" type="string"></SimpleField>
	<SimpleField name="control_location" type="string"></SimpleField>
	<SimpleField name="benchmark_type" type="string"></SimpleField>
	<SimpleField name="leveling_line_section" type="string"></SimpleField>
	<SimpleField name="location_description" type="string"></SimpleField>
	<SimpleField name="status" type="string"></SimpleField>
	<SimpleField name="guid" type="string"></SimpleField>
	<SimpleField name="kml" type="string"></SimpleField>
	<SimpleField name="kml_link" type="string"></SimpleField>
</Schema>
<Folder><name>e4547de3</name>
  <Placemark id="e4547de3.1">
	<name>43</name>
	<name>грунт.реп</name>
	<ExtendedData><SchemaData schemaUrl="#e4547de3">
		<SimpleData name="type">2</SimpleData>
		<SimpleData name="view">156.569</SimpleData>
		<SimpleData name="control_location">Линия № 1 Чиили-Мергенбай,II класс Участок: грунт.реп.51-грунт.25</SimpleData>
		<SimpleData name="benchmark_type">Саратай,к., в 6.8 км к вост. От него, в 2.5 км к юго-зап. От колодца, в 0.5 км к сев.от развалин, в 2.7 км к югу от полевой дороги</SimpleData>
		<SimpleData name="location_description">e4547de3-0951-498b-9d0b-1822a8c51808</SimpleData>
		<SimpleData name="status">data/stations/e4547de3.kml</SimpleData>
		<SimpleData name="guid">&lt;a href='data/stations/e4547de3.kml' target='_blank'&gt;Download KML&lt;/a&gt;</SimpleData>
	</SchemaData></ExtendedData>
      <Point><coordinates>66.4091780952774,43.9420683433474</coordinates></Point>
  </Placemark>
</Folder>
</Document></kml>
