<?xml version="1.0" encoding="utf-8" ?>
<kml xmlns="http://www.opengis.net/kml/2.2">
<Document id="root_doc">
<Schema name="e49445a8" id="e49445a8">
	<SimpleField name="type" type="string"></SimpleField>
	<SimpleField name="view" type="string"></SimpleField>
	<SimpleField name="leveling_order" type="string"></SimpleField>
	<SimpleField name="leveling_height" type="string"></SimpleField>
	<SimpleField name="control_height" type="string"></SimpleField>
	<SimpleField name="benchmark_number" type="string"></SimpleField>
	<SimpleField name="control_location" type="string"></SimpleField>
	<SimpleField name="benchmark_type" type="string"></SimpleField>
	<SimpleField name="leveling_line_section" type="string"></SimpleField>
	<SimpleField name="location_description" type="string"></SimpleField>
	<SimpleField name="status" type="string"></SimpleField>
	<SimpleField name="guid" type="string"></SimpleField>
	<SimpleField name="kml" type="string"></SimpleField>
	<SimpleField name="kml_link" type="string"></SimpleField>
</Schema>
<Folder><name>e49445a8</name>
  <Placemark id="e49445a8.1">
	<name>3</name>
	<name>грунтовый репер</name>
	<ExtendedData><SchemaData schemaUrl="#e49445a8">
		<SimpleData name="type">II</SimpleData>
		<SimpleData name="view">197,163</SimpleData>
		<SimpleData name="leveling_order">194,541</SimpleData>
		<SimpleData name="control_height">Контрольный репер №4 в верхней плоскости монолита</SimpleData>
		<SimpleData name="benchmark_number">121оп</SimpleData>
		<SimpleData name="control_location">Линия №3: ск. реп. 101 - грунт. реп. 17, II класс (5)</SimpleData>
		<SimpleData name="benchmark_type">Нурманбек, разв. , в 3.4 км к сев.-вост. от них, в 0.3 км к зап. от р. Шидерти, в 20 м к зап. от полевой дороги </SimpleData>
		<SimpleData name="location_description">e49445a8-3393-40b1-b0bf-c17a9c5ea547</SimpleData>
		<SimpleData name="status">data/stations/e49445a8.kml</SimpleData>
		<SimpleData name="guid">&lt;a href='data/stations/e49445a8.kml' target='_blank'&gt;Download KML&lt;/a&gt;</SimpleData>
	</SchemaData></ExtendedData>
      <Point><coordinates>74.7218393932573,51.8864755888616</coordinates></Point>
  </Placemark>
</Folder>
</Document></kml>
