<?xml version="1.0" encoding="utf-8" ?>
<kml xmlns="http://www.opengis.net/kml/2.2">
<Document id="root_doc">
<Schema name="e55854e6" id="e55854e6">
	<SimpleField name="type" type="string"></SimpleField>
	<SimpleField name="view" type="string"></SimpleField>
	<SimpleField name="leveling_order" type="string"></SimpleField>
	<SimpleField name="leveling_height" type="string"></SimpleField>
	<SimpleField name="control_height" type="string"></SimpleField>
	<SimpleField name="benchmark_number" type="string"></SimpleField>
	<SimpleField name="control_location" type="string"></SimpleField>
	<SimpleField name="benchmark_type" type="string"></SimpleField>
	<SimpleField name="leveling_line_section" type="string"></SimpleField>
	<SimpleField name="location_description" type="string"></SimpleField>
	<SimpleField name="status" type="string"></SimpleField>
	<SimpleField name="guid" type="string"></SimpleField>
	<SimpleField name="kml" type="string"></SimpleField>
	<SimpleField name="kml_link" type="string"></SimpleField>
</Schema>
<Folder><name>e55854e6</name>
  <Placemark id="e55854e6.1">
	<name>47</name>
	<description>грунт.реп.</description>
	<ExtendedData><SchemaData schemaUrl="#e55854e6">
		<SimpleData name="type">2</SimpleData>
		<SimpleData name="view">211.399</SimpleData>
		<SimpleData name="leveling_order">210.431</SimpleData>
		<SimpleData name="benchmark_number">107</SimpleData>
		<SimpleData name="control_location">Линия № 5: Марьевка - Урицкое, II класс                Участок : грунт.реп.14 - фунд.реп.2350</SimpleData>
		<SimpleData name="benchmark_type">Ананьевка, с., в 7.0 км к юго-зап.от него, в урочище Пограничный, у дороги ур.Васьковка - с.Чапаевка</SimpleData>
		<SimpleData name="leveling_line_section">не найден</SimpleData>
		<SimpleData name="location_description">e55854e6-4146-40e4-bdf2-c477aeb5216a</SimpleData>
		<SimpleData name="status">data/stations/e55854e6.kml</SimpleData>
		<SimpleData name="guid">&lt;a href='data/stations/e55854e6.kml' target='_blank'&gt;Download KML&lt;/a&gt;</SimpleData>
	</SchemaData></ExtendedData>
      <Point><coordinates>65.899901774195,53.3863445717923</coordinates></Point>
  </Placemark>
</Folder>
</Document></kml>
