<?xml version="1.0" encoding="utf-8" ?>
<kml xmlns="http://www.opengis.net/kml/2.2">
<Document id="root_doc">
<Schema name="e580b1c7" id="e580b1c7">
	<SimpleField name="type" type="string"></SimpleField>
	<SimpleField name="view" type="string"></SimpleField>
	<SimpleField name="leveling_order" type="string"></SimpleField>
	<SimpleField name="leveling_height" type="string"></SimpleField>
	<SimpleField name="control_height" type="string"></SimpleField>
	<SimpleField name="benchmark_number" type="string"></SimpleField>
	<SimpleField name="control_location" type="string"></SimpleField>
	<SimpleField name="benchmark_type" type="string"></SimpleField>
	<SimpleField name="leveling_line_section" type="string"></SimpleField>
	<SimpleField name="location_description" type="string"></SimpleField>
	<SimpleField name="status" type="string"></SimpleField>
	<SimpleField name="guid" type="string"></SimpleField>
	<SimpleField name="kml" type="string"></SimpleField>
	<SimpleField name="kml_link" type="string"></SimpleField>
</Schema>
<Folder><name>e580b1c7</name>
  <Placemark id="e580b1c7.1">
	<name>3781</name>
	<description>фунд.реп.</description>
	<ExtendedData><SchemaData schemaUrl="#e580b1c7">
		<SimpleData name="type">1</SimpleData>
		<SimpleData name="view">207852</SimpleData>
		<SimpleData name="leveling_order">206124</SimpleData>
		<SimpleData name="leveling_height">Контрольный репер в верхней плоскости монолита</SimpleData>
		<SimpleData name="benchmark_number">141</SimpleData>
		<SimpleData name="control_location">Линия №1: Звермноголовское - Семиозерный, I класс (I); Участок: марка 1216 - грунт.реп.548</SimpleData>
		<SimpleData name="benchmark_type">Лаврентьевка,с., в 5.5 км к сев.-зап.от него, в 0.5 км к сев.-зап.от км.стб.56/404, в 0.2 км к зап.от дороги гор.Кустанай-с.Семиозерное, в 139 м юго-вост.от тлф.стб.№118</SimpleData>
		<SimpleData name="leveling_line_section">утрачен</SimpleData>
		<SimpleData name="location_description">e580b1c7-8ef9-4071-a613-6bdf66193c8f</SimpleData>
		<SimpleData name="status">data/stations/e580b1c7.kml</SimpleData>
		<SimpleData name="guid">&lt;a href='data/stations/e580b1c7.kml' target='_blank'&gt;Download KML&lt;/a&gt;</SimpleData>
	</SchemaData></ExtendedData>
      <Point><coordinates>63.9083257158507,52.7567443452987</coordinates></Point>
  </Placemark>
</Folder>
</Document></kml>
