<?xml version="1.0" encoding="utf-8" ?>
<kml xmlns="http://www.opengis.net/kml/2.2">
<Document id="root_doc">
<Schema name="e59ee9c6" id="e59ee9c6">
	<SimpleField name="type" type="string"></SimpleField>
	<SimpleField name="view" type="string"></SimpleField>
	<SimpleField name="leveling_order" type="string"></SimpleField>
	<SimpleField name="leveling_height" type="string"></SimpleField>
	<SimpleField name="control_height" type="string"></SimpleField>
	<SimpleField name="benchmark_number" type="string"></SimpleField>
	<SimpleField name="control_location" type="string"></SimpleField>
	<SimpleField name="benchmark_type" type="string"></SimpleField>
	<SimpleField name="leveling_line_section" type="string"></SimpleField>
	<SimpleField name="location_description" type="string"></SimpleField>
	<SimpleField name="status" type="string"></SimpleField>
	<SimpleField name="guid" type="string"></SimpleField>
	<SimpleField name="kml" type="string"></SimpleField>
	<SimpleField name="kml_link" type="string"></SimpleField>
</Schema>
<Folder><name>e59ee9c6</name>
  <Placemark id="e59ee9c6.1">
	<name>13498</name>
	<name>грунт.реп.</name>
	<description>грунт.реп.</description>
	<ExtendedData><SchemaData schemaUrl="#e59ee9c6">
		<SimpleData name="type">II</SimpleData>
		<SimpleData name="view">584.515</SimpleData>
		<SimpleData name="leveling_order">583.409*</SimpleData>
		<SimpleData name="leveling_height">№7054</SimpleData>
		<SimpleData name="control_height">в 
верхней  плоскости  монолита</SimpleData>
		<SimpleData name="benchmark_number">121</SimpleData>
		<SimpleData name="control_location">Участок: пир.З кл.Машкудук- грунт. реп. 13498 </SimpleData>
		<SimpleData name="benchmark_type">Бозой,с.,в  10.7  км  к  гого-зап.от  него, в  4.0  км  к  юго-вост.от  род. Жельбулак,в 30  м  к  сев. от  полевой  дороги</SimpleData>
		<SimpleData name="location_description">e59ee9c6-0eb8-40f8-8a15-21833b8fd801</SimpleData>
		<SimpleData name="status">data/stations/e59ee9c6.kml</SimpleData>
		<SimpleData name="guid">&lt;a href='data/stations/e59ee9c6.kml' target='_blank'&gt;Download KML&lt;/a&gt;</SimpleData>
	</SchemaData></ExtendedData>
      <Point><coordinates>76.0281307695235,44.0795980910076</coordinates></Point>
  </Placemark>
</Folder>
</Document></kml>
