<?xml version="1.0" encoding="utf-8" ?>
<kml xmlns="http://www.opengis.net/kml/2.2">
<Document id="root_doc">
<Schema name="e621748f" id="e621748f">
	<SimpleField name="type" type="string"></SimpleField>
	<SimpleField name="view" type="string"></SimpleField>
	<SimpleField name="leveling_order" type="string"></SimpleField>
	<SimpleField name="leveling_height" type="string"></SimpleField>
	<SimpleField name="control_height" type="string"></SimpleField>
	<SimpleField name="benchmark_number" type="string"></SimpleField>
	<SimpleField name="control_location" type="string"></SimpleField>
	<SimpleField name="benchmark_type" type="string"></SimpleField>
	<SimpleField name="leveling_line_section" type="string"></SimpleField>
	<SimpleField name="location_description" type="string"></SimpleField>
	<SimpleField name="status" type="string"></SimpleField>
	<SimpleField name="guid" type="string"></SimpleField>
	<SimpleField name="kml" type="string"></SimpleField>
	<SimpleField name="kml_link" type="string"></SimpleField>
</Schema>
<Folder><name>e621748f</name>
  <Placemark id="e621748f.1">
	<name>5969</name>
	<name>ск.реп.</name>
	<description>ск.реп.</description>
	<ExtendedData><SchemaData schemaUrl="#e621748f">
		<SimpleData name="type">II</SimpleData>
		<SimpleData name="view">511.657</SimpleData>
		<SimpleData name="benchmark_number">99оп.знак</SimpleData>
		<SimpleData name="control_location">Линия  № 2 :  Балхаш - Карасу, П  класс  (3)
Участок : грунт.реп. 29 - грунт. реп.6441</SimpleData>
		<SimpleData name="benchmark_type">Восточно-Коунрадский,с.,в  22.0  км  к
сев.-вост от  него, в  70 м к  вост.от
шоссе  с.Актогай-гор.Балхаш,между  хм.
стб.№ 157  и  №  158</SimpleData>
		<SimpleData name="location_description">e621748f-6609-4f5a-88e9-f42bfd1e15da</SimpleData>
		<SimpleData name="status">data/stations/e621748f.kml</SimpleData>
		<SimpleData name="guid">&lt;a href='data/stations/e621748f.kml' target='_blank'&gt;Download KML&lt;/a&gt;</SimpleData>
	</SchemaData></ExtendedData>
      <Point><coordinates>75.2632321426906,47.1876910552195</coordinates></Point>
  </Placemark>
</Folder>
</Document></kml>
