<?xml version="1.0" encoding="utf-8" ?>
<kml xmlns="http://www.opengis.net/kml/2.2">
<Document id="root_doc">
<Schema name="e6335f4a" id="e6335f4a">
	<SimpleField name="title" type="string"></SimpleField>
	<SimpleField name="type" type="string"></SimpleField>
	<SimpleField name="ext_sign" type="string"></SimpleField>
	<SimpleField name="class_lvl" type="string"></SimpleField>
	<SimpleField name="height_lvl" type="string"></SimpleField>
	<SimpleField name="height_ctrl" type="string"></SimpleField>
	<SimpleField name="ctrl_place" type="string"></SimpleField>
	<SimpleField name="mark_num" type="string"></SimpleField>
	<SimpleField name="center_type" type="string"></SimpleField>
	<SimpleField name="lvl_line" type="string"></SimpleField>
	<SimpleField name="guid" type="string"></SimpleField>
</Schema>
<Folder><name>e6335f4a</name>
  <Placemark id="e6335f4a.1">
	<name>7165</name>
	<description>фундаментальный репер</description>
	<ExtendedData><SchemaData schemaUrl="#e6335f4a">
		<SimpleData name="type">1</SimpleData>
		<SimpleData name="ext_sign">274.744</SimpleData>
		<SimpleData name="ctrl_place">161</SimpleData>
		<SimpleData name="center_type">Далабай , с., в 2.9 км к зап. от него, в 1.5 км к сев.-зап. от п.тр. 4 класса Караколь, в 77 м к югу от подземного линий кабеля, в 100 м к вост. от грунтового репера 2374 =, в 22 м к сев. от поллевой дороги.</SimpleData>
		<SimpleData name="lvl_line">e6335f4a-3852-4c35-952f-ae6b7dda2ed9</SimpleData>
	</SchemaData></ExtendedData>
      <Point><coordinates>66.7154343703043,51.2145533596965</coordinates></Point>
  </Placemark>
</Folder>
</Document></kml>
