<?xml version="1.0" encoding="utf-8" ?>
<kml xmlns="http://www.opengis.net/kml/2.2">
<Document id="root_doc">
<Schema name="e637df53" id="e637df53">
	<SimpleField name="type" type="string"></SimpleField>
	<SimpleField name="view" type="string"></SimpleField>
	<SimpleField name="leveling_order" type="string"></SimpleField>
	<SimpleField name="leveling_height" type="string"></SimpleField>
	<SimpleField name="control_height" type="string"></SimpleField>
	<SimpleField name="benchmark_number" type="string"></SimpleField>
	<SimpleField name="control_location" type="string"></SimpleField>
	<SimpleField name="benchmark_type" type="string"></SimpleField>
	<SimpleField name="leveling_line_section" type="string"></SimpleField>
	<SimpleField name="location_description" type="string"></SimpleField>
	<SimpleField name="status" type="string"></SimpleField>
	<SimpleField name="guid" type="string"></SimpleField>
	<SimpleField name="kml" type="string"></SimpleField>
	<SimpleField name="kml_link" type="string"></SimpleField>
</Schema>
<Folder><name>e637df53</name>
  <Placemark id="e637df53.1">
	<name>169</name>
	<name>грунтовый репер</name>
	<ExtendedData><SchemaData schemaUrl="#e637df53">
		<SimpleData name="type">2</SimpleData>
		<SimpleData name="view">310,116/310,252</SimpleData>
		<SimpleData name="leveling_height">309,120</SimpleData>
		<SimpleData name="benchmark_number">в трубе</SimpleData>
		<SimpleData name="control_location">Линия № 4: Жезказган (фунд, реп. 495) - Древний Курган (фунд, реп. 1377), 2 класс (5)</SimpleData>
		<SimpleData name="benchmark_type">Ески Талап, раза,, в 8,6 км                         к вост, от них, в 0,2 км к югу                   от сухого русла р, Сарысай,                        в 25 м к вост, от шоссе гор, Жезказган - гор, Кызылорда</SimpleData>
		<SimpleData name="location_description">e637df53-5f28-4e62-9078-cd412b06e5fa</SimpleData>
		<SimpleData name="status">data/stations/e637df53.kml</SimpleData>
		<SimpleData name="guid">&lt;a href='data/stations/e637df53.kml' target='_blank'&gt;Download KML&lt;/a&gt;</SimpleData>
	</SchemaData></ExtendedData>
      <Point><coordinates>67.8452304287897,47.597906779152</coordinates></Point>
  </Placemark>
</Folder>
</Document></kml>
