<?xml version="1.0" encoding="utf-8" ?>
<kml xmlns="http://www.opengis.net/kml/2.2">
<Document id="root_doc">
<Schema name="e65a5cb0" id="e65a5cb0">
	<SimpleField name="type" type="string"></SimpleField>
	<SimpleField name="view" type="string"></SimpleField>
	<SimpleField name="leveling_order" type="string"></SimpleField>
	<SimpleField name="leveling_height" type="string"></SimpleField>
	<SimpleField name="control_height" type="string"></SimpleField>
	<SimpleField name="benchmark_number" type="string"></SimpleField>
	<SimpleField name="control_location" type="string"></SimpleField>
	<SimpleField name="benchmark_type" type="string"></SimpleField>
	<SimpleField name="leveling_line_section" type="string"></SimpleField>
	<SimpleField name="location_description" type="string"></SimpleField>
	<SimpleField name="status" type="string"></SimpleField>
	<SimpleField name="guid" type="string"></SimpleField>
	<SimpleField name="kml" type="string"></SimpleField>
	<SimpleField name="kml_link" type="string"></SimpleField>
</Schema>
<Folder><name>e65a5cb0</name>
  <Placemark id="e65a5cb0.1">
	<name>4553</name>
	<name>грунт,реп,</name>
	<ExtendedData><SchemaData schemaUrl="#e65a5cb0">
		<SimpleData name="type">1</SimpleData>
		<SimpleData name="view">251.326</SimpleData>
		<SimpleData name="benchmark_number">160оп</SimpleData>
		<SimpleData name="control_location">Линия № 3: Арысь - Хаваст, I класс</SimpleData>
		<SimpleData name="benchmark_type">Арысь 1, станц,, в 6,5 км к юго-вост,от нее, в 22 м к юго-зап,от жел,-дор,полотна, на 6 ПК 3220 км</SimpleData>
		<SimpleData name="location_description">e65a5cb0-6983-4dd3-8781-c4519a3ff394</SimpleData>
		<SimpleData name="status">data/stations/e65a5cb0.kml</SimpleData>
		<SimpleData name="guid">&lt;a href='data/stations/e65a5cb0.kml' target='_blank'&gt;Download KML&lt;/a&gt;</SimpleData>
	</SchemaData></ExtendedData>
      <Point><coordinates>68.8389762127344,42.373529877012</coordinates></Point>
  </Placemark>
</Folder>
</Document></kml>
