<?xml version="1.0" encoding="utf-8" ?>
<kml xmlns="http://www.opengis.net/kml/2.2">
<Document id="root_doc">
<Schema name="e672f331" id="e672f331">
	<SimpleField name="type" type="string"></SimpleField>
	<SimpleField name="view" type="string"></SimpleField>
	<SimpleField name="leveling_order" type="string"></SimpleField>
	<SimpleField name="leveling_height" type="string"></SimpleField>
	<SimpleField name="control_height" type="string"></SimpleField>
	<SimpleField name="benchmark_number" type="string"></SimpleField>
	<SimpleField name="control_location" type="string"></SimpleField>
	<SimpleField name="benchmark_type" type="string"></SimpleField>
	<SimpleField name="leveling_line_section" type="string"></SimpleField>
	<SimpleField name="location_description" type="string"></SimpleField>
	<SimpleField name="status" type="string"></SimpleField>
	<SimpleField name="guid" type="string"></SimpleField>
	<SimpleField name="kml" type="string"></SimpleField>
	<SimpleField name="kml_link" type="string"></SimpleField>
</Schema>
<Folder><name>e672f331</name>
  <Placemark id="e672f331.1">
	<name>1483</name>
	<description>фунд.реп.</description>
	<ExtendedData><SchemaData schemaUrl="#e672f331">
		<SimpleData name="type">2</SimpleData>
		<SimpleData name="view">182.631</SimpleData>
		<SimpleData name="benchmark_number">117 оп</SimpleData>
		<SimpleData name="control_location">Линия № І : Троицк - Кустанай, II класс                     Участок : марка 3468 - грунт.реп. 931</SimpleData>
		<SimpleData name="benchmark_type">165-й км жел.дор., в 110 м к юго-зап. от пк 1/2, в 60 м к югу от км.стб.164/165, в 21 м к юго-зап. От ближайшего рельса </SimpleData>
		<SimpleData name="location_description">e672f331-4b30-45c6-be8d-498ddfe18f1c</SimpleData>
		<SimpleData name="status">data/stations/e672f331.kml</SimpleData>
		<SimpleData name="guid">&lt;a href='data/stations/e672f331.kml' target='_blank'&gt;Download KML&lt;/a&gt;</SimpleData>
	</SchemaData></ExtendedData>
      <Point><coordinates>62.1397716610126,53.8021397385808</coordinates></Point>
  </Placemark>
</Folder>
</Document></kml>
