<?xml version="1.0" encoding="utf-8" ?>
<kml xmlns="http://www.opengis.net/kml/2.2">
<Document id="root_doc">
<Schema name="e6826d84" id="e6826d84">
	<SimpleField name="type" type="string"></SimpleField>
	<SimpleField name="view" type="string"></SimpleField>
	<SimpleField name="leveling_order" type="string"></SimpleField>
	<SimpleField name="leveling_height" type="string"></SimpleField>
	<SimpleField name="control_height" type="string"></SimpleField>
	<SimpleField name="benchmark_number" type="string"></SimpleField>
	<SimpleField name="control_location" type="string"></SimpleField>
	<SimpleField name="benchmark_type" type="string"></SimpleField>
	<SimpleField name="leveling_line_section" type="string"></SimpleField>
	<SimpleField name="location_description" type="string"></SimpleField>
	<SimpleField name="status" type="string"></SimpleField>
	<SimpleField name="guid" type="string"></SimpleField>
	<SimpleField name="kml" type="string"></SimpleField>
	<SimpleField name="kml_link" type="string"></SimpleField>
</Schema>
<Folder><name>e6826d84</name>
  <Placemark id="e6826d84.1">
	<name>2361</name>
	<description>грунт.реп</description>
	<ExtendedData><SchemaData schemaUrl="#e6826d84">
		<SimpleData name="type">2</SimpleData>
		<SimpleData name="view">225.717</SimpleData>
		<SimpleData name="leveling_order">224.733</SimpleData>
		<SimpleData name="benchmark_number">107</SimpleData>
		<SimpleData name="control_location">Линия № 1: Урицоке - Койбагар, II класс             Участок : грунт.реп.8480 - марка 3079</SimpleData>
		<SimpleData name="benchmark_type">Былкылдак, с., в 4.5 км к юго-вост.от него, в 2.3 км к зап.от водохранилища, в 40 м к зап.от дороги</SimpleData>
		<SimpleData name="location_description">e6826d84-bbdc-420a-9c24-1d3112a27dec</SimpleData>
		<SimpleData name="status">data/stations/e6826d84.kml</SimpleData>
		<SimpleData name="guid">&lt;a href='data/stations/e6826d84.kml' target='_blank'&gt;Download KML&lt;/a&gt;</SimpleData>
	</SchemaData></ExtendedData>
      <Point><coordinates>65.5681124908283,52.918474646962</coordinates></Point>
  </Placemark>
</Folder>
</Document></kml>
