<?xml version="1.0" encoding="utf-8" ?>
<kml xmlns="http://www.opengis.net/kml/2.2">
<Document id="root_doc">
<Schema name="e6b1b991" id="e6b1b991">
	<SimpleField name="title" type="string"></SimpleField>
	<SimpleField name="type" type="string"></SimpleField>
	<SimpleField name="ext_sign" type="string"></SimpleField>
	<SimpleField name="class_lvl" type="string"></SimpleField>
	<SimpleField name="height_lvl" type="string"></SimpleField>
	<SimpleField name="height_ctrl" type="string"></SimpleField>
	<SimpleField name="ctrl_place" type="string"></SimpleField>
	<SimpleField name="mark_num" type="string"></SimpleField>
	<SimpleField name="center_type" type="string"></SimpleField>
	<SimpleField name="lvl_line" type="string"></SimpleField>
	<SimpleField name="guid" type="string"></SimpleField>
</Schema>
<Folder><name>e6b1b991</name>
  <Placemark id="e6b1b991.1">
	<name>2091</name>
	<ExtendedData><SchemaData schemaUrl="#e6b1b991">
		<SimpleData name="title">грунт.реп.</SimpleData>
		<SimpleData name="type">2</SimpleData>
		<SimpleData name="ext_sign">18.177</SimpleData>
		<SimpleData name="height_lvl">Контольный репер № 1869 в верхней плоскости монолита</SimpleData>
		<SimpleData name="ctrl_place">121</SimpleData>
		<SimpleData name="mark_num">Линия : Озинки-Керей, 2 класс                       Участок : грунт.реп.6038-грунт.реп.1678</SimpleData>
		<SimpleData name="center_type">Шумилин, с., в 0.4 км к сев-вост.от нег, в 0.4 км к сев-вост.от развилки полевой дороги, в 32 м к юго-вост.от полевой дороги</SimpleData>
		<SimpleData name="lvl_line">e6b1b991-38d1-40cb-8cdc-c5d714c446b4</SimpleData>
	</SchemaData></ExtendedData>
      <Point><coordinates>50.7193766284455,50.52353764526</coordinates></Point>
  </Placemark>
</Folder>
</Document></kml>
