<?xml version="1.0" encoding="UTF-8"?>
<kml xmlns="http://www.opengis.net/kml/2.2">
  <Document id="root_doc">
    <Schema id="e6ef6644" name="e6ef6644">
      <SimpleField name="title" type="string"/>
      <SimpleField name="type" type="string"/>
      <SimpleField name="ext_sign" type="string"/>
      <SimpleField name="class_lvl" type="string"/>
      <SimpleField name="height_lvl" type="string"/>
      <SimpleField name="height_ctrl" type="string"/>
      <SimpleField name="ctrl_place" type="string"/>
      <SimpleField name="mark_num" type="string"/>
      <SimpleField name="center_type" type="string"/>
      <SimpleField name="lvl_line" type="string"/>
      <SimpleField name="guid" type="string"/>
    </Schema>
    <Schema id="e6ef6644.schema">
      <SimpleField name="title" type="string"/>
      <SimpleField name="type" type="string"/>
      <SimpleField name="ext_sign" type="string"/>
      <SimpleField name="class_lvl" type="string"/>
      <SimpleField name="height_lvl" type="string"/>
      <SimpleField name="height_ctrl" type="string"/>
      <SimpleField name="ctrl_place" type="string"/>
      <SimpleField name="mark_num" type="string"/>
      <SimpleField name="center_type" type="string"/>
      <SimpleField name="lvl_line" type="string"/>
      <SimpleField name="guid" type="string"/>
    </Schema>
    <Document id="e6ef6644">
      <name>e6ef6644</name>
      <Placemark id="e6ef6644.1">
        <description>Тасорпа,кладб.,в 9.5 км к сев.-вост.от него, в 4.0 км к сев.-зап.от пир.3 кл.Карылгаш, в 3.5 км к юго-вост.от пир.2 кл.Катем</description>
        <ExtendedData>
          <SchemaData schemaUrl="#e6ef6644.schema">
            <SimpleData name="title">6-21</SimpleData>
            <SimpleData name="type">грунт.реп.</SimpleData>
            <SimpleData name="class_lvl">2</SimpleData>
            <SimpleData name="height_lvl">-20,455</SimpleData>
            <SimpleData name="center_type">148</SimpleData>
            <SimpleData name="lvl_line">Линия №1: грунт.реп.578-фунд.реп.124, II класс (1)                    Участок: пир.2 кл.Мыс-грунт.реп.6-19</SimpleData>
            <SimpleData name="guid">e6ef6644-822b-4ca4-bbaf-04dc28f30c9a</SimpleData>
          </SchemaData>
        </ExtendedData>
        <Point>
          <coordinates>
            53.6234462820825,45.2350814868721,0
          </coordinates>
        </Point>
      </Placemark>
    </Document>
  </Document>
</kml>
