<?xml version="1.0" encoding="utf-8" ?>
<kml xmlns="http://www.opengis.net/kml/2.2">
<Document id="root_doc">
<Schema name="e71108f1" id="e71108f1">
	<SimpleField name="title" type="string"></SimpleField>
	<SimpleField name="type" type="string"></SimpleField>
	<SimpleField name="ext_sign" type="string"></SimpleField>
	<SimpleField name="class_lvl" type="string"></SimpleField>
	<SimpleField name="height_lvl" type="string"></SimpleField>
	<SimpleField name="height_ctrl" type="string"></SimpleField>
	<SimpleField name="ctrl_place" type="string"></SimpleField>
	<SimpleField name="mark_num" type="string"></SimpleField>
	<SimpleField name="center_type" type="string"></SimpleField>
	<SimpleField name="lvl_line" type="string"></SimpleField>
	<SimpleField name="guid" type="string"></SimpleField>
</Schema>
<Folder><name>e71108f1</name>
  <Placemark id="e71108f1.1">
	<name>1877</name>
	<description>грунтовый репер</description>
	<ExtendedData><SchemaData schemaUrl="#e71108f1">
		<SimpleData name="type">2</SimpleData>
		<SimpleData name="ext_sign">-14,835</SimpleData>
		<SimpleData name="ctrl_place">160 оп знак</SimpleData>
		<SimpleData name="mark_num">Линия II класса: Богдо-Нов.Уштаган-Малый Арал</SimpleData>
		<SimpleData name="center_type">Кошалак, с., в 23,0 км к сев.-зап. от него, в 0,7 км к зап. от кладб. Ко-токадаммолла, в 0,8 км к сев.-вост. от разв., у полевой дороги</SimpleData>
		<SimpleData name="lvl_line">e71108f1-ec80-4683-82c9-cb1faaac000a</SimpleData>
	</SchemaData></ExtendedData>
      <Point><coordinates>48.8342368591487,47.5882371503751</coordinates></Point>
  </Placemark>
</Folder>
</Document></kml>
