<?xml version="1.0" encoding="utf-8" ?>
<kml xmlns="http://www.opengis.net/kml/2.2">
<Document id="root_doc">
<Schema name="e72483c0" id="e72483c0">
	<SimpleField name="title" type="string"></SimpleField>
	<SimpleField name="type" type="string"></SimpleField>
	<SimpleField name="ext_sign" type="string"></SimpleField>
	<SimpleField name="class_lvl" type="string"></SimpleField>
	<SimpleField name="height_lvl" type="string"></SimpleField>
	<SimpleField name="height_ctrl" type="string"></SimpleField>
	<SimpleField name="ctrl_place" type="string"></SimpleField>
	<SimpleField name="mark_num" type="string"></SimpleField>
	<SimpleField name="center_type" type="string"></SimpleField>
	<SimpleField name="lvl_line" type="string"></SimpleField>
	<SimpleField name="guid" type="string"></SimpleField>
</Schema>
<Folder><name>e72483c0</name>
  <Placemark id="e72483c0.1">
	<name>1642</name>
	<ExtendedData><SchemaData schemaUrl="#e72483c0">
		<SimpleData name="title">грунт.реп.</SimpleData>
		<SimpleData name="type">2</SimpleData>
		<SimpleData name="ext_sign">139.218</SimpleData>
		<SimpleData name="ctrl_place">А</SimpleData>
		<SimpleData name="mark_num">Линия №2: Сарысай-Чурук.Нивелирование 2 класса, 1988 г. Предприятие №6. Работа №1</SimpleData>
		<SimpleData name="center_type">Туруш, с., в 136 км к сев-вост.от него, в 3.2 км к сев.-вост.от к.жетикудук, в 1.4 км к юго-вост.от п.тр.Жеты и клалд.Жетымола, в 30 м к сев.вост.от п.д.</SimpleData>
		<SimpleData name="lvl_line">e72483c0-ac13-43f3-b6b8-c7905c9f51fb</SimpleData>
	</SchemaData></ExtendedData>
      <Point><coordinates>57.1571093276824,46.0985664620438</coordinates></Point>
  </Placemark>
</Folder>
</Document></kml>
