<?xml version="1.0" encoding="utf-8" ?>
<kml xmlns="http://www.opengis.net/kml/2.2">
<Document id="root_doc">
<Schema name="e775ce2a" id="e775ce2a">
	<SimpleField name="type" type="string"></SimpleField>
	<SimpleField name="view" type="string"></SimpleField>
	<SimpleField name="leveling_order" type="string"></SimpleField>
	<SimpleField name="leveling_height" type="string"></SimpleField>
	<SimpleField name="control_height" type="string"></SimpleField>
	<SimpleField name="benchmark_number" type="string"></SimpleField>
	<SimpleField name="control_location" type="string"></SimpleField>
	<SimpleField name="benchmark_type" type="string"></SimpleField>
	<SimpleField name="leveling_line_section" type="string"></SimpleField>
	<SimpleField name="location_description" type="string"></SimpleField>
	<SimpleField name="status" type="string"></SimpleField>
	<SimpleField name="guid" type="string"></SimpleField>
	<SimpleField name="kml" type="string"></SimpleField>
	<SimpleField name="kml_link" type="string"></SimpleField>
</Schema>
<Folder><name>e775ce2a</name>
  <Placemark id="e775ce2a.1">
	<name>0671</name>
	<description>грунт. реп.</description>
	<ExtendedData><SchemaData schemaUrl="#e775ce2a">
		<SimpleData name="type">2</SimpleData>
		<SimpleData name="view">157.126</SimpleData>
		<SimpleData name="benchmark_number">146 оп</SimpleData>
		<SimpleData name="control_location">Линия № 1: Амангельды - Байконур,  II класс Участок: грунт.реп. 301 - грунт.реп. 4293      </SimpleData>
		<SimpleData name="benchmark_type">Кемер, с., в 11.5 км к юго-вост. от него, в 8.0 км к вост. от оз. Жуалагаш, в 30 м к вост. от дороги с. Амангельды - с. Рахмет</SimpleData>
		<SimpleData name="location_description">e775ce2a-0718-4917-9910-4ee2b0d4caf3</SimpleData>
		<SimpleData name="status">data/stations/e775ce2a.kml</SimpleData>
		<SimpleData name="guid">&lt;a href='data/stations/e775ce2a.kml' target='_blank'&gt;Download KML&lt;/a&gt;</SimpleData>
	</SchemaData></ExtendedData>
      <Point><coordinates>65.2666851001936,49.9939548518081</coordinates></Point>
  </Placemark>
</Folder>
</Document></kml>
