<?xml version="1.0" encoding="utf-8" ?>
<kml xmlns="http://www.opengis.net/kml/2.2">
<Document id="root_doc">
<Schema name="e79049e0" id="e79049e0">
	<SimpleField name="type" type="string"></SimpleField>
	<SimpleField name="view" type="string"></SimpleField>
	<SimpleField name="leveling_order" type="string"></SimpleField>
	<SimpleField name="leveling_height" type="string"></SimpleField>
	<SimpleField name="control_height" type="string"></SimpleField>
	<SimpleField name="benchmark_number" type="string"></SimpleField>
	<SimpleField name="control_location" type="string"></SimpleField>
	<SimpleField name="benchmark_type" type="string"></SimpleField>
	<SimpleField name="leveling_line_section" type="string"></SimpleField>
	<SimpleField name="location_description" type="string"></SimpleField>
	<SimpleField name="status" type="string"></SimpleField>
	<SimpleField name="guid" type="string"></SimpleField>
	<SimpleField name="kml" type="string"></SimpleField>
	<SimpleField name="kml_link" type="string"></SimpleField>
</Schema>
<Folder><name>e79049e0</name>
  <Placemark id="e79049e0.1">
	<name>5416</name>
	<name>ск. реп</name>
	<description>ск. реп</description>
	<ExtendedData><SchemaData schemaUrl="#e79049e0">
		<SimpleData name="type">II</SimpleData>
		<SimpleData name="view">468,596</SimpleData>
		<SimpleData name="benchmark_number">9 оп.знак</SimpleData>
		<SimpleData name="control_location">Линия № 1:Сарышаган-Актас II класс                            Участок: cк.реп. 3442-пир. 3 кл. Зырат</SimpleData>
		<SimpleData name="benchmark_type">Кыйлыкожа, к., в 9,5 км к юго-вост. от него, в 3,0 км к юго-зап. от г. Боялыч, в 0,1 км к сев.-вост. от пикообразной сопки</SimpleData>
		<SimpleData name="location_description">e79049e0-371f-4975-89bc-1eed5a3c0c9c</SimpleData>
		<SimpleData name="status">data/stations/e79049e0.kml</SimpleData>
		<SimpleData name="guid">&lt;a href='data/stations/e79049e0.kml' target='_blank'&gt;Download KML&lt;/a&gt;</SimpleData>
	</SchemaData></ExtendedData>
      <Point><coordinates>72.2745221705588,46.0184164829067</coordinates></Point>
  </Placemark>
</Folder>
</Document></kml>
