<?xml version="1.0" encoding="utf-8" ?>
<kml xmlns="http://www.opengis.net/kml/2.2">
<Document id="root_doc">
<Schema name="e8022ec9" id="e8022ec9">
	<SimpleField name="title" type="string"></SimpleField>
	<SimpleField name="type" type="string"></SimpleField>
	<SimpleField name="ext_sign" type="string"></SimpleField>
	<SimpleField name="class_lvl" type="string"></SimpleField>
	<SimpleField name="height_lvl" type="string"></SimpleField>
	<SimpleField name="height_ctrl" type="string"></SimpleField>
	<SimpleField name="ctrl_place" type="string"></SimpleField>
	<SimpleField name="mark_num" type="string"></SimpleField>
	<SimpleField name="center_type" type="string"></SimpleField>
	<SimpleField name="lvl_line" type="string"></SimpleField>
	<SimpleField name="guid" type="string"></SimpleField>
</Schema>
<Folder><name>e8022ec9</name>
  <Placemark id="e8022ec9.1">
	<name>0126</name>
	<description>грунтовый репер</description>
	<ExtendedData><SchemaData schemaUrl="#e8022ec9">
		<SimpleData name="title">1А20</SimpleData>
		<SimpleData name="lvl_line">e8022ec9-b52b-4b49-81f6-c7d76810bbfa</SimpleData>
	</SchemaData></ExtendedData>
      <Point><coordinates>54.3984183333333,48.00312</coordinates></Point>
  </Placemark>
</Folder>
</Document></kml>
