<?xml version="1.0" encoding="utf-8" ?>
<kml xmlns="http://www.opengis.net/kml/2.2">
<Document id="root_doc">
<Schema name="e8168c3c" id="e8168c3c">
	<SimpleField name="type" type="string"></SimpleField>
	<SimpleField name="view" type="string"></SimpleField>
	<SimpleField name="leveling_order" type="string"></SimpleField>
	<SimpleField name="leveling_height" type="string"></SimpleField>
	<SimpleField name="control_height" type="string"></SimpleField>
	<SimpleField name="benchmark_number" type="string"></SimpleField>
	<SimpleField name="control_location" type="string"></SimpleField>
	<SimpleField name="benchmark_type" type="string"></SimpleField>
	<SimpleField name="leveling_line_section" type="string"></SimpleField>
	<SimpleField name="location_description" type="string"></SimpleField>
	<SimpleField name="status" type="string"></SimpleField>
	<SimpleField name="guid" type="string"></SimpleField>
	<SimpleField name="kml" type="string"></SimpleField>
	<SimpleField name="kml_link" type="string"></SimpleField>
</Schema>
<Folder><name>e8168c3c</name>
  <Placemark id="e8168c3c.1">
	<name>2193</name>
	<description>грунт. Реп.</description>
	<ExtendedData><SchemaData schemaUrl="#e8168c3c">
		<SimpleData name="type">1</SimpleData>
		<SimpleData name="view">140.499</SimpleData>
		<SimpleData name="benchmark_number">146 оп</SimpleData>
		<SimpleData name="control_location">Линия №1 : Целиноград-Токтайконыр, I класс . Участок : грунт. Реп. 2445-грунт. Реп. 1972</SimpleData>
		<SimpleData name="benchmark_type">Амангельды, с. , в 3.6 км к сев.-вост. От него, в 0.2 км к юго-вост. От дорог гор.Аркалык-с. Амангельды, в 31 м к зап. от стб. ЛЭП № 30 </SimpleData>
		<SimpleData name="location_description">e8168c3c-614a-440f-8174-452048eed170</SimpleData>
		<SimpleData name="status">data/stations/e8168c3c.kml</SimpleData>
		<SimpleData name="guid">&lt;a href='data/stations/e8168c3c.kml' target='_blank'&gt;Download KML&lt;/a&gt;</SimpleData>
	</SchemaData></ExtendedData>
      <Point><coordinates>65.2294974050899,50.2149651048861</coordinates></Point>
  </Placemark>
</Folder>
</Document></kml>
