<?xml version="1.0" encoding="utf-8" ?>
<kml xmlns="http://www.opengis.net/kml/2.2">
<Document id="root_doc">
<Schema name="e8775d9f" id="e8775d9f">
	<SimpleField name="type" type="string"></SimpleField>
	<SimpleField name="view" type="string"></SimpleField>
	<SimpleField name="leveling_order" type="string"></SimpleField>
	<SimpleField name="leveling_height" type="string"></SimpleField>
	<SimpleField name="control_height" type="string"></SimpleField>
	<SimpleField name="benchmark_number" type="string"></SimpleField>
	<SimpleField name="control_location" type="string"></SimpleField>
	<SimpleField name="benchmark_type" type="string"></SimpleField>
	<SimpleField name="leveling_line_section" type="string"></SimpleField>
	<SimpleField name="location_description" type="string"></SimpleField>
	<SimpleField name="status" type="string"></SimpleField>
	<SimpleField name="guid" type="string"></SimpleField>
	<SimpleField name="kml" type="string"></SimpleField>
	<SimpleField name="kml_link" type="string"></SimpleField>
</Schema>
<Folder><name>e8775d9f</name>
  <Placemark id="e8775d9f.1">
	<name>7309</name>
	<description>грунт.реп.</description>
	<ExtendedData><SchemaData schemaUrl="#e8775d9f">
		<SimpleData name="type">2</SimpleData>
		<SimpleData name="benchmark_number">5 (146)</SimpleData>
		<SimpleData name="control_location">Линия № 2: Миролюбовка -Сорочинка, от марки 1610 до грунт. реп. 3189</SimpleData>
		<SimpleData name="benchmark_type">Миролюбовка с., в 3.3 км к югу от него, в 1.5 км к сев. от оз. Шукаинды, в 0.3 км к зап. от поворота полевой дороги</SimpleData>
		<SimpleData name="leveling_line_section">не найден</SimpleData>
		<SimpleData name="location_description">e8775d9f-168f-4953-a000-991ea9936faa</SimpleData>
		<SimpleData name="status">data/stations/e8775d9f.kml</SimpleData>
		<SimpleData name="guid">&lt;a href='data/stations/e8775d9f.kml' target='_blank'&gt;Download KML&lt;/a&gt;</SimpleData>
	</SchemaData></ExtendedData>
      <Point><coordinates>65.0091545733022,53.943860809183</coordinates></Point>
  </Placemark>
</Folder>
</Document></kml>
