<?xml version="1.0" encoding="utf-8" ?>
<kml xmlns="http://www.opengis.net/kml/2.2">
<Document id="root_doc">
<Schema name="e8867056" id="e8867056">
	<SimpleField name="type" type="string"></SimpleField>
	<SimpleField name="view" type="string"></SimpleField>
	<SimpleField name="leveling_order" type="string"></SimpleField>
	<SimpleField name="leveling_height" type="string"></SimpleField>
	<SimpleField name="control_height" type="string"></SimpleField>
	<SimpleField name="benchmark_number" type="string"></SimpleField>
	<SimpleField name="control_location" type="string"></SimpleField>
	<SimpleField name="benchmark_type" type="string"></SimpleField>
	<SimpleField name="leveling_line_section" type="string"></SimpleField>
	<SimpleField name="location_description" type="string"></SimpleField>
	<SimpleField name="status" type="string"></SimpleField>
	<SimpleField name="guid" type="string"></SimpleField>
	<SimpleField name="kml" type="string"></SimpleField>
	<SimpleField name="kml_link" type="string"></SimpleField>
</Schema>
<Folder><name>e8867056</name>
  <Placemark id="e8867056.1">
	<name>7336</name>
	<name>грунт, реп,</name>
	<ExtendedData><SchemaData schemaUrl="#e8867056">
		<SimpleData name="type">I</SimpleData>
		<SimpleData name="view">141.534</SimpleData>
		<SimpleData name="benchmark_number">160</SimpleData>
		<SimpleData name="control_location">Линия № 1: Петпопавловск - Макинск, I класс
Участок: грунт, реп, 91285 - грунт, реп, 91338</SimpleData>
		<SimpleData name="benchmark_type">Южное, с,, в 3,7 км к юго-вост, от него, на 6 ПК 95 км жел, - дор, гор, Петропавловск-гор, Кокшетау, в 80 м к вост, от жел, -
дор, полотна, в 49 м к юго-вост, от тлф,стб, № 1734, в 7 м к югу от лесополосы</SimpleData>
		<SimpleData name="leveling_line_section">Репер в хорошем состоянии</SimpleData>
		<SimpleData name="location_description">e8867056-cc3a-4722-8720-a52dac0ec241</SimpleData>
		<SimpleData name="status">data/stations/e8867056.kml</SimpleData>
		<SimpleData name="guid">&lt;a href='data/stations/e8867056.kml' target='_blank'&gt;Download KML&lt;/a&gt;</SimpleData>
	</SchemaData></ExtendedData>
      <Point><coordinates>69.6911473875071,54.0907938197114</coordinates></Point>
  </Placemark>
</Folder>
</Document></kml>
