<?xml version="1.0" encoding="utf-8" ?>
<kml xmlns="http://www.opengis.net/kml/2.2">
<Document id="root_doc">
<Schema name="e9092333" id="e9092333">
	<SimpleField name="title" type="string"></SimpleField>
	<SimpleField name="type" type="string"></SimpleField>
	<SimpleField name="ext_sign" type="string"></SimpleField>
	<SimpleField name="class_lvl" type="string"></SimpleField>
	<SimpleField name="height_lvl" type="string"></SimpleField>
	<SimpleField name="height_ctrl" type="string"></SimpleField>
	<SimpleField name="ctrl_place" type="string"></SimpleField>
	<SimpleField name="mark_num" type="string"></SimpleField>
	<SimpleField name="center_type" type="string"></SimpleField>
	<SimpleField name="lvl_line" type="string"></SimpleField>
	<SimpleField name="guid" type="string"></SimpleField>
</Schema>
<Folder><name>e9092333</name>
  <Placemark id="e9092333.1">
	<name>3672</name>
	<description>грунтовый репер</description>
	<ExtendedData><SchemaData schemaUrl="#e9092333">
		<SimpleData name="type">1</SimpleData>
		<SimpleData name="ext_sign">17.819</SimpleData>
		<SimpleData name="ctrl_place">121</SimpleData>
		<SimpleData name="mark_num">Линия нивелирования 1 класса Уральск-Жанибек</SimpleData>
		<SimpleData name="lvl_line">e9092333-eba2-4ae3-9e3e-d1ea5918200d</SimpleData>
	</SchemaData></ExtendedData>
      <Point><coordinates>48.6021238734132,49.7308586580472</coordinates></Point>
  </Placemark>
</Folder>
</Document></kml>
