<?xml version="1.0" encoding="utf-8" ?>
<kml xmlns="http://www.opengis.net/kml/2.2">
<Document id="root_doc">
<Schema name="e93dfe90" id="e93dfe90">
	<SimpleField name="type" type="string"></SimpleField>
	<SimpleField name="view" type="string"></SimpleField>
	<SimpleField name="leveling_order" type="string"></SimpleField>
	<SimpleField name="leveling_height" type="string"></SimpleField>
	<SimpleField name="control_height" type="string"></SimpleField>
	<SimpleField name="benchmark_number" type="string"></SimpleField>
	<SimpleField name="control_location" type="string"></SimpleField>
	<SimpleField name="benchmark_type" type="string"></SimpleField>
	<SimpleField name="leveling_line_section" type="string"></SimpleField>
	<SimpleField name="location_description" type="string"></SimpleField>
	<SimpleField name="status" type="string"></SimpleField>
	<SimpleField name="guid" type="string"></SimpleField>
	<SimpleField name="kml" type="string"></SimpleField>
	<SimpleField name="kml_link" type="string"></SimpleField>
</Schema>
<Folder><name>e93dfe90</name>
  <Placemark id="e93dfe90.1">
	<name>400</name>
	<name>грунт.реп.</name>
	<description>грунт.реп.</description>
	<ExtendedData><SchemaData schemaUrl="#e93dfe90">
		<SimpleData name="type">II</SimpleData>
		<SimpleData name="view">608,597</SimpleData>
		<SimpleData name="leveling_order">605,993*</SimpleData>
		<SimpleData name="control_height">В верхней плоскости монолита</SimpleData>
		<SimpleData name="benchmark_number">121 оп.знак</SimpleData>
		<SimpleData name="control_location">Линия № 4: Мойынты-Балхаш, II класс                            Участок: фунд.реп. 44480-грунт.реп. 5738</SimpleData>
		<SimpleData name="benchmark_type">Мойынты, станц., в 4,7 км к зап.от нее, в 2,0 км к сев.-зап.от водокачки, в 25 м к югу от полевой дороги</SimpleData>
		<SimpleData name="location_description">e93dfe90-428d-4104-809f-1dfd3e66800f</SimpleData>
		<SimpleData name="status">data/stations/e93dfe90.kml</SimpleData>
		<SimpleData name="guid">&lt;a href='data/stations/e93dfe90.kml' target='_blank'&gt;Download KML&lt;/a&gt;</SimpleData>
	</SchemaData></ExtendedData>
      <Point><coordinates>73.3018678490745,47.2077922165546</coordinates></Point>
  </Placemark>
</Folder>
</Document></kml>
