<?xml version="1.0" encoding="utf-8" ?>
<kml xmlns="http://www.opengis.net/kml/2.2">
<Document id="root_doc">
<Schema name="ea8b316f" id="ea8b316f">
	<SimpleField name="type" type="string"></SimpleField>
	<SimpleField name="view" type="string"></SimpleField>
	<SimpleField name="leveling_order" type="string"></SimpleField>
	<SimpleField name="leveling_height" type="string"></SimpleField>
	<SimpleField name="control_height" type="string"></SimpleField>
	<SimpleField name="benchmark_number" type="string"></SimpleField>
	<SimpleField name="control_location" type="string"></SimpleField>
	<SimpleField name="benchmark_type" type="string"></SimpleField>
	<SimpleField name="leveling_line_section" type="string"></SimpleField>
	<SimpleField name="location_description" type="string"></SimpleField>
	<SimpleField name="status" type="string"></SimpleField>
	<SimpleField name="guid" type="string"></SimpleField>
	<SimpleField name="kml" type="string"></SimpleField>
	<SimpleField name="kml_link" type="string"></SimpleField>
</Schema>
<Folder><name>ea8b316f</name>
  <Placemark id="ea8b316f.1">
	<name>1394</name>
	<name>марка</name>
	<ExtendedData><SchemaData schemaUrl="#ea8b316f">
		<SimpleData name="type">2</SimpleData>
		<SimpleData name="view">387,923</SimpleData>
		<SimpleData name="benchmark_number">144</SimpleData>
		<SimpleData name="control_location">Линия № 1 :       Локоть - Защита,  2 класс (2)  Участок :        марка 410 -     марка 1381</SimpleData>
		<SimpleData name="benchmark_type">Рулиха, станц., в 1,3 км к югу от нее, 138-й км, во втором устое жел./дор. трубы с юго-зап. стороны, марка на высоте 1,37 м от земли</SimpleData>
		<SimpleData name="location_description">ea8b316f-fc88-4814-aa1a-a1dc300e6577</SimpleData>
		<SimpleData name="status">data/stations/ea8b316f.kml</SimpleData>
		<SimpleData name="guid">&lt;a href='data/stations/ea8b316f.kml' target='_blank'&gt;Download KML&lt;/a&gt;</SimpleData>
	</SchemaData></ExtendedData>
      <Point><coordinates>81.9532085881319,50.4771266121688</coordinates></Point>
  </Placemark>
</Folder>
</Document></kml>
