<?xml version="1.0" encoding="utf-8" ?>
<kml xmlns="http://www.opengis.net/kml/2.2">
<Document id="root_doc">
<Schema name="eb221b12" id="eb221b12">
	<SimpleField name="title" type="string"></SimpleField>
	<SimpleField name="type" type="string"></SimpleField>
	<SimpleField name="ext_sign" type="string"></SimpleField>
	<SimpleField name="class_lvl" type="string"></SimpleField>
	<SimpleField name="height_lvl" type="string"></SimpleField>
	<SimpleField name="height_ctrl" type="string"></SimpleField>
	<SimpleField name="ctrl_place" type="string"></SimpleField>
	<SimpleField name="mark_num" type="string"></SimpleField>
	<SimpleField name="center_type" type="string"></SimpleField>
	<SimpleField name="lvl_line" type="string"></SimpleField>
	<SimpleField name="guid" type="string"></SimpleField>
</Schema>
<Folder><name>eb221b12</name>
  <Placemark id="eb221b12.1">
	<name>715</name>
	<description>грунтовый репер</description>
	<ExtendedData><SchemaData schemaUrl="#eb221b12">
		<SimpleData name="title">грунт. реп.</SimpleData>
		<SimpleData name="type">2</SimpleData>
		<SimpleData name="ext_sign">52.048</SimpleData>
		<SimpleData name="ctrl_place">160 оп. знак</SimpleData>
		<SimpleData name="mark_num">Линия №1: Аральск - Коккабак, II класс. Участок: грунт. реп. 9049 - грунт. реп. 2665</SimpleData>
		<SimpleData name="center_type">Жаксыкылыш, с., в 11.3 км к сев.-вост. от него, в 1.1 км к сев.-вост. от кладб., в 50 м к сев.-зап. от полевой дороги</SimpleData>
		<SimpleData name="lvl_line">eb221b12-8927-4790-8882-22c8d904b2e0</SimpleData>
	</SchemaData></ExtendedData>
      <Point><coordinates>62.0880399287434,46.8629655540609</coordinates></Point>
  </Placemark>
</Folder>
</Document></kml>
