<?xml version="1.0" encoding="utf-8" ?>
<kml xmlns="http://www.opengis.net/kml/2.2">
<Document id="root_doc">
<Schema name="eb253f6d" id="eb253f6d">
	<SimpleField name="type" type="string"></SimpleField>
	<SimpleField name="view" type="string"></SimpleField>
	<SimpleField name="leveling_order" type="string"></SimpleField>
	<SimpleField name="leveling_height" type="string"></SimpleField>
	<SimpleField name="control_height" type="string"></SimpleField>
	<SimpleField name="benchmark_number" type="string"></SimpleField>
	<SimpleField name="control_location" type="string"></SimpleField>
	<SimpleField name="benchmark_type" type="string"></SimpleField>
	<SimpleField name="leveling_line_section" type="string"></SimpleField>
	<SimpleField name="location_description" type="string"></SimpleField>
	<SimpleField name="status" type="string"></SimpleField>
	<SimpleField name="guid" type="string"></SimpleField>
	<SimpleField name="kml" type="string"></SimpleField>
	<SimpleField name="kml_link" type="string"></SimpleField>
</Schema>
<Folder><name>eb253f6d</name>
  <Placemark id="eb253f6d.1">
	<name>7493</name>
	<name>грунт. реп.</name>
	<ExtendedData><SchemaData schemaUrl="#eb253f6d">
		<SimpleData name="type">2</SimpleData>
		<SimpleData name="view">373.291</SimpleData>
		<SimpleData name="benchmark_number">160 оп. знак</SimpleData>
		<SimpleData name="control_location">Линия № 1: Актогай – Сайкан, II класс 
Участок: грунт.реп. 0125 – фунд.реп. 9446
</SimpleData>
		<SimpleData name="benchmark_type">Сарыкум, станц., в 8.0 км к юго-вост. от нее, в 0.1 км к юго-зап. от жел. дор., в 20 м к юго-зап. от полевой дороги</SimpleData>
		<SimpleData name="location_description">eb253f6d-3de9-4bd2-b386-6c69ecbd7e06</SimpleData>
		<SimpleData name="status">data/stations/eb253f6d.kml</SimpleData>
		<SimpleData name="guid">&lt;a href='data/stations/eb253f6d.kml' target='_blank'&gt;Download KML&lt;/a&gt;</SimpleData>
	</SchemaData></ExtendedData>
      <Point><coordinates>80.2882917345072,46.6397250696524</coordinates></Point>
  </Placemark>
</Folder>
</Document></kml>
