<?xml version="1.0" encoding="utf-8" ?>
<kml xmlns="http://www.opengis.net/kml/2.2">
<Document id="root_doc">
<Schema name="eb7be31e" id="eb7be31e">
	<SimpleField name="type" type="string"></SimpleField>
	<SimpleField name="view" type="string"></SimpleField>
	<SimpleField name="leveling_order" type="string"></SimpleField>
	<SimpleField name="leveling_height" type="string"></SimpleField>
	<SimpleField name="control_height" type="string"></SimpleField>
	<SimpleField name="benchmark_number" type="string"></SimpleField>
	<SimpleField name="control_location" type="string"></SimpleField>
	<SimpleField name="benchmark_type" type="string"></SimpleField>
	<SimpleField name="leveling_line_section" type="string"></SimpleField>
	<SimpleField name="location_description" type="string"></SimpleField>
	<SimpleField name="status" type="string"></SimpleField>
	<SimpleField name="guid" type="string"></SimpleField>
	<SimpleField name="kml" type="string"></SimpleField>
	<SimpleField name="kml_link" type="string"></SimpleField>
</Schema>
<Folder><name>eb7be31e</name>
  <Placemark id="eb7be31e.1">
	<name>Акмайдан </name>
	<description>пирамида</description>
	<ExtendedData><SchemaData schemaUrl="#eb7be31e">
		<SimpleData name="type">2</SimpleData>
		<SimpleData name="view">514.948</SimpleData>
		<SimpleData name="benchmark_number">3 оп</SimpleData>
		<SimpleData name="control_location">Линия № 4: Таскарасу - Чилик. П класс (2)  Участок; грунт.реп, 1411 - фунд.реп. 2208</SimpleData>
		<SimpleData name="benchmark_type">Бриг.2-я свх.Горный Овцевод, 14,3 км к сев. - вост. от нее, в 0,1 км к югу от дороги с.Чилик - с. Чарын, на песчаном холмике</SimpleData>
		<SimpleData name="location_description">eb7be31e-045c-46af-8b75-7fdf6445cdec</SimpleData>
		<SimpleData name="status">data/stations/eb7be31e.kml</SimpleData>
		<SimpleData name="guid">&lt;a href='data/stations/eb7be31e.kml' target='_blank'&gt;Download KML&lt;/a&gt;</SimpleData>
	</SchemaData></ExtendedData>
      <Point><coordinates>78.6842620585075,43.7103709376523</coordinates></Point>
  </Placemark>
</Folder>
</Document></kml>
