<?xml version="1.0" encoding="utf-8" ?>
<kml xmlns="http://www.opengis.net/kml/2.2">
<Document id="root_doc">
<Schema name="eb880a73" id="eb880a73">
	<SimpleField name="title" type="string"></SimpleField>
	<SimpleField name="type" type="string"></SimpleField>
	<SimpleField name="ext_sign" type="string"></SimpleField>
	<SimpleField name="class_lvl" type="string"></SimpleField>
	<SimpleField name="height_lvl" type="string"></SimpleField>
	<SimpleField name="height_ctrl" type="string"></SimpleField>
	<SimpleField name="ctrl_place" type="string"></SimpleField>
	<SimpleField name="mark_num" type="string"></SimpleField>
	<SimpleField name="center_type" type="string"></SimpleField>
	<SimpleField name="lvl_line" type="string"></SimpleField>
	<SimpleField name="guid" type="string"></SimpleField>
</Schema>
<Folder><name>eb880a73</name>
  <Placemark id="eb880a73.1">
	<name>Х9</name>
	<ExtendedData><SchemaData schemaUrl="#eb880a73">
		<SimpleData name="lvl_line">eb880a73-13ed-4601-acb6-a9c2690792bc</SimpleData>
	</SchemaData></ExtendedData>
      <Point><coordinates>54.76537526,48.94329125</coordinates></Point>
  </Placemark>
</Folder>
</Document></kml>
