<?xml version="1.0" encoding="utf-8" ?>
<kml xmlns="http://www.opengis.net/kml/2.2">
<Document id="root_doc">
<Schema name="ec829792" id="ec829792">
	<SimpleField name="type" type="string"></SimpleField>
	<SimpleField name="view" type="string"></SimpleField>
	<SimpleField name="leveling_order" type="string"></SimpleField>
	<SimpleField name="leveling_height" type="string"></SimpleField>
	<SimpleField name="control_height" type="string"></SimpleField>
	<SimpleField name="benchmark_number" type="string"></SimpleField>
	<SimpleField name="control_location" type="string"></SimpleField>
	<SimpleField name="benchmark_type" type="string"></SimpleField>
	<SimpleField name="leveling_line_section" type="string"></SimpleField>
	<SimpleField name="location_description" type="string"></SimpleField>
	<SimpleField name="status" type="string"></SimpleField>
	<SimpleField name="guid" type="string"></SimpleField>
	<SimpleField name="kml" type="string"></SimpleField>
	<SimpleField name="kml_link" type="string"></SimpleField>
</Schema>
<Folder><name>ec829792</name>
  <Placemark id="ec829792.1">
	<name>3937</name>
	<description>грунт. реп.</description>
	<ExtendedData><SchemaData schemaUrl="#ec829792">
		<SimpleData name="type">1</SimpleData>
		<SimpleData name="view">132.517</SimpleData>
		<SimpleData name="leveling_order">131.518</SimpleData>
		<SimpleData name="leveling_height">контрольный репер в трубе</SimpleData>
		<SimpleData name="benchmark_number">107</SimpleData>
		<SimpleData name="control_location">Линия 1 класса :Тактайконыр -Семиозёрное(фунд.реп.83 -фунд.реп.349)  Участок :фунд.реп.893 -пир.3 кл.Алгабас</SimpleData>
		<SimpleData name="benchmark_type">Кайгы,с.,в 14.4 км к сев.от него,в 6.4 км к югу от вдхр.,в 0.1 км к зап.от грунт.дороги  с.Кайгы -с.Кожа(Новонаурызымский)</SimpleData>
		<SimpleData name="location_description">ec829792-23fc-4e7b-ba64-5c7b23b434a1</SimpleData>
		<SimpleData name="status">data/stations/ec829792.kml</SimpleData>
		<SimpleData name="guid">&lt;a href='data/stations/ec829792.kml' target='_blank'&gt;Download KML&lt;/a&gt;</SimpleData>
	</SchemaData></ExtendedData>
      <Point><coordinates>64.6838678106421,51.0907364605458</coordinates></Point>
  </Placemark>
</Folder>
</Document></kml>
