<?xml version="1.0" encoding="utf-8" ?>
<kml xmlns="http://www.opengis.net/kml/2.2">
<Document id="root_doc">
<Schema name="ed6ec3cf" id="ed6ec3cf">
	<SimpleField name="type" type="string"></SimpleField>
	<SimpleField name="view" type="string"></SimpleField>
	<SimpleField name="leveling_order" type="string"></SimpleField>
	<SimpleField name="leveling_height" type="string"></SimpleField>
	<SimpleField name="control_height" type="string"></SimpleField>
	<SimpleField name="benchmark_number" type="string"></SimpleField>
	<SimpleField name="control_location" type="string"></SimpleField>
	<SimpleField name="benchmark_type" type="string"></SimpleField>
	<SimpleField name="leveling_line_section" type="string"></SimpleField>
	<SimpleField name="location_description" type="string"></SimpleField>
	<SimpleField name="status" type="string"></SimpleField>
	<SimpleField name="guid" type="string"></SimpleField>
	<SimpleField name="kml" type="string"></SimpleField>
	<SimpleField name="kml_link" type="string"></SimpleField>
</Schema>
<Folder><name>ed6ec3cf</name>
  <Placemark id="ed6ec3cf.1">
	<name>508</name>
	<name>грунт.реп.</name>
	<description>грунт.реп.</description>
	<ExtendedData><SchemaData schemaUrl="#ed6ec3cf">
		<SimpleData name="type">II</SimpleData>
		<SimpleData name="view">395,030</SimpleData>
		<SimpleData name="benchmark_number">121оп.знак.</SimpleData>
		<SimpleData name="control_location">Линия № 1: Качагай-Акколь, II класс. Участок: грунт.реп. 4477-грунт.реп. 8600</SimpleData>
		<SimpleData name="benchmark_type">Баканас,с.,в 1,0 км к зап. от него, в 82 м к зап. от конторы метеостанции,  в 2 м к сев. От забора метеоплащадки</SimpleData>
		<SimpleData name="location_description">ed6ec3cf-033f-4720-9a21-caaa841b48ed</SimpleData>
		<SimpleData name="status">data/stations/ed6ec3cf.kml</SimpleData>
		<SimpleData name="guid">&lt;a href='data/stations/ed6ec3cf.kml' target='_blank'&gt;Download KML&lt;/a&gt;</SimpleData>
	</SchemaData></ExtendedData>
      <Point><coordinates>76.2517710574201,44.8247045497403</coordinates></Point>
  </Placemark>
</Folder>
</Document></kml>
