<?xml version="1.0" encoding="utf-8" ?>
<kml xmlns="http://www.opengis.net/kml/2.2">
<Document id="root_doc">
<Schema name="ed7ef8bd" id="ed7ef8bd">
	<SimpleField name="title" type="string"></SimpleField>
	<SimpleField name="type" type="string"></SimpleField>
	<SimpleField name="ext_sign" type="string"></SimpleField>
	<SimpleField name="class_lvl" type="string"></SimpleField>
	<SimpleField name="height_lvl" type="string"></SimpleField>
	<SimpleField name="height_ctrl" type="string"></SimpleField>
	<SimpleField name="ctrl_place" type="string"></SimpleField>
	<SimpleField name="mark_num" type="string"></SimpleField>
	<SimpleField name="center_type" type="string"></SimpleField>
	<SimpleField name="lvl_line" type="string"></SimpleField>
	<SimpleField name="guid" type="string"></SimpleField>
</Schema>
<Folder><name>ed7ef8bd</name>
  <Placemark id="ed7ef8bd.1">
	<name>3020</name>
	<ExtendedData><SchemaData schemaUrl="#ed7ef8bd">
		<SimpleData name="title">грунт.реп.</SimpleData>
		<SimpleData name="type">II</SimpleData>
		<SimpleData name="ext_sign">366.502</SimpleData>
		<SimpleData name="class_lvl">365.102</SimpleData>
		<SimpleData name="height_lvl">в верхней плоскости монолита</SimpleData>
		<SimpleData name="ctrl_place">121 оп. знак</SimpleData>
		<SimpleData name="mark_num">Линия № 1: Максимовка - Макинск, II класс, Участок: грунт.реп. 3002 - пир. 3 кл. Вознесенка</SimpleData>
		<SimpleData name="center_type">Каменка, с., в 3.7 км к сев.-вост. от него, в 1.5 км к сев.-зап. от летника, в 0.1 км к сев. от грунт. дороги с. Каменка - с. Тучное</SimpleData>
		<SimpleData name="lvl_line">ed7ef8bd-788a-4131-908c-edba0cce5cbf</SimpleData>
	</SchemaData></ExtendedData>
      <Point><coordinates>69.1121376058279,52.4025897803613</coordinates></Point>
  </Placemark>
</Folder>
</Document></kml>
