<?xml version="1.0" encoding="utf-8" ?>
<kml xmlns="http://www.opengis.net/kml/2.2">
<Document id="root_doc">
<Schema name="edb63018" id="edb63018">
	<SimpleField name="type" type="string"></SimpleField>
	<SimpleField name="view" type="string"></SimpleField>
	<SimpleField name="leveling_order" type="string"></SimpleField>
	<SimpleField name="leveling_height" type="string"></SimpleField>
	<SimpleField name="control_height" type="string"></SimpleField>
	<SimpleField name="benchmark_number" type="string"></SimpleField>
	<SimpleField name="control_location" type="string"></SimpleField>
	<SimpleField name="benchmark_type" type="string"></SimpleField>
	<SimpleField name="leveling_line_section" type="string"></SimpleField>
	<SimpleField name="location_description" type="string"></SimpleField>
	<SimpleField name="status" type="string"></SimpleField>
	<SimpleField name="guid" type="string"></SimpleField>
	<SimpleField name="kml" type="string"></SimpleField>
	<SimpleField name="kml_link" type="string"></SimpleField>
</Schema>
<Folder><name>edb63018</name>
  <Placemark id="edb63018.1">
	<name>2442</name>
	<name>грав.пункт</name>
	<ExtendedData><SchemaData schemaUrl="#edb63018">
		<SimpleData name="type">II</SimpleData>
		<SimpleData name="view">220.304</SimpleData>
		<SimpleData name="control_height">Контрольный репер № 7573 в
фундаментальной плите</SimpleData>
		<SimpleData name="benchmark_number">Г</SimpleData>
		<SimpleData name="control_location">Линия 2: Есиль-Атбасар. II  класс (1)
Участок: фунд.реп.3198 - грунт.реп.3151. Ход.от стен.реп.4014 до грунт.реп.72, II класс (1)</SimpleData>
		<SimpleData name="benchmark_type">Есиль,гор., ул. Советская 105, помещение гордероба учебно-производственного комбината, справа от центрального входа</SimpleData>
		<SimpleData name="location_description">edb63018-4280-440a-89e0-e51d4a08c394</SimpleData>
		<SimpleData name="status">data/stations/edb63018.kml</SimpleData>
		<SimpleData name="guid">&lt;a href='data/stations/edb63018.kml' target='_blank'&gt;Download KML&lt;/a&gt;</SimpleData>
	</SchemaData></ExtendedData>
      <Point><coordinates>66.4063880762859,51.9606350577562</coordinates></Point>
  </Placemark>
</Folder>
</Document></kml>
