<?xml version="1.0" encoding="utf-8" ?>
<kml xmlns="http://www.opengis.net/kml/2.2">
<Document id="root_doc">
<Schema name="edf24edf" id="edf24edf">
	<SimpleField name="title" type="string"></SimpleField>
	<SimpleField name="type" type="string"></SimpleField>
	<SimpleField name="ext_sign" type="string"></SimpleField>
	<SimpleField name="class_lvl" type="string"></SimpleField>
	<SimpleField name="height_lvl" type="string"></SimpleField>
	<SimpleField name="height_ctrl" type="string"></SimpleField>
	<SimpleField name="ctrl_place" type="string"></SimpleField>
	<SimpleField name="mark_num" type="string"></SimpleField>
	<SimpleField name="center_type" type="string"></SimpleField>
	<SimpleField name="lvl_line" type="string"></SimpleField>
	<SimpleField name="guid" type="string"></SimpleField>
</Schema>
<Folder><name>edf24edf</name>
  <Placemark id="edf24edf.1">
	<name>2445</name>
	<description>грунт. реп.</description>
	<ExtendedData><SchemaData schemaUrl="#edf24edf">
		<SimpleData name="type">1</SimpleData>
		<SimpleData name="ext_sign">182.994</SimpleData>
		<SimpleData name="ctrl_place">146 оп</SimpleData>
		<SimpleData name="mark_num">линия №1 Целиноград-Токтайконыр, I класс Участок: грунт.реп. 2929 - грунт.реп. 200</SimpleData>
		<SimpleData name="center_type">Горняк, свх., в 5.3 км к юго-зап. От него, в 0,8 км к зап. От р. Карынсалды, в 10 м к зап. От дорогои свх. Горняк-свх. Амантогайский</SimpleData>
		<SimpleData name="lvl_line">edf24edf-9661-4de6-a563-d0fc5e3ce8bf</SimpleData>
	</SchemaData></ExtendedData>
      <Point><coordinates>65.8528318567143,50.6796999151151</coordinates></Point>
  </Placemark>
</Folder>
</Document></kml>
