<?xml version="1.0" encoding="utf-8" ?>
<kml xmlns="http://www.opengis.net/kml/2.2">
<Document id="root_doc">
<Schema name="eed4d86e" id="eed4d86e">
	<SimpleField name="type" type="string"></SimpleField>
	<SimpleField name="view" type="string"></SimpleField>
	<SimpleField name="leveling_order" type="string"></SimpleField>
	<SimpleField name="leveling_height" type="string"></SimpleField>
	<SimpleField name="control_height" type="string"></SimpleField>
	<SimpleField name="benchmark_number" type="string"></SimpleField>
	<SimpleField name="control_location" type="string"></SimpleField>
	<SimpleField name="benchmark_type" type="string"></SimpleField>
	<SimpleField name="leveling_line_section" type="string"></SimpleField>
	<SimpleField name="location_description" type="string"></SimpleField>
	<SimpleField name="status" type="string"></SimpleField>
	<SimpleField name="guid" type="string"></SimpleField>
	<SimpleField name="kml" type="string"></SimpleField>
	<SimpleField name="kml_link" type="string"></SimpleField>
</Schema>
<Folder><name>eed4d86e</name>
  <Placemark id="eed4d86e.1">
	<name>8921</name>
	<name>грунт. реп.</name>
	<ExtendedData><SchemaData schemaUrl="#eed4d86e">
		<SimpleData name="type">2</SimpleData>
		<SimpleData name="view">531,324</SimpleData>
		<SimpleData name="benchmark_number">146 оп</SimpleData>
		<SimpleData name="control_location">Линия № 123: Усть-Каменогорск - Зайсан, II класс (14) Участок: грунт. реп. 4279 - грунт. реп. 4154</SimpleData>
		<SimpleData name="benchmark_type">Куйган, с., в 15.0 км к сев.-вост. от него, в 2.0 км к вост. от брода через р. Коинды, в 15 м к югу от дороги с. Сергеевка - с. Куйган, в 3 м к сев. от стб. 185 ЛЭП</SimpleData>
		<SimpleData name="location_description">eed4d86e-e645-4f32-a6d2-e86b4a179e57</SimpleData>
		<SimpleData name="status">data/stations/eed4d86e.kml</SimpleData>
		<SimpleData name="guid">&lt;a href='data/stations/eed4d86e.kml' target='_blank'&gt;Download KML&lt;/a&gt;</SimpleData>
	</SchemaData></ExtendedData>
      <Point><coordinates>83.6591828116014,48.7699130298884</coordinates></Point>
  </Placemark>
</Folder>
</Document></kml>
