<?xml version="1.0" encoding="utf-8" ?>
<kml xmlns="http://www.opengis.net/kml/2.2">
<Document id="root_doc">
<Schema name="ef6cb325" id="ef6cb325">
	<SimpleField name="type" type="string"></SimpleField>
	<SimpleField name="view" type="string"></SimpleField>
	<SimpleField name="leveling_order" type="string"></SimpleField>
	<SimpleField name="leveling_height" type="string"></SimpleField>
	<SimpleField name="control_height" type="string"></SimpleField>
	<SimpleField name="benchmark_number" type="string"></SimpleField>
	<SimpleField name="control_location" type="string"></SimpleField>
	<SimpleField name="benchmark_type" type="string"></SimpleField>
	<SimpleField name="leveling_line_section" type="string"></SimpleField>
	<SimpleField name="location_description" type="string"></SimpleField>
	<SimpleField name="status" type="string"></SimpleField>
	<SimpleField name="guid" type="string"></SimpleField>
	<SimpleField name="kml" type="string"></SimpleField>
	<SimpleField name="kml_link" type="string"></SimpleField>
</Schema>
<Folder><name>ef6cb325</name>
  <Placemark id="ef6cb325.1">
	<name>0826</name>
	<name>грунтовый репер</name>
	<ExtendedData><SchemaData schemaUrl="#ef6cb325">
		<SimpleData name="type">II</SimpleData>
		<SimpleData name="view">518.589</SimpleData>
		<SimpleData name="benchmark_number">146</SimpleData>
		<SimpleData name="control_location">Линия №17: грунт.реп. 1008 - марка 3487, II класс (3)</SimpleData>
		<SimpleData name="benchmark_type">Майкудук, с., в 1.6 км к сев. от него, в 0.2 км к вост. от жел.-дор. полотна</SimpleData>
		<SimpleData name="location_description">ef6cb325-84a2-4cb4-9e59-f41174802429</SimpleData>
		<SimpleData name="status">data/stations/ef6cb325.kml</SimpleData>
		<SimpleData name="guid">&lt;a href='data/stations/ef6cb325.kml' target='_blank'&gt;Download KML&lt;/a&gt;</SimpleData>
	</SchemaData></ExtendedData>
      <Point><coordinates>73.1946371520452,49.9185207387204</coordinates></Point>
  </Placemark>
</Folder>
</Document></kml>
