<?xml version="1.0" encoding="UTF-8"?>
<kml xmlns="http://www.opengis.net/kml/2.2">
  <Document id="root_doc">
    <Schema id="ef77489e" name="ef77489e">
      <SimpleField name="title" type="string"/>
      <SimpleField name="type" type="string"/>
      <SimpleField name="ext_sign" type="string"/>
      <SimpleField name="class_lvl" type="string"/>
      <SimpleField name="height_lvl" type="string"/>
      <SimpleField name="height_ctrl" type="string"/>
      <SimpleField name="ctrl_place" type="string"/>
      <SimpleField name="mark_num" type="string"/>
      <SimpleField name="center_type" type="string"/>
      <SimpleField name="lvl_line" type="string"/>
      <SimpleField name="guid" type="string"/>
    </Schema>
    <Schema id="ef77489e.schema">
      <SimpleField name="title" type="string"/>
      <SimpleField name="type" type="string"/>
      <SimpleField name="ext_sign" type="string"/>
      <SimpleField name="class_lvl" type="string"/>
      <SimpleField name="height_lvl" type="string"/>
      <SimpleField name="height_ctrl" type="string"/>
      <SimpleField name="ctrl_place" type="string"/>
      <SimpleField name="mark_num" type="string"/>
      <SimpleField name="center_type" type="string"/>
      <SimpleField name="lvl_line" type="string"/>
      <SimpleField name="guid" type="string"/>
    </Schema>
    <Document id="ef77489e">
      <name>ef77489e</name>
      <Placemark id="ef77489e.1">
        <description>Сарысу. р., в 1.2 км к сев.-зап. от нее,    в 0.2 км к югу от км. стб. 142, в 35 м       к вост. от дороги гор.Жезказган -      гор. Кызылорда, на 142 км</description>
        <ExtendedData>
          <SchemaData schemaUrl="#ef77489e.schema">
            <SimpleData name="title">5857</SimpleData>
            <SimpleData name="type">грунтовый репер</SimpleData>
            <SimpleData name="ext_sign">грунтовый репер</SimpleData>
            <SimpleData name="class_lvl">2</SimpleData>
            <SimpleData name="height_lvl">229,258</SimpleData>
            <SimpleData name="lvl_line">Линия № 1: Жезказган - Caрысу. ІІ класс (2) Участок: - грунт реп. 730 - грунт.реп. 9470</SimpleData>
            <SimpleData name="guid">ef77489e-5b06-4a0b-9e65-692437cfe635</SimpleData>
          </SchemaData>
        </ExtendedData>
        <Point>
          <coordinates>
            67.5130932231216,46.5917075110204,0
          </coordinates>
        </Point>
      </Placemark>
    </Document>
  </Document>
</kml>
