<?xml version="1.0" encoding="utf-8" ?>
<kml xmlns="http://www.opengis.net/kml/2.2">
<Document id="root_doc">
<Schema name="ef90ce4e" id="ef90ce4e">
	<SimpleField name="title" type="string"></SimpleField>
	<SimpleField name="type" type="string"></SimpleField>
	<SimpleField name="ext_sign" type="string"></SimpleField>
	<SimpleField name="class_lvl" type="string"></SimpleField>
	<SimpleField name="height_lvl" type="string"></SimpleField>
	<SimpleField name="height_ctrl" type="string"></SimpleField>
	<SimpleField name="ctrl_place" type="string"></SimpleField>
	<SimpleField name="mark_num" type="string"></SimpleField>
	<SimpleField name="center_type" type="string"></SimpleField>
	<SimpleField name="lvl_line" type="string"></SimpleField>
	<SimpleField name="guid" type="string"></SimpleField>
</Schema>
<Folder><name>ef90ce4e</name>
  <Placemark id="ef90ce4e.1">
	<name>Закладка 15</name>
	<ExtendedData><SchemaData schemaUrl="#ef90ce4e">
		<SimpleData name="center_type">Требует закладки </SimpleData>
		<SimpleData name="lvl_line">ef90ce4e-9fb4-4956-955d-631cb6d638c1</SimpleData>
	</SchemaData></ExtendedData>
      <Point><coordinates>64.8484816666667,44.7709033333333</coordinates></Point>
  </Placemark>
</Folder>
</Document></kml>
