<?xml version="1.0" encoding="utf-8" ?>
<kml xmlns="http://www.opengis.net/kml/2.2">
<Document id="root_doc">
<Schema name="efb8c87a" id="efb8c87a">
	<SimpleField name="type" type="string"></SimpleField>
	<SimpleField name="view" type="string"></SimpleField>
	<SimpleField name="leveling_order" type="string"></SimpleField>
	<SimpleField name="leveling_height" type="string"></SimpleField>
	<SimpleField name="control_height" type="string"></SimpleField>
	<SimpleField name="benchmark_number" type="string"></SimpleField>
	<SimpleField name="control_location" type="string"></SimpleField>
	<SimpleField name="benchmark_type" type="string"></SimpleField>
	<SimpleField name="leveling_line_section" type="string"></SimpleField>
	<SimpleField name="location_description" type="string"></SimpleField>
	<SimpleField name="status" type="string"></SimpleField>
	<SimpleField name="guid" type="string"></SimpleField>
	<SimpleField name="kml" type="string"></SimpleField>
	<SimpleField name="kml_link" type="string"></SimpleField>
</Schema>
<Folder><name>efb8c87a</name>
  <Placemark id="efb8c87a.1">
	<name>7512</name>
	<name>грунт. реп.</name>
	<ExtendedData><SchemaData schemaUrl="#efb8c87a">
		<SimpleData name="type">2</SimpleData>
		<SimpleData name="view">91.724</SimpleData>
		<SimpleData name="benchmark_number">160 оп</SimpleData>
		<SimpleData name="control_location">Линия №4: Ащылысай - Майлыозек, 2 класс. Участок: фунд.реп. 3917 - грунт.реп. 7512</SimpleData>
		<SimpleData name="benchmark_type">Комекбаев, с., в 15,3 км к сев.-зап.от него, в 2,1 км к сев.от кладб. Кольдытам, в 0,2 км к вост.от р. Куандария и брода, в 12 м к сев.от полевой дороги </SimpleData>
		<SimpleData name="location_description">efb8c87a-9010-481c-afda-f495d225f315</SimpleData>
		<SimpleData name="status">data/stations/efb8c87a.kml</SimpleData>
		<SimpleData name="guid">&lt;a href='data/stations/efb8c87a.kml' target='_blank'&gt;Download KML&lt;/a&gt;</SimpleData>
	</SchemaData></ExtendedData>
      <Point><coordinates>63.004133199699,44.8757457140474</coordinates></Point>
  </Placemark>
</Folder>
</Document></kml>
