<?xml version="1.0" encoding="utf-8" ?>
<kml xmlns="http://www.opengis.net/kml/2.2">
<Document id="root_doc">
<Schema name="efd35339" id="efd35339">
	<SimpleField name="type" type="string"></SimpleField>
	<SimpleField name="view" type="string"></SimpleField>
	<SimpleField name="leveling_order" type="string"></SimpleField>
	<SimpleField name="leveling_height" type="string"></SimpleField>
	<SimpleField name="control_height" type="string"></SimpleField>
	<SimpleField name="benchmark_number" type="string"></SimpleField>
	<SimpleField name="control_location" type="string"></SimpleField>
	<SimpleField name="benchmark_type" type="string"></SimpleField>
	<SimpleField name="leveling_line_section" type="string"></SimpleField>
	<SimpleField name="location_description" type="string"></SimpleField>
	<SimpleField name="status" type="string"></SimpleField>
	<SimpleField name="guid" type="string"></SimpleField>
	<SimpleField name="kml" type="string"></SimpleField>
	<SimpleField name="kml_link" type="string"></SimpleField>
</Schema>
<Folder><name>efd35339</name>
  <Placemark id="efd35339.1">
	<name>4</name>
	<name>фундаментальный репер</name>
	<ExtendedData><SchemaData schemaUrl="#efd35339">
		<SimpleData name="type">II</SimpleData>
		<SimpleData name="view">321,933</SimpleData>
		<SimpleData name="leveling_order">320,633</SimpleData>
		<SimpleData name="control_height">контрольный репер в фундаментальной плите</SimpleData>
		<SimpleData name="benchmark_number">161оп</SimpleData>
		<SimpleData name="control_location">Линия №1: Карасорвкий - Сарыкияк, II класс (1) Участок: ск. реп. 6100 - грунт. реп. 8674</SimpleData>
		<SimpleData name="benchmark_type">Сарыбулак, лет., в 2.8 км к юго-вост. от него, в 0.7 км к сев.-зап. от полевого стана, в 0.3 км к сев. от полевой дороги</SimpleData>
		<SimpleData name="location_description">efd35339-a8f0-4c35-a712-1a1a10d714a5</SimpleData>
		<SimpleData name="status">data/stations/efd35339.kml</SimpleData>
		<SimpleData name="guid">&lt;a href='data/stations/efd35339.kml' target='_blank'&gt;Download KML&lt;/a&gt;</SimpleData>
	</SchemaData></ExtendedData>
      <Point><coordinates>75.261104051422,51.2043221127201</coordinates></Point>
  </Placemark>
</Folder>
</Document></kml>
