<?xml version="1.0" encoding="utf-8" ?>
<kml xmlns="http://www.opengis.net/kml/2.2">
<Document id="root_doc">
<Schema name="eff909ef" id="eff909ef">
	<SimpleField name="title" type="string"></SimpleField>
	<SimpleField name="type" type="string"></SimpleField>
	<SimpleField name="ext_sign" type="string"></SimpleField>
	<SimpleField name="class_lvl" type="string"></SimpleField>
	<SimpleField name="height_lvl" type="string"></SimpleField>
	<SimpleField name="height_ctrl" type="string"></SimpleField>
	<SimpleField name="ctrl_place" type="string"></SimpleField>
	<SimpleField name="mark_num" type="string"></SimpleField>
	<SimpleField name="center_type" type="string"></SimpleField>
	<SimpleField name="lvl_line" type="string"></SimpleField>
	<SimpleField name="guid" type="string"></SimpleField>
</Schema>
<Folder><name>eff909ef</name>
  <Placemark id="eff909ef.1">
	<name>7063</name>
	<description>грунт.реп.</description>
	<ExtendedData><SchemaData schemaUrl="#eff909ef">
		<SimpleData name="type">2</SimpleData>
		<SimpleData name="ext_sign">37.014</SimpleData>
		<SimpleData name="ctrl_place">146</SimpleData>
		<SimpleData name="mark_num">Линия: Аккудук-Караумбет</SimpleData>
		<SimpleData name="center_type">Аккудук,с., в 12.5 км к ев.-вост.от него, в 3.5 км к юго-зап.от обрыва хребта Жассынагы, в 3 м к югу от дороги с.Аккудук-к.Айтманащы</SimpleData>
		<SimpleData name="lvl_line">eff909ef-b6d4-4b5a-a8b1-b39e249e32c2</SimpleData>
	</SchemaData></ExtendedData>
      <Point><coordinates>54.2323893292271,43.0250870185452</coordinates></Point>
  </Placemark>
</Folder>
</Document></kml>
