<?xml version="1.0" encoding="utf-8" ?>
<kml xmlns="http://www.opengis.net/kml/2.2">
<Document id="root_doc">
<Schema name="f067ebfe" id="f067ebfe">
	<SimpleField name="title" type="string"></SimpleField>
	<SimpleField name="type" type="string"></SimpleField>
	<SimpleField name="ext_sign" type="string"></SimpleField>
	<SimpleField name="class_lvl" type="string"></SimpleField>
	<SimpleField name="height_lvl" type="string"></SimpleField>
	<SimpleField name="height_ctrl" type="string"></SimpleField>
	<SimpleField name="ctrl_place" type="string"></SimpleField>
	<SimpleField name="mark_num" type="string"></SimpleField>
	<SimpleField name="center_type" type="string"></SimpleField>
	<SimpleField name="lvl_line" type="string"></SimpleField>
	<SimpleField name="guid" type="string"></SimpleField>
</Schema>
<Folder><name>f067ebfe</name>
  <Placemark id="f067ebfe.1">
	<name>91685</name>
	<description>грунтовый репер</description>
	<ExtendedData><SchemaData schemaUrl="#f067ebfe">
		<SimpleData name="type">1</SimpleData>
		<SimpleData name="ext_sign">426.212</SimpleData>
		<SimpleData name="height_ctrl">3115</SimpleData>
		<SimpleData name="ctrl_place">121</SimpleData>
		<SimpleData name="center_type">Разъезд №45 (разв.), в 5.0 км к юго-вост. от него, в 40 м к сев.-вост. от ж.д. полотна, около км стб.574/575. </SimpleData>
		<SimpleData name="lvl_line">f067ebfe-2f85-4220-9558-e4b50458516c</SimpleData>
	</SchemaData></ExtendedData>
      <Point><coordinates>72.2839209535755,50.7297062282794</coordinates></Point>
  </Placemark>
</Folder>
</Document></kml>
