<?xml version="1.0" encoding="UTF-8"?>
<kml xmlns="http://www.opengis.net/kml/2.2">
  <Document id="root_doc">
    <Schema id="f09f32b1" name="f09f32b1">
      <SimpleField name="title" type="string"/>
      <SimpleField name="type" type="string"/>
      <SimpleField name="ext_sign" type="string"/>
      <SimpleField name="class_lvl" type="string"/>
      <SimpleField name="height_lvl" type="string"/>
      <SimpleField name="height_ctrl" type="string"/>
      <SimpleField name="ctrl_place" type="string"/>
      <SimpleField name="mark_num" type="string"/>
      <SimpleField name="center_type" type="string"/>
      <SimpleField name="lvl_line" type="string"/>
      <SimpleField name="guid" type="string"/>
    </Schema>
    <Schema id="f09f32b1.schema">
      <SimpleField name="title" type="string"/>
      <SimpleField name="type" type="string"/>
      <SimpleField name="ext_sign" type="string"/>
      <SimpleField name="class_lvl" type="string"/>
      <SimpleField name="height_lvl" type="string"/>
      <SimpleField name="height_ctrl" type="string"/>
      <SimpleField name="ctrl_place" type="string"/>
      <SimpleField name="mark_num" type="string"/>
      <SimpleField name="center_type" type="string"/>
      <SimpleField name="lvl_line" type="string"/>
      <SimpleField name="guid" type="string"/>
    </Schema>
    <Document id="f09f32b1">
      <name>f09f32b1</name>
      <Placemark id="f09f32b1.1">
        <description>Басбульдурук. пир. 2 кл., в 9.4 км к вост. от нее, в 4.7 км к сев.-зап. от пир. 2 кл. Сорбулак, в 3.5 км к юго-вост. от к. Бескудук</description>
        <ExtendedData>
          <SchemaData schemaUrl="#f09f32b1.schema">
            <SimpleData name="title">5741</SimpleData>
            <SimpleData name="type">грунтовый репер</SimpleData>
            <SimpleData name="ext_sign">грунтовый репер</SimpleData>
            <SimpleData name="class_lvl">2</SimpleData>
            <SimpleData name="height_lvl">193,082</SimpleData>
            <SimpleData name="center_type">162 оп. знак</SimpleData>
            <SimpleData name="lvl_line">Участок: грунт, реп. 9314 - грунт.реп. 5741</SimpleData>
            <SimpleData name="guid">f09f32b1-4b81-4be2-81e6-a72d914f091b</SimpleData>
          </SchemaData>
        </ExtendedData>
        <Point>
          <coordinates>
            68.0457368548464,46.0822278351143,0
          </coordinates>
        </Point>
      </Placemark>
    </Document>
  </Document>
</kml>
