<?xml version="1.0" encoding="utf-8" ?>
<kml xmlns="http://www.opengis.net/kml/2.2">
<Document id="root_doc">
<Schema name="f0cbb31a" id="f0cbb31a">
	<SimpleField name="type" type="string"></SimpleField>
	<SimpleField name="view" type="string"></SimpleField>
	<SimpleField name="leveling_order" type="string"></SimpleField>
	<SimpleField name="leveling_height" type="string"></SimpleField>
	<SimpleField name="control_height" type="string"></SimpleField>
	<SimpleField name="benchmark_number" type="string"></SimpleField>
	<SimpleField name="control_location" type="string"></SimpleField>
	<SimpleField name="benchmark_type" type="string"></SimpleField>
	<SimpleField name="leveling_line_section" type="string"></SimpleField>
	<SimpleField name="location_description" type="string"></SimpleField>
	<SimpleField name="status" type="string"></SimpleField>
	<SimpleField name="guid" type="string"></SimpleField>
	<SimpleField name="kml" type="string"></SimpleField>
	<SimpleField name="kml_link" type="string"></SimpleField>
</Schema>
<Folder><name>f0cbb31a</name>
  <Placemark id="f0cbb31a.1">
	<name>4013</name>
	<description>грунт. реп.</description>
	<ExtendedData><SchemaData schemaUrl="#f0cbb31a">
		<SimpleData name="type">1</SimpleData>
		<SimpleData name="view">98.024</SimpleData>
		<SimpleData name="leveling_order">96.321</SimpleData>
		<SimpleData name="leveling_height">Контрольный репер в верхней плоскости монолита</SimpleData>
		<SimpleData name="benchmark_number">160 оп</SimpleData>
		<SimpleData name="control_location">Линия №1 : Аральск - Айтеке Би (Новоказалинск) - Жосалы . I класс . Участок : грунт. реп. 553 - марка 4359</SimpleData>
		<SimpleData name="benchmark_type">Диирментобе. станц. . в 4.1 км к сев.- вост.от неё. на 7 ПК 26261 км жел. дор. . в 42 м к юго- вост. от оси жел.- дор. полотна</SimpleData>
		<SimpleData name="location_description">f0cbb31a-2fc6-4d3d-9f6b-2013b3855348</SimpleData>
		<SimpleData name="status">data/stations/f0cbb31a.kml</SimpleData>
		<SimpleData name="guid">&lt;a href='data/stations/f0cbb31a.kml' target='_blank'&gt;Download KML&lt;/a&gt;</SimpleData>
	</SchemaData></ExtendedData>
      <Point><coordinates>63.6841491117833,45.7581842321057</coordinates></Point>
  </Placemark>
</Folder>
</Document></kml>
