<?xml version="1.0" encoding="utf-8" ?>
<kml xmlns="http://www.opengis.net/kml/2.2">
<Document id="root_doc">
<Schema name="f0ffed5d" id="f0ffed5d">
	<SimpleField name="title" type="string"></SimpleField>
	<SimpleField name="type" type="string"></SimpleField>
	<SimpleField name="ext_sign" type="string"></SimpleField>
	<SimpleField name="class_lvl" type="string"></SimpleField>
	<SimpleField name="height_lvl" type="string"></SimpleField>
	<SimpleField name="height_ctrl" type="string"></SimpleField>
	<SimpleField name="ctrl_place" type="string"></SimpleField>
	<SimpleField name="mark_num" type="string"></SimpleField>
	<SimpleField name="center_type" type="string"></SimpleField>
	<SimpleField name="lvl_line" type="string"></SimpleField>
	<SimpleField name="guid" type="string"></SimpleField>
</Schema>
<Folder><name>f0ffed5d</name>
  <Placemark id="f0ffed5d.1">
	<name>0757</name>
	<description>грунтовый репер</description>
	<ExtendedData><SchemaData schemaUrl="#f0ffed5d">
		<SimpleData name="type">1</SimpleData>
		<SimpleData name="ext_sign">345,871</SimpleData>
		<SimpleData name="ctrl_place">160 оп,зн</SimpleData>
		<SimpleData name="mark_num">Линия № 1: Тюемойнак - Торетоган, I класс (1) Участок: грунт, реп, 2929 - грунт,реп, 1029</SimpleData>
		<SimpleData name="center_type">Сатыбалды, к,, в 5,3 км к сев, от него, в 2,3 км к юго-зап, от пир, 3 кл, Карлы, в 10 м к вост, от полевой дороги</SimpleData>
		<SimpleData name="lvl_line">f0ffed5d-791e-4649-9fae-b41c1972c154</SimpleData>
	</SchemaData></ExtendedData>
      <Point><coordinates>69.3446248850881,46.6393947338313</coordinates></Point>
  </Placemark>
</Folder>
</Document></kml>
