<?xml version="1.0" encoding="UTF-8"?>
<kml xmlns="http://www.opengis.net/kml/2.2">
  <Document id="root_doc">
    <Schema id="f11c6af5" name="f11c6af5">
      <SimpleField name="title" type="string"/>
      <SimpleField name="type" type="string"/>
      <SimpleField name="ext_sign" type="string"/>
      <SimpleField name="class_lvl" type="string"/>
      <SimpleField name="height_lvl" type="string"/>
      <SimpleField name="height_ctrl" type="string"/>
      <SimpleField name="ctrl_place" type="string"/>
      <SimpleField name="mark_num" type="string"/>
      <SimpleField name="center_type" type="string"/>
      <SimpleField name="lvl_line" type="string"/>
      <SimpleField name="guid" type="string"/>
    </Schema>
    <Schema id="f11c6af5.schema">
      <SimpleField name="title" type="string"/>
      <SimpleField name="type" type="string"/>
      <SimpleField name="ext_sign" type="string"/>
      <SimpleField name="class_lvl" type="string"/>
      <SimpleField name="height_lvl" type="string"/>
      <SimpleField name="height_ctrl" type="string"/>
      <SimpleField name="ctrl_place" type="string"/>
      <SimpleField name="mark_num" type="string"/>
      <SimpleField name="center_type" type="string"/>
      <SimpleField name="lvl_line" type="string"/>
      <SimpleField name="guid" type="string"/>
    </Schema>
    <Document id="f11c6af5">
      <name>f11c6af5</name>
      <Placemark id="f11c6af5.1">
        <description>Саура,рыб.пром., в 1.5 км к сев..-вост.от него, в 150 м к западу.от фунд.реп.12-802 , в 50 м к сев-вост.от дороги с.Караманды-гор.форт-Шевченко</description>
        <ExtendedData>
          <SchemaData schemaUrl="#f11c6af5.schema">
            <SimpleData name="title">12-172</SimpleData>
            <SimpleData name="ext_sign">ск.реп</SimpleData>
            <SimpleData name="class_lvl">1</SimpleData>
            <SimpleData name="height_lvl">53.765</SimpleData>
            <SimpleData name="center_type">9</SimpleData>
            <SimpleData name="lvl_line">Линия №11: ск.реп.397-ск.реп.264,1 кл(2)</SimpleData>
            <SimpleData name="guid">f11c6af5-96a8-43d2-832f-f20ac70afffb</SimpleData>
          </SchemaData>
        </ExtendedData>
        <Point>
          <coordinates>
            50.8260274958738,44.2383264232046,0
          </coordinates>
        </Point>
      </Placemark>
    </Document>
  </Document>
</kml>
