<?xml version="1.0" encoding="utf-8" ?>
<kml xmlns="http://www.opengis.net/kml/2.2">
<Document id="root_doc">
<Schema name="f13e15c8" id="f13e15c8">
	<SimpleField name="type" type="string"></SimpleField>
	<SimpleField name="view" type="string"></SimpleField>
	<SimpleField name="leveling_order" type="string"></SimpleField>
	<SimpleField name="leveling_height" type="string"></SimpleField>
	<SimpleField name="control_height" type="string"></SimpleField>
	<SimpleField name="benchmark_number" type="string"></SimpleField>
	<SimpleField name="control_location" type="string"></SimpleField>
	<SimpleField name="benchmark_type" type="string"></SimpleField>
	<SimpleField name="leveling_line_section" type="string"></SimpleField>
	<SimpleField name="location_description" type="string"></SimpleField>
	<SimpleField name="status" type="string"></SimpleField>
	<SimpleField name="guid" type="string"></SimpleField>
	<SimpleField name="kml" type="string"></SimpleField>
	<SimpleField name="kml_link" type="string"></SimpleField>
</Schema>
<Folder><name>f13e15c8</name>
  <Placemark id="f13e15c8.1">
	<name>58</name>
	<name>грунтовый репер</name>
	<ExtendedData><SchemaData schemaUrl="#f13e15c8">
		<SimpleData name="type">2</SimpleData>
		<SimpleData name="view">250,767</SimpleData>
		<SimpleData name="leveling_height">248,750</SimpleData>
		<SimpleData name="benchmark_number">в верхней плоскости монолита</SimpleData>
		<SimpleData name="control_location">Линия № 1: Кендырлык (Айгарлык) - Кичиктай. 2 класс (2) Участок: грунт, реп. 8261 - грунт.реп. 3385</SimpleData>
		<SimpleData name="benchmark_type">Кендирлик, род., в 50 м к юго-зап. от пего, в 0.3 км к зап. от пов. грунт, дороги гор. Жезказган - с. Созак </SimpleData>
		<SimpleData name="location_description">f13e15c8-2e37-4bc7-b48e-7658d761ed48</SimpleData>
		<SimpleData name="status">data/stations/f13e15c8.kml</SimpleData>
		<SimpleData name="guid">&lt;a href='data/stations/f13e15c8.kml' target='_blank'&gt;Download KML&lt;/a&gt;</SimpleData>
	</SchemaData></ExtendedData>
      <Point><coordinates>68.1849301422154,45.978697910685</coordinates></Point>
  </Placemark>
</Folder>
</Document></kml>
