<?xml version="1.0" encoding="utf-8" ?>
<kml xmlns="http://www.opengis.net/kml/2.2">
<Document id="root_doc">
<Schema name="f1436406" id="f1436406">
	<SimpleField name="type" type="string"></SimpleField>
	<SimpleField name="view" type="string"></SimpleField>
	<SimpleField name="leveling_order" type="string"></SimpleField>
	<SimpleField name="leveling_height" type="string"></SimpleField>
	<SimpleField name="control_height" type="string"></SimpleField>
	<SimpleField name="benchmark_number" type="string"></SimpleField>
	<SimpleField name="control_location" type="string"></SimpleField>
	<SimpleField name="benchmark_type" type="string"></SimpleField>
	<SimpleField name="leveling_line_section" type="string"></SimpleField>
	<SimpleField name="location_description" type="string"></SimpleField>
	<SimpleField name="status" type="string"></SimpleField>
	<SimpleField name="guid" type="string"></SimpleField>
	<SimpleField name="kml" type="string"></SimpleField>
	<SimpleField name="kml_link" type="string"></SimpleField>
</Schema>
<Folder><name>f1436406</name>
  <Placemark id="f1436406.1">
	<name>6883</name>
	<name>грунт.реп.</name>
	<ExtendedData><SchemaData schemaUrl="#f1436406">
		<SimpleData name="type">II</SimpleData>
		<SimpleData name="view">546.674</SimpleData>
		<SimpleData name="benchmark_number">160 оп.знак</SimpleData>
		<SimpleData name="control_location">Линия № 2:Акозек - Кaрacу. II класс                         </SimpleData>
		<SimpleData name="benchmark_type">Жанаорталык,с., в 9.3км к сев.-вост. от него, в 4.1км к юго-вост. от мог. Айтен, в 1.3км от поворотного стб. ЛЭП нефтепровода, в 1.3км к югу от охранного стб. №340 нефтепровода</SimpleData>
		<SimpleData name="location_description">f1436406-142a-4678-a9f2-1204c1f0690e</SimpleData>
		<SimpleData name="status">data/stations/f1436406.kml</SimpleData>
		<SimpleData name="guid">&lt;a href='data/stations/f1436406.kml' target='_blank'&gt;Download KML&lt;/a&gt;</SimpleData>
	</SchemaData></ExtendedData>
      <Point><coordinates>75.7357456043455,47.6740370930172</coordinates></Point>
  </Placemark>
</Folder>
</Document></kml>
