<?xml version="1.0" encoding="utf-8" ?>
<kml xmlns="http://www.opengis.net/kml/2.2">
<Document id="root_doc">
<Schema name="f16560d9" id="f16560d9">
	<SimpleField name="title" type="string"></SimpleField>
	<SimpleField name="type" type="string"></SimpleField>
	<SimpleField name="ext_sign" type="string"></SimpleField>
	<SimpleField name="class_lvl" type="string"></SimpleField>
	<SimpleField name="height_lvl" type="string"></SimpleField>
	<SimpleField name="height_ctrl" type="string"></SimpleField>
	<SimpleField name="ctrl_place" type="string"></SimpleField>
	<SimpleField name="mark_num" type="string"></SimpleField>
	<SimpleField name="center_type" type="string"></SimpleField>
	<SimpleField name="lvl_line" type="string"></SimpleField>
	<SimpleField name="guid" type="string"></SimpleField>
</Schema>
<Folder><name>f16560d9</name>
  <Placemark id="f16560d9.1">
	<name>Закладка 1</name>
	<ExtendedData><SchemaData schemaUrl="#f16560d9">
		<SimpleData name="center_type">В 25 м к востоку от полевой дороги </SimpleData>
		<SimpleData name="lvl_line">f16560d9-adcb-4691-a87b-861c5de0ecf4</SimpleData>
	</SchemaData></ExtendedData>
      <Point><coordinates>62.0922228068067,45.0564264759993</coordinates></Point>
  </Placemark>
</Folder>
</Document></kml>
