<?xml version="1.0" encoding="utf-8" ?>
<kml xmlns="http://www.opengis.net/kml/2.2">
<Document id="root_doc">
<Schema name="f16f86da" id="f16f86da">
	<SimpleField name="title" type="string"></SimpleField>
	<SimpleField name="type" type="string"></SimpleField>
	<SimpleField name="ext_sign" type="string"></SimpleField>
	<SimpleField name="class_lvl" type="string"></SimpleField>
	<SimpleField name="height_lvl" type="string"></SimpleField>
	<SimpleField name="height_ctrl" type="string"></SimpleField>
	<SimpleField name="ctrl_place" type="string"></SimpleField>
	<SimpleField name="mark_num" type="string"></SimpleField>
	<SimpleField name="center_type" type="string"></SimpleField>
	<SimpleField name="lvl_line" type="string"></SimpleField>
	<SimpleField name="guid" type="string"></SimpleField>
</Schema>
<Folder><name>f16f86da</name>
  <Placemark id="f16f86da.1">
	<name>4749</name>
	<ExtendedData><SchemaData schemaUrl="#f16f86da">
		<SimpleData name="title">грунт.реп.</SimpleData>
		<SimpleData name="type">2</SimpleData>
		<SimpleData name="ext_sign">45.141</SimpleData>
		<SimpleData name="ctrl_place">5</SimpleData>
		<SimpleData name="mark_num">Линия Уральск-Джамбейты Нивелирование 2 класса, 1980 г., Предприятие №6 Работа № М-39-31,32,44,45,57,58,70</SimpleData>
		<SimpleData name="center_type">Тасшеген,с., в 6.9 км к юго-вост.77.2 от него, в 1.7 км к сев.от кладб.у п.трианг.около трех курганов, в 0.3 км к юго-вост.от км стб.58/413 по шоссе Уральск-Актюбинск, в 64 м к сев-вост.от оси шосе, в 200 м к вост.от линии связи , в 7 м к зап.от полевой дороги, на краю небольшой бровки</SimpleData>
		<SimpleData name="lvl_line">f16f86da-e249-4daf-9150-8abecb6ced58</SimpleData>
	</SchemaData></ExtendedData>
      <Point><coordinates>51.85704829,50.80237861</coordinates></Point>
  </Placemark>
</Folder>
</Document></kml>
