<?xml version="1.0" encoding="utf-8" ?>
<kml xmlns="http://www.opengis.net/kml/2.2">
<Document id="root_doc">
<Schema name="f1de3135" id="f1de3135">
	<SimpleField name="title" type="string"></SimpleField>
	<SimpleField name="type" type="string"></SimpleField>
	<SimpleField name="ext_sign" type="string"></SimpleField>
	<SimpleField name="class_lvl" type="string"></SimpleField>
	<SimpleField name="height_lvl" type="string"></SimpleField>
	<SimpleField name="height_ctrl" type="string"></SimpleField>
	<SimpleField name="ctrl_place" type="string"></SimpleField>
	<SimpleField name="mark_num" type="string"></SimpleField>
	<SimpleField name="center_type" type="string"></SimpleField>
	<SimpleField name="lvl_line" type="string"></SimpleField>
	<SimpleField name="guid" type="string"></SimpleField>
</Schema>
<Folder><name>f1de3135</name>
  <Placemark id="f1de3135.1">
	<name>5379</name>
	<ExtendedData><SchemaData schemaUrl="#f1de3135">
		<SimpleData name="title">грунт. реп.</SimpleData>
		<SimpleData name="type">4</SimpleData>
		<SimpleData name="ext_sign">137,435</SimpleData>
		<SimpleData name="class_lvl">135,84</SimpleData>
		<SimpleData name="height_lvl">Контрольный репер в верхней плоскости монолита</SimpleData>
		<SimpleData name="ctrl_place">121 оп</SimpleData>
		<SimpleData name="mark_num">Линия №20: грунт. реп. 4637 - грунт. реп. 5208, IV класс</SimpleData>
		<SimpleData name="center_type">Мураткали, зим., в 7.3 км к юго-зап. от неё, в 4.0 км к сев.-зап. от ур. Терскенбидаик, в 2.5 км к югу от полевой дороги</SimpleData>
		<SimpleData name="lvl_line">f1de3135-0475-455d-a528-162109c99e0d</SimpleData>
	</SchemaData></ExtendedData>
      <Point><coordinates>64.0412454092247,48.5178797170467</coordinates></Point>
  </Placemark>
</Folder>
</Document></kml>
