<?xml version="1.0" encoding="utf-8" ?>
<kml xmlns="http://www.opengis.net/kml/2.2">
<Document id="root_doc">
<Schema name="f22b68d2" id="f22b68d2">
	<SimpleField name="type" type="string"></SimpleField>
	<SimpleField name="view" type="string"></SimpleField>
	<SimpleField name="leveling_order" type="string"></SimpleField>
	<SimpleField name="leveling_height" type="string"></SimpleField>
	<SimpleField name="control_height" type="string"></SimpleField>
	<SimpleField name="benchmark_number" type="string"></SimpleField>
	<SimpleField name="control_location" type="string"></SimpleField>
	<SimpleField name="benchmark_type" type="string"></SimpleField>
	<SimpleField name="leveling_line_section" type="string"></SimpleField>
	<SimpleField name="location_description" type="string"></SimpleField>
	<SimpleField name="status" type="string"></SimpleField>
	<SimpleField name="guid" type="string"></SimpleField>
	<SimpleField name="kml" type="string"></SimpleField>
	<SimpleField name="kml_link" type="string"></SimpleField>
</Schema>
<Folder><name>f22b68d2</name>
  <Placemark id="f22b68d2.1">
	<name>1405</name>
	<name>стен. реп.</name>
	<ExtendedData><SchemaData schemaUrl="#f22b68d2">
		<SimpleData name="type">2</SimpleData>
		<SimpleData name="view">478,303</SimpleData>
		<SimpleData name="benchmark_number">143</SimpleData>
		<SimpleData name="control_location">Висячий ход от марки 1381, II класс (4)</SimpleData>
		<SimpleData name="benchmark_type">Фестивальная, станц., в 1.9 км к сев.-зап. от нее, 154-й км, во втором устое жел.-дор. трубы, с зап. стороны</SimpleData>
		<SimpleData name="location_description">f22b68d2-e3ad-4cd5-9fb4-ec5b29d4795b</SimpleData>
		<SimpleData name="status">data/stations/f22b68d2.kml</SimpleData>
		<SimpleData name="guid">&lt;a href='data/stations/f22b68d2.kml' target='_blank'&gt;Download KML&lt;/a&gt;</SimpleData>
	</SchemaData></ExtendedData>
      <Point><coordinates>82.0035190240991,50.3912981567836</coordinates></Point>
  </Placemark>
</Folder>
</Document></kml>
