<?xml version="1.0" encoding="utf-8" ?>
<kml xmlns="http://www.opengis.net/kml/2.2">
<Document id="root_doc">
<Schema name="f25239d5" id="f25239d5">
	<SimpleField name="title" type="string"></SimpleField>
	<SimpleField name="type" type="string"></SimpleField>
	<SimpleField name="ext_sign" type="string"></SimpleField>
	<SimpleField name="class_lvl" type="string"></SimpleField>
	<SimpleField name="height_lvl" type="string"></SimpleField>
	<SimpleField name="height_ctrl" type="string"></SimpleField>
	<SimpleField name="ctrl_place" type="string"></SimpleField>
	<SimpleField name="mark_num" type="string"></SimpleField>
	<SimpleField name="center_type" type="string"></SimpleField>
	<SimpleField name="lvl_line" type="string"></SimpleField>
	<SimpleField name="guid" type="string"></SimpleField>
</Schema>
<Folder><name>f25239d5</name>
  <Placemark id="f25239d5.1">
	<name>6686</name>
	<description>грунтовый репер</description>
	<ExtendedData><SchemaData schemaUrl="#f25239d5">
		<SimpleData name="type">1</SimpleData>
		<SimpleData name="ext_sign">-21.558</SimpleData>
		<SimpleData name="ctrl_place">160</SimpleData>
		<SimpleData name="mark_num">Линия Астрахань-Гурьев, нивелирование 1 класса, 1983 г. Предприятие №6</SimpleData>
		<SimpleData name="center_type">Котяевка, с., в 7.8 км к сев-вост.от него, на 279 км грейдерной дороги Гурьев-Астрахань, в 93 м к сев.от кладб., в 36 м к вост.от перекрестка грунтовой дороги с грейдером</SimpleData>
		<SimpleData name="lvl_line">f25239d5-b49d-4c23-a2f6-93a448c7f2bf</SimpleData>
	</SchemaData></ExtendedData>
      <Point><coordinates>48.8674248299828,46.5669700858955</coordinates></Point>
  </Placemark>
</Folder>
</Document></kml>
