<?xml version="1.0" encoding="utf-8" ?>
<kml xmlns="http://www.opengis.net/kml/2.2">
<Document id="root_doc">
<Schema name="f29b1d51" id="f29b1d51">
	<SimpleField name="type" type="string"></SimpleField>
	<SimpleField name="view" type="string"></SimpleField>
	<SimpleField name="leveling_order" type="string"></SimpleField>
	<SimpleField name="leveling_height" type="string"></SimpleField>
	<SimpleField name="control_height" type="string"></SimpleField>
	<SimpleField name="benchmark_number" type="string"></SimpleField>
	<SimpleField name="control_location" type="string"></SimpleField>
	<SimpleField name="benchmark_type" type="string"></SimpleField>
	<SimpleField name="leveling_line_section" type="string"></SimpleField>
	<SimpleField name="location_description" type="string"></SimpleField>
	<SimpleField name="status" type="string"></SimpleField>
	<SimpleField name="guid" type="string"></SimpleField>
	<SimpleField name="kml" type="string"></SimpleField>
	<SimpleField name="kml_link" type="string"></SimpleField>
</Schema>
<Folder><name>f29b1d51</name>
  <Placemark id="f29b1d51.1">
	<name>12-317</name>
	<name>грунт,реп</name>
	<ExtendedData><SchemaData schemaUrl="#f29b1d51">
		<SimpleData name="type">1</SimpleData>
		<SimpleData name="view">510.171</SimpleData>
		<SimpleData name="leveling_order">509,059</SimpleData>
		<SimpleData name="leveling_height">12-410</SimpleData>
		<SimpleData name="control_height">репер  в
фундаментной плите</SimpleData>
		<SimpleData name="benchmark_number">116оп</SimpleData>
		<SimpleData name="control_location">Линия № I: Арысь-Хаваст, I класс Участок: грунт,реп, 4566 - грунт,реп, 5134</SimpleData>
		<SimpleData name="benchmark_type">Ченгельды,станц,, в 2,6 км к югу от нее,
на 7 ПК 3293,км, в 26 м к вост,от жел,-
дор,полотна</SimpleData>
		<SimpleData name="location_description">f29b1d51-5c64-43a1-9edf-5d70c0350962</SimpleData>
		<SimpleData name="status">data/stations/f29b1d51.kml</SimpleData>
		<SimpleData name="guid">&lt;a href='data/stations/f29b1d51.kml' target='_blank'&gt;Download KML&lt;/a&gt;</SimpleData>
	</SchemaData></ExtendedData>
      <Point><coordinates>68.9959014784367,41.8390301764912</coordinates></Point>
  </Placemark>
</Folder>
</Document></kml>
