<?xml version="1.0" encoding="utf-8" ?>
<kml xmlns="http://www.opengis.net/kml/2.2">
<Document id="root_doc">
<Schema name="f2da43f7" id="f2da43f7">
	<SimpleField name="type" type="string"></SimpleField>
	<SimpleField name="view" type="string"></SimpleField>
	<SimpleField name="leveling_order" type="string"></SimpleField>
	<SimpleField name="leveling_height" type="string"></SimpleField>
	<SimpleField name="control_height" type="string"></SimpleField>
	<SimpleField name="benchmark_number" type="string"></SimpleField>
	<SimpleField name="control_location" type="string"></SimpleField>
	<SimpleField name="benchmark_type" type="string"></SimpleField>
	<SimpleField name="leveling_line_section" type="string"></SimpleField>
	<SimpleField name="location_description" type="string"></SimpleField>
	<SimpleField name="status" type="string"></SimpleField>
	<SimpleField name="guid" type="string"></SimpleField>
	<SimpleField name="kml" type="string"></SimpleField>
	<SimpleField name="kml_link" type="string"></SimpleField>
</Schema>
<Folder><name>f2da43f7</name>
  <Placemark id="f2da43f7.1">
	<name>3207</name>
	<name>марка</name>
	<ExtendedData><SchemaData schemaUrl="#f2da43f7">
		<SimpleData name="type">1</SimpleData>
		<SimpleData name="view">158.754</SimpleData>
		<SimpleData name="benchmark_number">144</SimpleData>
		<SimpleData name="control_location">Линия № 1: Кызылорда - Арыс, 1 класс (1) Участок: марка 2490 - грунт, реп, 1850 </SimpleData>
		<SimpleData name="benchmark_type">Екпинды, раз,, в стене жел,-дор, казармы</SimpleData>
		<SimpleData name="location_description">f2da43f7-6b76-4c7a-b03e-308e9dde0bf4</SimpleData>
		<SimpleData name="status">data/stations/f2da43f7.kml</SimpleData>
		<SimpleData name="guid">&lt;a href='data/stations/f2da43f7.kml' target='_blank'&gt;Download KML&lt;/a&gt;</SimpleData>
	</SchemaData></ExtendedData>
      <Point><coordinates>66.9294518525498,44.0749892069691</coordinates></Point>
  </Placemark>
</Folder>
</Document></kml>
