<?xml version="1.0" encoding="utf-8" ?>
<kml xmlns="http://www.opengis.net/kml/2.2">
<Document id="root_doc">
<Schema name="f339e565" id="f339e565">
	<SimpleField name="title" type="string"></SimpleField>
	<SimpleField name="type" type="string"></SimpleField>
	<SimpleField name="ext_sign" type="string"></SimpleField>
	<SimpleField name="class_lvl" type="string"></SimpleField>
	<SimpleField name="height_lvl" type="string"></SimpleField>
	<SimpleField name="height_ctrl" type="string"></SimpleField>
	<SimpleField name="ctrl_place" type="string"></SimpleField>
	<SimpleField name="mark_num" type="string"></SimpleField>
	<SimpleField name="center_type" type="string"></SimpleField>
	<SimpleField name="lvl_line" type="string"></SimpleField>
	<SimpleField name="guid" type="string"></SimpleField>
</Schema>
<Folder><name>f339e565</name>
  <Placemark id="f339e565.1">
	<name>3551</name>
	<description>грунтовый репер</description>
	<ExtendedData><SchemaData schemaUrl="#f339e565">
		<SimpleData name="type">1</SimpleData>
		<SimpleData name="ext_sign">693.507</SimpleData>
		<SimpleData name="ctrl_place">Б</SimpleData>
		<SimpleData name="center_type">Коксала, с., 21.2 км к востоку от него, в 4.8 км к сев.-зап. от мог.Сакау, в 32 м к югу от дороги с.Баршатас-гор.Аягуз.</SimpleData>
		<SimpleData name="lvl_line">f339e565-fea2-4686-81a3-6a7d20f76ccc</SimpleData>
	</SchemaData></ExtendedData>
      <Point><coordinates>79.4449560521038,47.8758029893897</coordinates></Point>
  </Placemark>
</Folder>
</Document></kml>
