<?xml version="1.0" encoding="utf-8" ?>
<kml xmlns="http://www.opengis.net/kml/2.2">
<Document id="root_doc">
<Schema name="f34b1dcd" id="f34b1dcd">
	<SimpleField name="type" type="string"></SimpleField>
	<SimpleField name="view" type="string"></SimpleField>
	<SimpleField name="leveling_order" type="string"></SimpleField>
	<SimpleField name="leveling_height" type="string"></SimpleField>
	<SimpleField name="control_height" type="string"></SimpleField>
	<SimpleField name="benchmark_number" type="string"></SimpleField>
	<SimpleField name="control_location" type="string"></SimpleField>
	<SimpleField name="benchmark_type" type="string"></SimpleField>
	<SimpleField name="leveling_line_section" type="string"></SimpleField>
	<SimpleField name="location_description" type="string"></SimpleField>
	<SimpleField name="status" type="string"></SimpleField>
	<SimpleField name="guid" type="string"></SimpleField>
	<SimpleField name="kml" type="string"></SimpleField>
	<SimpleField name="kml_link" type="string"></SimpleField>
</Schema>
<Folder><name>f34b1dcd</name>
  <Placemark id="f34b1dcd.1">
	<name>4004</name>
	<name>фунд.реп.</name>
	<ExtendedData><SchemaData schemaUrl="#f34b1dcd">
		<SimpleData name="type">II</SimpleData>
		<SimpleData name="view">140.549</SimpleData>
		<SimpleData name="leveling_order">94.098</SimpleData>
		<SimpleData name="benchmark_number">141 оп.знак  </SimpleData>
		<SimpleData name="control_location">Участок: грунт. Реп. 3900 - грунт.реп. 3900</SimpleData>
		<SimpleData name="benchmark_type">Байсал, с., в 2.8 км к юго-зап. От него, в 0.9 км к юго-вост. От кладбища, в 0.1 км к югу от жел.-дор. Полотна</SimpleData>
		<SimpleData name="location_description">f34b1dcd-6352-4436-bc3e-d892a3a54576</SimpleData>
		<SimpleData name="status">data/stations/f34b1dcd.kml</SimpleData>
		<SimpleData name="guid">&lt;a href='data/stations/f34b1dcd.kml' target='_blank'&gt;Download KML&lt;/a&gt;</SimpleData>
	</SchemaData></ExtendedData>
      <Point><coordinates>69.53622015252,54.8579131566346</coordinates></Point>
  </Placemark>
</Folder>
</Document></kml>
