<?xml version="1.0" encoding="utf-8" ?>
<kml xmlns="http://www.opengis.net/kml/2.2">
<Document id="root_doc">
<Schema name="f3600db6" id="f3600db6">
	<SimpleField name="title" type="string"></SimpleField>
	<SimpleField name="type" type="string"></SimpleField>
	<SimpleField name="ext_sign" type="string"></SimpleField>
	<SimpleField name="class_lvl" type="string"></SimpleField>
	<SimpleField name="height_lvl" type="string"></SimpleField>
	<SimpleField name="height_ctrl" type="string"></SimpleField>
	<SimpleField name="ctrl_place" type="string"></SimpleField>
	<SimpleField name="mark_num" type="string"></SimpleField>
	<SimpleField name="center_type" type="string"></SimpleField>
	<SimpleField name="lvl_line" type="string"></SimpleField>
	<SimpleField name="guid" type="string"></SimpleField>
</Schema>
<Folder><name>f3600db6</name>
  <Placemark id="f3600db6.1">
	<name>670</name>
	<ExtendedData><SchemaData schemaUrl="#f3600db6">
		<SimpleData name="title">грунтовый репер</SimpleData>
		<SimpleData name="type">2</SimpleData>
		<SimpleData name="ext_sign">565,899</SimpleData>
		<SimpleData name="ctrl_place">160 оп. знак</SimpleData>
		<SimpleData name="mark_num">Линия № 1: Аркарлы - Моинты, 2 класс (1) Участок: грунт. реп. 27 — пир. 3 кл. Екижал</SimpleData>
		<SimpleData name="center_type">Жамбыл, с., в 12.7 км к юго-вост. от него, в 1.0 км к юго- зап. от нов. стб. ЛЭП, в 10 м к югу от полевой дороги</SimpleData>
		<SimpleData name="lvl_line">f3600db6-a758-481a-9353-d8b123df0df9</SimpleData>
	</SchemaData></ExtendedData>
      <Point><coordinates>71.5597707615826,47.1731627190144</coordinates></Point>
  </Placemark>
</Folder>
</Document></kml>
