<?xml version="1.0" encoding="utf-8" ?>
<kml xmlns="http://www.opengis.net/kml/2.2">
<Document id="root_doc">
<Schema name="f36e5efb" id="f36e5efb">
	<SimpleField name="title" type="string"></SimpleField>
	<SimpleField name="type" type="string"></SimpleField>
	<SimpleField name="ext_sign" type="string"></SimpleField>
	<SimpleField name="class_lvl" type="string"></SimpleField>
	<SimpleField name="height_lvl" type="string"></SimpleField>
	<SimpleField name="height_ctrl" type="string"></SimpleField>
	<SimpleField name="ctrl_place" type="string"></SimpleField>
	<SimpleField name="mark_num" type="string"></SimpleField>
	<SimpleField name="center_type" type="string"></SimpleField>
	<SimpleField name="lvl_line" type="string"></SimpleField>
	<SimpleField name="guid" type="string"></SimpleField>
</Schema>
<Folder><name>f36e5efb</name>
  <Placemark id="f36e5efb.1">
	<name>0087</name>
	<description>грунтовый репер</description>
	<ExtendedData><SchemaData schemaUrl="#f36e5efb">
		<SimpleData name="type">1</SimpleData>
		<SimpleData name="ext_sign">69.187</SimpleData>
		<SimpleData name="ctrl_place">160</SimpleData>
		<SimpleData name="mark_num">Линия нивелирования 1 класса Уральск-Жанибек</SimpleData>
		<SimpleData name="center_type">Актау, с., в 8.0км к юго-зап.от него, на 20км трассы Таскала-Мерреке, в 118м к вост.от бет.стб. ЛЭП 35кВ №158, в 72м к сев.-зап.от трассы, в 38м к зап.от беи.стб. ЛЭП №191</SimpleData>
		<SimpleData name="lvl_line">f36e5efb-b1a9-4c80-a8d2-daee3d68938c</SimpleData>
	</SchemaData></ExtendedData>
      <Point><coordinates>50.0708739183968,50.9812998982791</coordinates></Point>
  </Placemark>
</Folder>
</Document></kml>
