<?xml version="1.0" encoding="utf-8" ?>
<kml xmlns="http://www.opengis.net/kml/2.2">
<Document id="root_doc">
<Schema name="f392abbf" id="f392abbf">
	<SimpleField name="title" type="string"></SimpleField>
	<SimpleField name="type" type="string"></SimpleField>
	<SimpleField name="ext_sign" type="string"></SimpleField>
	<SimpleField name="class_lvl" type="string"></SimpleField>
	<SimpleField name="height_lvl" type="string"></SimpleField>
	<SimpleField name="height_ctrl" type="string"></SimpleField>
	<SimpleField name="ctrl_place" type="string"></SimpleField>
	<SimpleField name="mark_num" type="string"></SimpleField>
	<SimpleField name="center_type" type="string"></SimpleField>
	<SimpleField name="lvl_line" type="string"></SimpleField>
	<SimpleField name="guid" type="string"></SimpleField>
</Schema>
<Folder><name>f392abbf</name>
  <Placemark id="f392abbf.1">
	<name>4037</name>
	<description>грунтовый репер</description>
	<ExtendedData><SchemaData schemaUrl="#f392abbf">
		<SimpleData name="type">1</SimpleData>
		<SimpleData name="ext_sign">304,833</SimpleData>
		<SimpleData name="ctrl_place">160 оп.знак</SimpleData>
		<SimpleData name="mark_num">Линия № 1:Торетоган-Берлик, I класс                            Участок: гр.реп. 1446-гр.реп. 2653</SimpleData>
		<SimpleData name="center_type">Карабугет, с., в 2,9 км к юго-вост. от него,  в 70 м к юго-зап. от км стб. 120/100, в 20 м к сев.-зап. от стб. ЛЭП</SimpleData>
		<SimpleData name="lvl_line">f392abbf-f581-42b6-ab17-1ca661d6d691</SimpleData>
	</SchemaData></ExtendedData>
      <Point><coordinates>72.2833190838802,44.5329959768537</coordinates></Point>
  </Placemark>
</Folder>
</Document></kml>
