<?xml version="1.0" encoding="utf-8" ?>
<kml xmlns="http://www.opengis.net/kml/2.2">
<Document id="root_doc">
<Schema name="f398ef7e" id="f398ef7e">
	<SimpleField name="title" type="string"></SimpleField>
	<SimpleField name="type" type="string"></SimpleField>
	<SimpleField name="ext_sign" type="string"></SimpleField>
	<SimpleField name="class_lvl" type="string"></SimpleField>
	<SimpleField name="height_lvl" type="string"></SimpleField>
	<SimpleField name="height_ctrl" type="string"></SimpleField>
	<SimpleField name="ctrl_place" type="string"></SimpleField>
	<SimpleField name="mark_num" type="string"></SimpleField>
	<SimpleField name="center_type" type="string"></SimpleField>
	<SimpleField name="lvl_line" type="string"></SimpleField>
	<SimpleField name="guid" type="string"></SimpleField>
</Schema>
<Folder><name>f398ef7e</name>
  <Placemark id="f398ef7e.1">
	<name>13</name>
	<description>грунтовый репер</description>
	<ExtendedData><SchemaData schemaUrl="#f398ef7e">
		<SimpleData name="type">1</SimpleData>
		<SimpleData name="ext_sign">10,110</SimpleData>
		<SimpleData name="class_lvl">7,902</SimpleData>
		<SimpleData name="height_lvl">контрольный репер №1391 в верхней плоскости монолита</SimpleData>
		<SimpleData name="ctrl_place">123</SimpleData>
		<SimpleData name="mark_num">Линия:Сызрань-Астрахань I класс (участок: Сайхин-Вехний Баскунчак) Участок: фд. реп. 8-грунт. реп.15</SimpleData>
		<SimpleData name="center_type">Сайхин,ст., в 64 км к югу от нее, в 60 м к сев.-зап. от пк стб. №5/6, в 40 м к зап. от жел.-дор. полотна</SimpleData>
		<SimpleData name="lvl_line">f398ef7e-edf7-4b70-b715-d2fb7bf2fb65</SimpleData>
	</SchemaData></ExtendedData>
      <Point><coordinates>46.7748428922207,48.7586738080392</coordinates></Point>
  </Placemark>
</Folder>
</Document></kml>
