<?xml version="1.0" encoding="utf-8" ?>
<kml xmlns="http://www.opengis.net/kml/2.2">
<Document id="root_doc">
<Schema name="f3bbf180" id="f3bbf180">
	<SimpleField name="title" type="string"></SimpleField>
	<SimpleField name="type" type="string"></SimpleField>
	<SimpleField name="ext_sign" type="string"></SimpleField>
	<SimpleField name="class_lvl" type="string"></SimpleField>
	<SimpleField name="height_lvl" type="string"></SimpleField>
	<SimpleField name="height_ctrl" type="string"></SimpleField>
	<SimpleField name="ctrl_place" type="string"></SimpleField>
	<SimpleField name="mark_num" type="string"></SimpleField>
	<SimpleField name="center_type" type="string"></SimpleField>
	<SimpleField name="lvl_line" type="string"></SimpleField>
	<SimpleField name="guid" type="string"></SimpleField>
</Schema>
<Folder><name>f3bbf180</name>
  <Placemark id="f3bbf180.1">
	<name>7777</name>
	<description>грунтовый репер</description>
	<ExtendedData><SchemaData schemaUrl="#f3bbf180">
		<SimpleData name="type">1</SimpleData>
		<SimpleData name="ext_sign">85.410</SimpleData>
		<SimpleData name="ctrl_place">160 оп</SimpleData>
		<SimpleData name="mark_num">Линия №185 : Аральск - Семиозерное , I класс . Участок : грунт. Реп. 2189-грунт. Реп. 32</SimpleData>
		<SimpleData name="center_type">Иргиз, с., в 39.4 км к югу от него, в 3.7 км к сев.-зап. от оз. Кокколь, в 50 м к юго-зап. от перекрестка полевых дорог</SimpleData>
		<SimpleData name="lvl_line">f3bbf180-fd1a-467e-a598-24274219f906</SimpleData>
	</SchemaData></ExtendedData>
      <Point><coordinates>61.2696025198694,48.3000272528551</coordinates></Point>
  </Placemark>
</Folder>
</Document></kml>
