<?xml version="1.0" encoding="utf-8" ?>
<kml xmlns="http://www.opengis.net/kml/2.2">
<Document id="root_doc">
<Schema name="f448fcf2" id="f448fcf2">
	<SimpleField name="title" type="string"></SimpleField>
	<SimpleField name="type" type="string"></SimpleField>
	<SimpleField name="ext_sign" type="string"></SimpleField>
	<SimpleField name="class_lvl" type="string"></SimpleField>
	<SimpleField name="height_lvl" type="string"></SimpleField>
	<SimpleField name="height_ctrl" type="string"></SimpleField>
	<SimpleField name="ctrl_place" type="string"></SimpleField>
	<SimpleField name="mark_num" type="string"></SimpleField>
	<SimpleField name="center_type" type="string"></SimpleField>
	<SimpleField name="lvl_line" type="string"></SimpleField>
	<SimpleField name="guid" type="string"></SimpleField>
</Schema>
<Folder><name>f448fcf2</name>
  <Placemark id="f448fcf2.1">
	<name>8094</name>
	<description>грунтовый репер</description>
	<ExtendedData><SchemaData schemaUrl="#f448fcf2">
		<SimpleData name="title">гр. реп.</SimpleData>
		<SimpleData name="type">2</SimpleData>
		<SimpleData name="ext_sign">88.174</SimpleData>
		<SimpleData name="class_lvl">86.320</SimpleData>
		<SimpleData name="height_lvl">Контрольный репер №6371 в верхней плоскости монолита</SimpleData>
		<SimpleData name="ctrl_place">121</SimpleData>
		<SimpleData name="mark_num">Линия Жаксыкарсакбас (фунд. реп. 351) - Коккабак (фунд. реп.2)</SimpleData>
		<SimpleData name="center_type">Им. XXI партсъезда, свх., в 9,6 км к юго-зап.от него, в 0,5 км к зап. от оз. Айнаколь, в 24 к зап. от дороги свх. им. XXI партсъезда - с. Мамыр</SimpleData>
		<SimpleData name="lvl_line">f448fcf2-857c-4422-883a-11570aa839b4</SimpleData>
	</SchemaData></ExtendedData>
      <Point><coordinates>62.5245805473631,49.1555639719681</coordinates></Point>
  </Placemark>
</Folder>
</Document></kml>
