<?xml version="1.0" encoding="utf-8" ?>
<kml xmlns="http://www.opengis.net/kml/2.2">
<Document id="root_doc">
<Schema name="f4a1a804" id="f4a1a804">
	<SimpleField name="title" type="string"></SimpleField>
	<SimpleField name="type" type="string"></SimpleField>
	<SimpleField name="ext_sign" type="string"></SimpleField>
	<SimpleField name="class_lvl" type="string"></SimpleField>
	<SimpleField name="height_lvl" type="string"></SimpleField>
	<SimpleField name="height_ctrl" type="string"></SimpleField>
	<SimpleField name="ctrl_place" type="string"></SimpleField>
	<SimpleField name="mark_num" type="string"></SimpleField>
	<SimpleField name="center_type" type="string"></SimpleField>
	<SimpleField name="lvl_line" type="string"></SimpleField>
	<SimpleField name="guid" type="string"></SimpleField>
</Schema>
<Folder><name>f4a1a804</name>
  <Placemark id="f4a1a804.1">
	<name>4141</name>
	<description>грунт.реп.</description>
	<ExtendedData><SchemaData schemaUrl="#f4a1a804">
		<SimpleData name="title">грунт.реп.</SimpleData>
		<SimpleData name="type">II</SimpleData>
		<SimpleData name="ext_sign">411.149</SimpleData>
		<SimpleData name="ctrl_place">160оп.знак</SimpleData>
		<SimpleData name="mark_num">Линия № 1:Урочище Куйган-Уштобе II класс                            Участок: пир. 2 кл. Туранглы-грунт. Реп.2245</SimpleData>
		<SimpleData name="center_type">Тассуат,зим.,в 1.3 км к юго-вост.от нее
в 60 м к юго-зап.от шоссе с.Акжар-гор.
Уштобе,против км.стб.32,между, столбами
лэп</SimpleData>
		<SimpleData name="lvl_line">f4a1a804-cf06-44e1-9626-08e99692b731</SimpleData>
	</SchemaData></ExtendedData>
      <Point><coordinates>77.7020735934878,45.4153081215965</coordinates></Point>
  </Placemark>
</Folder>
</Document></kml>
