<?xml version="1.0" encoding="utf-8" ?>
<kml xmlns="http://www.opengis.net/kml/2.2">
<Document id="root_doc">
<Schema name="f5304c98" id="f5304c98">
	<SimpleField name="title" type="string"></SimpleField>
	<SimpleField name="type" type="string"></SimpleField>
	<SimpleField name="ext_sign" type="string"></SimpleField>
	<SimpleField name="class_lvl" type="string"></SimpleField>
	<SimpleField name="height_lvl" type="string"></SimpleField>
	<SimpleField name="height_ctrl" type="string"></SimpleField>
	<SimpleField name="ctrl_place" type="string"></SimpleField>
	<SimpleField name="mark_num" type="string"></SimpleField>
	<SimpleField name="center_type" type="string"></SimpleField>
	<SimpleField name="lvl_line" type="string"></SimpleField>
	<SimpleField name="guid" type="string"></SimpleField>
</Schema>
<Folder><name>f5304c98</name>
  <Placemark id="f5304c98.1">
	<name>3432</name>
	<description>скальный репер</description>
	<ExtendedData><SchemaData schemaUrl="#f5304c98">
		<SimpleData name="type">1</SimpleData>
		<SimpleData name="ext_sign">908.155</SimpleData>
		<SimpleData name="ctrl_place">99</SimpleData>
		<SimpleData name="center_type">Акбулак, зим., в 9.0 км к юго-вост. от нее, в 2.8 км к югу от зим.Актайлак, в 80 метрах к вост. от развилки полевой дороги.</SimpleData>
		<SimpleData name="lvl_line">f5304c98-57a2-422f-b6b4-837029c84ca3</SimpleData>
	</SchemaData></ExtendedData>
      <Point><coordinates>77.0291299688764,48.7371030277606</coordinates></Point>
  </Placemark>
</Folder>
</Document></kml>
