<?xml version="1.0" encoding="utf-8" ?>
<kml xmlns="http://www.opengis.net/kml/2.2">
<Document id="root_doc">
<Schema name="f53203a6" id="f53203a6">
	<SimpleField name="title" type="string"></SimpleField>
	<SimpleField name="type" type="string"></SimpleField>
	<SimpleField name="ext_sign" type="string"></SimpleField>
	<SimpleField name="class_lvl" type="string"></SimpleField>
	<SimpleField name="height_lvl" type="string"></SimpleField>
	<SimpleField name="height_ctrl" type="string"></SimpleField>
	<SimpleField name="ctrl_place" type="string"></SimpleField>
	<SimpleField name="mark_num" type="string"></SimpleField>
	<SimpleField name="center_type" type="string"></SimpleField>
	<SimpleField name="lvl_line" type="string"></SimpleField>
	<SimpleField name="guid" type="string"></SimpleField>
</Schema>
<Folder><name>f53203a6</name>
  <Placemark id="f53203a6.1">
	<name>1440</name>
	<ExtendedData><SchemaData schemaUrl="#f53203a6">
		<SimpleData name="title">грунт. реп.</SimpleData>
		<SimpleData name="type">2</SimpleData>
		<SimpleData name="ext_sign">598,691</SimpleData>
		<SimpleData name="class_lvl">597,54</SimpleData>
		<SimpleData name="height_lvl">репер № 4539 в фундаментной плите</SimpleData>
		<SimpleData name="ctrl_place">116 оп</SimpleData>
		<SimpleData name="mark_num">Линия № 1: Жангиз-Тобе-Ак-Булак, II класс (1) Участок: грунт. реп. 7833-грунт. реп. 2545</SimpleData>
		<SimpleData name="center_type">Жасар, с., в 4.4 км к сев.-зап. от него, в 2.4 км к сев.-вост. зим. Ойнайман, в 20 м к югу от дороги с. Бестамак (свх. Кызылту)-с. Карааул</SimpleData>
		<SimpleData name="lvl_line">f53203a6-02b1-44d3-8882-61d053194952</SimpleData>
	</SchemaData></ExtendedData>
      <Point><coordinates>78.7523350216635,49.1551194240774</coordinates></Point>
  </Placemark>
</Folder>
</Document></kml>
