<?xml version="1.0" encoding="utf-8" ?>
<kml xmlns="http://www.opengis.net/kml/2.2">
<Document id="root_doc">
<Schema name="f544ed46" id="f544ed46">
	<SimpleField name="type" type="string"></SimpleField>
	<SimpleField name="view" type="string"></SimpleField>
	<SimpleField name="leveling_order" type="string"></SimpleField>
	<SimpleField name="leveling_height" type="string"></SimpleField>
	<SimpleField name="control_height" type="string"></SimpleField>
	<SimpleField name="benchmark_number" type="string"></SimpleField>
	<SimpleField name="control_location" type="string"></SimpleField>
	<SimpleField name="benchmark_type" type="string"></SimpleField>
	<SimpleField name="leveling_line_section" type="string"></SimpleField>
	<SimpleField name="location_description" type="string"></SimpleField>
	<SimpleField name="status" type="string"></SimpleField>
	<SimpleField name="guid" type="string"></SimpleField>
	<SimpleField name="kml" type="string"></SimpleField>
	<SimpleField name="kml_link" type="string"></SimpleField>
</Schema>
<Folder><name>f544ed46</name>
  <Placemark id="f544ed46.1">
	<name>3981</name>
	<name>грунт. реп.</name>
	<ExtendedData><SchemaData schemaUrl="#f544ed46">
		<SimpleData name="type">2</SimpleData>
		<SimpleData name="view">176,584</SimpleData>
		<SimpleData name="leveling_order">173,995</SimpleData>
		<SimpleData name="control_height">репер № 619 в верхней плоскости монолита</SimpleData>
		<SimpleData name="benchmark_number">121</SimpleData>
		<SimpleData name="control_location">Ход: грунт. реп. 3823-фунд. реп. 871, II класс (6)</SimpleData>
		<SimpleData name="benchmark_type">Семиярка, с., в 15.8 км к сев.-вост. от него, в 1.3 км к сев.-зап. от разв. Кулжан, в 0.1 км к югу от полевой дороги</SimpleData>
		<SimpleData name="location_description">f544ed46-a9b0-4207-bc9d-756a1a454b80</SimpleData>
		<SimpleData name="status">data/stations/f544ed46.kml</SimpleData>
		<SimpleData name="guid">&lt;a href='data/stations/f544ed46.kml' target='_blank'&gt;Download KML&lt;/a&gt;</SimpleData>
	</SchemaData></ExtendedData>
      <Point><coordinates>78.4483100405307,51.0185857953816</coordinates></Point>
  </Placemark>
</Folder>
</Document></kml>
