<?xml version="1.0" encoding="UTF-8"?>
<kml xmlns="http://www.opengis.net/kml/2.2">
  <Document id="root_doc">
    <Schema id="f592b425" name="f592b425">
      <SimpleField name="title" type="string"/>
      <SimpleField name="type" type="string"/>
      <SimpleField name="ext_sign" type="string"/>
      <SimpleField name="class_lvl" type="string"/>
      <SimpleField name="height_lvl" type="string"/>
      <SimpleField name="height_ctrl" type="string"/>
      <SimpleField name="ctrl_place" type="string"/>
      <SimpleField name="mark_num" type="string"/>
      <SimpleField name="center_type" type="string"/>
      <SimpleField name="lvl_line" type="string"/>
      <SimpleField name="guid" type="string"/>
    </Schema>
    <Schema id="f592b425.schema">
      <SimpleField name="title" type="string"/>
      <SimpleField name="type" type="string"/>
      <SimpleField name="ext_sign" type="string"/>
      <SimpleField name="class_lvl" type="string"/>
      <SimpleField name="height_lvl" type="string"/>
      <SimpleField name="height_ctrl" type="string"/>
      <SimpleField name="ctrl_place" type="string"/>
      <SimpleField name="mark_num" type="string"/>
      <SimpleField name="center_type" type="string"/>
      <SimpleField name="lvl_line" type="string"/>
      <SimpleField name="guid" type="string"/>
    </Schema>
    <Document id="f592b425">
      <name>f592b425</name>
      <Placemark id="f592b425.1">
        <description>Шушела, кладб., в 3.8 км к юго-зап. от него, в 0.8 км к  сев. от кладб. Карабек. в 0.7 км к зап. от р. Сарысу,в 40 м к вост. от шоссе гор. Жезказган - гор. Кызылорда</description>
        <ExtendedData>
          <SchemaData schemaUrl="#f592b425.schema">
            <SimpleData name="title">730</SimpleData>
            <SimpleData name="type">грунтовый репер</SimpleData>
            <SimpleData name="ext_sign">грунтовый репер</SimpleData>
            <SimpleData name="class_lvl">2</SimpleData>
            <SimpleData name="height_lvl">253,668</SimpleData>
            <SimpleData name="lvl_line">Линия № 1: Жезказган - Сарысу. II класс (1) Участок: грунт, реп. 683 - грунт, реп. 626</SimpleData>
            <SimpleData name="guid">f592b425-c812-4a12-b65c-b9043625d9a5</SimpleData>
          </SchemaData>
        </ExtendedData>
        <Point>
          <coordinates>
            67.6034284276919,46.7010222942815,0
          </coordinates>
        </Point>
      </Placemark>
    </Document>
  </Document>
</kml>
