<?xml version="1.0" encoding="utf-8" ?>
<kml xmlns="http://www.opengis.net/kml/2.2">
<Document id="root_doc">
<Schema name="f5c861f8" id="f5c861f8">
	<SimpleField name="title" type="string"></SimpleField>
	<SimpleField name="type" type="string"></SimpleField>
	<SimpleField name="ext_sign" type="string"></SimpleField>
	<SimpleField name="class_lvl" type="string"></SimpleField>
	<SimpleField name="height_lvl" type="string"></SimpleField>
	<SimpleField name="height_ctrl" type="string"></SimpleField>
	<SimpleField name="ctrl_place" type="string"></SimpleField>
	<SimpleField name="mark_num" type="string"></SimpleField>
	<SimpleField name="center_type" type="string"></SimpleField>
	<SimpleField name="lvl_line" type="string"></SimpleField>
	<SimpleField name="guid" type="string"></SimpleField>
</Schema>
<Folder><name>f5c861f8</name>
  <Placemark id="f5c861f8.1">
	<name>17980</name>
	<description>грунтовый репер</description>
	<ExtendedData><SchemaData schemaUrl="#f5c861f8">
		<SimpleData name="type">2</SimpleData>
		<SimpleData name="ext_sign">70,980</SimpleData>
		<SimpleData name="class_lvl">68,860</SimpleData>
		<SimpleData name="height_lvl">контрольный репер №20853 в верхней плоскости монолита</SimpleData>
		<SimpleData name="ctrl_place">121 оп знак</SimpleData>
		<SimpleData name="mark_num">Линия: Айбас-Чапаевское,II класс Участок:фунд. реп.185-фунд. реп. 189</SimpleData>
		<SimpleData name="center_type">Силетытениз, оз., в 2,1 км к югу от него, в 5,1 км к юго-вост. от мог. Жертогай, в 0,8 км к сев. от оз.Ссарыколь, в 11 м к югу от пол. дороги</SimpleData>
		<SimpleData name="lvl_line">f5c861f8-da0b-4773-9ef4-151e2198c8f0</SimpleData>
	</SchemaData></ExtendedData>
      <Point><coordinates>72.9330443824181,53.1089120360116</coordinates></Point>
  </Placemark>
</Folder>
</Document></kml>
