<?xml version="1.0" encoding="utf-8" ?>
<kml xmlns="http://www.opengis.net/kml/2.2">
<Document id="root_doc">
<Schema name="f6309d0a" id="f6309d0a">
	<SimpleField name="title" type="string"></SimpleField>
	<SimpleField name="type" type="string"></SimpleField>
	<SimpleField name="ext_sign" type="string"></SimpleField>
	<SimpleField name="class_lvl" type="string"></SimpleField>
	<SimpleField name="height_lvl" type="string"></SimpleField>
	<SimpleField name="height_ctrl" type="string"></SimpleField>
	<SimpleField name="ctrl_place" type="string"></SimpleField>
	<SimpleField name="mark_num" type="string"></SimpleField>
	<SimpleField name="center_type" type="string"></SimpleField>
	<SimpleField name="lvl_line" type="string"></SimpleField>
	<SimpleField name="guid" type="string"></SimpleField>
</Schema>
<Folder><name>f6309d0a</name>
  <Placemark id="f6309d0a.1">
	<name>2906</name>
	<description>грунтовый репер</description>
	<ExtendedData><SchemaData schemaUrl="#f6309d0a">
		<SimpleData name="type">1</SimpleData>
		<SimpleData name="ext_sign">440.136</SimpleData>
		<SimpleData name="height_lvl">146 оп</SimpleData>
		<SimpleData name="ctrl_place">12</SimpleData>
		<SimpleData name="mark_num">Линия № 4: р. Кон - Талдысай. І класс </SimpleData>
		<SimpleData name="center_type">Талдысайский. свх.. отд. № 3. в 5.4 км к зап. от него. в 0.3 км к сев-зап. от кошары Ками. в 20 м к сев. от пол. дороги</SimpleData>
		<SimpleData name="lvl_line">f6309d0a-5028-4b0b-848b-9f89872d1c7a</SimpleData>
	</SchemaData></ExtendedData>
      <Point><coordinates>68.7744308819812,49.3398052506325</coordinates></Point>
  </Placemark>
</Folder>
</Document></kml>
