<?xml version="1.0" encoding="utf-8" ?>
<kml xmlns="http://www.opengis.net/kml/2.2">
<Document id="root_doc">
<Schema name="f6ed7d79" id="f6ed7d79">
	<SimpleField name="title" type="string"></SimpleField>
	<SimpleField name="type" type="string"></SimpleField>
	<SimpleField name="ext_sign" type="string"></SimpleField>
	<SimpleField name="class_lvl" type="string"></SimpleField>
	<SimpleField name="height_lvl" type="string"></SimpleField>
	<SimpleField name="height_ctrl" type="string"></SimpleField>
	<SimpleField name="ctrl_place" type="string"></SimpleField>
	<SimpleField name="mark_num" type="string"></SimpleField>
	<SimpleField name="center_type" type="string"></SimpleField>
	<SimpleField name="lvl_line" type="string"></SimpleField>
	<SimpleField name="guid" type="string"></SimpleField>
</Schema>
<Folder><name>f6ed7d79</name>
  <Placemark id="f6ed7d79.1">
	<name>4878</name>
	<description>грунтовый репер</description>
	<ExtendedData><SchemaData schemaUrl="#f6ed7d79">
		<SimpleData name="title">грунт. реп.</SimpleData>
		<SimpleData name="type">2</SimpleData>
		<SimpleData name="ext_sign">203.610</SimpleData>
		<SimpleData name="ctrl_place">160</SimpleData>
		<SimpleData name="mark_num">Линия №2; Коккабак-Жосалы, II класс (1), Участок; грунт.реп. 8976-грунт.реп. 4878</SimpleData>
		<SimpleData name="center_type">Каракушик,, к., в 8.6 км к сев.-вост. от него, в 6.2 км сев.-вост. От пир. 3 кл. Тур, в 5.0 км к юго-вост.от пир. 2 кл Чинк, в 0.4 км к вост.от полевой дороги</SimpleData>
		<SimpleData name="lvl_line">f6ed7d79-b9a1-4cfe-a452-bc2f3e04a286</SimpleData>
	</SchemaData></ExtendedData>
      <Point><coordinates>63.8704808932635,46.6610620010089</coordinates></Point>
  </Placemark>
</Folder>
</Document></kml>
