<?xml version="1.0" encoding="utf-8" ?>
<kml xmlns="http://www.opengis.net/kml/2.2">
<Document id="root_doc">
<Schema name="f7d1a542" id="f7d1a542">
	<SimpleField name="type" type="string"></SimpleField>
	<SimpleField name="view" type="string"></SimpleField>
	<SimpleField name="leveling_order" type="string"></SimpleField>
	<SimpleField name="leveling_height" type="string"></SimpleField>
	<SimpleField name="control_height" type="string"></SimpleField>
	<SimpleField name="benchmark_number" type="string"></SimpleField>
	<SimpleField name="control_location" type="string"></SimpleField>
	<SimpleField name="benchmark_type" type="string"></SimpleField>
	<SimpleField name="leveling_line_section" type="string"></SimpleField>
	<SimpleField name="location_description" type="string"></SimpleField>
	<SimpleField name="status" type="string"></SimpleField>
	<SimpleField name="guid" type="string"></SimpleField>
	<SimpleField name="kml" type="string"></SimpleField>
	<SimpleField name="kml_link" type="string"></SimpleField>
</Schema>
<Folder><name>f7d1a542</name>
  <Placemark id="f7d1a542.1">
	<name>0421</name>
	<name>грунт.реп.</name>
	<description>грунт.реп.</description>
	<ExtendedData><SchemaData schemaUrl="#f7d1a542">
		<SimpleData name="type">II</SimpleData>
		<SimpleData name="view">565,577</SimpleData>
		<SimpleData name="benchmark_number">160 оп.знак</SimpleData>
		<SimpleData name="control_location">Линия № 4: Мойынты-Балхаш, II класс                            Участок: фунд.реп. 44480-грунт.реп. 5738</SimpleData>
		<SimpleData name="benchmark_type">Мойынты, станц., в 5,0 км к юго-вост. от нее, на 2 ПК 1073 км, в 63 м к сев.-вост. от жел.-дор.полотна</SimpleData>
		<SimpleData name="location_description">f7d1a542-d368-47d9-abf8-858ba88c3ea1</SimpleData>
		<SimpleData name="status">data/stations/f7d1a542.kml</SimpleData>
		<SimpleData name="guid">&lt;a href='data/stations/f7d1a542.kml' target='_blank'&gt;Download KML&lt;/a&gt;</SimpleData>
	</SchemaData></ExtendedData>
      <Point><coordinates>73.4093599611532,47.188646522282</coordinates></Point>
  </Placemark>
</Folder>
</Document></kml>
