<?xml version="1.0" encoding="UTF-8"?>
<kml xmlns="http://www.opengis.net/kml/2.2">
  <Document id="root_doc">
    <Schema id="f8026ba0" name="f8026ba0">
      <SimpleField name="title" type="string"/>
      <SimpleField name="type" type="string"/>
      <SimpleField name="ext_sign" type="string"/>
      <SimpleField name="class_lvl" type="string"/>
      <SimpleField name="height_lvl" type="string"/>
      <SimpleField name="height_ctrl" type="string"/>
      <SimpleField name="ctrl_place" type="string"/>
      <SimpleField name="mark_num" type="string"/>
      <SimpleField name="center_type" type="string"/>
      <SimpleField name="lvl_line" type="string"/>
      <SimpleField name="guid" type="string"/>
    </Schema>
    <Schema id="f8026ba0.schema">
      <SimpleField name="title" type="string"/>
      <SimpleField name="type" type="string"/>
      <SimpleField name="ext_sign" type="string"/>
      <SimpleField name="class_lvl" type="string"/>
      <SimpleField name="height_lvl" type="string"/>
      <SimpleField name="height_ctrl" type="string"/>
      <SimpleField name="ctrl_place" type="string"/>
      <SimpleField name="mark_num" type="string"/>
      <SimpleField name="center_type" type="string"/>
      <SimpleField name="lvl_line" type="string"/>
      <SimpleField name="guid" type="string"/>
    </Schema>
    <Document id="f8026ba0">
      <name>f8026ba0</name>
      <Placemark id="f8026ba0.1">
        <description>Устирт,раз., в 15,1 км к сев-вост от него, в 0,3 км к сев-зап. от жел-дор. км стб. 64/65, в 0,2 км к сев-зап. от 3 пк , в 25 м к сев-зап. от полевой дороги </description>
        <ExtendedData>
          <SchemaData schemaUrl="#f8026ba0.schema">
            <SimpleData name="title">12-26</SimpleData>
            <SimpleData name="type">грунтовый репер</SimpleData>
            <SimpleData name="class_lvl">1</SimpleData>
            <SimpleData name="height_lvl">112,656</SimpleData>
            <SimpleData name="center_type">160</SimpleData>
            <SimpleData name="lvl_line">ЛинияБейнеу-Актау (Шевченко), 1 класс</SimpleData>
            <SimpleData name="guid">f8026ba0-5948-4360-8190-a2e85035aa14</SimpleData>
          </SchemaData>
        </ExtendedData>
        <Point>
          <coordinates>
            54.7117789996523,44.9105937998487,0
          </coordinates>
        </Point>
      </Placemark>
    </Document>
  </Document>
</kml>
