<?xml version="1.0" encoding="utf-8" ?>
<kml xmlns="http://www.opengis.net/kml/2.2">
<Document id="root_doc">
<Schema name="f835bc80" id="f835bc80">
	<SimpleField name="title" type="string"></SimpleField>
	<SimpleField name="type" type="string"></SimpleField>
	<SimpleField name="ext_sign" type="string"></SimpleField>
	<SimpleField name="class_lvl" type="string"></SimpleField>
	<SimpleField name="height_lvl" type="string"></SimpleField>
	<SimpleField name="height_ctrl" type="string"></SimpleField>
	<SimpleField name="ctrl_place" type="string"></SimpleField>
	<SimpleField name="mark_num" type="string"></SimpleField>
	<SimpleField name="center_type" type="string"></SimpleField>
	<SimpleField name="lvl_line" type="string"></SimpleField>
	<SimpleField name="guid" type="string"></SimpleField>
</Schema>
<Folder><name>f835bc80</name>
  <Placemark id="f835bc80.1">
	<name>2698</name>
	<ExtendedData><SchemaData schemaUrl="#f835bc80">
		<SimpleData name="title">грунтовый репер</SimpleData>
		<SimpleData name="type">2</SimpleData>
		<SimpleData name="ext_sign">431.578</SimpleData>
		<SimpleData name="ctrl_place">160 оп.знак</SimpleData>
		<SimpleData name="mark_num">Линия № 1: Кызылжар фунд. реп. 2723, 11 класс (1) Участок: грунт. реп. 23 - фунд. реп. 2726</SimpleData>
		<SimpleData name="center_type">Муса. мог .. в 4.9 км к сев.-вост. от неё, в 6.5 км к сев.- зап. от соп. Кентау. у полевой дороги </SimpleData>
		<SimpleData name="lvl_line">f835bc80-350a-4755-b5ab-5d9f1e9f181f</SimpleData>
	</SchemaData></ExtendedData>
      <Point><coordinates>70.3058600826329,47.444209348015</coordinates></Point>
  </Placemark>
</Folder>
</Document></kml>
