<?xml version="1.0" encoding="utf-8" ?>
<kml xmlns="http://www.opengis.net/kml/2.2">
<Document id="root_doc">
<Schema name="f84b9063" id="f84b9063">
	<SimpleField name="title" type="string"></SimpleField>
	<SimpleField name="type" type="string"></SimpleField>
	<SimpleField name="ext_sign" type="string"></SimpleField>
	<SimpleField name="class_lvl" type="string"></SimpleField>
	<SimpleField name="height_lvl" type="string"></SimpleField>
	<SimpleField name="height_ctrl" type="string"></SimpleField>
	<SimpleField name="ctrl_place" type="string"></SimpleField>
	<SimpleField name="mark_num" type="string"></SimpleField>
	<SimpleField name="center_type" type="string"></SimpleField>
	<SimpleField name="lvl_line" type="string"></SimpleField>
	<SimpleField name="guid" type="string"></SimpleField>
</Schema>
<Folder><name>f84b9063</name>
  <Placemark id="f84b9063.1">
	<name>3425</name>
	<description>грунтовый репер</description>
	<ExtendedData><SchemaData schemaUrl="#f84b9063">
		<SimpleData name="type">1</SimpleData>
		<SimpleData name="ext_sign">735.968</SimpleData>
		<SimpleData name="ctrl_place">176 оп. знак</SimpleData>
		<SimpleData name="mark_num">Линия № 4: Жаланашколь – Аягоз, I класс 
Участок: грунт.реп. 2086 – фунд.реп. 1027</SimpleData>
		<SimpleData name="center_type">Ай, с., в 10.2 км к сев. от него, на 9 пк 722 км шоссе гор. Алматы – гор. Усть-Каменогорск, в 40 м к вост. от шоссе</SimpleData>
		<SimpleData name="lvl_line">f84b9063-ff07-4b4e-a162-bc561f8757da</SimpleData>
	</SchemaData></ExtendedData>
      <Point><coordinates>80.6315084165562,47.5797288690418</coordinates></Point>
  </Placemark>
</Folder>
</Document></kml>
