<?xml version="1.0" encoding="utf-8" ?>
<kml xmlns="http://www.opengis.net/kml/2.2">
<Document id="root_doc">
<Schema name="f88b44fd" id="f88b44fd">
	<SimpleField name="type" type="string"></SimpleField>
	<SimpleField name="view" type="string"></SimpleField>
	<SimpleField name="leveling_order" type="string"></SimpleField>
	<SimpleField name="leveling_height" type="string"></SimpleField>
	<SimpleField name="control_height" type="string"></SimpleField>
	<SimpleField name="benchmark_number" type="string"></SimpleField>
	<SimpleField name="control_location" type="string"></SimpleField>
	<SimpleField name="benchmark_type" type="string"></SimpleField>
	<SimpleField name="leveling_line_section" type="string"></SimpleField>
	<SimpleField name="location_description" type="string"></SimpleField>
	<SimpleField name="status" type="string"></SimpleField>
	<SimpleField name="guid" type="string"></SimpleField>
	<SimpleField name="kml" type="string"></SimpleField>
	<SimpleField name="kml_link" type="string"></SimpleField>
</Schema>
<Folder><name>f88b44fd</name>
  <Placemark id="f88b44fd.1">
	<name>0550</name>
	<name>грунт.реп.</name>
	<ExtendedData><SchemaData schemaUrl="#f88b44fd">
		<SimpleData name="type">II</SimpleData>
		<SimpleData name="view">512.98</SimpleData>
		<SimpleData name="benchmark_number">160 оп</SimpleData>
		<SimpleData name="control_location">Линия №2: Ивановка - Жана-Арка, II класс (4) Участок: грунт.реп.4029 - фунд.реп.501</SimpleData>
		<SimpleData name="benchmark_type">Коскопа, с.,в 11.5 км к юго-вост.от него,в 2.8 км к сев.от развалин,в 20 м к вост.от дороги с.Акмешит-с.Алгабас</SimpleData>
		<SimpleData name="location_description">f88b44fd-cad9-42eb-8ea7-5385a973b9b4</SimpleData>
		<SimpleData name="status">data/stations/f88b44fd.kml</SimpleData>
		<SimpleData name="guid">&lt;a href='data/stations/f88b44fd.kml' target='_blank'&gt;Download KML&lt;/a&gt;</SimpleData>
	</SchemaData></ExtendedData>
      <Point><coordinates>71.6351827825099,49.2036763663996</coordinates></Point>
  </Placemark>
</Folder>
</Document></kml>
