<?xml version="1.0" encoding="utf-8" ?>
<kml xmlns="http://www.opengis.net/kml/2.2">
<Document id="root_doc">
<Schema name="f8add63c" id="f8add63c">
	<SimpleField name="title" type="string"></SimpleField>
	<SimpleField name="type" type="string"></SimpleField>
	<SimpleField name="ext_sign" type="string"></SimpleField>
	<SimpleField name="class_lvl" type="string"></SimpleField>
	<SimpleField name="height_lvl" type="string"></SimpleField>
	<SimpleField name="height_ctrl" type="string"></SimpleField>
	<SimpleField name="ctrl_place" type="string"></SimpleField>
	<SimpleField name="mark_num" type="string"></SimpleField>
	<SimpleField name="center_type" type="string"></SimpleField>
	<SimpleField name="lvl_line" type="string"></SimpleField>
	<SimpleField name="guid" type="string"></SimpleField>
</Schema>
<Folder><name>f8add63c</name>
  <Placemark id="f8add63c.1">
	<name>936</name>
	<ExtendedData><SchemaData schemaUrl="#f8add63c">
		<SimpleData name="title">грунтовый репер</SimpleData>
		<SimpleData name="type">1</SimpleData>
		<SimpleData name="ext_sign">1099,757</SimpleData>
		<SimpleData name="ctrl_place">146 оп</SimpleData>
		<SimpleData name="mark_num">Линия №1; Сары-Озек - Пржевальск, 1 класс(2) Участок: грунт. реп. 155- грунт.реп. 682</SimpleData>
		<SimpleData name="center_type">Чунджа, с., в 28.0 км к юго-зап. от него, в 9 м к сев.-зап. от км.стб. 80/19, в 8 м к сев.-зап. от дороги с.Чунджа- с. Кеген</SimpleData>
		<SimpleData name="lvl_line">f8add63c-432e-4d27-83a3-6f7cd4584dbb</SimpleData>
	</SchemaData></ExtendedData>
      <Point><coordinates>79.2256006538429,43.354431345215</coordinates></Point>
  </Placemark>
</Folder>
</Document></kml>
