<?xml version="1.0" encoding="utf-8" ?>
<kml xmlns="http://www.opengis.net/kml/2.2">
<Document id="root_doc">
<Schema name="f8bd4bb9" id="f8bd4bb9">
	<SimpleField name="title" type="string"></SimpleField>
	<SimpleField name="type" type="string"></SimpleField>
	<SimpleField name="ext_sign" type="string"></SimpleField>
	<SimpleField name="class_lvl" type="string"></SimpleField>
	<SimpleField name="height_lvl" type="string"></SimpleField>
	<SimpleField name="height_ctrl" type="string"></SimpleField>
	<SimpleField name="ctrl_place" type="string"></SimpleField>
	<SimpleField name="mark_num" type="string"></SimpleField>
	<SimpleField name="center_type" type="string"></SimpleField>
	<SimpleField name="lvl_line" type="string"></SimpleField>
	<SimpleField name="guid" type="string"></SimpleField>
</Schema>
<Folder><name>f8bd4bb9</name>
  <Placemark id="f8bd4bb9.1">
	<name>2189</name>
	<description>грунтовый репер</description>
	<ExtendedData><SchemaData schemaUrl="#f8bd4bb9">
		<SimpleData name="type">1</SimpleData>
		<SimpleData name="ext_sign">266.112</SimpleData>
		<SimpleData name="ctrl_place">160 оп</SimpleData>
		<SimpleData name="center_type">Лозовое, с., в 2.7 км к сев.-вост. от него, в 0.8 км к сев.-вост. от с.Новочудное, в 88 м к юго-вост. от автодороги  с.Запорожье-с.Лозовое и км стб. №46/94, в 72 м к юго-вост. от линии связи, в 63 м к сев.-зап. от стб. ЛЭП № 167 10кВт.</SimpleData>
		<SimpleData name="lvl_line">f8bd4bb9-b06d-4c6f-93ea-174dd030ce71</SimpleData>
	</SchemaData></ExtendedData>
      <Point><coordinates>67.3263143808319,51.593558065823</coordinates></Point>
  </Placemark>
</Folder>
</Document></kml>
