<?xml version="1.0" encoding="utf-8" ?>
<kml xmlns="http://www.opengis.net/kml/2.2">
<Document id="root_doc">
<Schema name="f919b560" id="f919b560">
	<SimpleField name="type" type="string"></SimpleField>
	<SimpleField name="view" type="string"></SimpleField>
	<SimpleField name="leveling_order" type="string"></SimpleField>
	<SimpleField name="leveling_height" type="string"></SimpleField>
	<SimpleField name="control_height" type="string"></SimpleField>
	<SimpleField name="benchmark_number" type="string"></SimpleField>
	<SimpleField name="control_location" type="string"></SimpleField>
	<SimpleField name="benchmark_type" type="string"></SimpleField>
	<SimpleField name="leveling_line_section" type="string"></SimpleField>
	<SimpleField name="location_description" type="string"></SimpleField>
	<SimpleField name="status" type="string"></SimpleField>
	<SimpleField name="guid" type="string"></SimpleField>
	<SimpleField name="kml" type="string"></SimpleField>
	<SimpleField name="kml_link" type="string"></SimpleField>
</Schema>
<Folder><name>f919b560</name>
  <Placemark id="f919b560.1">
	<name>3884</name>
	<name>грунт,реп,</name>
	<ExtendedData><SchemaData schemaUrl="#f919b560">
		<SimpleData name="type">І</SimpleData>
		<SimpleData name="view">384.431</SimpleData>
		<SimpleData name="benchmark_number">160</SimpleData>
		<SimpleData name="control_location">Линия № 1: Тюемойнак - Жарык, І класс (1) Участок: грунт,реп, 5222 - грунт,реп, 1644</SimpleData>
		<SimpleData name="benchmark_type">Женыс, станция, в 6,0 км к сев-вост от нее, на 6 пк 221 км жел дор, в 82 м к сев-зап от жел дор,, в 19 м к югу от стб связи № 0912</SimpleData>
		<SimpleData name="location_description">f919b560-5b37-477d-af04-cf7d01b35770</SimpleData>
		<SimpleData name="status">data/stations/f919b560.kml</SimpleData>
		<SimpleData name="guid">&lt;a href='data/stations/f919b560.kml' target='_blank'&gt;Download KML&lt;/a&gt;</SimpleData>
	</SchemaData></ExtendedData>
      <Point><coordinates>70.0601828566201,48.4104601600755</coordinates></Point>
  </Placemark>
</Folder>
</Document></kml>
