<?xml version="1.0" encoding="utf-8" ?>
<kml xmlns="http://www.opengis.net/kml/2.2">
<Document id="root_doc">
<Schema name="f9312a65" id="f9312a65">
	<SimpleField name="title" type="string"></SimpleField>
	<SimpleField name="type" type="string"></SimpleField>
	<SimpleField name="ext_sign" type="string"></SimpleField>
	<SimpleField name="class_lvl" type="string"></SimpleField>
	<SimpleField name="height_lvl" type="string"></SimpleField>
	<SimpleField name="height_ctrl" type="string"></SimpleField>
	<SimpleField name="ctrl_place" type="string"></SimpleField>
	<SimpleField name="mark_num" type="string"></SimpleField>
	<SimpleField name="center_type" type="string"></SimpleField>
	<SimpleField name="lvl_line" type="string"></SimpleField>
	<SimpleField name="guid" type="string"></SimpleField>
</Schema>
<Folder><name>f9312a65</name>
  <Placemark id="f9312a65.1">
	<name>Закладка</name>
	<description>Грунтовый репер</description>
	<ExtendedData><SchemaData schemaUrl="#f9312a65">
		<SimpleData name="height_ctrl">А 1805</SimpleData>
		<SimpleData name="ctrl_place">162</SimpleData>
		<SimpleData name="lvl_line">f9312a65-2022-4060-85fa-6144ad654c0c</SimpleData>
	</SchemaData></ExtendedData>
      <Point><coordinates>82.7492633333333,50.0248633333333</coordinates></Point>
  </Placemark>
</Folder>
</Document></kml>
