<?xml version="1.0" encoding="utf-8" ?>
<kml xmlns="http://www.opengis.net/kml/2.2">
<Document id="root_doc">
<Schema name="f9f8ed69" id="f9f8ed69">
	<SimpleField name="type" type="string"></SimpleField>
	<SimpleField name="view" type="string"></SimpleField>
	<SimpleField name="leveling_order" type="string"></SimpleField>
	<SimpleField name="leveling_height" type="string"></SimpleField>
	<SimpleField name="control_height" type="string"></SimpleField>
	<SimpleField name="benchmark_number" type="string"></SimpleField>
	<SimpleField name="control_location" type="string"></SimpleField>
	<SimpleField name="benchmark_type" type="string"></SimpleField>
	<SimpleField name="leveling_line_section" type="string"></SimpleField>
	<SimpleField name="location_description" type="string"></SimpleField>
	<SimpleField name="status" type="string"></SimpleField>
	<SimpleField name="guid" type="string"></SimpleField>
	<SimpleField name="kml" type="string"></SimpleField>
	<SimpleField name="kml_link" type="string"></SimpleField>
</Schema>
<Folder><name>f9f8ed69</name>
  <Placemark id="f9f8ed69.1">
	<name>б/№(Кайга)</name>
	<description>фунд.реп.</description>
	<ExtendedData><SchemaData schemaUrl="#f9f8ed69">
		<SimpleData name="control_location">Линия 1 класса :Тактайконыр -Семиозёрное(фунд.реп.83 -фунд.реп.349)  Участок :фунд.реп.893 -пир.3 кл.Алгабас</SimpleData>
		<SimpleData name="benchmark_type">Кайгы,с.,в 3.1 км к югу от него,в 1.3 км к югу от проезжей плотины,в 38 м к вост.от грунт.дороги с.Бестамак -с.Кайгы</SimpleData>
		<SimpleData name="location_description">f9f8ed69-e602-4cd0-936f-4967d4bc41d2</SimpleData>
		<SimpleData name="status">data/stations/f9f8ed69.kml</SimpleData>
		<SimpleData name="guid">&lt;a href='data/stations/f9f8ed69.kml' target='_blank'&gt;Download KML&lt;/a&gt;</SimpleData>
	</SchemaData></ExtendedData>
      <Point><coordinates>64.7145847898842,50.9077615164899</coordinates></Point>
  </Placemark>
</Folder>
</Document></kml>
