<?xml version="1.0" encoding="utf-8" ?>
<kml xmlns="http://www.opengis.net/kml/2.2">
<Document id="root_doc">
<Schema name="faad1ec0" id="faad1ec0">
	<SimpleField name="title" type="string"></SimpleField>
	<SimpleField name="type" type="string"></SimpleField>
	<SimpleField name="ext_sign" type="string"></SimpleField>
	<SimpleField name="class_lvl" type="string"></SimpleField>
	<SimpleField name="height_lvl" type="string"></SimpleField>
	<SimpleField name="height_ctrl" type="string"></SimpleField>
	<SimpleField name="ctrl_place" type="string"></SimpleField>
	<SimpleField name="mark_num" type="string"></SimpleField>
	<SimpleField name="center_type" type="string"></SimpleField>
	<SimpleField name="lvl_line" type="string"></SimpleField>
	<SimpleField name="guid" type="string"></SimpleField>
</Schema>
<Folder><name>faad1ec0</name>
  <Placemark id="faad1ec0.1">
	<name>740</name>
	<ExtendedData><SchemaData schemaUrl="#faad1ec0">
		<SimpleData name="title">грунт.реп.</SimpleData>
		<SimpleData name="type">2</SimpleData>
		<SimpleData name="ext_sign">66.663</SimpleData>
		<SimpleData name="class_lvl">65.439</SimpleData>
		<SimpleData name="height_lvl">Контрольный репер  в фундаментной плите</SimpleData>
		<SimpleData name="ctrl_place">116</SimpleData>
		<SimpleData name="mark_num">Линия №4: Сагиз-Бегимбет, ІІ класс Участок: фунд.реп.145-пир.3кл.Саркумак</SimpleData>
		<SimpleData name="center_type">Сагиз, станц., в 5.5км к юго-вост.от нее, в 1.0км к сев.-зап.от кладб.Туктатамола, в 22м к югу от дороги станц.Сагиз-с.Копа</SimpleData>
		<SimpleData name="lvl_line">faad1ec0-6daa-4c8c-bc54-4f4dfd787f86</SimpleData>
	</SchemaData></ExtendedData>
      <Point><coordinates>54.9468571611318,48.2100999829343</coordinates></Point>
  </Placemark>
</Folder>
</Document></kml>
