<?xml version="1.0" encoding="utf-8" ?>
<kml xmlns="http://www.opengis.net/kml/2.2">
<Document id="root_doc">
<Schema name="fb86a47d" id="fb86a47d">
	<SimpleField name="title" type="string"></SimpleField>
	<SimpleField name="type" type="string"></SimpleField>
	<SimpleField name="ext_sign" type="string"></SimpleField>
	<SimpleField name="class_lvl" type="string"></SimpleField>
	<SimpleField name="height_lvl" type="string"></SimpleField>
	<SimpleField name="height_ctrl" type="string"></SimpleField>
	<SimpleField name="ctrl_place" type="string"></SimpleField>
	<SimpleField name="mark_num" type="string"></SimpleField>
	<SimpleField name="center_type" type="string"></SimpleField>
	<SimpleField name="lvl_line" type="string"></SimpleField>
	<SimpleField name="guid" type="string"></SimpleField>
</Schema>
<Folder><name>fb86a47d</name>
  <Placemark id="fb86a47d.1">
	<name>6631</name>
	<description>фундаментальный репер</description>
	<ExtendedData><SchemaData schemaUrl="#fb86a47d">
		<SimpleData name="type">1</SimpleData>
		<SimpleData name="ext_sign">265,956</SimpleData>
		<SimpleData name="class_lvl">264,994</SimpleData>
		<SimpleData name="height_lvl">в фундаментной плите</SimpleData>
		<SimpleData name="height_ctrl">№ 5756</SimpleData>
		<SimpleData name="ctrl_place">161 оп, знак</SimpleData>
		<SimpleData name="mark_num">Линия № 1: Туйемойнак - Торыустаган, І класс (1) Участок: грунт, реп, 2520 - грунт,реп, 5187</SimpleData>
		<SimpleData name="center_type">Коскудык, к,, в 6,4 км к сев,-зап, от него, в 2,3 км к сев,- зап, от к, Токсары, в 10 м к вост, от грунт, дороги с, Бетпакдала - с, Тасты</SimpleData>
		<SimpleData name="lvl_line">fb86a47d-2d43-4beb-8819-032ee8336e19</SimpleData>
	</SchemaData></ExtendedData>
      <Point><coordinates>69.6452947810875,45.44033076531</coordinates></Point>
  </Placemark>
</Folder>
</Document></kml>
