<?xml version="1.0" encoding="utf-8" ?>
<kml xmlns="http://www.opengis.net/kml/2.2">
<Document id="root_doc">
<Schema name="fbdd658e" id="fbdd658e">
	<SimpleField name="title" type="string"></SimpleField>
	<SimpleField name="type" type="string"></SimpleField>
	<SimpleField name="ext_sign" type="string"></SimpleField>
	<SimpleField name="class_lvl" type="string"></SimpleField>
	<SimpleField name="height_lvl" type="string"></SimpleField>
	<SimpleField name="height_ctrl" type="string"></SimpleField>
	<SimpleField name="ctrl_place" type="string"></SimpleField>
	<SimpleField name="mark_num" type="string"></SimpleField>
	<SimpleField name="center_type" type="string"></SimpleField>
	<SimpleField name="lvl_line" type="string"></SimpleField>
	<SimpleField name="guid" type="string"></SimpleField>
</Schema>
<Folder><name>fbdd658e</name>
  <Placemark id="fbdd658e.1">
	<name>9зак</name>
	<ExtendedData><SchemaData schemaUrl="#fbdd658e">
		<SimpleData name="lvl_line">fbdd658e-7c0c-4869-aca2-7c81d66eb9d7</SimpleData>
	</SchemaData></ExtendedData>
      <Point><coordinates>59.9564277339102,48.0555953057494</coordinates></Point>
  </Placemark>
</Folder>
</Document></kml>
