<?xml version="1.0" encoding="utf-8" ?>
<kml xmlns="http://www.opengis.net/kml/2.2">
<Document id="root_doc">
<Schema name="fbe810eb" id="fbe810eb">
	<SimpleField name="type" type="string"></SimpleField>
	<SimpleField name="view" type="string"></SimpleField>
	<SimpleField name="leveling_order" type="string"></SimpleField>
	<SimpleField name="leveling_height" type="string"></SimpleField>
	<SimpleField name="control_height" type="string"></SimpleField>
	<SimpleField name="benchmark_number" type="string"></SimpleField>
	<SimpleField name="control_location" type="string"></SimpleField>
	<SimpleField name="benchmark_type" type="string"></SimpleField>
	<SimpleField name="leveling_line_section" type="string"></SimpleField>
	<SimpleField name="location_description" type="string"></SimpleField>
	<SimpleField name="status" type="string"></SimpleField>
	<SimpleField name="guid" type="string"></SimpleField>
	<SimpleField name="kml" type="string"></SimpleField>
	<SimpleField name="kml_link" type="string"></SimpleField>
</Schema>
<Folder><name>fbe810eb</name>
  <Placemark id="fbe810eb.1">
	<name>15933</name>
	<name>грунт. реп.</name>
	<ExtendedData><SchemaData schemaUrl="#fbe810eb">
		<SimpleData name="type">2</SimpleData>
		<SimpleData name="view">464.520</SimpleData>
		<SimpleData name="leveling_order">462.993*</SimpleData>
		<SimpleData name="leveling_height">763</SimpleData>
		<SimpleData name="control_height">Контрольный репер в верхней плоскости монолита</SimpleData>
		<SimpleData name="benchmark_number">121</SimpleData>
		<SimpleData name="control_location">Линия № 3: Урджар  – Маканчи , II класс </SimpleData>
		<SimpleData name="benchmark_type">Маканчи, с., в 8.8 км к зап. от него, в 0.6 км к юго-зап. от пов. стб. ЛЭП, в 42 м к югу от полевой дороги</SimpleData>
		<SimpleData name="location_description">fbe810eb-ef92-40f9-a7f8-c778bc5a55a9</SimpleData>
		<SimpleData name="status">data/stations/fbe810eb.kml</SimpleData>
		<SimpleData name="guid">&lt;a href='data/stations/fbe810eb.kml' target='_blank'&gt;Download KML&lt;/a&gt;</SimpleData>
	</SchemaData></ExtendedData>
      <Point><coordinates>81.8941906730312,46.7986470661994</coordinates></Point>
  </Placemark>
</Folder>
</Document></kml>
