<?xml version="1.0" encoding="utf-8" ?>
<kml xmlns="http://www.opengis.net/kml/2.2">
<Document id="root_doc">
<Schema name="fc0a95a4" id="fc0a95a4">
	<SimpleField name="title" type="string"></SimpleField>
	<SimpleField name="type" type="string"></SimpleField>
	<SimpleField name="ext_sign" type="string"></SimpleField>
	<SimpleField name="class_lvl" type="string"></SimpleField>
	<SimpleField name="height_lvl" type="string"></SimpleField>
	<SimpleField name="height_ctrl" type="string"></SimpleField>
	<SimpleField name="ctrl_place" type="string"></SimpleField>
	<SimpleField name="mark_num" type="string"></SimpleField>
	<SimpleField name="center_type" type="string"></SimpleField>
	<SimpleField name="lvl_line" type="string"></SimpleField>
	<SimpleField name="guid" type="string"></SimpleField>
</Schema>
<Folder><name>fc0a95a4</name>
  <Placemark id="fc0a95a4.1">
	<name>49</name>
	<description>грунт.реп.</description>
	<ExtendedData><SchemaData schemaUrl="#fc0a95a4">
		<SimpleData name="type">II</SimpleData>
		<SimpleData name="ext_sign">405.060</SimpleData>
		<SimpleData name="mark_num">Линия №2: Талдысай-Жиделысай, II класс (2) Участок: грунт.реп.41-фунд.реп.0539</SimpleData>
		<SimpleData name="center_type">Подхоз.Сатпаев,в 5.0 км к юго-вост.от него,в 1.6 км к вост.от р.Жыланды,в 0.2 км к юго-зап.от перекрестка полевых дорог</SimpleData>
		<SimpleData name="lvl_line">fc0a95a4-a9d8-4800-92c3-6caf481d6d8a</SimpleData>
	</SchemaData></ExtendedData>
      <Point><coordinates>67.5771223531056,48.1299423507899</coordinates></Point>
  </Placemark>
</Folder>
</Document></kml>
