<?xml version="1.0" encoding="utf-8" ?>
<kml xmlns="http://www.opengis.net/kml/2.2">
<Document id="root_doc">
<Schema name="fc77234e" id="fc77234e">
	<SimpleField name="type" type="string"></SimpleField>
	<SimpleField name="view" type="string"></SimpleField>
	<SimpleField name="leveling_order" type="string"></SimpleField>
	<SimpleField name="leveling_height" type="string"></SimpleField>
	<SimpleField name="control_height" type="string"></SimpleField>
	<SimpleField name="benchmark_number" type="string"></SimpleField>
	<SimpleField name="control_location" type="string"></SimpleField>
	<SimpleField name="benchmark_type" type="string"></SimpleField>
	<SimpleField name="leveling_line_section" type="string"></SimpleField>
	<SimpleField name="location_description" type="string"></SimpleField>
	<SimpleField name="status" type="string"></SimpleField>
	<SimpleField name="guid" type="string"></SimpleField>
	<SimpleField name="kml" type="string"></SimpleField>
	<SimpleField name="kml_link" type="string"></SimpleField>
</Schema>
<Folder><name>fc77234e</name>
  <Placemark id="fc77234e.1">
	<name>5203</name>
	<description>грунт. реп.</description>
	<ExtendedData><SchemaData schemaUrl="#fc77234e">
		<SimpleData name="type">1</SimpleData>
		<SimpleData name="view">352.183</SimpleData>
		<SimpleData name="benchmark_number">160 оп.знак</SimpleData>
		<SimpleData name="control_location">Линия № 2:Сарышаган-Каратас, I класс                            Участок: фунд.реп. 507-грунт.реп. 4691</SimpleData>
		<SimpleData name="benchmark_type">Сарышаган, станц., в 25.3 км к сев.-вост. от неё, в 0.5 км к юго-зап. от км. стб. 45/115, в 37 м к юго-вост. от шоссе гор. Балхаш-с. Сарышаган</SimpleData>
		<SimpleData name="location_description">fc77234e-bbd0-4dfa-9059-2bc44d60b6b2</SimpleData>
		<SimpleData name="status">data/stations/fc77234e.kml</SimpleData>
		<SimpleData name="guid">&lt;a href='data/stations/fc77234e.kml' target='_blank'&gt;Download KML&lt;/a&gt;</SimpleData>
	</SchemaData></ExtendedData>
      <Point><coordinates>73.7788936407768,46.3160931148835</coordinates></Point>
  </Placemark>
</Folder>
</Document></kml>
