<?xml version="1.0" encoding="utf-8" ?>
<kml xmlns="http://www.opengis.net/kml/2.2">
<Document id="root_doc">
<Schema name="fc808227" id="fc808227">
	<SimpleField name="type" type="string"></SimpleField>
	<SimpleField name="view" type="string"></SimpleField>
	<SimpleField name="leveling_order" type="string"></SimpleField>
	<SimpleField name="leveling_height" type="string"></SimpleField>
	<SimpleField name="control_height" type="string"></SimpleField>
	<SimpleField name="benchmark_number" type="string"></SimpleField>
	<SimpleField name="control_location" type="string"></SimpleField>
	<SimpleField name="benchmark_type" type="string"></SimpleField>
	<SimpleField name="leveling_line_section" type="string"></SimpleField>
	<SimpleField name="location_description" type="string"></SimpleField>
	<SimpleField name="status" type="string"></SimpleField>
	<SimpleField name="guid" type="string"></SimpleField>
	<SimpleField name="kml" type="string"></SimpleField>
	<SimpleField name="kml_link" type="string"></SimpleField>
</Schema>
<Folder><name>fc808227</name>
  <Placemark id="fc808227.1">
	<name>183</name>
	<name>ск. реп.</name>
	<ExtendedData><SchemaData schemaUrl="#fc808227">
		<SimpleData name="type">2</SimpleData>
		<SimpleData name="view">584,251</SimpleData>
		<SimpleData name="benchmark_number">99</SimpleData>
		<SimpleData name="control_location">Линия №2: Жангиз- Тобе- Ак- Булак, II класс (2) Участок: грунт. реп. 511- фунд.реп. 274</SimpleData>
		<SimpleData name="benchmark_type">Шоркпатас, зим., в 0,7км к вост. от нее, в 0,3км к юго- зап. от зим. Акбастау, в 50м к югу от полевой дороги</SimpleData>
		<SimpleData name="leveling_line_section">утрачен</SimpleData>
		<SimpleData name="location_description">fc808227-4be9-4ecc-922e-9213e5f24187</SimpleData>
		<SimpleData name="status">data/stations/fc808227.kml</SimpleData>
		<SimpleData name="guid">&lt;a href='data/stations/fc808227.kml' target='_blank'&gt;Download KML&lt;/a&gt;</SimpleData>
	</SchemaData></ExtendedData>
      <Point><coordinates>80.1393615116911,49.1076135397165</coordinates></Point>
  </Placemark>
</Folder>
</Document></kml>
