<?xml version="1.0" encoding="utf-8" ?>
<kml xmlns="http://www.opengis.net/kml/2.2">
<Document id="root_doc">
<Schema name="fc94641e" id="fc94641e">
	<SimpleField name="type" type="string"></SimpleField>
	<SimpleField name="view" type="string"></SimpleField>
	<SimpleField name="leveling_order" type="string"></SimpleField>
	<SimpleField name="leveling_height" type="string"></SimpleField>
	<SimpleField name="control_height" type="string"></SimpleField>
	<SimpleField name="benchmark_number" type="string"></SimpleField>
	<SimpleField name="control_location" type="string"></SimpleField>
	<SimpleField name="benchmark_type" type="string"></SimpleField>
	<SimpleField name="leveling_line_section" type="string"></SimpleField>
	<SimpleField name="location_description" type="string"></SimpleField>
	<SimpleField name="status" type="string"></SimpleField>
	<SimpleField name="guid" type="string"></SimpleField>
	<SimpleField name="kml" type="string"></SimpleField>
	<SimpleField name="kml_link" type="string"></SimpleField>
</Schema>
<Folder><name>fc94641e</name>
  <Placemark id="fc94641e.1">
	<name>2319</name>
	<name>грунт.реп.</name>
	<ExtendedData><SchemaData schemaUrl="#fc94641e">
		<SimpleData name="type">2</SimpleData>
		<SimpleData name="view">223.709</SimpleData>
		<SimpleData name="control_location">Линия №1: Куракбулак-Чардара, ІІ класс  Участок: грунт.реп.1905-грунт.реп.869</SimpleData>
		<SimpleData name="benchmark_type">Кекильбай,к., в 1.4 км к юго-зап.от него,в 0.6 км к югу от колодца,у полевой дороги</SimpleData>
		<SimpleData name="location_description">fc94641e-3f74-4ff7-8d37-cbde11ff3fc4</SimpleData>
		<SimpleData name="status">data/stations/fc94641e.kml</SimpleData>
		<SimpleData name="guid">&lt;a href='data/stations/fc94641e.kml' target='_blank'&gt;Download KML&lt;/a&gt;</SimpleData>
	</SchemaData></ExtendedData>
      <Point><coordinates>67.6736886241805,41.8978309014737</coordinates></Point>
  </Placemark>
</Folder>
</Document></kml>
