<?xml version="1.0" encoding="utf-8" ?>
<kml xmlns="http://www.opengis.net/kml/2.2">
<Document id="root_doc">
<Schema name="fce45882" id="fce45882">
	<SimpleField name="title" type="string"></SimpleField>
	<SimpleField name="type" type="string"></SimpleField>
	<SimpleField name="ext_sign" type="string"></SimpleField>
	<SimpleField name="class_lvl" type="string"></SimpleField>
	<SimpleField name="height_lvl" type="string"></SimpleField>
	<SimpleField name="height_ctrl" type="string"></SimpleField>
	<SimpleField name="ctrl_place" type="string"></SimpleField>
	<SimpleField name="mark_num" type="string"></SimpleField>
	<SimpleField name="center_type" type="string"></SimpleField>
	<SimpleField name="lvl_line" type="string"></SimpleField>
	<SimpleField name="guid" type="string"></SimpleField>
</Schema>
<Folder><name>fce45882</name>
  <Placemark id="fce45882.1">
	<name>3034</name>
	<description>грунтовый репер</description>
	<ExtendedData><SchemaData schemaUrl="#fce45882">
		<SimpleData name="type">2</SimpleData>
		<SimpleData name="ext_sign">469.322</SimpleData>
		<SimpleData name="ctrl_place">160 оп. знак</SimpleData>
		<SimpleData name="mark_num">Линия: Шыганши-Бугаз-Белая-Школа-Боран-Улькен Нарын, II класс (2)
Участок: фунд.реп. 5491 – грунт.реп. 1486</SimpleData>
		<SimpleData name="center_type">Карабулак, с., в 0.3 км к сев.-вост. от него, в 0.1 км к юго-зап. от остановки, в 45 м к югу. от км стб. 80/1241  и  шоссе с .Кокпекты-гор. Зайсан</SimpleData>
		<SimpleData name="lvl_line">fce45882-6576-4c09-8fca-59db1d711737</SimpleData>
	</SchemaData></ExtendedData>
      <Point><coordinates>84.6983690205504,47.5515880437327</coordinates></Point>
  </Placemark>
</Folder>
</Document></kml>
