<?xml version="1.0" encoding="utf-8" ?>
<kml xmlns="http://www.opengis.net/kml/2.2">
<Document id="root_doc">
<Schema name="fd0f21c4" id="fd0f21c4">
	<SimpleField name="title" type="string"></SimpleField>
	<SimpleField name="type" type="string"></SimpleField>
	<SimpleField name="ext_sign" type="string"></SimpleField>
	<SimpleField name="class_lvl" type="string"></SimpleField>
	<SimpleField name="height_lvl" type="string"></SimpleField>
	<SimpleField name="height_ctrl" type="string"></SimpleField>
	<SimpleField name="ctrl_place" type="string"></SimpleField>
	<SimpleField name="mark_num" type="string"></SimpleField>
	<SimpleField name="center_type" type="string"></SimpleField>
	<SimpleField name="lvl_line" type="string"></SimpleField>
	<SimpleField name="guid" type="string"></SimpleField>
</Schema>
<Folder><name>fd0f21c4</name>
  <Placemark id="fd0f21c4.1">
	<name>12-459</name>
	<description>грунтовый репер</description>
	<ExtendedData><SchemaData schemaUrl="#fd0f21c4">
		<SimpleData name="type">1</SimpleData>
		<SimpleData name="ext_sign">13.552</SimpleData>
		<SimpleData name="ctrl_place">146</SimpleData>
		<SimpleData name="mark_num">Линия №1: Доссор-Бейнеу, 1 класс         Участок: грунт.реп.12-458-грунт.реп.12-235</SimpleData>
		<SimpleData name="center_type">Опорная 2-я, с., в 185.5 км к сев.от него, в 5.0 км к вост.от зимовки, в 1.5 км к сев.-зап.от мог.Казбек</SimpleData>
		<SimpleData name="lvl_line">fd0f21c4-3e28-4e51-95ac-276091095537</SimpleData>
	</SchemaData></ExtendedData>
      <Point><coordinates>54.2141951924942,46.2579060203256</coordinates></Point>
  </Placemark>
</Folder>
</Document></kml>
