<?xml version="1.0" encoding="utf-8" ?>
<kml xmlns="http://www.opengis.net/kml/2.2">
<Document id="root_doc">
<Schema name="fd35a19f" id="fd35a19f">
	<SimpleField name="title" type="string"></SimpleField>
	<SimpleField name="type" type="string"></SimpleField>
	<SimpleField name="ext_sign" type="string"></SimpleField>
	<SimpleField name="class_lvl" type="string"></SimpleField>
	<SimpleField name="height_lvl" type="string"></SimpleField>
	<SimpleField name="height_ctrl" type="string"></SimpleField>
	<SimpleField name="ctrl_place" type="string"></SimpleField>
	<SimpleField name="mark_num" type="string"></SimpleField>
	<SimpleField name="center_type" type="string"></SimpleField>
	<SimpleField name="lvl_line" type="string"></SimpleField>
	<SimpleField name="guid" type="string"></SimpleField>
</Schema>
<Folder><name>fd35a19f</name>
  <Placemark id="fd35a19f.1">
	<name>Закладка</name>
	<description>Грунтовыйрепер</description>
	<ExtendedData><SchemaData schemaUrl="#fd35a19f">
		<SimpleData name="height_ctrl">8133</SimpleData>
		<SimpleData name="ctrl_place">160</SimpleData>
		<SimpleData name="lvl_line">fd35a19f-aaaf-4715-b76d-29c1e8e75e35</SimpleData>
	</SchemaData></ExtendedData>
      <Point><coordinates>83.81221,48.579825</coordinates></Point>
  </Placemark>
</Folder>
</Document></kml>
