<?xml version="1.0" encoding="utf-8" ?>
<kml xmlns="http://www.opengis.net/kml/2.2">
<Document id="root_doc">
<Schema name="fd479fe3" id="fd479fe3">
	<SimpleField name="type" type="string"></SimpleField>
	<SimpleField name="view" type="string"></SimpleField>
	<SimpleField name="leveling_order" type="string"></SimpleField>
	<SimpleField name="leveling_height" type="string"></SimpleField>
	<SimpleField name="control_height" type="string"></SimpleField>
	<SimpleField name="benchmark_number" type="string"></SimpleField>
	<SimpleField name="control_location" type="string"></SimpleField>
	<SimpleField name="benchmark_type" type="string"></SimpleField>
	<SimpleField name="leveling_line_section" type="string"></SimpleField>
	<SimpleField name="location_description" type="string"></SimpleField>
	<SimpleField name="status" type="string"></SimpleField>
	<SimpleField name="guid" type="string"></SimpleField>
	<SimpleField name="kml" type="string"></SimpleField>
	<SimpleField name="kml_link" type="string"></SimpleField>
</Schema>
<Folder><name>fd479fe3</name>
  <Placemark id="fd479fe3.1">
	<name>65</name>
	<name>грунт.реп.</name>
	<ExtendedData><SchemaData schemaUrl="#fd479fe3">
		<SimpleData name="type">II</SimpleData>
		<SimpleData name="view">390.424</SimpleData>
		<SimpleData name="benchmark_number">121</SimpleData>
		<SimpleData name="control_location">Линия №2: Шортанды -Нецветаевка, II класса (3) Участок: фунд.реп.140 - грунт.реп.8925 Ход от фунд.реп. 140 до грунт.реп. XXXII. II класс (4)</SimpleData>
		<SimpleData name="benchmark_type">Советское,с., в 3.7 км к вост,от него, в 0.3 км к зап.от моста, в 40 м к сев.от шоссе с.Жолымбет-с.Советское</SimpleData>
		<SimpleData name="leveling_line_section">уничтожен</SimpleData>
		<SimpleData name="location_description">fd479fe3-c150-4b08-b658-736506c50e43</SimpleData>
		<SimpleData name="status">data/stations/fd479fe3.kml</SimpleData>
		<SimpleData name="guid">&lt;a href='data/stations/fd479fe3.kml' target='_blank'&gt;Download KML&lt;/a&gt;</SimpleData>
	</SchemaData></ExtendedData>
      <Point><coordinates>71.2912334705928,51.7745392420383</coordinates></Point>
  </Placemark>
</Folder>
</Document></kml>
