<?xml version="1.0" encoding="utf-8" ?>
<kml xmlns="http://www.opengis.net/kml/2.2">
<Document id="root_doc">
<Schema name="fd67c7f3" id="fd67c7f3">
	<SimpleField name="type" type="string"></SimpleField>
	<SimpleField name="view" type="string"></SimpleField>
	<SimpleField name="leveling_order" type="string"></SimpleField>
	<SimpleField name="leveling_height" type="string"></SimpleField>
	<SimpleField name="control_height" type="string"></SimpleField>
	<SimpleField name="benchmark_number" type="string"></SimpleField>
	<SimpleField name="control_location" type="string"></SimpleField>
	<SimpleField name="benchmark_type" type="string"></SimpleField>
	<SimpleField name="leveling_line_section" type="string"></SimpleField>
	<SimpleField name="location_description" type="string"></SimpleField>
	<SimpleField name="status" type="string"></SimpleField>
	<SimpleField name="guid" type="string"></SimpleField>
	<SimpleField name="kml" type="string"></SimpleField>
	<SimpleField name="kml_link" type="string"></SimpleField>
</Schema>
<Folder><name>fd67c7f3</name>
  <Placemark id="fd67c7f3.1">
	<name>79</name>
	<description>фунд.реп</description>
	<ExtendedData><SchemaData schemaUrl="#fd67c7f3">
		<SimpleData name="type">1</SimpleData>
		<SimpleData name="view">118,032</SimpleData>
		<SimpleData name="benchmark_number">104</SimpleData>
		<SimpleData name="control_location">Линия №1: Семиозерный - Наурзум (Аксуат), 1 класс (1,2). Участок: фунд.реп.1378 - грунт.реп. 4043</SimpleData>
		<SimpleData name="benchmark_type">Данабике, с., в 8,5 км к сев.-вост.от него, в 68 м к сев.-вост.от дороги с.Юльевака - с.Шолаксай, в 32 м к юго-вост.от тлф.стб. №180</SimpleData>
		<SimpleData name="location_description">fd67c7f3-91d6-4370-bf69-c640bff7a44d</SimpleData>
		<SimpleData name="status">data/stations/fd67c7f3.kml</SimpleData>
		<SimpleData name="guid">&lt;a href='data/stations/fd67c7f3.kml' target='_blank'&gt;Download KML&lt;/a&gt;</SimpleData>
	</SchemaData></ExtendedData>
      <Point><coordinates>64.4987996309847,51.8726594057854</coordinates></Point>
  </Placemark>
</Folder>
</Document></kml>
