<?xml version="1.0" encoding="utf-8" ?>
<kml xmlns="http://www.opengis.net/kml/2.2">
<Document id="root_doc">
<Schema name="fd7b7424" id="fd7b7424">
	<SimpleField name="type" type="string"></SimpleField>
	<SimpleField name="view" type="string"></SimpleField>
	<SimpleField name="leveling_order" type="string"></SimpleField>
	<SimpleField name="leveling_height" type="string"></SimpleField>
	<SimpleField name="control_height" type="string"></SimpleField>
	<SimpleField name="benchmark_number" type="string"></SimpleField>
	<SimpleField name="control_location" type="string"></SimpleField>
	<SimpleField name="benchmark_type" type="string"></SimpleField>
	<SimpleField name="leveling_line_section" type="string"></SimpleField>
	<SimpleField name="location_description" type="string"></SimpleField>
	<SimpleField name="status" type="string"></SimpleField>
	<SimpleField name="guid" type="string"></SimpleField>
	<SimpleField name="kml" type="string"></SimpleField>
	<SimpleField name="kml_link" type="string"></SimpleField>
</Schema>
<Folder><name>fd7b7424</name>
  <Placemark id="fd7b7424.1">
	<name>799</name>
	<name>грунт. реп.</name>
	<ExtendedData><SchemaData schemaUrl="#fd7b7424">
		<SimpleData name="type">1</SimpleData>
		<SimpleData name="view">152,028</SimpleData>
		<SimpleData name="leveling_order">150,546</SimpleData>
		<SimpleData name="control_height">репер № 126 в верхней плоскости монолита</SimpleData>
		<SimpleData name="benchmark_number">121</SimpleData>
		<SimpleData name="control_location">Линия №2: Семиярск-Семипалатинск, I класс (1) Участок: фунд.реп. 871-грунт. реп. 5391</SimpleData>
		<SimpleData name="benchmark_type">Грачи, отд. дв., в 3.8 км к юго-вост. от него, в 50 м к вост. от обрыва поймы р. Ертис, в 8 м к сев.-зап. от полевой дороги</SimpleData>
		<SimpleData name="location_description">fd7b7424-2fea-498b-a717-94ac68a603b9</SimpleData>
		<SimpleData name="status">data/stations/fd7b7424.kml</SimpleData>
		<SimpleData name="guid">&lt;a href='data/stations/fd7b7424.kml' target='_blank'&gt;Download KML&lt;/a&gt;</SimpleData>
	</SchemaData></ExtendedData>
      <Point><coordinates>78.620227145174,50.7786499266922</coordinates></Point>
  </Placemark>
</Folder>
</Document></kml>
