<?xml version="1.0" encoding="utf-8" ?>
<kml xmlns="http://www.opengis.net/kml/2.2">
<Document id="root_doc">
<Schema name="fdd2ece3" id="fdd2ece3">
	<SimpleField name="type" type="string"></SimpleField>
	<SimpleField name="view" type="string"></SimpleField>
	<SimpleField name="leveling_order" type="string"></SimpleField>
	<SimpleField name="leveling_height" type="string"></SimpleField>
	<SimpleField name="control_height" type="string"></SimpleField>
	<SimpleField name="benchmark_number" type="string"></SimpleField>
	<SimpleField name="control_location" type="string"></SimpleField>
	<SimpleField name="benchmark_type" type="string"></SimpleField>
	<SimpleField name="leveling_line_section" type="string"></SimpleField>
	<SimpleField name="location_description" type="string"></SimpleField>
	<SimpleField name="status" type="string"></SimpleField>
	<SimpleField name="guid" type="string"></SimpleField>
	<SimpleField name="kml" type="string"></SimpleField>
	<SimpleField name="kml_link" type="string"></SimpleField>
</Schema>
<Folder><name>fdd2ece3</name>
  <Placemark id="fdd2ece3.1">
	<name>7507</name>
	<name>грунт.реп.</name>
	<ExtendedData><SchemaData schemaUrl="#fdd2ece3">
		<SimpleData name="type">1</SimpleData>
		<SimpleData name="view">166.677</SimpleData>
		<SimpleData name="leveling_order">165.418</SimpleData>
		<SimpleData name="benchmark_number">104</SimpleData>
		<SimpleData name="control_location">Линия №1: Сагиз-Кандагач, І класс Участок: марка-2864-грнут.реп.1615</SimpleData>
		<SimpleData name="benchmark_type">Нугайты, станц., в 11.1км к сев.-вост.от нее, на 6пикете 207км, в 67м к сев.-зап.от жел.-дор.полотна</SimpleData>
		<SimpleData name="location_description">fdd2ece3-e0ed-49ee-b135-f1c14abdb96d</SimpleData>
		<SimpleData name="status">data/stations/fdd2ece3.kml</SimpleData>
		<SimpleData name="guid">&lt;a href='data/stations/fdd2ece3.kml' target='_blank'&gt;Download KML&lt;/a&gt;</SimpleData>
	</SchemaData></ExtendedData>
      <Point><coordinates>55.370043731524,48.4913199147444</coordinates></Point>
  </Placemark>
</Folder>
</Document></kml>
