<?xml version="1.0" encoding="utf-8" ?>
<kml xmlns="http://www.opengis.net/kml/2.2">
<Document id="root_doc">
<Schema name="fe4e40a1" id="fe4e40a1">
	<SimpleField name="type" type="string"></SimpleField>
	<SimpleField name="view" type="string"></SimpleField>
	<SimpleField name="leveling_order" type="string"></SimpleField>
	<SimpleField name="leveling_height" type="string"></SimpleField>
	<SimpleField name="control_height" type="string"></SimpleField>
	<SimpleField name="benchmark_number" type="string"></SimpleField>
	<SimpleField name="control_location" type="string"></SimpleField>
	<SimpleField name="benchmark_type" type="string"></SimpleField>
	<SimpleField name="leveling_line_section" type="string"></SimpleField>
	<SimpleField name="location_description" type="string"></SimpleField>
	<SimpleField name="status" type="string"></SimpleField>
	<SimpleField name="guid" type="string"></SimpleField>
	<SimpleField name="kml" type="string"></SimpleField>
	<SimpleField name="kml_link" type="string"></SimpleField>
</Schema>
<Folder><name>fe4e40a1</name>
  <Placemark id="fe4e40a1.1">
	<name>493</name>
	<name>грунт. реп.</name>
	<ExtendedData><SchemaData schemaUrl="#fe4e40a1">
		<SimpleData name="type">2</SimpleData>
		<SimpleData name="view">950.741</SimpleData>
		<SimpleData name="leveling_order">949.414</SimpleData>
		<SimpleData name="control_height">репер №882 в фундаментной плите</SimpleData>
		<SimpleData name="benchmark_number">116</SimpleData>
		<SimpleData name="control_location">Линия № 2:            Кош-Агач-Эмбек, 2 класс (1) Участок: грунд. реп. 764 -  грунд. реп. 637</SimpleData>
		<SimpleData name="benchmark_type">Эмбек, с., в 0.6 км к вост. от него, в 20 м к сев. от дороги с.Урыль - с. Катон-Карагай </SimpleData>
		<SimpleData name="location_description">fe4e40a1-1b96-463a-a3a3-ee3a72ccd5f3</SimpleData>
		<SimpleData name="status">data/stations/fe4e40a1.kml</SimpleData>
		<SimpleData name="guid">&lt;a href='data/stations/fe4e40a1.kml' target='_blank'&gt;Download KML&lt;/a&gt;</SimpleData>
	</SchemaData></ExtendedData>
      <Point><coordinates>86.1393321138252,49.1984732075444</coordinates></Point>
  </Placemark>
</Folder>
</Document></kml>
