<?xml version="1.0" encoding="utf-8" ?>
<kml xmlns="http://www.opengis.net/kml/2.2">
<Document id="root_doc">
<Schema name="fe5441f0" id="fe5441f0">
	<SimpleField name="title" type="string"></SimpleField>
	<SimpleField name="type" type="string"></SimpleField>
	<SimpleField name="ext_sign" type="string"></SimpleField>
	<SimpleField name="class_lvl" type="string"></SimpleField>
	<SimpleField name="height_lvl" type="string"></SimpleField>
	<SimpleField name="height_ctrl" type="string"></SimpleField>
	<SimpleField name="ctrl_place" type="string"></SimpleField>
	<SimpleField name="mark_num" type="string"></SimpleField>
	<SimpleField name="center_type" type="string"></SimpleField>
	<SimpleField name="lvl_line" type="string"></SimpleField>
	<SimpleField name="guid" type="string"></SimpleField>
</Schema>
<Folder><name>fe5441f0</name>
  <Placemark id="fe5441f0.1">
	<name>182</name>
	<ExtendedData><SchemaData schemaUrl="#fe5441f0">
		<SimpleData name="title">грунт.реп</SimpleData>
		<SimpleData name="type">2</SimpleData>
		<SimpleData name="ext_sign">345.842</SimpleData>
		<SimpleData name="class_lvl">344.694</SimpleData>
		<SimpleData name="height_lvl">репер в верхней плоскости монолита</SimpleData>
		<SimpleData name="ctrl_place">121оп</SimpleData>
		<SimpleData name="mark_num">Линия №1: Сузак-Коскызыл, II класс (1). Участок: грунт.реп. 8722-фунд.реп. IV</SimpleData>
		<SimpleData name="center_type">Тогускен,с., в 21.0 км к юго-зап.от него, в 2.6 км к юго-зап.от к.Бургенди , в 0.4 км к югу от шоссе с.Тогускен-с.Байкадам, в 25 м к сев.от полевой дороги</SimpleData>
		<SimpleData name="lvl_line">fe5441f0-4ea6-43ba-85c8-6c2a641332ea</SimpleData>
	</SchemaData></ExtendedData>
      <Point><coordinates>70.1971321894452,43.8022036098391</coordinates></Point>
  </Placemark>
</Folder>
</Document></kml>
