<?xml version="1.0" encoding="utf-8" ?>
<kml xmlns="http://www.opengis.net/kml/2.2">
<Document id="root_doc">
<Schema name="fe5571a2" id="fe5571a2">
	<SimpleField name="title" type="string"></SimpleField>
	<SimpleField name="type" type="string"></SimpleField>
	<SimpleField name="ext_sign" type="string"></SimpleField>
	<SimpleField name="class_lvl" type="string"></SimpleField>
	<SimpleField name="height_lvl" type="string"></SimpleField>
	<SimpleField name="height_ctrl" type="string"></SimpleField>
	<SimpleField name="ctrl_place" type="string"></SimpleField>
	<SimpleField name="mark_num" type="string"></SimpleField>
	<SimpleField name="center_type" type="string"></SimpleField>
	<SimpleField name="lvl_line" type="string"></SimpleField>
	<SimpleField name="guid" type="string"></SimpleField>
</Schema>
<Folder><name>fe5571a2</name>
  <Placemark id="fe5571a2.1">
	<name>38</name>
	<description>грунт.реп.</description>
	<ExtendedData><SchemaData schemaUrl="#fe5571a2">
		<SimpleData name="type">ІІ</SimpleData>
		<SimpleData name="ext_sign">493.896</SimpleData>
		<SimpleData name="mark_num">Линия № 2: Талдысай - Жиделисай, ІІ класс (1), Участок: фунд.реп. 131 - грунт.реп. 39</SimpleData>
		<SimpleData name="center_type">Бетбулак, с., в 5.0 км к сев от него, в 4.0 км к юго-вост от зим. Борлыкун, в 25 м к зап от дороги зим. Сарышал - с. Бетбулак</SimpleData>
		<SimpleData name="lvl_line">fe5571a2-2c39-468b-a525-087df21b0b47</SimpleData>
	</SchemaData></ExtendedData>
      <Point><coordinates>68.0477121419026,48.9192171353685</coordinates></Point>
  </Placemark>
</Folder>
</Document></kml>
