<?xml version="1.0" encoding="utf-8" ?>
<kml xmlns="http://www.opengis.net/kml/2.2">
<Document id="root_doc">
<Schema name="fed178da" id="fed178da">
	<SimpleField name="type" type="string"></SimpleField>
	<SimpleField name="view" type="string"></SimpleField>
	<SimpleField name="leveling_order" type="string"></SimpleField>
	<SimpleField name="leveling_height" type="string"></SimpleField>
	<SimpleField name="control_height" type="string"></SimpleField>
	<SimpleField name="benchmark_number" type="string"></SimpleField>
	<SimpleField name="control_location" type="string"></SimpleField>
	<SimpleField name="benchmark_type" type="string"></SimpleField>
	<SimpleField name="leveling_line_section" type="string"></SimpleField>
	<SimpleField name="location_description" type="string"></SimpleField>
	<SimpleField name="status" type="string"></SimpleField>
	<SimpleField name="guid" type="string"></SimpleField>
	<SimpleField name="kml" type="string"></SimpleField>
	<SimpleField name="kml_link" type="string"></SimpleField>
</Schema>
<Folder><name>fed178da</name>
  <Placemark id="fed178da.1">
	<name>2052</name>
	<name>грунт. реп.</name>
	<ExtendedData><SchemaData schemaUrl="#fed178da">
		<SimpleData name="type">2</SimpleData>
		<SimpleData name="view">639.471</SimpleData>
		<SimpleData name="benchmark_number">160 оп. знак</SimpleData>
		<SimpleData name="control_location">Линия № 2: грунт. реп. 4792 – фунд. реп. 7980, II класс </SimpleData>
		<SimpleData name="benchmark_type">Матая Баисова, с., в 6.5 км к юго-зап. от него, в 0.4 км к сев.-вост. от км. стб. 42/43 жел.дор., в 0.2 км к вост. от пк 3/4</SimpleData>
		<SimpleData name="location_description">fed178da-fd39-45f4-8400-cfea279c3dac</SimpleData>
		<SimpleData name="status">data/stations/fed178da.kml</SimpleData>
		<SimpleData name="guid">&lt;a href='data/stations/fed178da.kml' target='_blank'&gt;Download KML&lt;/a&gt;</SimpleData>
	</SchemaData></ExtendedData>
      <Point><coordinates>78.329427497854,44.8707246544691</coordinates></Point>
  </Placemark>
</Folder>
</Document></kml>
