<?xml version="1.0" encoding="utf-8" ?>
<kml xmlns="http://www.opengis.net/kml/2.2">
<Document id="root_doc">
<Schema name="ff3d9ddd" id="ff3d9ddd">
	<SimpleField name="type" type="string"></SimpleField>
	<SimpleField name="view" type="string"></SimpleField>
	<SimpleField name="leveling_order" type="string"></SimpleField>
	<SimpleField name="leveling_height" type="string"></SimpleField>
	<SimpleField name="control_height" type="string"></SimpleField>
	<SimpleField name="benchmark_number" type="string"></SimpleField>
	<SimpleField name="control_location" type="string"></SimpleField>
	<SimpleField name="benchmark_type" type="string"></SimpleField>
	<SimpleField name="leveling_line_section" type="string"></SimpleField>
	<SimpleField name="location_description" type="string"></SimpleField>
	<SimpleField name="status" type="string"></SimpleField>
	<SimpleField name="guid" type="string"></SimpleField>
	<SimpleField name="kml" type="string"></SimpleField>
	<SimpleField name="kml_link" type="string"></SimpleField>
</Schema>
<Folder><name>ff3d9ddd</name>
  <Placemark id="ff3d9ddd.1">
	<name>2719</name>
	<name>грунт. реп.</name>
	<ExtendedData><SchemaData schemaUrl="#ff3d9ddd">
		<SimpleData name="type">2</SimpleData>
		<SimpleData name="view">693.101</SimpleData>
		<SimpleData name="benchmark_number">160 оп. знак. </SimpleData>
		<SimpleData name="control_location">Линия № 1: Жаркент (Панфилов) – Коргас, Участок: грунт. реп.  2863 – фунд.. реп. 2024</SimpleData>
		<SimpleData name="benchmark_type">Пиджим, с., в 2.0 км к юго-зап. от него, в 17 м к сев.-вост. от стб. ЛЭП, в 10 м к юго-вост. от края разрыва лесополосы</SimpleData>
		<SimpleData name="location_description">ff3d9ddd-1739-431c-bda4-daf9bfdca78c</SimpleData>
		<SimpleData name="status">data/stations/ff3d9ddd.kml</SimpleData>
		<SimpleData name="guid">&lt;a href='data/stations/ff3d9ddd.kml' target='_blank'&gt;Download KML&lt;/a&gt;</SimpleData>
	</SchemaData></ExtendedData>
      <Point><coordinates>80.1826662835743,44.1953299182485</coordinates></Point>
  </Placemark>
</Folder>
</Document></kml>
