<?xml version="1.0" encoding="utf-8" ?>
<kml xmlns="http://www.opengis.net/kml/2.2">
<Document id="root_doc">
<Schema name="ff5b50d1" id="ff5b50d1">
	<SimpleField name="title" type="string"></SimpleField>
	<SimpleField name="type" type="string"></SimpleField>
	<SimpleField name="ext_sign" type="string"></SimpleField>
	<SimpleField name="class_lvl" type="string"></SimpleField>
	<SimpleField name="height_lvl" type="string"></SimpleField>
	<SimpleField name="height_ctrl" type="string"></SimpleField>
	<SimpleField name="ctrl_place" type="string"></SimpleField>
	<SimpleField name="mark_num" type="string"></SimpleField>
	<SimpleField name="center_type" type="string"></SimpleField>
	<SimpleField name="lvl_line" type="string"></SimpleField>
	<SimpleField name="guid" type="string"></SimpleField>
</Schema>
<Folder><name>ff5b50d1</name>
  <Placemark id="ff5b50d1.1">
	<name>6101</name>
	<description>Фундаментальный </description>
	<ExtendedData><SchemaData schemaUrl="#ff5b50d1">
		<SimpleData name="lvl_line">ff5b50d1-140c-4091-a513-6c4d0b1ae807</SimpleData>
	</SchemaData></ExtendedData>
      <Point><coordinates>75.32298,43.8795716666667</coordinates></Point>
  </Placemark>
</Folder>
</Document></kml>
