<?xml version="1.0" encoding="utf-8" ?>
<kml xmlns="http://www.opengis.net/kml/2.2">
<Document id="root_doc">
<Schema name="ffb8e56b" id="ffb8e56b">
	<SimpleField name="title" type="string"></SimpleField>
	<SimpleField name="type" type="string"></SimpleField>
	<SimpleField name="ext_sign" type="string"></SimpleField>
	<SimpleField name="class_lvl" type="string"></SimpleField>
	<SimpleField name="height_lvl" type="string"></SimpleField>
	<SimpleField name="height_ctrl" type="string"></SimpleField>
	<SimpleField name="ctrl_place" type="string"></SimpleField>
	<SimpleField name="mark_num" type="string"></SimpleField>
	<SimpleField name="center_type" type="string"></SimpleField>
	<SimpleField name="lvl_line" type="string"></SimpleField>
	<SimpleField name="guid" type="string"></SimpleField>
</Schema>
<Folder><name>ffb8e56b</name>
  <Placemark id="ffb8e56b.1">
	<name>2886</name>
	<description>грунтовый репер</description>
	<ExtendedData><SchemaData schemaUrl="#ffb8e56b">
		<SimpleData name="type">1</SimpleData>
		<SimpleData name="ext_sign">830.533</SimpleData>
		<SimpleData name="ctrl_place">Б</SimpleData>
		<SimpleData name="center_type">Актайлак, зим., в 15.5 км к юго-вост. от нее, в 1.3 км к сев. от г.Актастар, в 10 метрах от полевой дороги.</SimpleData>
		<SimpleData name="lvl_line">ffb8e56b-9761-48a3-a0e7-c5343b9906fc</SimpleData>
	</SchemaData></ExtendedData>
      <Point><coordinates>77.1823674301566,48.667517209499</coordinates></Point>
  </Placemark>
</Folder>
</Document></kml>
