<?xml version="1.0" encoding="UTF-8"?>
<kml xmlns="http://www.opengis.net/kml/2.2">
  <Document id="root_doc">
    <Schema id="ffca3265" name="ffca3265">
      <SimpleField name="title" type="string"/>
      <SimpleField name="type" type="string"/>
      <SimpleField name="ext_sign" type="string"/>
      <SimpleField name="class_lvl" type="string"/>
      <SimpleField name="height_lvl" type="string"/>
      <SimpleField name="height_ctrl" type="string"/>
      <SimpleField name="ctrl_place" type="string"/>
      <SimpleField name="mark_num" type="string"/>
      <SimpleField name="center_type" type="string"/>
      <SimpleField name="lvl_line" type="string"/>
      <SimpleField name="guid" type="string"/>
    </Schema>
    <Schema id="ffca3265.schema">
      <SimpleField name="title" type="string"/>
      <SimpleField name="type" type="string"/>
      <SimpleField name="ext_sign" type="string"/>
      <SimpleField name="class_lvl" type="string"/>
      <SimpleField name="height_lvl" type="string"/>
      <SimpleField name="height_ctrl" type="string"/>
      <SimpleField name="ctrl_place" type="string"/>
      <SimpleField name="mark_num" type="string"/>
      <SimpleField name="center_type" type="string"/>
      <SimpleField name="lvl_line" type="string"/>
      <SimpleField name="guid" type="string"/>
    </Schema>
    <Document id="ffca3265">
      <name>ffca3265</name>
      <Placemark id="ffca3265.1">
        <description>Сасыккудык. к., в 2.0 км к вост, от него, в 1.5 км к сев.- зап. от г. Тортколь. в 20 м к югу от развилки полевой дороги</description>
        <ExtendedData>
          <SchemaData schemaUrl="#ffca3265.schema">
            <SimpleData name="title">2981</SimpleData>
            <SimpleData name="type">грунтовый репер</SimpleData>
            <SimpleData name="ext_sign">грунтовый репер</SimpleData>
            <SimpleData name="class_lvl">2</SimpleData>
            <SimpleData name="height_lvl">334,273</SimpleData>
            <SimpleData name="center_type">160 оп. знак</SimpleData>
            <SimpleData name="lvl_line">Линия № 2: Древний Курган - Сасыккудык. 2 класс (1,2) Участок: пир. 3 кл. Жамансу - фунд. реп. 3245</SimpleData>
            <SimpleData name="guid">ffca3265-110a-49db-af99-41a6255517d1</SimpleData>
          </SchemaData>
        </ExtendedData>
        <Point>
          <coordinates>
            69.2903963025793,47.3558884722414,0
          </coordinates>
        </Point>
      </Placemark>
    </Document>
  </Document>
</kml>
